<?xml version="1.0" encoding="UTF-8"?><kml xmlns="http://www.opengis.net/kml/2.2"><Document><name>Kitanagase Mirai Fureai Sogokoen parkrun</name><description/><Style id="icon-1899-0F9D58-nodesc-normal"><IconStyle><color>ff589d0f</color><scale>1</scale><Icon><href>https://www.gstatic.com/mapspro/images/stock/503-wht-blank_maps.png</href></Icon><hotSpot x="32" xunits="pixels" y="64" yunits="insetPixels"/></IconStyle><LabelStyle><scale>0</scale></LabelStyle><BalloonStyle><text><![CDATA[<h3>$[name]</h3>]]></text></BalloonStyle></Style><Style id="icon-1899-0F9D58-nodesc-highlight"><IconStyle><color>ff589d0f</color><scale>1</scale><Icon><href>https://www.gstatic.com/mapspro/images/stock/503-wht-blank_maps.png</href></Icon><hotSpot x="32" xunits="pixels" y="64" yunits="insetPixels"/></IconStyle><LabelStyle><scale>1</scale></LabelStyle><BalloonStyle><text><![CDATA[<h3>$[name]</h3>]]></text></BalloonStyle></Style><StyleMap id="icon-1899-0F9D58-nodesc"><Pair><key>normal</key><styleUrl>#icon-1899-0F9D58-nodesc-normal</styleUrl></Pair><Pair><key>highlight</key><styleUrl>#icon-1899-0F9D58-nodesc-highlight</styleUrl></Pair></StyleMap><Style id="icon-1899-E65100-nodesc-normal"><IconStyle><color>ff0051e6</color><scale>1</scale><Icon><href>https://www.gstatic.com/mapspro/images/stock/503-wht-blank_maps.png</href></Icon><hotSpot x="32" xunits="pixels" y="64" yunits="insetPixels"/></IconStyle><LabelStyle><scale>0</scale></LabelStyle><BalloonStyle><text><![CDATA[<h3>$[name]</h3>]]></text></BalloonStyle></Style><Style id="icon-1899-E65100-nodesc-highlight"><IconStyle><color>ff0051e6</color><scale>1</scale><Icon><href>https://www.gstatic.com/mapspro/images/stock/503-wht-blank_maps.png</href></Icon><hotSpot x="32" xunits="pixels" y="64" yunits="insetPixels"/></IconStyle><LabelStyle><scale>1</scale></LabelStyle><BalloonStyle><text><![CDATA[<h3>$[name]</h3>]]></text></BalloonStyle></Style><StyleMap id="icon-1899-E65100-nodesc"><Pair><key>normal</key><styleUrl>#icon-1899-E65100-nodesc-normal</styleUrl></Pair><Pair><key>highlight</key><styleUrl>#icon-1899-E65100-nodesc-highlight</styleUrl></Pair></StyleMap><Style id="line-0288D1-5650-nodesc-normal"><LineStyle><color>ffd18802</color><width>5.65</width></LineStyle><BalloonStyle><text><![CDATA[<h3>$[name]</h3>]]></text></BalloonStyle></Style><Style id="line-0288D1-5650-nodesc-highlight"><LineStyle><color>ffd18802</color><width>8.475</width></LineStyle><BalloonStyle><text><![CDATA[<h3>$[name]</h3>]]></text></BalloonStyle></Style><StyleMap id="line-0288D1-5650-nodesc"><Pair><key>normal</key><styleUrl>#line-0288D1-5650-nodesc-normal</styleUrl></Pair><Pair><key>highlight</key><styleUrl>#line-0288D1-5650-nodesc-highlight</styleUrl></Pair></StyleMap><Folder><name>Untitled layer</name><Placemark><name>Course</name><styleUrl>#line-0288D1-5650-nodesc</styleUrl><LineString><tessellate>1</tessellate><coordinates>            133.8900206,34.6526593,0            133.88931,34.652701,0            133.888895,34.652873,0            133.888672,34.652908,0            133.888545,34.652996,0            133.888493,34.653212,0            133.888561,34.653511,0            133.889034,34.65359,0            133.889372,34.653568,0            133.889605,34.6535,0            133.88976,34.65343,0            133.889637,34.653258,0            133.8897314,34.6528438,0            133.890098,34.652618,0            133.8908794,34.6526408,0            133.891705,34.65268,0            133.891855,34.652558,0            133.892073,34.652589,0            133.892239,34.652585,0            133.892329,34.652537,0            133.892472,34.652414,0            133.8926252,34.652384,0            133.8929608,34.6524422,0            133.8933095,34.6527997,0            133.8935213,34.6529361,0            133.893894,34.653046,0            133.894167,34.653154,0            133.89413,34.654853,0            133.893772,34.65495,0            133.893322,34.654875,0            133.893073,34.654729,0            133.893045,34.654523,0            133.893086,34.654392,0            133.892996,34.654216,0            133.892781,34.654297,0            133.8924887,34.6543353,0            133.892156,34.654263,0            133.891925,34.654105,0            133.891783,34.653898,0            133.8915446,34.6538234,0            133.89175,34.653686,0            133.891781,34.653235,0            133.89177,34.652723,0            133.891705,34.65268,0            133.89177,34.652723,0            133.891781,34.653235,0            133.89175,34.653686,0            133.8915446,34.6538234,0            133.89081,34.65386,0            133.89059,34.653775,0            133.8904932,34.653594,0            133.890393,34.653496,0            133.889817,34.653445,0          </coordinates></LineString></Placemark><Placemark><name>Finish</name><styleUrl>#icon-1899-E65100-nodesc</styleUrl><Point><coordinates>            133.891781,34.653235,0          </coordinates></Point></Placemark><Placemark><name>Start</name><styleUrl>#icon-1899-0F9D58-nodesc</styleUrl><Point><coordinates>            133.889716,34.652918,0          </coordinates></Point></Placemark></Folder></Document></kml>