<?xml version="1.0" encoding="UTF-8"?><kml xmlns="http://www.opengis.net/kml/2.2"><Document><name>Meijo koen parkrun Regular Course (from Feb 2024)</name><description/><Style id="icon-1899-FFEA00-nodesc-normal"><IconStyle><color>ff00eaff</color><scale>1</scale><Icon><href>https://www.gstatic.com/mapspro/images/stock/503-wht-blank_maps.png</href></Icon><hotSpot x="32" xunits="pixels" y="64" yunits="insetPixels"/></IconStyle><LabelStyle><scale>0</scale></LabelStyle><BalloonStyle><text><![CDATA[<h3>$[name]</h3>]]></text></BalloonStyle></Style><Style id="icon-1899-FFEA00-nodesc-highlight"><IconStyle><color>ff00eaff</color><scale>1</scale><Icon><href>https://www.gstatic.com/mapspro/images/stock/503-wht-blank_maps.png</href></Icon><hotSpot x="32" xunits="pixels" y="64" yunits="insetPixels"/></IconStyle><LabelStyle><scale>1</scale></LabelStyle><BalloonStyle><text><![CDATA[<h3>$[name]</h3>]]></text></BalloonStyle></Style><StyleMap id="icon-1899-FFEA00-nodesc"><Pair><key>normal</key><styleUrl>#icon-1899-FFEA00-nodesc-normal</styleUrl></Pair><Pair><key>highlight</key><styleUrl>#icon-1899-FFEA00-nodesc-highlight</styleUrl></Pair></StyleMap><Style id="line-0288D1-5000-nodesc-normal"><LineStyle><color>ffd18802</color><width>5</width></LineStyle><BalloonStyle><text><![CDATA[<h3>$[name]</h3>]]></text></BalloonStyle></Style><Style id="line-0288D1-5000-nodesc-highlight"><LineStyle><color>ffd18802</color><width>7.5</width></LineStyle><BalloonStyle><text><![CDATA[<h3>$[name]</h3>]]></text></BalloonStyle></Style><StyleMap id="line-0288D1-5000-nodesc"><Pair><key>normal</key><styleUrl>#line-0288D1-5000-nodesc-normal</styleUrl></Pair><Pair><key>highlight</key><styleUrl>#line-0288D1-5000-nodesc-highlight</styleUrl></Pair></StyleMap><Folder><name>無題のレイヤ</name><Placemark><name>Course</name><styleUrl>#line-0288D1-5000-nodesc</styleUrl><LineString><tessellate>1</tessellate><coordinates>            136.903578,35.187455,0            136.903677,35.187385,0            136.903733,35.187453,0            136.903792,35.187574,0            136.903803,35.187692,0            136.903784,35.187797,0            136.903749,35.187865,0            136.903626,35.187946,0            136.903457,35.188067,0            136.903264,35.188192,0            136.903082,35.188282,0            136.903017,35.188301,0            136.902872,35.188306,0            136.902786,35.188321,0            136.902698,35.188345,0            136.902575,35.188424,0            136.902508,35.188446,0            136.902368,35.188452,0            136.902266,35.188428,0            136.902196,35.188389,0            136.902124,35.188334,0            136.902017,35.188264,0            136.901904,35.188194,0            136.901789,35.188152,0            136.901633,35.188115,0            136.901528,35.188097,0            136.901429,35.188095,0            136.90126,35.18811,0            136.901105,35.188176,0            136.900922,35.188284,0            136.900767,35.188371,0            136.900689,35.188417,0            136.900595,35.188556,0            136.900544,35.188643,0            136.90048,35.188786,0            136.900461,35.188922,0            136.90049,35.189106,0            136.900539,35.18925,0            136.900625,35.189373,0            136.900745,35.189492,0            136.900823,35.189568,0            136.900858,35.189623,0            136.900858,35.189698,0            136.900842,35.189772,0            136.900786,35.189906,0            136.900686,35.190002,0            136.90059,35.190066,0            136.90049,35.190125,0            136.900437,35.190147,0            136.900386,35.190149,0            136.900279,35.190083,0            136.900134,35.189994,0            136.9,35.189895,0            136.899863,35.189785,0            136.899772,35.1897,0            136.899624,35.189575,0            136.899536,35.189478,0            136.899439,35.18934,0            136.899364,35.189193,0            136.899324,35.189066,0            136.899308,35.188935,0            136.899316,35.188812,0            136.899318,35.188694,0            136.899345,35.188479,0            136.899402,35.188334,0            136.899501,35.188174,0            136.899608,35.188089,0            136.89974,35.18801,0            136.899922,35.187946,0            136.900088,35.187894,0            136.900246,35.187858,0            136.900448,35.187826,0            136.900681,35.187758,0            136.901014,35.187666,0            136.90137,35.187582,0            136.901773,35.187492,0            136.902089,35.187409,0            136.902325,35.187346,0            136.902685,35.187247,0            136.902985,35.187192,0            136.903253,35.187203,0            136.903417,35.187229,0            136.903546,35.187278,0            136.903623,35.187346,0            136.903677,35.187385,0          </coordinates></LineString></Placemark><Placemark><name>Start/Finish</name><styleUrl>#icon-1899-FFEA00-nodesc</styleUrl><Point><coordinates>            136.903578,35.187455,0          </coordinates></Point></Placemark></Folder></Document></kml>