<?xml version="1.0" encoding="UTF-8"?><kml xmlns="http://www.opengis.net/kml/2.2"><Document><name>Ohno Gokurakuji Koen parkrun</name><description/><Style id="icon-1899-FFD600-nodesc-normal"><IconStyle><color>ff00d6ff</color><scale>1</scale><Icon><href>https://www.gstatic.com/mapspro/images/stock/503-wht-blank_maps.png</href></Icon><hotSpot x="32" xunits="pixels" y="64" yunits="insetPixels"/></IconStyle><LabelStyle><scale>0</scale></LabelStyle><BalloonStyle><text><![CDATA[<h3>$[name]</h3>]]></text></BalloonStyle></Style><Style id="icon-1899-FFD600-nodesc-highlight"><IconStyle><color>ff00d6ff</color><scale>1</scale><Icon><href>https://www.gstatic.com/mapspro/images/stock/503-wht-blank_maps.png</href></Icon><hotSpot x="32" xunits="pixels" y="64" yunits="insetPixels"/></IconStyle><LabelStyle><scale>1</scale></LabelStyle><BalloonStyle><text><![CDATA[<h3>$[name]</h3>]]></text></BalloonStyle></Style><StyleMap id="icon-1899-FFD600-nodesc"><Pair><key>normal</key><styleUrl>#icon-1899-FFD600-nodesc-normal</styleUrl></Pair><Pair><key>highlight</key><styleUrl>#icon-1899-FFD600-nodesc-highlight</styleUrl></Pair></StyleMap><Style id="line-0288D1-4000-nodesc-normal"><LineStyle><color>ffd18802</color><width>4</width></LineStyle><BalloonStyle><text><![CDATA[<h3>$[name]</h3>]]></text></BalloonStyle></Style><Style id="line-0288D1-4000-nodesc-highlight"><LineStyle><color>ffd18802</color><width>6</width></LineStyle><BalloonStyle><text><![CDATA[<h3>$[name]</h3>]]></text></BalloonStyle></Style><StyleMap id="line-0288D1-4000-nodesc"><Pair><key>normal</key><styleUrl>#line-0288D1-4000-nodesc-normal</styleUrl></Pair><Pair><key>highlight</key><styleUrl>#line-0288D1-4000-nodesc-highlight</styleUrl></Pair></StyleMap><Folder><name>コースマップ</name><Placemark><name>Start / Finish</name><styleUrl>#icon-1899-FFD600-nodesc</styleUrl><Point><coordinates>            136.823776,35.356155,0          </coordinates></Point></Placemark><Placemark><name>Untitled layer</name><styleUrl>#line-0288D1-4000-nodesc</styleUrl><LineString><tessellate>1</tessellate><coordinates>            136.823776,35.356155,0            136.82377,35.35641,0            136.8231,35.356644,0            136.822646,35.356773,0            136.822236,35.356799,0            136.821844,35.356895,0            136.821509,35.35697,0            136.821171,35.356952,0            136.821036,35.356961,0            136.82092,35.356985,0            136.82077,35.35704,0            136.820537,35.357136,0            136.82043,35.35716,0            136.820341,35.357173,0            136.820196,35.35718,0            136.820186,35.356994,0            136.820132,35.356762,0            136.820084,35.356609,0            136.820035,35.35651,0            136.820035,35.356436,0            136.820078,35.356283,0            136.820194,35.356097,0            136.820207,35.355994,0            136.820212,35.355806,0            136.820389,35.355821,0            136.820609,35.35586,0            136.820708,35.355876,0            136.820872,35.355878,0            136.821049,35.355863,0            136.821484,35.355817,0            136.821599,35.355817,0            136.821741,35.355843,0            136.822004,35.355898,0            136.8222,35.355913,0            136.822417,35.355909,0            136.822736,35.355946,0            136.82287,35.35593,0            136.823246,35.355867,0            136.823423,35.355876,0            136.823788,35.355891,0            136.823919,35.355882,0            136.824209,35.355863,0            136.824335,35.35588,0            136.824539,35.355917,0            136.824662,35.355937,0            136.824887,35.35593,0            136.825038,35.355913,0            136.825354,35.355872,0            136.825714,35.355823,0            136.825872,35.355839,0            136.826044,35.35589,0            136.826168,35.355908,0            136.826286,35.355908,0            136.826447,35.355871,0            136.826576,35.355729,0            136.826688,35.355617,0            136.826806,35.355641,0            136.826892,35.355641,0            136.827109,35.355602,0            136.827217,35.355593,0            136.827294,35.355602,0            136.827415,35.35565,0            136.827544,35.355678,0            136.827624,35.355678,0            136.827892,35.355604,0            136.827975,35.355606,0            136.827978,35.355635,0            136.827927,35.355681,0            136.827683,35.355801,0            136.82753,35.355886,0            136.827356,35.35591,0            136.827184,35.355904,0            136.827066,35.355902,0            136.826959,35.355899,0            136.82687,35.355897,0            136.826758,35.355893,0            136.826658,35.355878,0            136.826546,35.355873,0            136.826454,35.355888,0            136.826283,35.355926,0            136.826139,35.355924,0            136.825988,35.355897,0            136.825849,35.355854,0            136.825699,35.35584,0            136.825508,35.355869,0            136.825181,35.355912,0            136.825015,35.355939,0            136.824856,35.355954,0            136.824583,35.355941,0            136.824374,35.355906,0            136.824186,35.355886,0            136.823974,35.355902,0            136.823773,35.355915,0            136.823776,35.356155,0          </coordinates></LineString></Placemark></Folder></Document></kml>