<?xml version="1.0" encoding="UTF-8"?><kml xmlns="http://www.opengis.net/kml/2.2"><Document><name>Oiso undokoen parkrun</name><description/><Style id="icon-1899-FFEA00-nodesc-normal"><IconStyle><color>ff00eaff</color><scale>1</scale><Icon><href>https://www.gstatic.com/mapspro/images/stock/503-wht-blank_maps.png</href></Icon><hotSpot x="32" xunits="pixels" y="64" yunits="insetPixels"/></IconStyle><LabelStyle><scale>0</scale></LabelStyle><BalloonStyle><text><![CDATA[<h3>$[name]</h3>]]></text></BalloonStyle></Style><Style id="icon-1899-FFEA00-nodesc-highlight"><IconStyle><color>ff00eaff</color><scale>1</scale><Icon><href>https://www.gstatic.com/mapspro/images/stock/503-wht-blank_maps.png</href></Icon><hotSpot x="32" xunits="pixels" y="64" yunits="insetPixels"/></IconStyle><LabelStyle><scale>1</scale></LabelStyle><BalloonStyle><text><![CDATA[<h3>$[name]</h3>]]></text></BalloonStyle></Style><StyleMap id="icon-1899-FFEA00-nodesc"><Pair><key>normal</key><styleUrl>#icon-1899-FFEA00-nodesc-normal</styleUrl></Pair><Pair><key>highlight</key><styleUrl>#icon-1899-FFEA00-nodesc-highlight</styleUrl></Pair></StyleMap><Style id="line-0288D1-5263-nodesc-normal"><LineStyle><color>ffd18802</color><width>5.263</width></LineStyle><BalloonStyle><text><![CDATA[<h3>$[name]</h3>]]></text></BalloonStyle></Style><Style id="line-0288D1-5263-nodesc-highlight"><LineStyle><color>ffd18802</color><width>7.8945</width></LineStyle><BalloonStyle><text><![CDATA[<h3>$[name]</h3>]]></text></BalloonStyle></Style><StyleMap id="line-0288D1-5263-nodesc"><Pair><key>normal</key><styleUrl>#line-0288D1-5263-nodesc-normal</styleUrl></Pair><Pair><key>highlight</key><styleUrl>#line-0288D1-5263-nodesc-highlight</styleUrl></Pair></StyleMap><Folder><name>Untitled layer</name><Placemark><name>スタート/フィニッシュ</name><styleUrl>#icon-1899-FFEA00-nodesc</styleUrl><Point><coordinates>            139.291025,35.312492,0          </coordinates></Point></Placemark><Placemark><name>コース</name><styleUrl>#line-0288D1-5263-nodesc</styleUrl><LineString><tessellate>1</tessellate><coordinates>            139.290463,35.310679,0            139.290447,35.310968,0            139.29048,35.311156,0            139.290544,35.311205,0            139.29063,35.311253,0            139.2908134,35.3112229,0            139.291274,35.311038,0            139.291434,35.311008,0            139.291536,35.311043,0            139.291622,35.311139,0            139.291585,35.311226,0            139.291429,35.311349,0            139.291209,35.3115135,0            139.291102,35.311612,0            139.291064,35.311774,0            139.291032,35.312098,0            139.291025,35.313216,0            139.290859,35.313343,0            139.2907945,35.3134502,0            139.2907059,35.3136791,0            139.290675,35.3138523,0            139.290687,35.313951,0            139.290671,35.314043,0            139.290693,35.314166,0            139.29073,35.31424,0            139.290741,35.314302,0            139.291664,35.31452,0            139.291884,35.314542,0            139.292023,35.314525,0            139.292104,35.314446,0            139.292152,35.314271,0            139.292113,35.31381,0            139.2920794,35.3133459,0            139.292221,35.3132395,0            139.292266,35.313155,0            139.2923015,35.3129145,0            139.292294,35.3126149,0            139.292303,35.311901,0            139.29229,35.31182,0            139.292236,35.311712,0            139.292094,35.311623,0            139.291845,35.311574,0            139.291606,35.311583,0            139.291491,35.311614,0            139.291397,35.3116639,0            139.291282,35.311717,0            139.291204,35.311793,0            139.2911456,35.3118925,0            139.2910496,35.3119658,0          </coordinates></LineString></Placemark></Folder></Document></kml>