<?xml version="1.0" encoding="UTF-8"?><kml xmlns="http://www.opengis.net/kml/2.2"><Document><name>Ome kyuryo parkrun</name><description/><Style id="icon-1899-0288D1-nodesc-normal"><IconStyle><color>ffd18802</color><scale>1</scale><Icon><href>https://www.gstatic.com/mapspro/images/stock/503-wht-blank_maps.png</href></Icon><hotSpot x="32" xunits="pixels" y="64" yunits="insetPixels"/></IconStyle><LabelStyle><scale>0</scale></LabelStyle><BalloonStyle><text><![CDATA[<h3>$[name]</h3>]]></text></BalloonStyle></Style><Style id="icon-1899-0288D1-nodesc-highlight"><IconStyle><color>ffd18802</color><scale>1</scale><Icon><href>https://www.gstatic.com/mapspro/images/stock/503-wht-blank_maps.png</href></Icon><hotSpot x="32" xunits="pixels" y="64" yunits="insetPixels"/></IconStyle><LabelStyle><scale>1</scale></LabelStyle><BalloonStyle><text><![CDATA[<h3>$[name]</h3>]]></text></BalloonStyle></Style><StyleMap id="icon-1899-0288D1-nodesc"><Pair><key>normal</key><styleUrl>#icon-1899-0288D1-nodesc-normal</styleUrl></Pair><Pair><key>highlight</key><styleUrl>#icon-1899-0288D1-nodesc-highlight</styleUrl></Pair></StyleMap><Style id="icon-1899-FFEA00-nodesc-normal"><IconStyle><color>ff00eaff</color><scale>1</scale><Icon><href>https://www.gstatic.com/mapspro/images/stock/503-wht-blank_maps.png</href></Icon><hotSpot x="32" xunits="pixels" y="64" yunits="insetPixels"/></IconStyle><LabelStyle><scale>0</scale></LabelStyle><BalloonStyle><text><![CDATA[<h3>$[name]</h3>]]></text></BalloonStyle></Style><Style id="icon-1899-FFEA00-nodesc-highlight"><IconStyle><color>ff00eaff</color><scale>1</scale><Icon><href>https://www.gstatic.com/mapspro/images/stock/503-wht-blank_maps.png</href></Icon><hotSpot x="32" xunits="pixels" y="64" yunits="insetPixels"/></IconStyle><LabelStyle><scale>1</scale></LabelStyle><BalloonStyle><text><![CDATA[<h3>$[name]</h3>]]></text></BalloonStyle></Style><StyleMap id="icon-1899-FFEA00-nodesc"><Pair><key>normal</key><styleUrl>#icon-1899-FFEA00-nodesc-normal</styleUrl></Pair><Pair><key>highlight</key><styleUrl>#icon-1899-FFEA00-nodesc-highlight</styleUrl></Pair></StyleMap><Style id="line-0288D1-4000-nodesc-normal"><LineStyle><color>ffd18802</color><width>4</width></LineStyle><BalloonStyle><text><![CDATA[<h3>$[name]</h3>]]></text></BalloonStyle></Style><Style id="line-0288D1-4000-nodesc-highlight"><LineStyle><color>ffd18802</color><width>6</width></LineStyle><BalloonStyle><text><![CDATA[<h3>$[name]</h3>]]></text></BalloonStyle></Style><StyleMap id="line-0288D1-4000-nodesc"><Pair><key>normal</key><styleUrl>#line-0288D1-4000-nodesc-normal</styleUrl></Pair><Pair><key>highlight</key><styleUrl>#line-0288D1-4000-nodesc-highlight</styleUrl></Pair></StyleMap><Folder><name>Untitled layer</name><Placemark><name>Course</name><styleUrl>#line-0288D1-4000-nodesc</styleUrl><LineString><tessellate>1</tessellate><coordinates>            139.249768,35.793038,0            139.250071,35.792886,0            139.250247,35.792833,0            139.250389,35.79289,0            139.250542,35.792985,0            139.250726,35.793045,0            139.250979,35.793058,0            139.25117,35.793043,0            139.251791,35.79317,0            139.25209,35.793263,0            139.252289,35.793358,0            139.252381,35.793549,0            139.252556,35.793605,0            139.252707,35.793664,0            139.253095,35.793679,0            139.253404,35.793744,0            139.253494,35.793734,0            139.253595,35.793733,0            139.253724,35.793936,0            139.253819,35.794035,0            139.254005,35.794088,0            139.254223,35.793976,0            139.254403,35.793839,0            139.254509,35.793658,0            139.254784,35.793576,0            139.254872,35.793504,0            139.254913,35.793426,0            139.254996,35.793265,0            139.254964,35.793158,0            139.254946,35.793114,0            139.254948,35.793064,0            139.254999,35.793065,0            139.255061,35.793061,0            139.255174,35.793071,0            139.255404,35.793086,0            139.255796,35.793121,0            139.255975,35.793278,0            139.256049,35.793364,0            139.256183,35.793406,0            139.256327,35.79343,0            139.256458,35.793382,0            139.256587,35.793445,0            139.256767,35.793561,0            139.257123,35.793672,0            139.257347,35.79374,0            139.257486,35.793756,0            139.257644,35.793707,0            139.257786,35.793623,0            139.258043,35.793424,0            139.258277,35.793192,0            139.258426,35.793078,0            139.258558,35.793034,0            139.258667,35.793053,0            139.258738,35.793087,0            139.258868,35.793164,0            139.25895,35.793215,0            139.259058,35.793273,0            139.259179,35.793322,0            139.25932,35.79335,0            139.259436,35.793345,0            139.259564,35.793305,0            139.259681,35.793253,0            139.259804,35.793211,0            139.259901,35.793232,0            139.259998,35.793249,0            139.260234,35.793194,0            139.26041,35.793158,0            139.260566,35.793184,0            139.260727,35.793209,0            139.260821,35.793198,0            139.260895,35.793154,0            139.260996,35.793062,0            139.261063,35.792961,0            139.261123,35.792894,0            139.261231,35.792845,0          </coordinates></LineString></Placemark><Placemark><name>Turning point</name><styleUrl>#icon-1899-0288D1-nodesc</styleUrl><Point><coordinates>            139.249686,35.793069,0          </coordinates></Point></Placemark><Placemark><name>Start/Finish</name><styleUrl>#icon-1899-FFEA00-nodesc</styleUrl><Point><coordinates>            139.261251,35.792843,0          </coordinates></Point></Placemark></Folder></Document></kml>