<?xml version="1.0" encoding="UTF-8"?><kml xmlns="http://www.opengis.net/kml/2.2"><Document><name>Oyodokawa shiminryokuchi parkrun</name><description/><Style id="icon-1899-FFEA00-nodesc-normal"><IconStyle><color>ff00eaff</color><scale>1</scale><Icon><href>https://www.gstatic.com/mapspro/images/stock/503-wht-blank_maps.png</href></Icon><hotSpot x="32" xunits="pixels" y="64" yunits="insetPixels"/></IconStyle><LabelStyle><scale>0</scale></LabelStyle><BalloonStyle><text><![CDATA[<h3>$[name]</h3>]]></text></BalloonStyle></Style><Style id="icon-1899-FFEA00-nodesc-highlight"><IconStyle><color>ff00eaff</color><scale>1</scale><Icon><href>https://www.gstatic.com/mapspro/images/stock/503-wht-blank_maps.png</href></Icon><hotSpot x="32" xunits="pixels" y="64" yunits="insetPixels"/></IconStyle><LabelStyle><scale>1</scale></LabelStyle><BalloonStyle><text><![CDATA[<h3>$[name]</h3>]]></text></BalloonStyle></Style><StyleMap id="icon-1899-FFEA00-nodesc"><Pair><key>normal</key><styleUrl>#icon-1899-FFEA00-nodesc-normal</styleUrl></Pair><Pair><key>highlight</key><styleUrl>#icon-1899-FFEA00-nodesc-highlight</styleUrl></Pair></StyleMap><Style id="line-0288D1-4000-nodesc-normal"><LineStyle><color>ffd18802</color><width>4</width></LineStyle><BalloonStyle><text><![CDATA[<h3>$[name]</h3>]]></text></BalloonStyle></Style><Style id="line-0288D1-4000-nodesc-highlight"><LineStyle><color>ffd18802</color><width>6</width></LineStyle><BalloonStyle><text><![CDATA[<h3>$[name]</h3>]]></text></BalloonStyle></Style><StyleMap id="line-0288D1-4000-nodesc"><Pair><key>normal</key><styleUrl>#line-0288D1-4000-nodesc-normal</styleUrl></Pair><Pair><key>highlight</key><styleUrl>#line-0288D1-4000-nodesc-highlight</styleUrl></Pair></StyleMap><Folder><name>Untitled layer</name><Placemark><name>Course</name><styleUrl>#line-0288D1-4000-nodesc</styleUrl><LineString><tessellate>1</tessellate><coordinates>            131.412176,31.909509,0            131.412204,31.909588,0            131.412189,31.909642,0            131.412169,31.90969,0            131.41214,31.909735,0            131.411868,31.909808,0            131.411545,31.909928,0            131.411147,31.910118,0            131.410839,31.910296,0            131.410528,31.910481,0            131.409971,31.910824,0            131.40951,31.911128,0            131.408841,31.911618,0            131.408181,31.912151,0            131.407907,31.912393,0            131.407757,31.912529,0            131.407601,31.912666,0            131.407471,31.912803,0            131.407363,31.912939,0            131.407156,31.913176,0            131.407129,31.913204,0            131.407115,31.913215,0            131.4071,31.913221,0            131.407103,31.913202,0            131.407113,31.913175,0            131.407141,31.91312,0            131.407172,31.913076,0            131.407258,31.912953,0            131.407384,31.912766,0            131.407448,31.912673,0            131.407499,31.912584,0            131.407524,31.912527,0            131.40756,31.912446,0            131.407752,31.912288,0            131.407867,31.912186,0            131.407831,31.912155,0            131.407862,31.912084,0            131.407911,31.91202,0            131.407997,31.911916,0            131.408059,31.911837,0            131.40811,31.911746,0            131.40815,31.911696,0            131.408201,31.911649,0            131.408266,31.911603,0            131.408347,31.911566,0            131.408405,31.911518,0            131.408464,31.911474,0            131.408529,31.91142,0            131.408571,31.911384,0            131.40863,31.911327,0            131.408706,31.911274,0            131.408792,31.911238,0            131.408832,31.911224,0            131.408921,31.91118,0            131.408984,31.911136,0            131.409078,31.911066,0            131.40918,31.91098,0            131.409259,31.910964,0            131.409303,31.910929,0            131.409317,31.910883,0            131.409322,31.910839,0            131.409358,31.910798,0            131.409406,31.910757,0            131.409459,31.910729,0            131.409522,31.910717,0            131.409718,31.910694,0            131.409913,31.910635,0            131.410019,31.91054,0            131.410181,31.91033,0            131.410385,31.910134,0            131.41046,31.910045,0            131.410511,31.909944,0            131.410601,31.909758,0            131.410643,31.909704,0            131.41069,31.909678,0            131.410776,31.909625,0            131.411004,31.909539,0            131.411268,31.909444,0            131.411763,31.909263,0            131.411945,31.909198,0            131.412112,31.909384,0            131.412176,31.909509,0            131.412179,31.909567,0            131.41215,31.909603,0            131.412114,31.909623,0            131.412074,31.909645,0            131.411598,31.909799,0            131.411077,31.910034,0            131.409981,31.91069,0            131.409449,31.911032,0            131.408936,31.911388,0            131.408792,31.911238,0          </coordinates></LineString></Placemark><Placemark><name>Start/Finish</name><styleUrl>#icon-1899-FFEA00-nodesc</styleUrl><Point><coordinates>            131.412205,31.909587,0          </coordinates></Point></Placemark></Folder></Document></kml>