<?xml version="1.0" encoding="UTF-8"?><kml xmlns="http://www.opengis.net/kml/2.2"><Document><name>Tamagawa chuo koen parkrun</name><description/><Style id="icon-1899-0F9D58-nodesc-normal"><IconStyle><color>ff589d0f</color><scale>1</scale><Icon><href>https://www.gstatic.com/mapspro/images/stock/503-wht-blank_maps.png</href></Icon><hotSpot x="32" xunits="pixels" y="64" yunits="insetPixels"/></IconStyle><LabelStyle><scale>0</scale></LabelStyle><BalloonStyle><text><![CDATA[<h3>$[name]</h3>]]></text></BalloonStyle></Style><Style id="icon-1899-0F9D58-nodesc-highlight"><IconStyle><color>ff589d0f</color><scale>1</scale><Icon><href>https://www.gstatic.com/mapspro/images/stock/503-wht-blank_maps.png</href></Icon><hotSpot x="32" xunits="pixels" y="64" yunits="insetPixels"/></IconStyle><LabelStyle><scale>1</scale></LabelStyle><BalloonStyle><text><![CDATA[<h3>$[name]</h3>]]></text></BalloonStyle></Style><StyleMap id="icon-1899-0F9D58-nodesc"><Pair><key>normal</key><styleUrl>#icon-1899-0F9D58-nodesc-normal</styleUrl></Pair><Pair><key>highlight</key><styleUrl>#icon-1899-0F9D58-nodesc-highlight</styleUrl></Pair></StyleMap><Style id="icon-1899-FF5252-nodesc-normal"><IconStyle><color>ff5252ff</color><scale>1</scale><Icon><href>https://www.gstatic.com/mapspro/images/stock/503-wht-blank_maps.png</href></Icon><hotSpot x="32" xunits="pixels" y="64" yunits="insetPixels"/></IconStyle><LabelStyle><scale>0</scale></LabelStyle><BalloonStyle><text><![CDATA[<h3>$[name]</h3>]]></text></BalloonStyle></Style><Style id="icon-1899-FF5252-nodesc-highlight"><IconStyle><color>ff5252ff</color><scale>1</scale><Icon><href>https://www.gstatic.com/mapspro/images/stock/503-wht-blank_maps.png</href></Icon><hotSpot x="32" xunits="pixels" y="64" yunits="insetPixels"/></IconStyle><LabelStyle><scale>1</scale></LabelStyle><BalloonStyle><text><![CDATA[<h3>$[name]</h3>]]></text></BalloonStyle></Style><StyleMap id="icon-1899-FF5252-nodesc"><Pair><key>normal</key><styleUrl>#icon-1899-FF5252-nodesc-normal</styleUrl></Pair><Pair><key>highlight</key><styleUrl>#icon-1899-FF5252-nodesc-highlight</styleUrl></Pair></StyleMap><Style id="line-1267FF-5000-nodesc-normal"><LineStyle><color>ffff6712</color><width>5</width></LineStyle><BalloonStyle><text><![CDATA[<h3>$[name]</h3>]]></text></BalloonStyle></Style><Style id="line-1267FF-5000-nodesc-highlight"><LineStyle><color>ffff6712</color><width>7.5</width></LineStyle><BalloonStyle><text><![CDATA[<h3>$[name]</h3>]]></text></BalloonStyle></Style><StyleMap id="line-1267FF-5000-nodesc"><Pair><key>normal</key><styleUrl>#line-1267FF-5000-nodesc-normal</styleUrl></Pair><Pair><key>highlight</key><styleUrl>#line-1267FF-5000-nodesc-highlight</styleUrl></Pair></StyleMap><Folder><name>Untitled layer</name><Placemark><name>Course</name><styleUrl>#line-1267FF-5000-nodesc</styleUrl><LineString><tessellate>1</tessellate><coordinates>            139.32662,35.73015,0            139.32647,35.73024,0            139.32608,35.73045,0            139.32585,35.73057,0            139.32572,35.73064,0            139.32468,35.73121,0            139.32449,35.73131,0            139.32429,35.73143,0            139.32403,35.73158,0            139.32398,35.73161,0            139.32386,35.73152,0            139.32385,35.7315,0            139.32386,35.73148,0            139.32389,35.73141,0            139.3239,35.73139,0            139.3239,35.73138,0            139.32389,35.73136,0            139.32386,35.73133,0            139.32387,35.73132,0            139.32422,35.73101,0            139.32461,35.73064,0            139.32468,35.73058,0            139.32507,35.73022,0            139.32532,35.72998,0            139.32557,35.72977,0            139.32577,35.72963,0            139.32591,35.72954,0            139.32599,35.72953,0            139.32642,35.72945,0            139.32654,35.72943,0            139.32669,35.72937,0            139.32674,35.72934,0            139.32683,35.72927,0            139.32706,35.72905,0            139.32729,35.72882,0            139.32748,35.72864,0            139.32811,35.72801,0            139.32826,35.72786,0            139.32863,35.72793,0            139.32863,35.72797,0            139.32863,35.728,0            139.32861,35.72814,0            139.32861,35.72818,0            139.3286,35.72824,0            139.32858,35.72827,0            139.32857,35.72831,0            139.32852,35.72841,0            139.32849,35.72849,0            139.32845,35.72859,0            139.32841,35.72869,0            139.32836,35.72881,0            139.32825,35.72903,0            139.32824,35.72906,0            139.32819,35.72912,0            139.32814,35.72918,0            139.32814,35.72919,0            139.32809,35.72924,0            139.32803,35.72929,0            139.32799,35.72932,0            139.32797,35.72933,0            139.32786,35.7294,0            139.32765,35.72955,0            139.32748,35.72966,0            139.32744,35.72968,0            139.32733,35.72975,0            139.32711,35.72988,0            139.32688,35.73002,0            139.3267,35.73012,0            139.32647,35.73024,0          </coordinates></LineString></Placemark><Placemark><name>Finish</name><styleUrl>#icon-1899-FF5252-nodesc</styleUrl><Point><coordinates>            139.326471,35.730244,0          </coordinates></Point></Placemark><Placemark><name>Start</name><styleUrl>#icon-1899-0F9D58-nodesc</styleUrl><Point><coordinates>            139.326633,35.730163,0          </coordinates></Point></Placemark></Folder></Document></kml>