<?xml version="1.0" encoding="UTF-8"?><kml xmlns="http://www.opengis.net/kml/2.2"><Document><name>Yamaguchi Kirarahaku kinen koen parkrun</name><description/><Style id="icon-1899-0288D1-nodesc-normal"><IconStyle><color>ffd18802</color><scale>1</scale><Icon><href>https://www.gstatic.com/mapspro/images/stock/503-wht-blank_maps.png</href></Icon><hotSpot x="32" xunits="pixels" y="64" yunits="insetPixels"/></IconStyle><LabelStyle><scale>0</scale></LabelStyle><BalloonStyle><text><![CDATA[<h3>$[name]</h3>]]></text></BalloonStyle></Style><Style id="icon-1899-0288D1-nodesc-highlight"><IconStyle><color>ffd18802</color><scale>1</scale><Icon><href>https://www.gstatic.com/mapspro/images/stock/503-wht-blank_maps.png</href></Icon><hotSpot x="32" xunits="pixels" y="64" yunits="insetPixels"/></IconStyle><LabelStyle><scale>1</scale></LabelStyle><BalloonStyle><text><![CDATA[<h3>$[name]</h3>]]></text></BalloonStyle></Style><StyleMap id="icon-1899-0288D1-nodesc"><Pair><key>normal</key><styleUrl>#icon-1899-0288D1-nodesc-normal</styleUrl></Pair><Pair><key>highlight</key><styleUrl>#icon-1899-0288D1-nodesc-highlight</styleUrl></Pair></StyleMap><Style id="icon-1899-FFEA00-nodesc-normal"><IconStyle><color>ff00eaff</color><scale>1</scale><Icon><href>https://www.gstatic.com/mapspro/images/stock/503-wht-blank_maps.png</href></Icon><hotSpot x="32" xunits="pixels" y="64" yunits="insetPixels"/></IconStyle><LabelStyle><scale>0</scale></LabelStyle><BalloonStyle><text><![CDATA[<h3>$[name]</h3>]]></text></BalloonStyle></Style><Style id="icon-1899-FFEA00-nodesc-highlight"><IconStyle><color>ff00eaff</color><scale>1</scale><Icon><href>https://www.gstatic.com/mapspro/images/stock/503-wht-blank_maps.png</href></Icon><hotSpot x="32" xunits="pixels" y="64" yunits="insetPixels"/></IconStyle><LabelStyle><scale>1</scale></LabelStyle><BalloonStyle><text><![CDATA[<h3>$[name]</h3>]]></text></BalloonStyle></Style><StyleMap id="icon-1899-FFEA00-nodesc"><Pair><key>normal</key><styleUrl>#icon-1899-FFEA00-nodesc-normal</styleUrl></Pair><Pair><key>highlight</key><styleUrl>#icon-1899-FFEA00-nodesc-highlight</styleUrl></Pair></StyleMap><Style id="line-0288D1-5429-nodesc-normal"><LineStyle><color>ffd18802</color><width>5.429</width></LineStyle><BalloonStyle><text><![CDATA[<h3>$[name]</h3>]]></text></BalloonStyle></Style><Style id="line-0288D1-5429-nodesc-highlight"><LineStyle><color>ffd18802</color><width>8.1435</width></LineStyle><BalloonStyle><text><![CDATA[<h3>$[name]</h3>]]></text></BalloonStyle></Style><StyleMap id="line-0288D1-5429-nodesc"><Pair><key>normal</key><styleUrl>#line-0288D1-5429-nodesc-normal</styleUrl></Pair><Pair><key>highlight</key><styleUrl>#line-0288D1-5429-nodesc-highlight</styleUrl></Pair></StyleMap><Folder><name>Untitled layer</name><Placemark><name>※U-turn</name><styleUrl>#icon-1899-0288D1-nodesc</styleUrl><Point><coordinates>            131.369701,34.004602,0          </coordinates></Point></Placemark><Placemark><name>Course</name><styleUrl>#line-0288D1-5429-nodesc</styleUrl><LineString><tessellate>1</tessellate><coordinates>            131.3697962,34.0045972,0            131.3697962,34.0052821,0            131.368637,34.005295,0            131.3684014,34.0053754,0            131.3681493,34.005033,0            131.3682405,34.0035299,0            131.3698444,34.0035655,0            131.369268,34.003256,0            131.3687555,34.0032275,0            131.368742,34.00299,0            131.369514,34.002829,0            131.36974,34.001922,0            131.370909,34.001148,0            131.372025,34.002189,0            131.372229,34.001993,0            131.3731206,34.0029321,0            131.373216,34.003025,0            131.373194,34.003239,0            131.3728095,34.0033857,0            131.372465,34.003488,0            131.372143,34.003861,0            131.372486,34.005284,0            131.373377,34.005471,0            131.373645,34.004164,0            131.374031,34.003888,0            131.376842,34.006867,0            131.376359,34.00717,0            131.374836,34.005516,0            131.374223,34.005464,0            131.3739414,34.0069878,0            131.3734672,34.0073941,0            131.3724158,34.0073947,0            131.3726056,34.0063963,0            131.372068,34.005845,0            131.3726056,34.0063963,0            131.372454,34.007437,0            131.3722655,34.0073835,0            131.370892,34.006892,0            131.3706583,34.006543,0            131.370774,34.005825,0            131.3712591,34.0056492,0            131.372068,34.005845,0            131.3725252,34.0053334,0            131.3734465,34.0055944,0            131.374223,34.005464,0            131.3734465,34.0055944,0            131.3725252,34.0053334,0            131.3720236,34.0058382,0            131.3712525,34.005628,0            131.3700844,34.0058982,0            131.369793,34.005551,0            131.3697962,34.0052821,0          </coordinates></LineString></Placemark><Placemark><name>Start/Finish</name><styleUrl>#icon-1899-FFEA00-nodesc</styleUrl><Point><coordinates>            131.371214,34.005669,0          </coordinates></Point></Placemark></Folder></Document></kml>