<?xml version="1.0" encoding="UTF-8"?><kml xmlns="http://www.opengis.net/kml/2.2"><Document><name>Terme parkrun</name><description/><Style id="icon-1899-0F9D58-nodesc-normal"><IconStyle><color>ff589d0f</color><scale>1</scale><Icon><href>https://www.gstatic.com/mapspro/images/stock/503-wht-blank_maps.png</href></Icon><hotSpot x="32" xunits="pixels" y="64" yunits="insetPixels"/></IconStyle><LabelStyle><scale>0</scale></LabelStyle><BalloonStyle><text><![CDATA[<h3>$[name]</h3>]]></text></BalloonStyle></Style><Style id="icon-1899-0F9D58-nodesc-highlight"><IconStyle><color>ff589d0f</color><scale>1</scale><Icon><href>https://www.gstatic.com/mapspro/images/stock/503-wht-blank_maps.png</href></Icon><hotSpot x="32" xunits="pixels" y="64" yunits="insetPixels"/></IconStyle><LabelStyle><scale>1</scale></LabelStyle><BalloonStyle><text><![CDATA[<h3>$[name]</h3>]]></text></BalloonStyle></Style><StyleMap id="icon-1899-0F9D58-nodesc"><Pair><key>normal</key><styleUrl>#icon-1899-0F9D58-nodesc-normal</styleUrl></Pair><Pair><key>highlight</key><styleUrl>#icon-1899-0F9D58-nodesc-highlight</styleUrl></Pair></StyleMap><Style id="icon-1899-FF5252-nodesc-normal"><IconStyle><color>ff5252ff</color><scale>1</scale><Icon><href>https://www.gstatic.com/mapspro/images/stock/503-wht-blank_maps.png</href></Icon><hotSpot x="32" xunits="pixels" y="64" yunits="insetPixels"/></IconStyle><LabelStyle><scale>0</scale></LabelStyle><BalloonStyle><text><![CDATA[<h3>$[name]</h3>]]></text></BalloonStyle></Style><Style id="icon-1899-FF5252-nodesc-highlight"><IconStyle><color>ff5252ff</color><scale>1</scale><Icon><href>https://www.gstatic.com/mapspro/images/stock/503-wht-blank_maps.png</href></Icon><hotSpot x="32" xunits="pixels" y="64" yunits="insetPixels"/></IconStyle><LabelStyle><scale>1</scale></LabelStyle><BalloonStyle><text><![CDATA[<h3>$[name]</h3>]]></text></BalloonStyle></Style><StyleMap id="icon-1899-FF5252-nodesc"><Pair><key>normal</key><styleUrl>#icon-1899-FF5252-nodesc-normal</styleUrl></Pair><Pair><key>highlight</key><styleUrl>#icon-1899-FF5252-nodesc-highlight</styleUrl></Pair></StyleMap><Style id="line-0288D1-5000-nodesc-normal"><LineStyle><color>ffd18802</color><width>5</width></LineStyle><BalloonStyle><text><![CDATA[<h3>$[name]</h3>]]></text></BalloonStyle></Style><Style id="line-0288D1-5000-nodesc-highlight"><LineStyle><color>ffd18802</color><width>7.5</width></LineStyle><BalloonStyle><text><![CDATA[<h3>$[name]</h3>]]></text></BalloonStyle></Style><StyleMap id="line-0288D1-5000-nodesc"><Pair><key>normal</key><styleUrl>#line-0288D1-5000-nodesc-normal</styleUrl></Pair><Pair><key>highlight</key><styleUrl>#line-0288D1-5000-nodesc-highlight</styleUrl></Pair></StyleMap><Folder><name>Untitled layer</name><Placemark><name>Course</name><styleUrl>#line-0288D1-5000-nodesc</styleUrl><LineString><tessellate>1</tessellate><coordinates>            10.774319,43.886791,0            10.773837,43.886016,0            10.773449,43.885257,0            10.773356,43.885252,0            10.773295,43.885286,0            10.773098,43.885601,0            10.77296,43.885895,0            10.772925,43.886108,0            10.772981,43.886322,0            10.773068,43.886697,0            10.773054,43.886851,0            10.773015,43.886961,0            10.772669,43.887337,0            10.772457,43.887596,0            10.772337,43.887868,0            10.772232,43.888192,0            10.772145,43.888525,0            10.77208,43.888806,0            10.772086,43.88884,0            10.772149,43.888872,0            10.772221,43.888889,0            10.772293,43.888896,0            10.772421,43.888879,0            10.772581,43.888795,0            10.772879,43.888585,0            10.773135,43.888364,0            10.773303,43.888197,0            10.77347,43.887972,0            10.773461,43.887955,0            10.773306,43.888001,0            10.773163,43.888012,0            10.773086,43.887995,0            10.773022,43.887969,0            10.772917,43.887871,0            10.772829,43.887752,0            10.772718,43.887526,0            10.772668,43.887407,0            10.772887,43.887151,0            10.773041,43.88699,0            10.773115,43.88694,0            10.773209,43.886921,0            10.773303,43.886965,0            10.773565,43.887141,0            10.773833,43.887309,0            10.773872,43.887348,0            10.773873,43.887396,0            10.773752,43.887632,0            10.773644,43.88784,0            10.773558,43.887982,0            10.773475,43.88814,0            10.773398,43.88844,0            10.773387,43.888688,0            10.773534,43.888914,0            10.773748,43.889018,0            10.77407,43.889072,0            10.774275,43.889105,0            10.774509,43.88909,0            10.774796,43.889075,0            10.774987,43.889033,0            10.775207,43.888969,0            10.775414,43.888891,0            10.775624,43.888808,0            10.775859,43.888723,0            10.776027,43.88858,0            10.776041,43.888472,0            10.776018,43.888366,0            10.775797,43.888147,0            10.775386,43.887823,0            10.775014,43.887589,0            10.774845,43.887448,0            10.774694,43.887309,0            10.774529,43.887119,0            10.774319,43.886791,0          </coordinates></LineString></Placemark><Placemark><name>FINISH</name><styleUrl>#icon-1899-FF5252-nodesc</styleUrl><Point><coordinates>            10.774969,43.887561,0          </coordinates></Point></Placemark><Placemark><name>START</name><styleUrl>#icon-1899-0F9D58-nodesc</styleUrl><Point><coordinates>            10.774599,43.887238,0          </coordinates></Point></Placemark></Folder></Document></kml>