<?xml version="1.0" encoding="UTF-8"?><kml xmlns="http://www.opengis.net/kml/2.2"><Document><name>Uditore parkrun (from Nov 2025)</name><description/><Style id="icon-1899-0F9D58-nodesc-normal"><IconStyle><color>ff589d0f</color><scale>1</scale><Icon><href>https://www.gstatic.com/mapspro/images/stock/503-wht-blank_maps.png</href></Icon><hotSpot x="32" xunits="pixels" y="64" yunits="insetPixels"/></IconStyle><LabelStyle><scale>0</scale></LabelStyle><BalloonStyle><text><![CDATA[<h3>$[name]</h3>]]></text></BalloonStyle></Style><Style id="icon-1899-0F9D58-nodesc-highlight"><IconStyle><color>ff589d0f</color><scale>1</scale><Icon><href>https://www.gstatic.com/mapspro/images/stock/503-wht-blank_maps.png</href></Icon><hotSpot x="32" xunits="pixels" y="64" yunits="insetPixels"/></IconStyle><LabelStyle><scale>1</scale></LabelStyle><BalloonStyle><text><![CDATA[<h3>$[name]</h3>]]></text></BalloonStyle></Style><StyleMap id="icon-1899-0F9D58-nodesc"><Pair><key>normal</key><styleUrl>#icon-1899-0F9D58-nodesc-normal</styleUrl></Pair><Pair><key>highlight</key><styleUrl>#icon-1899-0F9D58-nodesc-highlight</styleUrl></Pair></StyleMap><Style id="icon-1899-E65100-nodesc-normal"><IconStyle><color>ff0051e6</color><scale>1</scale><Icon><href>https://www.gstatic.com/mapspro/images/stock/503-wht-blank_maps.png</href></Icon><hotSpot x="32" xunits="pixels" y="64" yunits="insetPixels"/></IconStyle><LabelStyle><scale>0</scale></LabelStyle><BalloonStyle><text><![CDATA[<h3>$[name]</h3>]]></text></BalloonStyle></Style><Style id="icon-1899-E65100-nodesc-highlight"><IconStyle><color>ff0051e6</color><scale>1</scale><Icon><href>https://www.gstatic.com/mapspro/images/stock/503-wht-blank_maps.png</href></Icon><hotSpot x="32" xunits="pixels" y="64" yunits="insetPixels"/></IconStyle><LabelStyle><scale>1</scale></LabelStyle><BalloonStyle><text><![CDATA[<h3>$[name]</h3>]]></text></BalloonStyle></Style><StyleMap id="icon-1899-E65100-nodesc"><Pair><key>normal</key><styleUrl>#icon-1899-E65100-nodesc-normal</styleUrl></Pair><Pair><key>highlight</key><styleUrl>#icon-1899-E65100-nodesc-highlight</styleUrl></Pair></StyleMap><Style id="line-4186F0-5650-nodesc-normal"><LineStyle><color>fff08641</color><width>5.65</width></LineStyle><BalloonStyle><text><![CDATA[<h3>$[name]</h3>]]></text></BalloonStyle></Style><Style id="line-4186F0-5650-nodesc-highlight"><LineStyle><color>fff08641</color><width>8.475</width></LineStyle><BalloonStyle><text><![CDATA[<h3>$[name]</h3>]]></text></BalloonStyle></Style><StyleMap id="line-4186F0-5650-nodesc"><Pair><key>normal</key><styleUrl>#line-4186F0-5650-nodesc-normal</styleUrl></Pair><Pair><key>highlight</key><styleUrl>#line-4186F0-5650-nodesc-highlight</styleUrl></Pair></StyleMap><Folder><name>Untitled layer</name><Placemark><name>Course</name><styleUrl>#line-4186F0-5650-nodesc</styleUrl><LineString><tessellate>1</tessellate><coordinates>            13.329471,38.130424,0            13.32949,38.130344,0            13.329487,38.130274,0            13.329466,38.13019,0            13.329423,38.130133,0            13.32931,38.13011,0            13.328951,38.130063,0            13.328422,38.130002,0            13.327256,38.129918,0            13.327261,38.129791,0            13.327274,38.129734,0            13.327272,38.129692,0            13.327312,38.12961,0            13.327409,38.129462,0            13.327658,38.129437,0            13.32776,38.129413,0            13.327865,38.129346,0            13.327937,38.129285,0            13.328071,38.129245,0            13.328197,38.129198,0            13.328364,38.12904,0            13.328181,38.128833,0            13.328036,38.128626,0            13.327964,38.128546,0            13.327551,38.1287,0            13.327398,38.128823,0            13.327398,38.12896,0            13.32735,38.129027,0            13.327207,38.129108,0            13.327055,38.129255,0            13.326792,38.129449,0            13.326663,38.129586,0            13.326515,38.129804,0            13.326515,38.129878,0            13.326743,38.129876,0            13.326786,38.129909,0            13.326789,38.130053,0            13.326625,38.130181,0            13.326652,38.130257,0            13.32666,38.130376,0            13.326617,38.130548,0            13.326558,38.130644,0            13.326556,38.130707,0            13.32659,38.130764,0            13.326655,38.130789,0            13.326805,38.130814,0            13.326915,38.130791,0            13.327089,38.130749,0            13.327189,38.130757,0            13.327261,38.130736,0            13.327317,38.130696,0            13.327484,38.130551,0            13.327529,38.130527,0            13.327645,38.130466,0            13.327773,38.130401,0            13.327889,38.13034,0            13.327958,38.130293,0            13.32795,38.130211,0            13.327977,38.130194,0            13.328106,38.130198,0            13.32828,38.130213,0            13.328452,38.13024,0            13.328621,38.130342,0            13.32875,38.130416,0            13.328876,38.13046,0            13.329077,38.13049,0            13.329286,38.130504,0            13.329383,38.130502,0            13.32946,38.130462,0            13.329493,38.130392,0            13.329498,38.130302,0            13.329468,38.130211,0            13.329412,38.130108,0            13.329356,38.129977,0            13.329246,38.129838,0            13.329106,38.129705,0            13.328959,38.129595,0            13.328806,38.12946,0            13.328605,38.129266,0            13.328417,38.129078,0            13.32839,38.12911,0            13.32842,38.129508,0            13.328447,38.129818,0            13.328447,38.129939,0            13.328372,38.13,0            13.327256,38.129918,0          </coordinates></LineString></Placemark><Placemark><name>Finish</name><styleUrl>#icon-1899-E65100-nodesc</styleUrl><Point><coordinates>            13.327478,38.129956,0          </coordinates></Point></Placemark><Placemark><name>Start</name><styleUrl>#icon-1899-0F9D58-nodesc</styleUrl><Point><coordinates>            13.329493,38.130392,0          </coordinates></Point></Placemark></Folder></Document></kml>