<?xml version="1.0" encoding="UTF-8"?><kml xmlns="http://www.opengis.net/kml/2.2"><Document><name>Amsterdamse Bos parkrun (from June 2025)</name><description/><Style id="icon-1899-FFEA00-nodesc-normal"><IconStyle><color>ff00eaff</color><scale>1</scale><Icon><href>https://www.gstatic.com/mapspro/images/stock/503-wht-blank_maps.png</href></Icon><hotSpot x="32" xunits="pixels" y="64" yunits="insetPixels"/></IconStyle><LabelStyle><scale>0</scale></LabelStyle><BalloonStyle><text><![CDATA[<h3>$[name]</h3>]]></text></BalloonStyle></Style><Style id="icon-1899-FFEA00-nodesc-highlight"><IconStyle><color>ff00eaff</color><scale>1</scale><Icon><href>https://www.gstatic.com/mapspro/images/stock/503-wht-blank_maps.png</href></Icon><hotSpot x="32" xunits="pixels" y="64" yunits="insetPixels"/></IconStyle><LabelStyle><scale>1</scale></LabelStyle><BalloonStyle><text><![CDATA[<h3>$[name]</h3>]]></text></BalloonStyle></Style><StyleMap id="icon-1899-FFEA00-nodesc"><Pair><key>normal</key><styleUrl>#icon-1899-FFEA00-nodesc-normal</styleUrl></Pair><Pair><key>highlight</key><styleUrl>#icon-1899-FFEA00-nodesc-highlight</styleUrl></Pair></StyleMap><Style id="line-0288D1-5000-nodesc-normal"><LineStyle><color>ffd18802</color><width>5</width></LineStyle><BalloonStyle><text><![CDATA[<h3>$[name]</h3>]]></text></BalloonStyle></Style><Style id="line-0288D1-5000-nodesc-highlight"><LineStyle><color>ffd18802</color><width>7.5</width></LineStyle><BalloonStyle><text><![CDATA[<h3>$[name]</h3>]]></text></BalloonStyle></Style><StyleMap id="line-0288D1-5000-nodesc"><Pair><key>normal</key><styleUrl>#line-0288D1-5000-nodesc-normal</styleUrl></Pair><Pair><key>highlight</key><styleUrl>#line-0288D1-5000-nodesc-highlight</styleUrl></Pair></StyleMap><Folder><name>Untitled layer</name><Placemark><name>Course</name><styleUrl>#line-0288D1-5000-nodesc</styleUrl><LineString><tessellate>1</tessellate><coordinates>            4.84821,52.32384,0            4.84675,52.32374,0            4.84642,52.32372,0            4.84537,52.32367,0            4.84497,52.32366,0            4.84461,52.32365,0            4.84422,52.32365,0            4.84341,52.32365,0            4.84317,52.32365,0            4.84271,52.32365,0            4.84235,52.32364,0            4.84216,52.32363,0            4.84163,52.32363,0            4.84089,52.32359,0            4.84072,52.32357,0            4.83998,52.32345,0            4.83967,52.32337,0            4.83951,52.32332,0            4.83899,52.32313,0            4.83849,52.3229,0            4.83812,52.32269,0            4.83807,52.32266,0            4.83501,52.32086,0            4.83481,52.32074,0            4.83427,52.32043,0            4.8342,52.32039,0            4.83428,52.32032,0            4.8343,52.32027,0            4.83428,52.32021,0            4.83423,52.32017,0            4.83396,52.32004,0            4.83245,52.31948,0            4.83187,52.31927,0            4.83103,52.31898,0            4.83117,52.3187,0            4.83125,52.31852,0            4.83135,52.3183,0            4.83136,52.31823,0            4.83139,52.31807,0            4.83139,52.31745,0            4.83142,52.31723,0            4.83152,52.31689,0            4.83177,52.31632,0            4.83197,52.31603,0            4.83226,52.31559,0            4.83275,52.31519,0            4.83317,52.31496,0            4.83465,52.3145,0            4.835,52.31437,0            4.83506,52.31435,0            4.83537,52.31421,0            4.83568,52.3141,0            4.83628,52.31381,0            4.83641,52.31379,0            4.83703,52.31376,0            4.83768,52.31376,0            4.83773,52.31376,0            4.83781,52.31376,0            4.83786,52.31386,0            4.83799,52.31404,0            4.83823,52.31427,0            4.83827,52.31436,0            4.8383,52.31456,0            4.8383,52.31485,0            4.8383,52.31493,0            4.83833,52.31541,0            4.83838,52.31568,0            4.83838,52.31578,0            4.83832,52.3159,0            4.83799,52.31621,0            4.8379,52.31634,0            4.83788,52.3164,0            4.83794,52.31653,0            4.83824,52.3168,0            4.83833,52.31695,0            4.83848,52.31748,0            4.83869,52.3182,0            4.8388,52.31842,0            4.83881,52.31847,0            4.83893,52.31884,0            4.83898,52.31902,0            4.83896,52.31922,0            4.83895,52.31923,0            4.83891,52.31936,0            4.83935,52.31976,0            4.83957,52.3199,0            4.83988,52.32003,0            4.84027,52.32015,0            4.84072,52.32024,0            4.84125,52.32032,0            4.84154,52.32038,0            4.84161,52.3204,0            4.84183,52.32048,0            4.84232,52.32072,0            4.84266,52.321,0            4.84287,52.32126,0            4.8429,52.32129,0            4.84297,52.32141,0            4.84313,52.32152,0            4.84334,52.32161,0            4.84347,52.32169,0            4.84348,52.32176,0            4.84345,52.32182,0            4.84319,52.32207,0            4.84294,52.32234,0            4.84277,52.32259,0            4.84273,52.32266,0            4.84263,52.32275,0            4.84233,52.32291,0            4.84218,52.32309,0            4.84215,52.32319,0            4.84215,52.32352,0            4.84216,52.32363,0            4.84203,52.32363,0            4.84163,52.32363,0            4.84089,52.32359,0            4.83998,52.32345,0            4.83951,52.32332,0            4.83899,52.32313,0            4.83868,52.32299,0            4.83849,52.3229,0            4.83812,52.32269,0            4.8353,52.32103,0            4.83582,52.32134,0            4.83734,52.32223,0            4.83812,52.32269,0            4.83849,52.3229,0            4.83899,52.32313,0            4.83936,52.32327,0            4.83951,52.32332,0            4.83998,52.32345,0            4.84089,52.32359,0            4.84161,52.32362,0            4.84163,52.32363,0            4.84216,52.32363,0            4.84235,52.32364,0            4.84271,52.32365,0            4.84317,52.32365,0            4.84341,52.32365,0            4.84461,52.32365,0            4.8448,52.32366,0            4.84537,52.32367,0            4.84642,52.32372,0            4.84747,52.32379,0          </coordinates></LineString></Placemark><Placemark><name>Start/Finish</name><styleUrl>#icon-1899-FFEA00-nodesc</styleUrl><Point><coordinates>            4.84821,52.32384,0          </coordinates></Point></Placemark></Folder></Document></kml>