<?xml version="1.0" encoding="UTF-8"?><kml xmlns="http://www.opengis.net/kml/2.2"><Document><name>Balijbos parkrun </name><description/><Style id="icon-1899-FFEA00-nodesc-normal"><IconStyle><color>ff00eaff</color><scale>1</scale><Icon><href>https://www.gstatic.com/mapspro/images/stock/503-wht-blank_maps.png</href></Icon><hotSpot x="32" xunits="pixels" y="64" yunits="insetPixels"/></IconStyle><LabelStyle><scale>0</scale></LabelStyle><BalloonStyle><text><![CDATA[<h3>$[name]</h3>]]></text></BalloonStyle></Style><Style id="icon-1899-FFEA00-nodesc-highlight"><IconStyle><color>ff00eaff</color><scale>1</scale><Icon><href>https://www.gstatic.com/mapspro/images/stock/503-wht-blank_maps.png</href></Icon><hotSpot x="32" xunits="pixels" y="64" yunits="insetPixels"/></IconStyle><LabelStyle><scale>1</scale></LabelStyle><BalloonStyle><text><![CDATA[<h3>$[name]</h3>]]></text></BalloonStyle></Style><StyleMap id="icon-1899-FFEA00-nodesc"><Pair><key>normal</key><styleUrl>#icon-1899-FFEA00-nodesc-normal</styleUrl></Pair><Pair><key>highlight</key><styleUrl>#icon-1899-FFEA00-nodesc-highlight</styleUrl></Pair></StyleMap><Style id="line-0288D1-5000-nodesc-normal"><LineStyle><color>ffd18802</color><width>5</width></LineStyle><BalloonStyle><text><![CDATA[<h3>$[name]</h3>]]></text></BalloonStyle></Style><Style id="line-0288D1-5000-nodesc-highlight"><LineStyle><color>ffd18802</color><width>7.5</width></LineStyle><BalloonStyle><text><![CDATA[<h3>$[name]</h3>]]></text></BalloonStyle></Style><StyleMap id="line-0288D1-5000-nodesc"><Pair><key>normal</key><styleUrl>#line-0288D1-5000-nodesc-normal</styleUrl></Pair><Pair><key>highlight</key><styleUrl>#line-0288D1-5000-nodesc-highlight</styleUrl></Pair></StyleMap><Folder><name>Untitled layer</name><Placemark><name>Start/Finish</name><styleUrl>#icon-1899-FFEA00-nodesc</styleUrl><Point><coordinates>            4.456289,52.045062,0          </coordinates></Point></Placemark><Placemark><name>Course</name><styleUrl>#line-0288D1-5000-nodesc</styleUrl><LineString><tessellate>1</tessellate><coordinates>            4.455869,52.045163,0            4.455662,52.045469,0            4.455468,52.04579,0            4.455085,52.046431,0            4.453739,52.046135,0            4.45265,52.045879,0            4.452032,52.045744,0            4.451574,52.045716,0            4.450759,52.045646,0            4.450661,52.045581,0            4.450557,52.045513,0            4.450461,52.045468,0            4.45028,52.045391,0            4.44985,52.04537,0            4.449635,52.04536,0            4.449528,52.045356,0            4.449475,52.045352,0            4.449422,52.04535,0            4.449347,52.045345,0            4.449253,52.045326,0            4.449206,52.045315,0            4.44916,52.045304,0            4.448971,52.045262,0            4.448821,52.045096,0            4.448766,52.045033,0            4.448741,52.045007,0            4.448658,52.044964,0            4.448444,52.044912,0            4.448262,52.044892,0            4.447682,52.044936,0            4.447031,52.0451,0            4.446847,52.045112,0            4.446765,52.045107,0            4.44672,52.045099,0            4.446665,52.045085,0            4.446124,52.044715,0            4.445784,52.044323,0            4.445613,52.044223,0            4.4454,52.044155,0            4.445094,52.044123,0            4.443959,52.043874,0            4.443925,52.043867,0            4.442574,52.046089,0            4.44257,52.046106,0            4.442575,52.04612,0            4.442585,52.046129,0            4.442597,52.046135,0            4.442886,52.046204,0            4.443196,52.046267,0            4.443816,52.046394,0            4.445054,52.046653,0            4.448366,52.047353,0            4.449263,52.047531,0            4.449618,52.047604,0            4.450318,52.047748,0            4.451386,52.04797,0            4.451743,52.04802,0            4.451868,52.048032,0            4.452122,52.04804,0            4.452507,52.04803,0            4.452602,52.048024,0            4.453161,52.047094,0            4.453449,52.046617,0            4.453739,52.046135,0            4.452876,52.045926,0            4.452032,52.045744,0            4.451574,52.045716,0            4.450759,52.045646,0            4.450557,52.045513,0            4.450464,52.04547,0            4.450378,52.045433,0            4.45028,52.045391,0            4.44985,52.04537,0            4.449635,52.04536,0            4.449528,52.045356,0            4.449475,52.045352,0            4.449422,52.04535,0            4.449347,52.045345,0            4.449281,52.045332,0            4.449219,52.045318,0            4.449066,52.045283,0            4.448971,52.045262,0            4.448952,52.045241,0            4.448821,52.045096,0            4.448766,52.045033,0            4.448741,52.045007,0            4.448658,52.044964,0            4.448548,52.044938,0            4.448445,52.044917,0            4.448347,52.044905,0            4.448249,52.044895,0            4.447682,52.044936,0            4.447031,52.0451,0            4.446802,52.04511,0            4.446704,52.045098,0            4.446433,52.044934,0            4.446124,52.044715,0            4.445906,52.044454,0            4.44572,52.044275,0            4.445487,52.044174,0            4.445094,52.044123,0            4.443925,52.043867,0            4.442574,52.046089,0            4.44257,52.046106,0            4.442575,52.04612,0            4.442585,52.046129,0            4.442597,52.046135,0            4.442882,52.046203,0            4.443052,52.046237,0            4.44353,52.046334,0            4.44448,52.046532,0            4.449952,52.047673,0            4.450328,52.04775,0            4.45067,52.047822,0            4.451386,52.04797,0            4.451566,52.047996,0            4.451743,52.04802,0            4.451868,52.048032,0            4.452122,52.04804,0            4.45226,52.048035,0            4.452602,52.048024,0            4.453131,52.047145,0            4.453739,52.046135,0            4.453516,52.046078,0            4.453292,52.046032,0            4.452652,52.045876,0            4.452099,52.046781,0            4.451386,52.04797,0            4.451407,52.047974,0            4.451529,52.047989,0            4.451633,52.048006,0            4.451743,52.04802,0            4.451868,52.048032,0            4.451984,52.048036,0            4.452079,52.048039,0            4.452122,52.04804,0            4.45226,52.048035,0            4.452601,52.048021,0            4.453171,52.04708,0            4.453739,52.046135,0            4.453999,52.04619,0            4.454256,52.046249,0            4.455085,52.046431,0            4.455278,52.046111,0            4.455468,52.04579,0            4.455662,52.045469,0            4.455875,52.045152,0            4.455902,52.045116,0            4.456095,52.045089,0            4.45619,52.045076,0            4.456287,52.045064,0          </coordinates></LineString></Placemark></Folder></Document></kml>