<?xml version="1.0" encoding="UTF-8"?><kml xmlns="http://www.opengis.net/kml/2.2"><Document><name>Groene Ster parkrun</name><description/><Style id="icon-1899-FFEA00-nodesc-normal"><IconStyle><color>ff00eaff</color><scale>1</scale><Icon><href>https://www.gstatic.com/mapspro/images/stock/503-wht-blank_maps.png</href></Icon><hotSpot x="32" xunits="pixels" y="64" yunits="insetPixels"/></IconStyle><LabelStyle><scale>0</scale></LabelStyle><BalloonStyle><text><![CDATA[<h3>$[name]</h3>]]></text></BalloonStyle></Style><Style id="icon-1899-FFEA00-nodesc-highlight"><IconStyle><color>ff00eaff</color><scale>1</scale><Icon><href>https://www.gstatic.com/mapspro/images/stock/503-wht-blank_maps.png</href></Icon><hotSpot x="32" xunits="pixels" y="64" yunits="insetPixels"/></IconStyle><LabelStyle><scale>1</scale></LabelStyle><BalloonStyle><text><![CDATA[<h3>$[name]</h3>]]></text></BalloonStyle></Style><StyleMap id="icon-1899-FFEA00-nodesc"><Pair><key>normal</key><styleUrl>#icon-1899-FFEA00-nodesc-normal</styleUrl></Pair><Pair><key>highlight</key><styleUrl>#icon-1899-FFEA00-nodesc-highlight</styleUrl></Pair></StyleMap><Style id="line-0288D1-5000-nodesc-normal"><LineStyle><color>ffd18802</color><width>5</width></LineStyle><BalloonStyle><text><![CDATA[<h3>$[name]</h3>]]></text></BalloonStyle></Style><Style id="line-0288D1-5000-nodesc-highlight"><LineStyle><color>ffd18802</color><width>7.5</width></LineStyle><BalloonStyle><text><![CDATA[<h3>$[name]</h3>]]></text></BalloonStyle></Style><StyleMap id="line-0288D1-5000-nodesc"><Pair><key>normal</key><styleUrl>#line-0288D1-5000-nodesc-normal</styleUrl></Pair><Pair><key>highlight</key><styleUrl>#line-0288D1-5000-nodesc-highlight</styleUrl></Pair></StyleMap><Folder><name>Untitled layer</name><Placemark><name>Course</name><styleUrl>#line-0288D1-5000-nodesc</styleUrl><LineString><tessellate>1</tessellate><coordinates>            5.87308,53.21481,-1.58            5.87382,53.2148,-1.73            5.87436,53.2152,-1.75            5.87515,53.21529,-1.67            5.87557,53.21467,-1.83            5.87574,53.21463,-1.84            5.87625,53.21457,-1.77            5.87758,53.21465,-1.73            5.87759,53.21468,-1.73            5.87758,53.21468,-1.73            5.87783,53.21546,-1.84            5.87787,53.21565,-1.77            5.87763,53.21558,-1.84            5.87749,53.21557,-1.84            5.87642,53.21559,-1.76            5.87574,53.21561,-1.75            5.87527,53.21571,-1.67            5.87499,53.21573,-1.67            5.8743,53.21577,-1.67            5.87349,53.21578,-1.69            5.87279,53.21557,-1.84            5.87251,53.21554,-1.75            5.87254,53.21546,-1.74            5.87228,53.21541,-1.87            5.87081,53.2153,-2.05            5.8708,53.2153,-2.05            5.87033,53.21526,-2.14            5.86966,53.21528,-1.98            5.86925,53.21523,-1.91            5.86899499697322,53.2147250002309,-2.14            5.86874,53.21422,-2.27            5.86874,53.21421,-2.27            5.86862,53.21399,-2.31            5.86885,53.21393,-2.4            5.86905,53.21385,-2.41            5.86924,53.21374,-2.41            5.86934,53.21366,-2.29            5.86943,53.21364,-2.29            5.86969,53.21371,-2.29            5.86983,53.21377,-2.31            5.87,53.21391,-2.56            5.87009,53.21412,-2.58            5.87012,53.21417,-2.58            5.87012,53.21416,-2.58            5.87016,53.21422,-2.58            5.87028,53.21432,-2.47            5.87049,53.21442,-2.47            5.87071,53.21447,-2.42            5.87097,53.21448,-2.42            5.87129,53.21446,-2.31            5.87153,53.21441,-2.3            5.87176,53.21433,-2.13            5.87204,53.21416,-2.14            5.8724,53.21388,-2.13            5.87252,53.21383,-1.93            5.87326,53.21382,-1.58            5.87335,53.21402,-1.73            5.87335,53.21412,-1.73            5.87335,53.21411,-1.73            5.87337,53.21433,-1.75            5.87336,53.21455,-1.58            5.87323,53.21465,-1.58            5.87308,53.21481,-1.58          </coordinates></LineString></Placemark><Placemark><name>Start/Finish</name><styleUrl>#icon-1899-FFEA00-nodesc</styleUrl><Point><coordinates>            5.87308,53.21481,-1.58          </coordinates></Point></Placemark></Folder></Document></kml>