<?xml version="1.0" encoding="UTF-8"?><kml xmlns="http://www.opengis.net/kml/2.2"><Document><name>Karpendonkse Plas parkrun</name><description/><Style id="icon-1899-7CB342-nodesc-normal"><IconStyle><color>ff42b37c</color><scale>1</scale><Icon><href>https://www.gstatic.com/mapspro/images/stock/503-wht-blank_maps.png</href></Icon><hotSpot x="32" xunits="pixels" y="64" yunits="insetPixels"/></IconStyle><LabelStyle><scale>0</scale></LabelStyle><BalloonStyle><text><![CDATA[<h3>$[name]</h3>]]></text></BalloonStyle></Style><Style id="icon-1899-7CB342-nodesc-highlight"><IconStyle><color>ff42b37c</color><scale>1</scale><Icon><href>https://www.gstatic.com/mapspro/images/stock/503-wht-blank_maps.png</href></Icon><hotSpot x="32" xunits="pixels" y="64" yunits="insetPixels"/></IconStyle><LabelStyle><scale>1</scale></LabelStyle><BalloonStyle><text><![CDATA[<h3>$[name]</h3>]]></text></BalloonStyle></Style><StyleMap id="icon-1899-7CB342-nodesc"><Pair><key>normal</key><styleUrl>#icon-1899-7CB342-nodesc-normal</styleUrl></Pair><Pair><key>highlight</key><styleUrl>#icon-1899-7CB342-nodesc-highlight</styleUrl></Pair></StyleMap><Style id="icon-1899-FF5252-nodesc-normal"><IconStyle><color>ff5252ff</color><scale>1</scale><Icon><href>https://www.gstatic.com/mapspro/images/stock/503-wht-blank_maps.png</href></Icon><hotSpot x="32" xunits="pixels" y="64" yunits="insetPixels"/></IconStyle><LabelStyle><scale>0</scale></LabelStyle><BalloonStyle><text><![CDATA[<h3>$[name]</h3>]]></text></BalloonStyle></Style><Style id="icon-1899-FF5252-nodesc-highlight"><IconStyle><color>ff5252ff</color><scale>1</scale><Icon><href>https://www.gstatic.com/mapspro/images/stock/503-wht-blank_maps.png</href></Icon><hotSpot x="32" xunits="pixels" y="64" yunits="insetPixels"/></IconStyle><LabelStyle><scale>1</scale></LabelStyle><BalloonStyle><text><![CDATA[<h3>$[name]</h3>]]></text></BalloonStyle></Style><StyleMap id="icon-1899-FF5252-nodesc"><Pair><key>normal</key><styleUrl>#icon-1899-FF5252-nodesc-normal</styleUrl></Pair><Pair><key>highlight</key><styleUrl>#icon-1899-FF5252-nodesc-highlight</styleUrl></Pair></StyleMap><Style id="line-0288D1-4875-nodesc-normal"><LineStyle><color>ffd18802</color><width>4.875</width></LineStyle><BalloonStyle><text><![CDATA[<h3>$[name]</h3>]]></text></BalloonStyle></Style><Style id="line-0288D1-4875-nodesc-highlight"><LineStyle><color>ffd18802</color><width>7.3125</width></LineStyle><BalloonStyle><text><![CDATA[<h3>$[name]</h3>]]></text></BalloonStyle></Style><StyleMap id="line-0288D1-4875-nodesc"><Pair><key>normal</key><styleUrl>#line-0288D1-4875-nodesc-normal</styleUrl></Pair><Pair><key>highlight</key><styleUrl>#line-0288D1-4875-nodesc-highlight</styleUrl></Pair></StyleMap><Folder><name>Untitled layer</name><Placemark><name>Course</name><styleUrl>#line-0288D1-4875-nodesc</styleUrl><LineString><tessellate>1</tessellate><coordinates>            5.498673,51.451599,0            5.49849,51.451539,0            5.498201,51.451482,0            5.49804,51.451462,0            5.497578,51.451452,0            5.497165,51.451422,0            5.497074,51.451699,0            5.496951,51.451984,0            5.496854,51.452127,0            5.496709,51.452264,0            5.496581,51.452371,0            5.497026,51.452619,0            5.49775,51.453043,0            5.49789,51.453144,0            5.497975,51.453107,0            5.498115,51.45308,0            5.498281,51.45307,0            5.498598,51.453093,0            5.499054,51.45316,0            5.49915,51.452849,0            5.499145,51.452528,0            5.49907,51.452221,0            5.498962,51.452024,0            5.498571,51.451445,0            5.498399,51.451215,0            5.498351,51.451098,0            5.498319,51.450947,0            5.498346,51.450847,0            5.498421,51.450777,0            5.498592,51.450706,0            5.498796,51.450673,0            5.498978,51.45067,0            5.499247,51.4507,0            5.500126,51.450934,0            5.500438,51.451024,0            5.501403,51.451372,0            5.502004,51.451733,0            5.50209,51.451806,0            5.502181,51.451937,0            5.502358,51.452535,0            5.502471,51.45298,0            5.502583,51.453521,0            5.502632,51.453866,0            5.502632,51.45418,0            5.502535,51.454745,0            5.502519,51.454989,0            5.502519,51.45526,0            5.502535,51.45543,0            5.502562,51.455487,0            5.50261,51.455721,0            5.502728,51.456032,0            5.502857,51.456292,0            5.503061,51.456597,0            5.503275,51.456871,0            5.503442,51.457034,0            5.502508,51.457639,0            5.50187,51.457666,0            5.501473,51.457703,0            5.500856,51.457723,0            5.499992,51.457696,0            5.499971,51.457426,0            5.499853,51.457115,0            5.49959,51.45658,0            5.499161,51.455992,0            5.498994,51.455731,0            5.498667,51.455159,0            5.498378,51.454708,0            5.498346,51.454624,0            5.49848,51.454116,0            5.498506,51.453892,0            5.498651,51.453738,0            5.499054,51.453157,0            5.498887,51.453137,0            5.498694,51.453107,0            5.498362,51.453073,0            5.498083,51.452522,0          </coordinates></LineString></Placemark><Placemark><name>Start</name><styleUrl>#icon-1899-7CB342-nodesc</styleUrl><Point><coordinates>            5.49849,51.451539,0          </coordinates></Point></Placemark><Placemark><name>Finish</name><styleUrl>#icon-1899-FF5252-nodesc</styleUrl><Point><coordinates>            5.498083,51.452522,0          </coordinates></Point></Placemark></Folder></Document></kml>