<?xml version="1.0" encoding="UTF-8"?><kml xmlns="http://www.opengis.net/kml/2.2"><Document><name>Kralingse Bos parkrun</name><description/><Style id="icon-1899-FFEA00-nodesc-normal"><IconStyle><color>ff00eaff</color><scale>1</scale><Icon><href>https://www.gstatic.com/mapspro/images/stock/503-wht-blank_maps.png</href></Icon><hotSpot x="32" xunits="pixels" y="64" yunits="insetPixels"/></IconStyle><LabelStyle><scale>0</scale></LabelStyle><BalloonStyle><text><![CDATA[<h3>$[name]</h3>]]></text></BalloonStyle></Style><Style id="icon-1899-FFEA00-nodesc-highlight"><IconStyle><color>ff00eaff</color><scale>1</scale><Icon><href>https://www.gstatic.com/mapspro/images/stock/503-wht-blank_maps.png</href></Icon><hotSpot x="32" xunits="pixels" y="64" yunits="insetPixels"/></IconStyle><LabelStyle><scale>1</scale></LabelStyle><BalloonStyle><text><![CDATA[<h3>$[name]</h3>]]></text></BalloonStyle></Style><StyleMap id="icon-1899-FFEA00-nodesc"><Pair><key>normal</key><styleUrl>#icon-1899-FFEA00-nodesc-normal</styleUrl></Pair><Pair><key>highlight</key><styleUrl>#icon-1899-FFEA00-nodesc-highlight</styleUrl></Pair></StyleMap><Style id="line-0288D1-5000-nodesc-normal"><LineStyle><color>ffd18802</color><width>5</width></LineStyle><BalloonStyle><text><![CDATA[<h3>$[name]</h3>]]></text></BalloonStyle></Style><Style id="line-0288D1-5000-nodesc-highlight"><LineStyle><color>ffd18802</color><width>7.5</width></LineStyle><BalloonStyle><text><![CDATA[<h3>$[name]</h3>]]></text></BalloonStyle></Style><StyleMap id="line-0288D1-5000-nodesc"><Pair><key>normal</key><styleUrl>#line-0288D1-5000-nodesc-normal</styleUrl></Pair><Pair><key>highlight</key><styleUrl>#line-0288D1-5000-nodesc-highlight</styleUrl></Pair></StyleMap><Folder><name>Untitled layer</name><Placemark><name>Course</name><styleUrl>#line-0288D1-5000-nodesc</styleUrl><LineString><tessellate>1</tessellate><coordinates>            4.523245,51.935079,-10            4.52359,51.935578,-10            4.525174,51.937913,-10            4.525417,51.937851,-10            4.525438,51.937846,-10            4.525549,51.938032,-10            4.525369,51.938067,-10            4.524779,51.938205,-10            4.524666,51.93829,-10            4.52447,51.938519,-10            4.52436,51.938677,-10            4.524257,51.938824,-10            4.524165,51.938957,-10            4.524143,51.939028,-10            4.524044,51.939295,-10            4.524,51.9394,-10            4.5237,51.9395,-10            4.523384,51.9395,-10            4.523,51.9395,-10            4.523246,51.939691,-10            4.52351,51.939896,-10            4.523784,51.940186,-10            4.52384,51.940245,-10            4.523809,51.94048,-10            4.5236,51.9409,-10            4.522981,51.941617,-10            4.522539,51.942013,-10            4.521996,51.942399,-10            4.5212,51.9428,-10            4.520592,51.943146,-10            4.520295,51.943199,-10            4.520047,51.943344,-10            4.519806,51.943409,-10            4.519062,51.94344,-10            4.517,51.9434,-10            4.5164,51.9435,-10            4.516,51.9437,-10            4.5154,51.9438,-10            4.5148,51.9438,-10            4.5142,51.9437,-10            4.514095,51.943656,-10            4.51381,51.943536,-10            4.512502,51.94347,-10            4.512023,51.943421,-10            4.511744,51.94335,-10            4.511589,51.943311,-10            4.5106,51.9432,-10            4.5098,51.9428,-10            4.5097,51.9427,-10            4.5091,51.9425,-10            4.5078,51.9423,-10            4.505909,51.941765,-10            4.505649,51.941665,-10            4.5054,51.9415,-10            4.5052,51.9413,-10            4.5052,51.9401,-10            4.504629,51.939836,-10            4.503114,51.939133,-10            4.50309,51.939089,-10            4.5031,51.939,-10            4.503226,51.938927,-10            4.503404,51.938894,-10            4.503492,51.938854,-10            4.503787,51.938832,-10            4.504582,51.938776,-10            4.505356,51.938727,-10            4.506811,51.938632,-10            4.506931,51.938855,-10            4.507435,51.939797,-10            4.507699,51.940355,-10            4.508077,51.940576,-10            4.508777,51.940793,-10            4.509631,51.941058,-10            4.511532,51.941711,-10            4.512777,51.942117,-10            4.513054,51.942287,-10            4.513498,51.942424,-10            4.513882,51.942497,-10            4.514471,51.942559,-10            4.515078,51.942623,-10            4.515577,51.942544,-10            4.516106,51.94233,-10            4.516413,51.942148,-10            4.516884,51.941708,-10            4.516971,51.941285,-10            4.517032,51.940991,-10            4.517084,51.940843,-10            4.517164,51.940719,-10            4.517404,51.940632,-10            4.5176,51.9406,-10            4.517881,51.940522,-10            4.51914,51.940092,-10            4.519544,51.940011,-10            4.519863,51.939921,-10            4.5208,51.9396,-10            4.521404,51.93927,-10            4.521607,51.939159,-10            4.522081,51.939039,-10            4.5224,51.9391,-10            4.522918,51.939445,-10            4.523,51.9395,-10            4.5237,51.9395,-10            4.524,51.9394,-10            4.524143,51.939029,-10            4.524165,51.938957,-10            4.52447,51.938519,-10            4.524666,51.93829,-10            4.524779,51.938205,-10            4.525503,51.938041,-10            4.525549,51.938032,-10            4.525438,51.937846,-10            4.525174,51.937913,-10            4.525091,51.937791,-10            4.52325,51.935075,-10          </coordinates></LineString></Placemark><Placemark><name>Start/Finish</name><styleUrl>#icon-1899-FFEA00-nodesc</styleUrl><Point><coordinates>            4.523245,51.935079,0          </coordinates></Point></Placemark></Folder></Document></kml>