<?xml version="1.0" encoding="UTF-8"?><kml xmlns="http://www.opengis.net/kml/2.2"><Document><name>Zegerplas parkrun</name><description/><Style id="icon-1899-FFEA00-nodesc-normal"><IconStyle><color>ff00eaff</color><scale>1</scale><Icon><href>https://www.gstatic.com/mapspro/images/stock/503-wht-blank_maps.png</href></Icon><hotSpot x="32" xunits="pixels" y="64" yunits="insetPixels"/></IconStyle><LabelStyle><scale>0</scale></LabelStyle><BalloonStyle><text><![CDATA[<h3>$[name]</h3>]]></text></BalloonStyle></Style><Style id="icon-1899-FFEA00-nodesc-highlight"><IconStyle><color>ff00eaff</color><scale>1</scale><Icon><href>https://www.gstatic.com/mapspro/images/stock/503-wht-blank_maps.png</href></Icon><hotSpot x="32" xunits="pixels" y="64" yunits="insetPixels"/></IconStyle><LabelStyle><scale>1</scale></LabelStyle><BalloonStyle><text><![CDATA[<h3>$[name]</h3>]]></text></BalloonStyle></Style><StyleMap id="icon-1899-FFEA00-nodesc"><Pair><key>normal</key><styleUrl>#icon-1899-FFEA00-nodesc-normal</styleUrl></Pair><Pair><key>highlight</key><styleUrl>#icon-1899-FFEA00-nodesc-highlight</styleUrl></Pair></StyleMap><Style id="line-0288D1-5000-nodesc-normal"><LineStyle><color>ffd18802</color><width>5</width></LineStyle><BalloonStyle><text><![CDATA[<h3>$[name]</h3>]]></text></BalloonStyle></Style><Style id="line-0288D1-5000-nodesc-highlight"><LineStyle><color>ffd18802</color><width>7.5</width></LineStyle><BalloonStyle><text><![CDATA[<h3>$[name]</h3>]]></text></BalloonStyle></Style><StyleMap id="line-0288D1-5000-nodesc"><Pair><key>normal</key><styleUrl>#line-0288D1-5000-nodesc-normal</styleUrl></Pair><Pair><key>highlight</key><styleUrl>#line-0288D1-5000-nodesc-highlight</styleUrl></Pair></StyleMap><Folder><name>Untitled layer</name><Placemark><name>Course</name><styleUrl>#line-0288D1-5000-nodesc</styleUrl><LineString><tessellate>1</tessellate><coordinates>            4.68655,52.14144,0.05            4.68697,52.141,0.01            4.68715,52.14084,-0.08            4.6875,52.1404,1.71            4.6881,52.1403,2.05            4.68839,52.1401,2.15            4.6886,52.1397,1.89            4.6888,52.13942,1.99            4.6889,52.1393,1.97            4.68919,52.1391,1.43            4.6894,52.139,1.31            4.68965,52.13897,1.32            4.68973,52.13887,1.16            4.68894,52.13858,0.69            4.68877,52.13856,0.69            4.68868,52.13858,0.68            4.68858,52.13863,0.57            4.68795668421817,52.1392566699412,0.46            4.68733335089647,52.1398833365964,0.5            4.68671,52.14051,0.49            4.6867,52.1406,0.43            4.68681,52.14095,0.33            4.6868,52.141,0.33            4.68640500348373,52.1413800005505,0.27            4.68601,52.14176,0.26            4.68581,52.14184,0.27            4.68539,52.14184,0.25            4.68422000051785,52.1418600057884,0.27            4.68305,52.14188,0.23            4.68298,52.14176,0.4            4.68234747395293,52.1411475051215,0.31            4.68171496530309,52.1405350068595,0.29            4.68108247404973,52.1399225052143,0.19            4.68045,52.13931,0.21            4.68021,52.13879,0.1            4.68021,52.13878,0.1            4.68008,52.13851,0.09            4.68002,52.13843,0.09            4.67991,52.13837,0.09            4.67971,52.13836,0.05            4.67941,52.13842,-0.05            4.67935,52.13842,-0.05            4.6791,52.13834,-0.38            4.67899,52.13833,-0.38            4.67829,52.13846,-0.62            4.67757500172845,52.138580002195,-0.84            4.67686,52.1387,-0.8            4.67656,52.13863,-0.8            4.67647,52.13853,-0.71            4.67642,52.13839,-0.71            4.6765,52.13827,-0.63            4.67668,52.13818,-0.63            4.67739,52.13804,-0.54            4.67755,52.13794,-0.4            4.67762,52.13783,-0.09            4.67759,52.13769,-0.04            4.67746,52.13753,0.1            4.67713,52.13718,0.16            4.67697,52.1369,0.27            4.67697,52.13668,0.31            4.67693,52.13646,0.45            4.6771,52.13616,0.45            4.67739000328305,52.1356550003635,0.52            4.67768,52.13515,0.64            4.67795,52.13478,0.72            4.67833,52.1346,0.53            4.6786,52.13421,0.68            4.67861,52.13421,0.69            4.67891,52.13356,0.95            4.67902,52.13337,0.95            4.67928,52.13315,0.95            4.67951,52.13309,0.92            4.67981,52.13307,0.78            4.67969,52.1333,0.42            4.67941,52.13354,0.49            4.67917,52.13389,0.43            4.67874,52.13454,0.54            4.67833,52.1346,0.53            4.67795,52.13478,0.72            4.67768,52.13515,0.64            4.67730500548175,52.1358050006509,0.52            4.67693,52.13646,0.45            4.67697,52.13668,0.31            4.67697,52.1369,0.27            4.67713,52.13718,0.16            4.67741,52.13748,0.14            4.67741,52.13747,0.14            4.67759,52.13769,-0.04            4.67762,52.13783,-0.09            4.67755,52.13794,-0.4            4.67739,52.13804,-0.54            4.67668,52.13818,-0.63            4.6765,52.13827,-0.63            4.67642,52.13839,-0.71            4.67647,52.13853,-0.71            4.67656,52.13863,-0.8            4.67686,52.1387,-0.8            4.67757500212413,52.1385800021285,-0.84            4.67829,52.13846,-0.62            4.67899,52.13833,-0.38            4.6791,52.13834,-0.38            4.67935,52.13842,-0.05            4.67941,52.13842,-0.05            4.67971,52.13836,0.05            4.67991,52.13837,0.09            4.68002,52.13843,0.09            4.68008,52.13851,0.05            4.68045,52.13931,0.25            4.68106999164432,52.139910001622,0.19            4.68169,52.14051,0.28            4.68168,52.14051,0.27            4.68232999080171,52.1411350017127,0.31            4.68298,52.14176,0.4            4.68305,52.14188,0.23            4.68443000056382,52.1418600080534,0.27            4.68581,52.14184,0.27            4.68601,52.14176,0.26            4.68640500325671,52.141380000769,0.27            4.6868,52.141,0.33            4.68681,52.14095,0.33            4.6867,52.1406,0.43            4.68671,52.14051,0.49            4.68725,52.13996,0.49            4.68791500990796,52.1392950018906,0.46            4.68858,52.13863,0.57            4.68868,52.13858,0.71            4.68881,52.13856,0.71            4.68894,52.13858,0.76            4.68903,52.13861,0.76            4.68902,52.13861,0.76            4.68973,52.13887,1.16            4.68965,52.13897,1.32            4.6894,52.139,1.31            4.68919,52.1391,1.43            4.6889,52.1393,1.97            4.6886,52.1397,1.89            4.68846,52.13996,2.15            4.68839,52.1401,2.15            4.6881,52.1403,2.05            4.6875,52.1404,0.71            4.68715,52.14084,-0.08            4.68687,52.1411,0.01            4.6867,52.14128,0.02            4.68663,52.14136,0.03            4.68657,52.14142,0.04          </coordinates></LineString></Placemark><Placemark><name>Start/Finish</name><styleUrl>#icon-1899-FFEA00-nodesc</styleUrl><Point><coordinates>            4.68655,52.14144,0.05          </coordinates></Point></Placemark></Folder></Document></kml>