<?xml version="1.0" encoding="UTF-8"?><kml xmlns="http://www.opengis.net/kml/2.2"><Document><name>Altona Beach parkrun</name><description/><Style id="icon-503-009D57-nodesc-normal"><IconStyle><color>ff579d00</color><scale>1.1</scale><Icon><href>https://www.gstatic.com/mapspro/images/stock/503-wht-blank_maps.png</href></Icon><hotSpot x="16" xunits="pixels" y="32" yunits="insetPixels"/></IconStyle><LabelStyle><scale>0</scale></LabelStyle><BalloonStyle><text><![CDATA[<h3>$[name]</h3>]]></text></BalloonStyle></Style><Style id="icon-503-009D57-nodesc-highlight"><IconStyle><color>ff579d00</color><scale>1.1</scale><Icon><href>https://www.gstatic.com/mapspro/images/stock/503-wht-blank_maps.png</href></Icon><hotSpot x="16" xunits="pixels" y="32" yunits="insetPixels"/></IconStyle><LabelStyle><scale>1.1</scale></LabelStyle><BalloonStyle><text><![CDATA[<h3>$[name]</h3>]]></text></BalloonStyle></Style><StyleMap id="icon-503-009D57-nodesc"><Pair><key>normal</key><styleUrl>#icon-503-009D57-nodesc-normal</styleUrl></Pair><Pair><key>highlight</key><styleUrl>#icon-503-009D57-nodesc-highlight</styleUrl></Pair></StyleMap><Style id="icon-503-DB4436-nodesc-normal"><IconStyle><color>ff3644db</color><scale>1.1</scale><Icon><href>https://www.gstatic.com/mapspro/images/stock/503-wht-blank_maps.png</href></Icon><hotSpot x="16" xunits="pixels" y="32" yunits="insetPixels"/></IconStyle><LabelStyle><scale>0</scale></LabelStyle><BalloonStyle><text><![CDATA[<h3>$[name]</h3>]]></text></BalloonStyle></Style><Style id="icon-503-DB4436-nodesc-highlight"><IconStyle><color>ff3644db</color><scale>1.1</scale><Icon><href>https://www.gstatic.com/mapspro/images/stock/503-wht-blank_maps.png</href></Icon><hotSpot x="16" xunits="pixels" y="32" yunits="insetPixels"/></IconStyle><LabelStyle><scale>1.1</scale></LabelStyle><BalloonStyle><text><![CDATA[<h3>$[name]</h3>]]></text></BalloonStyle></Style><StyleMap id="icon-503-DB4436-nodesc"><Pair><key>normal</key><styleUrl>#icon-503-DB4436-nodesc-normal</styleUrl></Pair><Pair><key>highlight</key><styleUrl>#icon-503-DB4436-nodesc-highlight</styleUrl></Pair></StyleMap><Style id="line-4186F0-4509-nodesc-normal"><LineStyle><color>fff08641</color><width>4.509</width></LineStyle><BalloonStyle><text><![CDATA[<h3>$[name]</h3>]]></text></BalloonStyle></Style><Style id="line-4186F0-4509-nodesc-highlight"><LineStyle><color>fff08641</color><width>6.7635</width></LineStyle><BalloonStyle><text><![CDATA[<h3>$[name]</h3>]]></text></BalloonStyle></Style><StyleMap id="line-4186F0-4509-nodesc"><Pair><key>normal</key><styleUrl>#line-4186F0-4509-nodesc-normal</styleUrl></Pair><Pair><key>highlight</key><styleUrl>#line-4186F0-4509-nodesc-highlight</styleUrl></Pair></StyleMap><Folder><name>Untitled layer</name><Placemark><name>Course</name><styleUrl>#line-4186F0-4509-nodesc</styleUrl><LineString><tessellate>1</tessellate><coordinates>            144.811918,-37.875243,0            144.81313,-37.874625,0            144.81343,-37.874955,0            144.81239,-37.875616,0            144.812604,-37.875904,0            144.812658,-37.87598,0            144.811982,-37.87653,0            144.811542,-37.877021,0            144.811424,-37.877394,0            144.811263,-37.877606,0            144.811027,-37.877656,0            144.810866,-37.877767,0            144.809922,-37.878724,0            144.80931,-37.879249,0            144.80915,-37.879308,0            144.808216,-37.879452,0            144.807905,-37.879393,0            144.807594,-37.879122,0            144.807368,-37.879105,0            144.807111,-37.879189,0            144.806671,-37.879511,0            144.806392,-37.879604,0            144.805952,-37.879452,0            144.80356,-37.879062,0            144.803206,-37.880138,0            144.803066,-37.880222,0            144.801081,-37.879994,0            144.80077,-37.880095,0            144.800395,-37.880121,0            144.799955,-37.880544,0            144.799719,-37.88068,0            144.799418,-37.880781,0            144.798228,-37.880688,0            144.798024,-37.880764,0            144.797444,-37.881162,0            144.797037,-37.881484,0            144.796414,-37.882077,0            144.796479,-37.882289,0            144.796693,-37.882416,0            144.796929,-37.882466,0            144.797316,-37.882492,0            144.797777,-37.882653,0            144.798206,-37.882907,0            144.798592,-37.883254,0            144.798667,-37.883567,0            144.798517,-37.883728,0            144.798292,-37.883881,0            144.798024,-37.883974,0            144.797756,-37.883991,0            144.797562,-37.883914,0            144.797358,-37.883779,0            144.797466,-37.883669,0            144.797573,-37.883762,0            144.797562,-37.883914,0            144.797906,-37.884008,0            144.798045,-37.883957,0            144.798163,-37.883923,0            144.798324,-37.883872,0            144.798431,-37.883804,0            144.798506,-37.883728,0            144.798582,-37.883652,0            144.798667,-37.883533,0            144.798646,-37.883432,0            144.798582,-37.883262,0            144.798238,-37.882941,0            144.797777,-37.882678,0            144.797541,-37.882585,0            144.797337,-37.8825,0            144.797133,-37.882509,0            144.796919,-37.882475,0            144.796811,-37.88245,0            144.796586,-37.882365,0            144.796468,-37.882314,0            144.796425,-37.88206,0            144.797251,-37.881264,0            144.798152,-37.880705,0            144.799408,-37.880781,0            144.79973,-37.880705,0            144.799955,-37.880527,0            144.800416,-37.880121,0            144.80077,-37.880104,0            144.801092,-37.879968,0            144.803098,-37.880239,0            144.803227,-37.880146,0            144.803581,-37.879037,0            144.805963,-37.879426,0            144.806403,-37.879613,0            144.806575,-37.879545,0            144.806682,-37.879486,0            144.8071,-37.879189,0            144.80724,-37.879122,0            144.807379,-37.879079,0            144.807497,-37.879088,0            144.807615,-37.879105,0            144.807937,-37.879426,0            144.808227,-37.87946,0            144.80916,-37.879316,0            144.80931,-37.87924,0            144.810394,-37.878249,0            144.810877,-37.877758,0            144.810973,-37.877707,0            144.811102,-37.87764,0            144.811295,-37.877606,0            144.81136,-37.877479,0            144.811456,-37.877326,0            144.811553,-37.87703,0            144.811746,-37.876776,0            144.811993,-37.87653,0            144.812347,-37.876242,0            144.812679,-37.875963,0            144.813184,-37.875607,0            144.813387,-37.875506,0            144.813387,-37.875243,0          </coordinates></LineString></Placemark><Placemark><name>Start</name><styleUrl>#icon-503-009D57-nodesc</styleUrl><Point><coordinates>            144.811918,-37.875243,0          </coordinates></Point></Placemark><Placemark><name>Finish</name><styleUrl>#icon-503-DB4436-nodesc</styleUrl><Point><coordinates>            144.813387,-37.875243,0          </coordinates></Point></Placemark></Folder></Document></kml>