<?xml version="1.0" encoding="UTF-8"?><kml xmlns="http://www.opengis.net/kml/2.2"><Document><name>Aplins Weir parkrun</name><description/><Style id="icon-1899-0F9D58-nodesc-normal"><IconStyle><color>ff589d0f</color><scale>1</scale><Icon><href>https://www.gstatic.com/mapspro/images/stock/503-wht-blank_maps.png</href></Icon><hotSpot x="32" xunits="pixels" y="64" yunits="insetPixels"/></IconStyle><LabelStyle><scale>0</scale></LabelStyle><BalloonStyle><text><![CDATA[<h3>$[name]</h3>]]></text></BalloonStyle></Style><Style id="icon-1899-0F9D58-nodesc-highlight"><IconStyle><color>ff589d0f</color><scale>1</scale><Icon><href>https://www.gstatic.com/mapspro/images/stock/503-wht-blank_maps.png</href></Icon><hotSpot x="32" xunits="pixels" y="64" yunits="insetPixels"/></IconStyle><LabelStyle><scale>1</scale></LabelStyle><BalloonStyle><text><![CDATA[<h3>$[name]</h3>]]></text></BalloonStyle></Style><StyleMap id="icon-1899-0F9D58-nodesc"><Pair><key>normal</key><styleUrl>#icon-1899-0F9D58-nodesc-normal</styleUrl></Pair><Pair><key>highlight</key><styleUrl>#icon-1899-0F9D58-nodesc-highlight</styleUrl></Pair></StyleMap><Style id="icon-1899-FF5252-nodesc-normal"><IconStyle><color>ff5252ff</color><scale>1</scale><Icon><href>https://www.gstatic.com/mapspro/images/stock/503-wht-blank_maps.png</href></Icon><hotSpot x="32" xunits="pixels" y="64" yunits="insetPixels"/></IconStyle><LabelStyle><scale>0</scale></LabelStyle><BalloonStyle><text><![CDATA[<h3>$[name]</h3>]]></text></BalloonStyle></Style><Style id="icon-1899-FF5252-nodesc-highlight"><IconStyle><color>ff5252ff</color><scale>1</scale><Icon><href>https://www.gstatic.com/mapspro/images/stock/503-wht-blank_maps.png</href></Icon><hotSpot x="32" xunits="pixels" y="64" yunits="insetPixels"/></IconStyle><LabelStyle><scale>1</scale></LabelStyle><BalloonStyle><text><![CDATA[<h3>$[name]</h3>]]></text></BalloonStyle></Style><StyleMap id="icon-1899-FF5252-nodesc"><Pair><key>normal</key><styleUrl>#icon-1899-FF5252-nodesc-normal</styleUrl></Pair><Pair><key>highlight</key><styleUrl>#icon-1899-FF5252-nodesc-highlight</styleUrl></Pair></StyleMap><Style id="line-0288D1-5263-nodesc-normal"><LineStyle><color>ffd18802</color><width>5.263</width></LineStyle><BalloonStyle><text><![CDATA[<h3>$[name]</h3>]]></text></BalloonStyle></Style><Style id="line-0288D1-5263-nodesc-highlight"><LineStyle><color>ffd18802</color><width>7.8945</width></LineStyle><BalloonStyle><text><![CDATA[<h3>$[name]</h3>]]></text></BalloonStyle></Style><StyleMap id="line-0288D1-5263-nodesc"><Pair><key>normal</key><styleUrl>#line-0288D1-5263-nodesc-normal</styleUrl></Pair><Pair><key>highlight</key><styleUrl>#line-0288D1-5263-nodesc-highlight</styleUrl></Pair></StyleMap><Folder><name>Untitled layer</name><Placemark><name>Course</name><styleUrl>#line-0288D1-5263-nodesc</styleUrl><LineString><tessellate>1</tessellate><coordinates>            146.781694,-19.304739,0            146.781887,-19.30437,0            146.78208,-19.304197,0            146.782402,-19.303995,0            146.783245,-19.303537,0            146.784293,-19.302949,0            146.784849,-19.302681,0            146.785374,-19.302554,0            146.785573,-19.302537,0            146.786155,-19.302392,0            146.786254,-19.302377,0            146.787091,-19.302408,0            146.78733,-19.302471,0            146.787566,-19.30259,0            146.787673,-19.302643,0            146.787941,-19.302689,0            146.788716,-19.30278,0            146.789078,-19.302823,0            146.789618,-19.302891,0            146.789811,-19.302909,0            146.790267,-19.302876,0            146.790412,-19.302884,0            146.791031,-19.302975,0            146.791793,-19.303144,0            146.7926,-19.303253,0            146.792812,-19.303301,0            146.793877,-19.303491,0            146.794014,-19.303521,0            146.794467,-19.303681,0            146.794829,-19.303853,0            146.795146,-19.30397,0            146.795484,-19.304114,0            146.795693,-19.304202,0            146.796264,-19.304374,0            146.796398,-19.304448,0            146.79675,-19.304673,0            146.797171,-19.305023,0            146.797541,-19.305319,0            146.797726,-19.305526,0            146.798297,-19.305863,0            146.798442,-19.305972,0            146.799005,-19.306767,0            146.799078,-19.306901,0            146.799174,-19.307354,0            146.800092,-19.307321,0            146.800285,-19.307334,0            146.80044,-19.307422,0            146.800518,-19.307491,0            146.80059,-19.307478,0            146.800663,-19.307432,0            146.800768,-19.307329,0            146.800931,-19.307225,0            146.801307,-19.307012,0            146.801417,-19.306931,0            146.801661,-19.306774,0            146.801913,-19.30664,0            146.802004,-19.306597,0            146.802098,-19.306577,0            146.802414,-19.306579,0            146.802433,-19.306612,0            146.802098,-19.306612,0            146.801985,-19.306622,0            146.801881,-19.306655,0          </coordinates></LineString></Placemark><Placemark><name>Finish</name><styleUrl>#icon-1899-FF5252-nodesc</styleUrl><Point><coordinates>            146.781828,-19.304734,0          </coordinates></Point></Placemark><Placemark><name>Start</name><styleUrl>#icon-1899-0F9D58-nodesc</styleUrl><Point><coordinates>            146.781614,-19.304653,0          </coordinates></Point></Placemark></Folder></Document></kml>