<?xml version="1.0" encoding="UTF-8"?><kml xmlns="http://www.opengis.net/kml/2.2"><Document><name>Ashgrove parkrun</name><description/><Style id="icon-503-62AF44-nodesc-normal"><IconStyle><color>ff44af62</color><scale>1.1</scale><Icon><href>https://www.gstatic.com/mapspro/images/stock/503-wht-blank_maps.png</href></Icon><hotSpot x="16" xunits="pixels" y="32" yunits="insetPixels"/></IconStyle><LabelStyle><scale>0</scale></LabelStyle><BalloonStyle><text><![CDATA[<h3>$[name]</h3>]]></text></BalloonStyle></Style><Style id="icon-503-62AF44-nodesc-highlight"><IconStyle><color>ff44af62</color><scale>1.1</scale><Icon><href>https://www.gstatic.com/mapspro/images/stock/503-wht-blank_maps.png</href></Icon><hotSpot x="16" xunits="pixels" y="32" yunits="insetPixels"/></IconStyle><LabelStyle><scale>1.1</scale></LabelStyle><BalloonStyle><text><![CDATA[<h3>$[name]</h3>]]></text></BalloonStyle></Style><StyleMap id="icon-503-62AF44-nodesc"><Pair><key>normal</key><styleUrl>#icon-503-62AF44-nodesc-normal</styleUrl></Pair><Pair><key>highlight</key><styleUrl>#icon-503-62AF44-nodesc-highlight</styleUrl></Pair></StyleMap><Style id="icon-503-DB4436-nodesc-normal"><IconStyle><color>ff3644db</color><scale>1.1</scale><Icon><href>https://www.gstatic.com/mapspro/images/stock/503-wht-blank_maps.png</href></Icon><hotSpot x="16" xunits="pixels" y="32" yunits="insetPixels"/></IconStyle><LabelStyle><scale>0</scale></LabelStyle><BalloonStyle><text><![CDATA[<h3>$[name]</h3>]]></text></BalloonStyle></Style><Style id="icon-503-DB4436-nodesc-highlight"><IconStyle><color>ff3644db</color><scale>1.1</scale><Icon><href>https://www.gstatic.com/mapspro/images/stock/503-wht-blank_maps.png</href></Icon><hotSpot x="16" xunits="pixels" y="32" yunits="insetPixels"/></IconStyle><LabelStyle><scale>1.1</scale></LabelStyle><BalloonStyle><text><![CDATA[<h3>$[name]</h3>]]></text></BalloonStyle></Style><StyleMap id="icon-503-DB4436-nodesc"><Pair><key>normal</key><styleUrl>#icon-503-DB4436-nodesc-normal</styleUrl></Pair><Pair><key>highlight</key><styleUrl>#icon-503-DB4436-nodesc-highlight</styleUrl></Pair></StyleMap><Style id="line-4186F0-4509-nodesc-normal"><LineStyle><color>fff08641</color><width>4.509</width></LineStyle><BalloonStyle><text><![CDATA[<h3>$[name]</h3>]]></text></BalloonStyle></Style><Style id="line-4186F0-4509-nodesc-highlight"><LineStyle><color>fff08641</color><width>6.7635</width></LineStyle><BalloonStyle><text><![CDATA[<h3>$[name]</h3>]]></text></BalloonStyle></Style><StyleMap id="line-4186F0-4509-nodesc"><Pair><key>normal</key><styleUrl>#line-4186F0-4509-nodesc-normal</styleUrl></Pair><Pair><key>highlight</key><styleUrl>#line-4186F0-4509-nodesc-highlight</styleUrl></Pair></StyleMap><Folder><name>Course</name><Placemark><name>Start</name><styleUrl>#icon-503-62AF44-nodesc</styleUrl><Point><coordinates>            152.973102,-27.442711,0          </coordinates></Point></Placemark><Placemark><name>Course</name><styleUrl>#line-4186F0-4509-nodesc</styleUrl><LineString><tessellate>1</tessellate><coordinates>            152.973129,-27.442754,0            152.973172,-27.441935,0            152.97329,-27.44184,0            152.973429,-27.441783,0            152.973622,-27.441802,0            152.973901,-27.441859,0            152.974169,-27.441926,0            152.974534,-27.442012,0            152.974738,-27.442021,0            152.974867,-27.441945,0            152.974995,-27.44183,0            152.975028,-27.441697,0            152.975103,-27.441535,0            152.975103,-27.441431,0            152.975113,-27.441297,0            152.974995,-27.441145,0            152.974802,-27.44104,0            152.974416,-27.440926,0            152.974094,-27.440878,0            152.973751,-27.44085,0            152.973375,-27.440821,0            152.972882,-27.440802,0            152.972699,-27.440869,0            152.972517,-27.441078,0            152.972388,-27.441316,0            152.97226,-27.441592,0            152.972174,-27.441878,0            152.972056,-27.442154,0            152.972002,-27.442459,0            152.972066,-27.442726,0            152.97227,-27.442916,0            152.972506,-27.44303,0            152.972807,-27.443144,0            152.973064,-27.443135,0            152.973255,-27.443164,0            152.973342,-27.443193,0            152.973354,-27.443211,0            152.973307,-27.44323,0            152.97325,-27.443243,0            152.9731,-27.443284,0            152.972939,-27.443326,0            152.972678,-27.443318,0            152.972459,-27.443298,0            152.972309,-27.443246,0            152.972109,-27.443147,0            152.971974,-27.442997,0            152.971813,-27.442784,0            152.97179,-27.442747,0            152.971715,-27.442348,0            152.97173,-27.442233,0            152.971742,-27.44212,0            152.971821,-27.441939,0            152.97196,-27.441653,0            152.972013,-27.441492,0            152.972062,-27.441342,0            152.972291,-27.440938,0            152.972328,-27.440778,0            152.972459,-27.440638,0            152.972693,-27.440533,0            152.972896,-27.440489,0            152.973186,-27.440407,0            152.973438,-27.440384,0            152.973681,-27.440411,0            152.973748,-27.440414,0            152.974074,-27.440508,0            152.974216,-27.440552,0            152.97433,-27.440604,0            152.974462,-27.440653,0            152.974594,-27.440696,0            152.974659,-27.440707,0            152.974858,-27.440724,0            152.974894,-27.440734,0            152.974984,-27.440792,0            152.975152,-27.440912,0            152.975306,-27.441036,0            152.975382,-27.4411,0            152.975488,-27.441237,0            152.97559,-27.441338,0            152.975658,-27.441393,0            152.975708,-27.441432,0            152.97575,-27.441475,0            152.975772,-27.441502,0            152.975785,-27.441501,0            152.975789,-27.441484,0            152.975777,-27.441461,0            152.975752,-27.44144,0            152.975697,-27.441389,0            152.975568,-27.44129,0            152.97549,-27.4412,0            152.975422,-27.441109,0            152.975374,-27.441054,0            152.975256,-27.440952,0            152.975091,-27.440826,0            152.9749,-27.440705,0            152.974758,-27.440692,0            152.974616,-27.440675,0            152.974513,-27.440647,0            152.974411,-27.440611,0            152.974233,-27.440533,0            152.973853,-27.44042,0            152.973746,-27.44039,0            152.973424,-27.440364,0            152.973193,-27.440381,0            152.972919,-27.440457,0            152.972675,-27.440516,0            152.972439,-27.440616,0            152.972302,-27.440757,0            152.972262,-27.440936,0            152.972037,-27.441346,0            152.971942,-27.441641,0            152.971887,-27.44174,0            152.971707,-27.442116,0            152.971688,-27.442345,0            152.971723,-27.442567,0            152.971765,-27.442754,0            152.971818,-27.442831,0            152.971934,-27.44299,0            152.972085,-27.443161,0            152.972119,-27.443179,0            152.9723,-27.443266,0            152.972428,-27.443318,0            152.972626,-27.44334,0            152.972844,-27.443349,0            152.972954,-27.443354,0            152.973501,-27.443211,0            152.973756,-27.443149,0            152.973896,-27.443135,0            152.974118,-27.44313,0            152.974306,-27.443137,0            152.974401,-27.443138,0            152.974547,-27.443114,0            152.97464,-27.443111,0            152.97473,-27.443124,0            152.974793,-27.443143,0            152.974914,-27.443201,0            152.975035,-27.443302,0            152.975121,-27.443401,0            152.975258,-27.443571,0            152.975306,-27.443624,0            152.975458,-27.443882,0            152.975493,-27.444063,0            152.97553,-27.444337,0            152.975544,-27.444549,0            152.975599,-27.444814,0            152.975622,-27.444907,0            152.975639,-27.445002,0            152.975685,-27.445219,0            152.975764,-27.44535,0            152.975817,-27.445546,0            152.975848,-27.445749,0            152.975854,-27.445818,0            152.975837,-27.445924,0            152.975844,-27.446088,0            152.975839,-27.446363,0            152.975824,-27.446577,0            152.975768,-27.446741,0            152.975461,-27.447088,0            152.975351,-27.447244,0            152.975313,-27.447316,0            152.975292,-27.44738,0            152.975273,-27.447458,0            152.975266,-27.447531,0            152.975299,-27.447581,0            152.975355,-27.447594,0            152.975394,-27.447546,0            152.975416,-27.447483,0            152.975545,-27.447098,0            152.975573,-27.447021,0            152.975618,-27.446954,0            152.975793,-27.446752,0            152.975849,-27.446599,0            152.975864,-27.446418,0            152.975867,-27.446216,0            152.975871,-27.446038,0            152.975864,-27.445932,0            152.975883,-27.445819,0            152.975851,-27.445564,0            152.975788,-27.44535,0            152.975708,-27.445209,0            152.975687,-27.4451,0            152.975627,-27.444807,0            152.975572,-27.444542,0            152.975552,-27.444314,0            152.975519,-27.444044,0            152.975488,-27.443883,0            152.97533,-27.443613,0            152.97529,-27.443568,0            152.975096,-27.443336,0            152.974936,-27.443183,0            152.974801,-27.443117,0            152.974663,-27.44309,0            152.974554,-27.443083,0            152.974381,-27.443107,0            152.974032,-27.443099,0            152.973902,-27.443101,0            152.973746,-27.443105,0            152.973603,-27.443106,0            152.973295,-27.443106,0            152.972989,-27.443121,0            152.972791,-27.443116,0            152.972673,-27.443059,0            152.972533,-27.443006,0            152.972302,-27.442892,0            152.972109,-27.442711,0            152.972045,-27.442454,0            152.972093,-27.442154,0            152.972206,-27.441883,0            152.972302,-27.441592,0            152.972426,-27.441326,0            152.972549,-27.441097,0            152.972721,-27.440897,0            152.972876,-27.44084,0            152.973375,-27.440864,0            152.973746,-27.440893,0            152.974094,-27.440916,0            152.974416,-27.440955,0            152.974792,-27.441078,0            152.974969,-27.441164,0            152.97507,-27.441302,0            152.97507,-27.441435,0            152.975065,-27.44154,0            152.97499,-27.441692,0            152.974958,-27.44183,0            152.974829,-27.441921,0            152.974716,-27.441988,0            152.974529,-27.441983,0            152.974185,-27.441888,0            152.973896,-27.441826,0            152.973633,-27.441773,0            152.973429,-27.441759,0            152.973263,-27.441821,0            152.973145,-27.441921,0            152.973102,-27.442711,0          </coordinates></LineString></Placemark><Placemark><name>Finish</name><styleUrl>#icon-503-DB4436-nodesc</styleUrl><Point><coordinates>            152.973129,-27.442754,0          </coordinates></Point></Placemark></Folder></Document></kml>