<?xml version="1.0" encoding="UTF-8"?><kml xmlns="http://www.opengis.net/kml/2.2"><Document><name>Australian Standing Stones parkrun (from Feb 2024)</name><description/><Style id="icon-1899-FFD600-nodesc-normal"><IconStyle><color>ff00d6ff</color><scale>1</scale><Icon><href>https://www.gstatic.com/mapspro/images/stock/503-wht-blank_maps.png</href></Icon><hotSpot x="32" xunits="pixels" y="64" yunits="insetPixels"/></IconStyle><LabelStyle><scale>0</scale></LabelStyle><BalloonStyle><text><![CDATA[<h3>$[name]</h3>]]></text></BalloonStyle></Style><Style id="icon-1899-FFD600-nodesc-highlight"><IconStyle><color>ff00d6ff</color><scale>1</scale><Icon><href>https://www.gstatic.com/mapspro/images/stock/503-wht-blank_maps.png</href></Icon><hotSpot x="32" xunits="pixels" y="64" yunits="insetPixels"/></IconStyle><LabelStyle><scale>1</scale></LabelStyle><BalloonStyle><text><![CDATA[<h3>$[name]</h3>]]></text></BalloonStyle></Style><StyleMap id="icon-1899-FFD600-nodesc"><Pair><key>normal</key><styleUrl>#icon-1899-FFD600-nodesc-normal</styleUrl></Pair><Pair><key>highlight</key><styleUrl>#icon-1899-FFD600-nodesc-highlight</styleUrl></Pair></StyleMap><Style id="line-0288D1-3906-nodesc-normal"><LineStyle><color>ffd18802</color><width>3.906</width></LineStyle><BalloonStyle><text><![CDATA[<h3>$[name]</h3>]]></text></BalloonStyle></Style><Style id="line-0288D1-3906-nodesc-highlight"><LineStyle><color>ffd18802</color><width>5.859</width></LineStyle><BalloonStyle><text><![CDATA[<h3>$[name]</h3>]]></text></BalloonStyle></Style><StyleMap id="line-0288D1-3906-nodesc"><Pair><key>normal</key><styleUrl>#line-0288D1-3906-nodesc-normal</styleUrl></Pair><Pair><key>highlight</key><styleUrl>#line-0288D1-3906-nodesc-highlight</styleUrl></Pair></StyleMap><Style id="line-0288D1-4100-nodesc-normal"><LineStyle><color>ffd18802</color><width>4.1</width></LineStyle><BalloonStyle><text><![CDATA[<h3>$[name]</h3>]]></text></BalloonStyle></Style><Style id="line-0288D1-4100-nodesc-highlight"><LineStyle><color>ffd18802</color><width>6.15</width></LineStyle><BalloonStyle><text><![CDATA[<h3>$[name]</h3>]]></text></BalloonStyle></Style><StyleMap id="line-0288D1-4100-nodesc"><Pair><key>normal</key><styleUrl>#line-0288D1-4100-nodesc-normal</styleUrl></Pair><Pair><key>highlight</key><styleUrl>#line-0288D1-4100-nodesc-highlight</styleUrl></Pair></StyleMap><Folder><name>Australian Standing Stones parkrun</name><Placemark><name>Start/Finish</name><styleUrl>#icon-1899-FFD600-nodesc</styleUrl><Point><coordinates>            151.752502,-29.741653,0          </coordinates></Point></Placemark><Placemark><name>Course</name><styleUrl>#line-0288D1-4100-nodesc</styleUrl><LineString><tessellate>1</tessellate><coordinates>            151.752506,-29.741567,0            151.752313,-29.740365,0            151.752045,-29.74003,0            151.751551,-29.739806,0            151.751251,-29.739508,0            151.751125,-29.7395,0            151.751165,-29.740039,0            151.751173,-29.740515,0            151.751197,-29.740933,0            151.751218,-29.741295,0            151.751251,-29.741576,0            151.751218,-29.741762,0            151.751068,-29.741967,0            151.750907,-29.742182,0            151.750746,-29.742368,0            151.750557,-29.742559,0            151.750506,-29.742773,0            151.750435,-29.74301,0            151.750446,-29.743393,0            151.750468,-29.743756,0            151.750607,-29.744063,0            151.750843,-29.744315,0            151.751036,-29.74438,0            151.751315,-29.744315,0            151.751497,-29.744175,0            151.751712,-29.744007,0            151.75198,-29.74383,0            151.75213,-29.743653,0            151.75227,-29.74342,0            151.752495,-29.743188,0            151.752613,-29.743039,0            151.752785,-29.74288,0            151.752887,-29.742768,0            151.752817,-29.742692,0            151.752619,-29.742622,0            151.752377,-29.742554,0            151.75224,-29.742638,0            151.752165,-29.742792,0            151.752206,-29.742957,0            151.752291,-29.743062,0            151.752393,-29.743185,0            151.752366,-29.743269,0            151.75227,-29.743355,0            151.752066,-29.743663,0            151.751755,-29.74397,0            151.75139,-29.744203,0            151.7511,-29.744333,0            151.750768,-29.74424,0            151.750532,-29.743896,0            151.750468,-29.743383,0            151.750457,-29.743011,0            151.750575,-29.742809,0            151.750714,-29.74261,0            151.750932,-29.74247,0            151.751091,-29.742345,0            151.751218,-29.742238,0            151.75139,-29.742191,0            151.751637,-29.742191,0            151.751862,-29.742175,0            151.752086,-29.742119,0            151.752133,-29.742078,0            151.752066,-29.742072,0            151.75164,-29.742013,0            151.751516,-29.741991,0            151.75138,-29.741939,0            151.751298,-29.741859,0            151.751229,-29.741744,0            151.751251,-29.741483,0            151.751208,-29.74111,0            151.751165,-29.740626,0            151.751176,-29.740123,0            151.751129,-29.739558,0            151.751224,-29.739528,0            151.751351,-29.739771,0            151.751434,-29.739921,0            151.751476,-29.740067,0            151.751582,-29.74026,0            151.751784,-29.740434,0            151.75192,-29.74062,0            151.752004,-29.740735,0            151.75198,-29.74084,0            151.751937,-29.741022,0            151.751792,-29.741136,0            151.751668,-29.741249,0            151.751562,-29.741399,0            151.751646,-29.741502,0            151.751734,-29.741583,0            151.751852,-29.741632,0            151.75212,-29.74166,0            151.752329,-29.741595,0            151.752466,-29.741362,0            151.75242,-29.741054,0          </coordinates></LineString></Placemark><Placemark><name>Finish</name><styleUrl>#line-0288D1-3906-nodesc</styleUrl><LineString><tessellate>1</tessellate><coordinates>            151.7521,-29.741667,0            151.752502,-29.741653,0          </coordinates></LineString></Placemark></Folder></Document></kml>