<?xml version="1.0" encoding="UTF-8"?><kml xmlns="http://www.opengis.net/kml/2.2"><Document><name>Bathurst parkrun</name><description/><Style id="icon-1644-0288D1-nodesc-normal"><IconStyle><color>ffd18802</color><scale>1</scale><Icon><href>https://www.gstatic.com/mapspro/images/stock/503-wht-blank_maps.png</href></Icon></IconStyle><LabelStyle><scale>0</scale></LabelStyle><BalloonStyle><text><![CDATA[<h3>$[name]</h3>]]></text></BalloonStyle></Style><Style id="icon-1644-0288D1-nodesc-highlight"><IconStyle><color>ffd18802</color><scale>1</scale><Icon><href>https://www.gstatic.com/mapspro/images/stock/503-wht-blank_maps.png</href></Icon></IconStyle><LabelStyle><scale>1</scale></LabelStyle><BalloonStyle><text><![CDATA[<h3>$[name]</h3>]]></text></BalloonStyle></Style><StyleMap id="icon-1644-0288D1-nodesc"><Pair><key>normal</key><styleUrl>#icon-1644-0288D1-nodesc-normal</styleUrl></Pair><Pair><key>highlight</key><styleUrl>#icon-1644-0288D1-nodesc-highlight</styleUrl></Pair></StyleMap><Style id="icon-1733-0288D1-nodesc-normal"><IconStyle><color>ffd18802</color><scale>1</scale><Icon><href>https://www.gstatic.com/mapspro/images/stock/503-wht-blank_maps.png</href></Icon></IconStyle><LabelStyle><scale>0</scale></LabelStyle><BalloonStyle><text><![CDATA[<h3>$[name]</h3>]]></text></BalloonStyle></Style><Style id="icon-1733-0288D1-nodesc-highlight"><IconStyle><color>ffd18802</color><scale>1</scale><Icon><href>https://www.gstatic.com/mapspro/images/stock/503-wht-blank_maps.png</href></Icon></IconStyle><LabelStyle><scale>1</scale></LabelStyle><BalloonStyle><text><![CDATA[<h3>$[name]</h3>]]></text></BalloonStyle></Style><StyleMap id="icon-1733-0288D1-nodesc"><Pair><key>normal</key><styleUrl>#icon-1733-0288D1-nodesc-normal</styleUrl></Pair><Pair><key>highlight</key><styleUrl>#icon-1733-0288D1-nodesc-highlight</styleUrl></Pair></StyleMap><Style id="icon-503-FFEA00-normal"><IconStyle><color>ff00eaff</color><scale>1.1</scale><Icon><href>https://www.gstatic.com/mapspro/images/stock/503-wht-blank_maps.png</href></Icon><hotSpot x="16" xunits="pixels" y="32" yunits="insetPixels"/></IconStyle><LabelStyle><scale>0</scale></LabelStyle></Style><Style id="icon-503-FFEA00-highlight"><IconStyle><color>ff00eaff</color><scale>1.1</scale><Icon><href>https://www.gstatic.com/mapspro/images/stock/503-wht-blank_maps.png</href></Icon><hotSpot x="16" xunits="pixels" y="32" yunits="insetPixels"/></IconStyle><LabelStyle><scale>1.1</scale></LabelStyle></Style><StyleMap id="icon-503-FFEA00"><Pair><key>normal</key><styleUrl>#icon-503-FFEA00-normal</styleUrl></Pair><Pair><key>highlight</key><styleUrl>#icon-503-FFEA00-highlight</styleUrl></Pair></StyleMap><Style id="icon-959-FFDD5E-nodesc-normal"><IconStyle><color>ff5eddff</color><scale>1.1</scale><Icon><href>https://www.gstatic.com/mapspro/images/stock/959-wht-circle-blank.png</href></Icon></IconStyle><LabelStyle><scale>0</scale></LabelStyle><BalloonStyle><text><![CDATA[<h3>$[name]</h3>]]></text></BalloonStyle></Style><Style id="icon-959-FFDD5E-nodesc-highlight"><IconStyle><color>ff5eddff</color><scale>1.1</scale><Icon><href>https://www.gstatic.com/mapspro/images/stock/959-wht-circle-blank.png</href></Icon></IconStyle><LabelStyle><scale>1.1</scale></LabelStyle><BalloonStyle><text><![CDATA[<h3>$[name]</h3>]]></text></BalloonStyle></Style><StyleMap id="icon-959-FFDD5E-nodesc"><Pair><key>normal</key><styleUrl>#icon-959-FFDD5E-nodesc-normal</styleUrl></Pair><Pair><key>highlight</key><styleUrl>#icon-959-FFDD5E-nodesc-highlight</styleUrl></Pair></StyleMap><Style id="line-4186F0-5456-nodesc-normal"><LineStyle><color>fff08641</color><width>5.456</width></LineStyle><BalloonStyle><text><![CDATA[<h3>$[name]</h3>]]></text></BalloonStyle></Style><Style id="line-4186F0-5456-nodesc-highlight"><LineStyle><color>fff08641</color><width>8.184</width></LineStyle><BalloonStyle><text><![CDATA[<h3>$[name]</h3>]]></text></BalloonStyle></Style><StyleMap id="line-4186F0-5456-nodesc"><Pair><key>normal</key><styleUrl>#line-4186F0-5456-nodesc-normal</styleUrl></Pair><Pair><key>highlight</key><styleUrl>#line-4186F0-5456-nodesc-highlight</styleUrl></Pair></StyleMap><Folder><name>Bathurst parkrun</name><Placemark><name>Course</name><styleUrl>#line-4186F0-5456-nodesc</styleUrl><LineString><tessellate>1</tessellate><coordinates>            149.586979,-33.413443,0            149.586432,-33.413344,0            149.586357,-33.413299,0            149.586421,-33.413236,0            149.586496,-33.413317,0            149.586893,-33.413353,0            149.587247,-33.413326,0            149.587666,-33.413308,0            149.588084,-33.41346,0            149.588739,-33.413854,0            149.589018,-33.414078,0            149.589994,-33.415144,0            149.590713,-33.416317,0            149.591582,-33.417284,0            149.591839,-33.417651,0            149.591743,-33.41784,0            149.59156,-33.417983,0            149.591367,-33.417956,0            149.591217,-33.417938,0            149.591056,-33.417867,0            149.590917,-33.417741,0            149.592494,-33.41672,0            149.592762,-33.416649,0            149.59288,-33.416675,0            149.592859,-33.416738,0            149.592687,-33.416837,0            149.592547,-33.416819,0            149.592408,-33.416702,0            149.592161,-33.416658,0            149.591904,-33.416496,0            149.591507,-33.416031,0            149.590423,-33.414499,0            149.589554,-33.413281,0            149.589533,-33.413219,0            149.588696,-33.413022,0            149.586528,-33.411992,0            149.586389,-33.41192,0            149.586014,-33.411544,0            149.585424,-33.411517,0            149.585155,-33.412108,0            149.585059,-33.412225,0            149.585863,-33.41278,0            149.586164,-33.412986,0            149.586357,-33.413236,0            149.586786,-33.413317,0          </coordinates></LineString></Placemark><Placemark><name>Start/Finish</name><description><![CDATA[Right near children's play equipment]]></description><styleUrl>#icon-503-FFEA00</styleUrl><Point><coordinates>            149.586979,-33.413443,0          </coordinates></Point></Placemark><Placemark><name>U-Turn - 2.5km</name><styleUrl>#icon-959-FFDD5E-nodesc</styleUrl><Point><coordinates>            149.586786,-33.413317,0          </coordinates></Point></Placemark><Placemark><name>Public Toilets</name><styleUrl>#icon-1733-0288D1-nodesc</styleUrl><Point><coordinates>            149.58744,-33.413666,0          </coordinates></Point></Placemark><Placemark><name>Public Carpark</name><styleUrl>#icon-1644-0288D1-nodesc</styleUrl><Point><coordinates>            149.585735,-33.413362,0          </coordinates></Point></Placemark></Folder></Document></kml>