<?xml version="1.0" encoding="UTF-8"?><kml xmlns="http://www.opengis.net/kml/2.2"><Document><name>Beaufort Lake parkrun</name><description/><Style id="icon-1899-FFEA00-nodesc-normal"><IconStyle><color>ff00eaff</color><scale>1</scale><Icon><href>https://www.gstatic.com/mapspro/images/stock/503-wht-blank_maps.png</href></Icon><hotSpot x="32" xunits="pixels" y="64" yunits="insetPixels"/></IconStyle><LabelStyle><scale>0</scale></LabelStyle><BalloonStyle><text><![CDATA[<h3>$[name]</h3>]]></text></BalloonStyle></Style><Style id="icon-1899-FFEA00-nodesc-highlight"><IconStyle><color>ff00eaff</color><scale>1</scale><Icon><href>https://www.gstatic.com/mapspro/images/stock/503-wht-blank_maps.png</href></Icon><hotSpot x="32" xunits="pixels" y="64" yunits="insetPixels"/></IconStyle><LabelStyle><scale>1</scale></LabelStyle><BalloonStyle><text><![CDATA[<h3>$[name]</h3>]]></text></BalloonStyle></Style><StyleMap id="icon-1899-FFEA00-nodesc"><Pair><key>normal</key><styleUrl>#icon-1899-FFEA00-nodesc-normal</styleUrl></Pair><Pair><key>highlight</key><styleUrl>#icon-1899-FFEA00-nodesc-highlight</styleUrl></Pair></StyleMap><Style id="line-0288D1-5456-nodesc-normal"><LineStyle><color>ffd18802</color><width>5.456</width></LineStyle><BalloonStyle><text><![CDATA[<h3>$[name]</h3>]]></text></BalloonStyle></Style><Style id="line-0288D1-5456-nodesc-highlight"><LineStyle><color>ffd18802</color><width>8.184</width></LineStyle><BalloonStyle><text><![CDATA[<h3>$[name]</h3>]]></text></BalloonStyle></Style><StyleMap id="line-0288D1-5456-nodesc"><Pair><key>normal</key><styleUrl>#line-0288D1-5456-nodesc-normal</styleUrl></Pair><Pair><key>highlight</key><styleUrl>#line-0288D1-5456-nodesc-highlight</styleUrl></Pair></StyleMap><Folder><name>Untitled layer</name><Placemark><name>Course</name><styleUrl>#line-0288D1-5456-nodesc</styleUrl><LineString><tessellate>1</tessellate><coordinates>            143.382364,-37.439367,0            143.383115,-37.439554,0            143.386194,-37.440943,0            143.385947,-37.441598,0            143.386054,-37.441863,0            143.385539,-37.442527,0            143.385239,-37.442646,0            143.384971,-37.443583,0            143.384971,-37.443992,0            143.38467,-37.444537,0            143.384359,-37.444682,0            143.384177,-37.445074,0            143.383962,-37.445261,0            143.383758,-37.446002,0            143.383018,-37.446326,0            143.382503,-37.446326,0            143.381999,-37.44619,0            143.381827,-37.44596,0            143.381613,-37.445568,0            143.381151,-37.445185,0            143.380904,-37.444861,0            143.380379,-37.444554,0            143.380368,-37.444231,0            143.380497,-37.443881,0            143.380744,-37.44337,0            143.381162,-37.443345,0            143.381613,-37.443234,0            143.381945,-37.443268,0            143.382181,-37.443413,0            143.382417,-37.443541,0            143.38261,-37.443686,0            143.382739,-37.44383,0            143.382857,-37.44406,0            143.382932,-37.444324,0            143.38305,-37.444588,0            143.383082,-37.445517,0            143.383254,-37.445755,0            143.383823,-37.445815,0          </coordinates></LineString></Placemark><Placemark><name>Start/Finish</name><styleUrl>#icon-1899-FFEA00-nodesc</styleUrl><Point><coordinates>            143.382364,-37.439367,0          </coordinates></Point></Placemark></Folder></Document></kml>