<?xml version="1.0" encoding="UTF-8"?><kml xmlns="http://www.opengis.net/kml/2.2"><Document><name>Bega parkrun</name><description/><Style id="icon-1899-FFEA00-nodesc-normal"><IconStyle><color>ff00eaff</color><scale>1</scale><Icon><href>https://www.gstatic.com/mapspro/images/stock/503-wht-blank_maps.png</href></Icon><hotSpot x="32" xunits="pixels" y="64" yunits="insetPixels"/></IconStyle><LabelStyle><scale>0</scale></LabelStyle><BalloonStyle><text><![CDATA[<h3>$[name]</h3>]]></text></BalloonStyle></Style><Style id="icon-1899-FFEA00-nodesc-highlight"><IconStyle><color>ff00eaff</color><scale>1</scale><Icon><href>https://www.gstatic.com/mapspro/images/stock/503-wht-blank_maps.png</href></Icon><hotSpot x="32" xunits="pixels" y="64" yunits="insetPixels"/></IconStyle><LabelStyle><scale>1</scale></LabelStyle><BalloonStyle><text><![CDATA[<h3>$[name]</h3>]]></text></BalloonStyle></Style><StyleMap id="icon-1899-FFEA00-nodesc"><Pair><key>normal</key><styleUrl>#icon-1899-FFEA00-nodesc-normal</styleUrl></Pair><Pair><key>highlight</key><styleUrl>#icon-1899-FFEA00-nodesc-highlight</styleUrl></Pair></StyleMap><Style id="line-4186F0-5263-nodesc-normal"><LineStyle><color>fff08641</color><width>5.263</width></LineStyle><BalloonStyle><text><![CDATA[<h3>$[name]</h3>]]></text></BalloonStyle></Style><Style id="line-4186F0-5263-nodesc-highlight"><LineStyle><color>fff08641</color><width>7.8945</width></LineStyle><BalloonStyle><text><![CDATA[<h3>$[name]</h3>]]></text></BalloonStyle></Style><StyleMap id="line-4186F0-5263-nodesc"><Pair><key>normal</key><styleUrl>#line-4186F0-5263-nodesc-normal</styleUrl></Pair><Pair><key>highlight</key><styleUrl>#line-4186F0-5263-nodesc-highlight</styleUrl></Pair></StyleMap><Folder><name>Untitled layer</name><Placemark><name>Course</name><styleUrl>#line-4186F0-5263-nodesc</styleUrl><LineString><tessellate>1</tessellate><coordinates>            149.843547,-36.667482,0            149.8444711,-36.6678341,0            149.8456352,-36.6680665,0            149.847584,-36.668285,0            149.848337,-36.668336,0            149.849854,-36.668545,0            149.8503076,-36.6685656,0            149.8512249,-36.6686172,0            149.8516004,-36.6684666,0            149.851942,-36.668362,0            149.852381,-36.6684,0            149.8534696,-36.6683327,0            149.8540358,-36.6683892,0            149.854583,-36.668422,0            149.855528,-36.668801,0            149.856024,-36.669081,0            149.8564337,-36.6694606,0            149.856515,-36.669618,0            149.8564391,-36.6697661,0            149.8560636,-36.6699424,0            149.855673,-36.670068,0            149.8550229,-36.670803,0            149.854395,-36.671207,0            149.8538535,-36.671371,0            149.8530917,-36.6712075,0            149.852999,-36.671198,0            149.8528449,-36.6714312,0            149.852926,-36.671784,0            149.8529813,-36.6720365,0            149.852865,-36.672573,0            149.8528074,-36.6727994,0            149.85247,-36.673263,0            149.852845,-36.673658,0            149.8529522,-36.6740343,0            149.8533438,-36.6743139,0            149.853631,-36.674525,0            149.853798,-36.674718,0            149.854004,-36.674793,0            149.854931,-36.674543,0            149.857861,-36.673579,0          </coordinates></LineString></Placemark><Placemark><name>Start/Finish</name><styleUrl>#icon-1899-FFEA00-nodesc</styleUrl><Point><coordinates>            149.843547,-36.667482,0          </coordinates></Point></Placemark></Folder></Document></kml>