<?xml version="1.0" encoding="UTF-8"?><kml xmlns="http://www.opengis.net/kml/2.2"><Document><name>Bill Rose Sports Complex parkrun (from Jan 2025)</name><description/><Style id="icon-1899-FFEA00-nodesc-normal"><IconStyle><color>ff00eaff</color><scale>1</scale><Icon><href>https://www.gstatic.com/mapspro/images/stock/503-wht-blank_maps.png</href></Icon><hotSpot x="32" xunits="pixels" y="64" yunits="insetPixels"/></IconStyle><LabelStyle><scale>0</scale></LabelStyle><BalloonStyle><text><![CDATA[<h3>$[name]</h3>]]></text></BalloonStyle></Style><Style id="icon-1899-FFEA00-nodesc-highlight"><IconStyle><color>ff00eaff</color><scale>1</scale><Icon><href>https://www.gstatic.com/mapspro/images/stock/503-wht-blank_maps.png</href></Icon><hotSpot x="32" xunits="pixels" y="64" yunits="insetPixels"/></IconStyle><LabelStyle><scale>1</scale></LabelStyle><BalloonStyle><text><![CDATA[<h3>$[name]</h3>]]></text></BalloonStyle></Style><StyleMap id="icon-1899-FFEA00-nodesc"><Pair><key>normal</key><styleUrl>#icon-1899-FFEA00-nodesc-normal</styleUrl></Pair><Pair><key>highlight</key><styleUrl>#icon-1899-FFEA00-nodesc-highlight</styleUrl></Pair></StyleMap><Style id="line-0288D1-5069-nodesc-normal"><LineStyle><color>ffd18802</color><width>5.069</width></LineStyle><BalloonStyle><text><![CDATA[<h3>$[name]</h3>]]></text></BalloonStyle></Style><Style id="line-0288D1-5069-nodesc-highlight"><LineStyle><color>ffd18802</color><width>7.6035</width></LineStyle><BalloonStyle><text><![CDATA[<h3>$[name]</h3>]]></text></BalloonStyle></Style><StyleMap id="line-0288D1-5069-nodesc"><Pair><key>normal</key><styleUrl>#line-0288D1-5069-nodesc-normal</styleUrl></Pair><Pair><key>highlight</key><styleUrl>#line-0288D1-5069-nodesc-highlight</styleUrl></Pair></StyleMap><Folder><name>Untitled layer</name><Placemark><name>Start/Finish</name><styleUrl>#icon-1899-FFEA00-nodesc</styleUrl><Point><coordinates>            150.858544,-32.051872,199.6          </coordinates></Point></Placemark><Placemark><name>Course</name><styleUrl>#line-0288D1-5069-nodesc</styleUrl><LineString><tessellate>1</tessellate><coordinates>            150.858544,-32.051872,0            150.8591888,-32.0532923,0            150.859155,-32.05351,0            150.85876,-32.05349,0            150.8585871,-32.0550906,0            150.8584243,-32.0553605,0            150.858444,-32.0556212,0            150.8587033,-32.0562563,0            150.8588477,-32.0568213,0            150.8586757,-32.0575045,0            150.8585987,-32.0585338,0            150.854434,-32.057986,0            150.8545905,-32.0573713,0            150.8549938,-32.0567294,0            150.855372,-32.0563339,0            150.855482,-32.0558292,0            150.8551159,-32.0553785,0            150.8549918,-32.0552123,0            150.8549643,-32.0550279,0            150.85503,-32.0548375,0            150.8552889,-32.0547653,0            150.8555735,-32.054704,0            150.855665,-32.054479,0            150.8557985,-32.0539515,0            150.8558477,-32.0533588,0            150.8559479,-32.0526256,0            150.8560282,-32.0524285,0            150.8569009,-32.0525446,0            150.8575085,-32.0526874,0            150.8578585,-32.0529894,0          </coordinates></LineString></Placemark></Folder></Document></kml>