<?xml version="1.0" encoding="UTF-8"?><kml xmlns="http://www.opengis.net/kml/2.2"><Document><name>Birtinya Island parkrun</name><description/><Style id="icon-1899-FFEA00-nodesc-normal"><IconStyle><color>ff00eaff</color><scale>1</scale><Icon><href>https://www.gstatic.com/mapspro/images/stock/503-wht-blank_maps.png</href></Icon><hotSpot x="32" xunits="pixels" y="64" yunits="insetPixels"/></IconStyle><LabelStyle><scale>0</scale></LabelStyle><BalloonStyle><text><![CDATA[<h3>$[name]</h3>]]></text></BalloonStyle></Style><Style id="icon-1899-FFEA00-nodesc-highlight"><IconStyle><color>ff00eaff</color><scale>1</scale><Icon><href>https://www.gstatic.com/mapspro/images/stock/503-wht-blank_maps.png</href></Icon><hotSpot x="32" xunits="pixels" y="64" yunits="insetPixels"/></IconStyle><LabelStyle><scale>1</scale></LabelStyle><BalloonStyle><text><![CDATA[<h3>$[name]</h3>]]></text></BalloonStyle></Style><StyleMap id="icon-1899-FFEA00-nodesc"><Pair><key>normal</key><styleUrl>#icon-1899-FFEA00-nodesc-normal</styleUrl></Pair><Pair><key>highlight</key><styleUrl>#icon-1899-FFEA00-nodesc-highlight</styleUrl></Pair></StyleMap><Style id="line-0288D1-4681-nodesc-normal"><LineStyle><color>ffd18802</color><width>4.681</width></LineStyle><BalloonStyle><text><![CDATA[<h3>$[name]</h3>]]></text></BalloonStyle></Style><Style id="line-0288D1-4681-nodesc-highlight"><LineStyle><color>ffd18802</color><width>7.0215</width></LineStyle><BalloonStyle><text><![CDATA[<h3>$[name]</h3>]]></text></BalloonStyle></Style><StyleMap id="line-0288D1-4681-nodesc"><Pair><key>normal</key><styleUrl>#line-0288D1-4681-nodesc-normal</styleUrl></Pair><Pair><key>highlight</key><styleUrl>#line-0288D1-4681-nodesc-highlight</styleUrl></Pair></StyleMap><Folder><name>Untitled layer</name><Placemark><name>Course</name><styleUrl>#line-0288D1-4681-nodesc</styleUrl><LineString><tessellate>1</tessellate><coordinates>            153.1205767,-26.742299,0            153.1198627,-26.742305,0            153.1193777,-26.742359,0            153.1182697,-26.742356,0            153.1174787,-26.74271,0            153.1172587,-26.743197,0            153.1174885,-26.7436555,0            153.1180187,-26.744114,0            153.1182406,-26.7445386,0            153.1183337,-26.745059,0            153.1182047,-26.745784,0            153.1180034,-26.7461551,0            153.1180167,-26.746258,0            153.1184694,-26.7462686,0            153.1185144,-26.746011,0            153.1182722,-26.7459129,0            153.1181404,-26.7459213,0            153.1180086,-26.7460829,0            153.1175907,-26.746298,0            153.1174846,-26.746807,0            153.1174857,-26.747316,0            153.1171747,-26.748239,0            153.1166767,-26.74881,0            153.1163968,-26.7489205,0            153.1161597,-26.74928,0            153.1163627,-26.749986,0            153.1164767,-26.7507,0            153.1163387,-26.751786,0            153.1165998,-26.7521591,0            153.1169037,-26.752379,0            153.1174798,-26.7525854,0            153.1180987,-26.752696,0            153.1195547,-26.752681,0            153.1206747,-26.752484,0            153.1213217,-26.751743,0            153.1215157,-26.750877,0            153.1215807,-26.749925,0            153.1220287,-26.749105,0            153.1219647,-26.748582,0            153.1218107,-26.74722,0            153.1222187,-26.746386,0            153.1224627,-26.745604,0            153.1223847,-26.745197,0            153.1222027,-26.745023,0            153.1223857,-26.74254,0            153.1222992,-26.7421758,0            153.1221697,-26.741965,0            153.1213887,-26.742111,0            153.1209537,-26.74221,0            153.1206805,-26.7422717,0          </coordinates></LineString></Placemark><Placemark><name>Start/Finish</name><styleUrl>#icon-1899-FFEA00-nodesc</styleUrl><Point><coordinates>            153.120566,-26.742299,0          </coordinates></Point></Placemark></Folder></Document></kml>