<?xml version="1.0" encoding="UTF-8"?><kml xmlns="http://www.opengis.net/kml/2.2"><Document><name>Black Swan Lake parkrun</name><description/><Style id="icon-1899-0F9D58-nodesc-normal"><IconStyle><color>ff589d0f</color><scale>1</scale><Icon><href>https://www.gstatic.com/mapspro/images/stock/503-wht-blank_maps.png</href></Icon><hotSpot x="32" xunits="pixels" y="64" yunits="insetPixels"/></IconStyle><LabelStyle><scale>0</scale></LabelStyle><BalloonStyle><text><![CDATA[<h3>$[name]</h3>]]></text></BalloonStyle></Style><Style id="icon-1899-0F9D58-nodesc-highlight"><IconStyle><color>ff589d0f</color><scale>1</scale><Icon><href>https://www.gstatic.com/mapspro/images/stock/503-wht-blank_maps.png</href></Icon><hotSpot x="32" xunits="pixels" y="64" yunits="insetPixels"/></IconStyle><LabelStyle><scale>1</scale></LabelStyle><BalloonStyle><text><![CDATA[<h3>$[name]</h3>]]></text></BalloonStyle></Style><StyleMap id="icon-1899-0F9D58-nodesc"><Pair><key>normal</key><styleUrl>#icon-1899-0F9D58-nodesc-normal</styleUrl></Pair><Pair><key>highlight</key><styleUrl>#icon-1899-0F9D58-nodesc-highlight</styleUrl></Pair></StyleMap><Style id="icon-1899-FF5252-nodesc-normal"><IconStyle><color>ff5252ff</color><scale>1</scale><Icon><href>https://www.gstatic.com/mapspro/images/stock/503-wht-blank_maps.png</href></Icon><hotSpot x="32" xunits="pixels" y="64" yunits="insetPixels"/></IconStyle><LabelStyle><scale>0</scale></LabelStyle><BalloonStyle><text><![CDATA[<h3>$[name]</h3>]]></text></BalloonStyle></Style><Style id="icon-1899-FF5252-nodesc-highlight"><IconStyle><color>ff5252ff</color><scale>1</scale><Icon><href>https://www.gstatic.com/mapspro/images/stock/503-wht-blank_maps.png</href></Icon><hotSpot x="32" xunits="pixels" y="64" yunits="insetPixels"/></IconStyle><LabelStyle><scale>1</scale></LabelStyle><BalloonStyle><text><![CDATA[<h3>$[name]</h3>]]></text></BalloonStyle></Style><StyleMap id="icon-1899-FF5252-nodesc"><Pair><key>normal</key><styleUrl>#icon-1899-FF5252-nodesc-normal</styleUrl></Pair><Pair><key>highlight</key><styleUrl>#icon-1899-FF5252-nodesc-highlight</styleUrl></Pair></StyleMap><Style id="line-0288D1-4681-nodesc-normal"><LineStyle><color>ffd18802</color><width>4.681</width></LineStyle><BalloonStyle><text><![CDATA[<h3>$[name]</h3>]]></text></BalloonStyle></Style><Style id="line-0288D1-4681-nodesc-highlight"><LineStyle><color>ffd18802</color><width>7.0215</width></LineStyle><BalloonStyle><text><![CDATA[<h3>$[name]</h3>]]></text></BalloonStyle></Style><StyleMap id="line-0288D1-4681-nodesc"><Pair><key>normal</key><styleUrl>#line-0288D1-4681-nodesc-normal</styleUrl></Pair><Pair><key>highlight</key><styleUrl>#line-0288D1-4681-nodesc-highlight</styleUrl></Pair></StyleMap><Folder><name>Untitled layer</name><Placemark><name>Course</name><styleUrl>#line-0288D1-4681-nodesc</styleUrl><LineString><tessellate>1</tessellate><coordinates>            115.77455,-32.47215,0            115.77473,-32.4722,0            115.77486,-32.47229,0            115.7749808,-32.47244,0            115.77493,-32.47278,0            115.7749934,-32.4729183,0            115.77516,-32.47303,0            115.7751533,-32.4731019,0            115.7752,-32.47332,0            115.775316,-32.4734846,0            115.77535,-32.47365,0            115.7750558,-32.4738481,0            115.7748658,-32.4740829,0            115.7746957,-32.4740917,0            115.77459,-32.47401,0            115.77457,-32.47377,0            115.77475,-32.47354,0            115.77484,-32.47332,0            115.7747604,-32.4730364,0            115.7745611,-32.4728353,0            115.7743966,-32.4727836,0            115.7742,-32.47275,0            115.77433,-32.47269,0            115.7742,-32.47275,0            115.77433,-32.47269,0            115.7743475,-32.4725649,0            115.7743672,-32.4724356,0            115.77435,-32.47247,0            115.7743672,-32.4724356,0            115.774481,-32.472365,0            115.7745454,-32.4722021,0            115.77455,-32.47215,0            115.7745101,-32.4723216,0            115.7743672,-32.4724356,0            115.77433,-32.47269,0            115.7742,-32.47275,0            115.774,-32.47276,0            115.7738458,-32.4728357,0            115.7736114,-32.4729441,0            115.7733662,-32.47298,0            115.77279,-32.47307,0            115.77244,-32.47303,0            115.77131,-32.47334,0            115.7709964,-32.4748975,0            115.77094,-32.47674,0            115.77065,-32.47746,0            115.77111,-32.47824,0            115.77087,-32.47865,0            115.77079,-32.47927,0            115.77097,-32.47968,0            115.77128,-32.47992,0            115.77172,-32.4799,0            115.77208,-32.47968,0            115.7727774,-32.4791514,0            115.7741722,-32.4779386,0            115.77473,-32.47692,0            115.77507,-32.47672,0            115.77519,-32.47643,0            115.77526,-32.47578,0            115.77559,-32.47527,0            115.7756312,-32.4747256,0            115.77548,-32.47451,0            115.7752313,-32.4743875,0            115.7750421,-32.4742547,0            115.77481,-32.47414,0            115.7746957,-32.4740917,0          </coordinates></LineString></Placemark><Placemark><name>Finish</name><styleUrl>#icon-1899-FF5252-nodesc</styleUrl><Point><coordinates>            115.77443,-32.47242,0          </coordinates></Point></Placemark><Placemark><name>Start</name><styleUrl>#icon-1899-0F9D58-nodesc</styleUrl><Point><coordinates>            115.77495,-32.47262,0          </coordinates></Point></Placemark></Folder></Document></kml>