<?xml version="1.0" encoding="UTF-8"?><kml xmlns="http://www.opengis.net/kml/2.2"><Document><name>Blue Gum Hills parkrun</name><description/><Style id="icon-157-nodesc-normal"><IconStyle><scale>1.1</scale><Icon><href>https://www.gstatic.com/mapspro/images/stock/157-yellow-dot.png</href></Icon><hotSpot x="16" xunits="pixels" y="32" yunits="insetPixels"/></IconStyle><LabelStyle><scale>0</scale></LabelStyle><BalloonStyle><text><![CDATA[<h3>$[name]</h3>]]></text></BalloonStyle></Style><Style id="icon-157-nodesc-highlight"><IconStyle><scale>1.1</scale><Icon><href>https://www.gstatic.com/mapspro/images/stock/157-yellow-dot.png</href></Icon><hotSpot x="16" xunits="pixels" y="32" yunits="insetPixels"/></IconStyle><LabelStyle><scale>1.1</scale></LabelStyle><BalloonStyle><text><![CDATA[<h3>$[name]</h3>]]></text></BalloonStyle></Style><StyleMap id="icon-157-nodesc"><Pair><key>normal</key><styleUrl>#icon-157-nodesc-normal</styleUrl></Pair><Pair><key>highlight</key><styleUrl>#icon-157-nodesc-highlight</styleUrl></Pair></StyleMap><Style id="line-3333FF-5000-nodesc-normal"><LineStyle><color>ffff3333</color><width>5</width></LineStyle><BalloonStyle><text><![CDATA[<h3>$[name]</h3>]]></text></BalloonStyle></Style><Style id="line-3333FF-5000-nodesc-highlight"><LineStyle><color>ffff3333</color><width>7.5</width></LineStyle><BalloonStyle><text><![CDATA[<h3>$[name]</h3>]]></text></BalloonStyle></Style><StyleMap id="line-3333FF-5000-nodesc"><Pair><key>normal</key><styleUrl>#line-3333FF-5000-nodesc-normal</styleUrl></Pair><Pair><key>highlight</key><styleUrl>#line-3333FF-5000-nodesc-highlight</styleUrl></Pair></StyleMap><Folder><name>Untitled layer</name><Placemark><name>Start / Finish</name><styleUrl>#icon-157-nodesc</styleUrl><Point><coordinates>            151.620212,-32.884155,0          </coordinates></Point></Placemark><Placemark><name>Course</name><styleUrl>#line-3333FF-5000-nodesc</styleUrl><LineString><tessellate>1</tessellate><coordinates>            151.620201,-32.884155,0            151.61968,-32.884002,0            151.619546,-32.884209,0            151.619293,-32.884331,0            151.619197,-32.884444,0            151.619395,-32.884669,0            151.619825,-32.884732,0            151.62071,-32.885142,0            151.6216,-32.885385,0            151.621707,-32.885561,0            151.621761,-32.885741,0            151.62174,-32.885908,0            151.621584,-32.886074,0            151.621321,-32.88639,0            151.621192,-32.886673,0            151.62123,-32.88689,0            151.621369,-32.887151,0            151.621675,-32.887673,0            151.621783,-32.887926,0            151.622061,-32.888124,0            151.622399,-32.888286,0            151.622839,-32.888714,0            151.623209,-32.889119,0            151.623564,-32.889651,0            151.623741,-32.890016,0            151.624062,-32.890714,0            151.624363,-32.891363,0            151.62469,-32.891795,0            151.625087,-32.892223,0            151.626165,-32.893426,0            151.625108,-32.89225,0            151.625575,-32.891755,0            151.625613,-32.891629,0            151.625516,-32.891511,0            151.625382,-32.891277,0            151.625393,-32.890493,0            151.625661,-32.890007,0            151.626219,-32.889484,0            151.6266,-32.889029,0            151.62667,-32.888782,0            151.626589,-32.888525,0            151.626428,-32.888345,0            151.626149,-32.888223,0            151.625876,-32.888137,0            151.625575,-32.888007,0            151.625339,-32.887642,0            151.625221,-32.88725,0            151.625076,-32.887232,0            151.624894,-32.887214,0            151.624615,-32.887061,0            151.624293,-32.886795,0            151.62388,-32.886354,0            151.623671,-32.886169,0            151.623091,-32.885872,0            151.622019,-32.885507,0          </coordinates></LineString></Placemark></Folder></Document></kml>