<?xml version="1.0" encoding="UTF-8"?><kml xmlns="http://www.opengis.net/kml/2.2"><Document><name>Brimbank parkrun</name><description/><Style id="icon-1899-FFD600-nodesc-normal"><IconStyle><color>ff00d6ff</color><scale>1</scale><Icon><href>https://www.gstatic.com/mapspro/images/stock/503-wht-blank_maps.png</href></Icon><hotSpot x="32" xunits="pixels" y="64" yunits="insetPixels"/></IconStyle><LabelStyle><scale>0</scale></LabelStyle><BalloonStyle><text><![CDATA[<h3>$[name]</h3>]]></text></BalloonStyle></Style><Style id="icon-1899-FFD600-nodesc-highlight"><IconStyle><color>ff00d6ff</color><scale>1</scale><Icon><href>https://www.gstatic.com/mapspro/images/stock/503-wht-blank_maps.png</href></Icon><hotSpot x="32" xunits="pixels" y="64" yunits="insetPixels"/></IconStyle><LabelStyle><scale>1</scale></LabelStyle><BalloonStyle><text><![CDATA[<h3>$[name]</h3>]]></text></BalloonStyle></Style><StyleMap id="icon-1899-FFD600-nodesc"><Pair><key>normal</key><styleUrl>#icon-1899-FFD600-nodesc-normal</styleUrl></Pair><Pair><key>highlight</key><styleUrl>#icon-1899-FFD600-nodesc-highlight</styleUrl></Pair></StyleMap><Style id="line-0288D1-5456-nodesc-normal"><LineStyle><color>ffd18802</color><width>5.456</width></LineStyle><BalloonStyle><text><![CDATA[<h3>$[name]</h3>]]></text></BalloonStyle></Style><Style id="line-0288D1-5456-nodesc-highlight"><LineStyle><color>ffd18802</color><width>8.184</width></LineStyle><BalloonStyle><text><![CDATA[<h3>$[name]</h3>]]></text></BalloonStyle></Style><StyleMap id="line-0288D1-5456-nodesc"><Pair><key>normal</key><styleUrl>#line-0288D1-5456-nodesc-normal</styleUrl></Pair><Pair><key>highlight</key><styleUrl>#line-0288D1-5456-nodesc-highlight</styleUrl></Pair></StyleMap><Folder><name>Untitled layer</name><Placemark><name>Course</name><styleUrl>#line-0288D1-5456-nodesc</styleUrl><LineString><tessellate>1</tessellate><coordinates>            144.834124,-37.727541,0            144.833949,-37.727468,0            144.833858,-37.727336,0            144.833724,-37.727279,0            144.83352,-37.727002,0            144.833457,-37.726804,0            144.833426,-37.726626,0            144.833311,-37.726618,0            144.833059,-37.726567,0            144.832779,-37.726526,0            144.832354,-37.726411,0            144.832031,-37.72637,0            144.831818,-37.72638,0            144.831495,-37.726427,0            144.831213,-37.726367,0            144.831047,-37.726281,0            144.830974,-37.726581,0            144.831032,-37.726857,0            144.831105,-37.727087,0            144.831176,-37.727327,0            144.830768,-37.727238,0            144.830607,-37.727823,0            144.830516,-37.72784,0            144.830065,-37.727785,0            144.829835,-37.728358,0            144.829679,-37.728358,0            144.829604,-37.728655,0            144.829164,-37.728897,0            144.82896,-37.729228,0            144.828816,-37.72924,0            144.828402,-37.729058,0            144.828102,-37.72891,0            144.827909,-37.728663,0            144.827844,-37.728481,0            144.827877,-37.728273,0            144.827786,-37.728086,0            144.827737,-37.727908,0            144.82778,-37.727785,0            144.827807,-37.727666,0            144.827705,-37.727556,0            144.827458,-37.727306,0            144.827421,-37.727149,0            144.827812,-37.72714,0            144.828129,-37.727153,0            144.828327,-37.727242,0            144.828585,-37.727314,0            144.828778,-37.727352,0            144.829137,-37.727378,0            144.82943,-37.727456,0            144.829508,-37.727458,0            144.829508,-37.727327,0            144.829561,-37.727208,0            144.82969,-37.727102,0            144.829845,-37.727038,0            144.82991,-37.726975,0            144.829856,-37.72683,0            144.829717,-37.726682,0            144.829502,-37.726525,0            144.829271,-37.726398,0            144.829014,-37.726194,0            144.829368,-37.726139,0            144.82903,-37.725914,0            144.829416,-37.725872,0            144.829481,-37.725804,0            144.829518,-37.725719,0            144.82955,-37.725634,0            144.829593,-37.725099,0            144.829652,-37.724773,0            144.829695,-37.724599,0            144.829658,-37.724484,0            144.829711,-37.724442,0            144.82984,-37.724429,0            144.830044,-37.724344,0            144.830242,-37.724242,0            144.830403,-37.724056,0            144.830714,-37.723975,0            144.831246,-37.723877,0            144.831149,-37.723975,0            144.831047,-37.724068,0            144.831047,-37.724162,0            144.831101,-37.724242,0            144.83116,-37.724331,0            144.831251,-37.724399,0            144.831385,-37.724404,0            144.831637,-37.724348,0            144.8319,-37.724293,0            144.832195,-37.724259,0            144.832554,-37.724353,0            144.832833,-37.724476,0            144.833026,-37.724607,0            144.833198,-37.72476,0            144.833574,-37.724815,0            144.833826,-37.724853,0            144.833971,-37.72493,0            144.834078,-37.725023,0            144.834158,-37.725206,0            144.834287,-37.725443,0            144.834437,-37.725617,0            144.834566,-37.725706,0            144.835151,-37.725927,0            144.835585,-37.726147,0            144.835687,-37.726292,0            144.83573,-37.726394,0            144.836208,-37.72675,0            144.836481,-37.726792,0            144.836556,-37.726843,0            144.836932,-37.727221,0            144.837026,-37.727312,0            144.83702,-37.727424,0            144.836964,-37.72748,0            144.836913,-37.727512,0            144.836816,-37.727524,0            144.836739,-37.727461,0            144.836696,-37.727399,0            144.836656,-37.727316,0            144.836634,-37.727225,0            144.836535,-37.727064,0            144.836468,-37.727036,0            144.835966,-37.727225,0            144.835714,-37.72717,0            144.835339,-37.727168,0            144.835148,-37.727121,0            144.835204,-37.727236,0            144.835304,-37.727372,0            144.83532,-37.727433,0            144.83562,-37.727656,0            144.835929,-37.727834,0            144.836221,-37.728004,0            144.8365,-37.728101,0            144.836766,-37.728192,0            144.837077,-37.72835,0            144.837272,-37.728458,0            144.837492,-37.728466,0            144.83779,-37.728468,0            144.838198,-37.728422,0            144.838463,-37.72843,0            144.838686,-37.728468,0            144.838984,-37.728549,0            144.839544,-37.728617,0            144.840011,-37.728706,0            144.840558,-37.728835,0            144.840805,-37.728914,0            144.840966,-37.729033,0            144.841113,-37.729202,0            144.841218,-37.729361,0            144.841301,-37.729548,0            144.841315,-37.729673,0            144.841261,-37.729762,0            144.841226,-37.729745,0            144.841188,-37.729694,0            144.841127,-37.729465,0            144.84103,-37.729336,0            144.840883,-37.72923,0            144.840671,-37.729136,0            144.84051,-37.729079,0            144.840134,-37.729075,0            144.8397,-37.728886,0            144.839458,-37.72882,0            144.838831,-37.728884,0            144.838568,-37.728879,0            144.838364,-37.728793,0            144.837854,-37.728627,0            144.83749,-37.728509,0            144.837356,-37.728472,0            144.836969,-37.728299,0            144.836709,-37.728182,0            144.836554,-37.728116,0            144.83628,-37.728033,0            144.835969,-37.727866,0            144.835679,-37.72769,0            144.83536,-37.727465,0            144.835282,-37.72734,0            144.835218,-37.727261,0            144.835199,-37.727219,0            144.835159,-37.727149,0            144.835105,-37.727089,0            144.835006,-37.726998,0            144.834979,-37.726915,0            144.834896,-37.726854,0            144.834783,-37.726799,0            144.834606,-37.726729,0            144.834467,-37.726674,0            144.834134,-37.7264,0            144.833906,-37.726226,0            144.833732,-37.726116,0            144.833364,-37.72599,0            144.833037,-37.72587,0            144.832622,-37.72573,0            144.832284,-37.72559,0            144.832131,-37.725541,0            144.831964,-37.725507,0            144.831825,-37.725511,0            144.831664,-37.725575,0            144.831541,-37.72564,0            144.831205,-37.72584,0            144.831098,-37.725965,0            144.83105,-37.726124,0            144.831047,-37.726281,0            144.830984,-37.72652,0            144.831012,-37.726797,0            144.83113,-37.727125,0            144.831176,-37.727327,0            144.8314,-37.727331,0            144.831873,-37.727333,0            144.832131,-37.727384,0            144.832569,-37.727548,0            144.832707,-37.72763,0            144.832832,-37.727658,0            144.83315,-37.727681,0            144.833276,-37.727643,0            144.833428,-37.727582,0            144.833503,-37.727504,0            144.833547,-37.727421,0            144.833614,-37.727356,0            144.833681,-37.727295,0            144.833724,-37.727279,0          </coordinates></LineString></Placemark><Placemark><name>Start / Finish</name><styleUrl>#icon-1899-FFD600-nodesc</styleUrl><Point><coordinates>            144.834129,-37.727537,0          </coordinates></Point></Placemark></Folder></Document></kml>