<?xml version="1.0" encoding="UTF-8"?><kml xmlns="http://www.opengis.net/kml/2.2"><Document><name>Bunyaville parkrun (from Oct 2023)</name><description/><Style id="icon-123-nodesc-normal"><IconStyle><scale>1.1</scale><Icon><href>https://www.gstatic.com/mapspro/images/stock/123-red-dot.png</href></Icon><hotSpot x="16" xunits="pixels" y="32" yunits="insetPixels"/></IconStyle><LabelStyle><scale>0</scale></LabelStyle><BalloonStyle><text><![CDATA[<h3>$[name]</h3>]]></text></BalloonStyle></Style><Style id="icon-123-nodesc-highlight"><IconStyle><scale>1.1</scale><Icon><href>https://www.gstatic.com/mapspro/images/stock/123-red-dot.png</href></Icon><hotSpot x="16" xunits="pixels" y="32" yunits="insetPixels"/></IconStyle><LabelStyle><scale>1.1</scale></LabelStyle><BalloonStyle><text><![CDATA[<h3>$[name]</h3>]]></text></BalloonStyle></Style><StyleMap id="icon-123-nodesc"><Pair><key>normal</key><styleUrl>#icon-123-nodesc-normal</styleUrl></Pair><Pair><key>highlight</key><styleUrl>#icon-123-nodesc-highlight</styleUrl></Pair></StyleMap><Style id="icon-61-nodesc-normal"><IconStyle><scale>1.1</scale><Icon><href>https://www.gstatic.com/mapspro/images/stock/61-green-dot.png</href></Icon><hotSpot x="16" xunits="pixels" y="32" yunits="insetPixels"/></IconStyle><LabelStyle><scale>0</scale></LabelStyle><BalloonStyle><text><![CDATA[<h3>$[name]</h3>]]></text></BalloonStyle></Style><Style id="icon-61-nodesc-highlight"><IconStyle><scale>1.1</scale><Icon><href>https://www.gstatic.com/mapspro/images/stock/61-green-dot.png</href></Icon><hotSpot x="16" xunits="pixels" y="32" yunits="insetPixels"/></IconStyle><LabelStyle><scale>1.1</scale></LabelStyle><BalloonStyle><text><![CDATA[<h3>$[name]</h3>]]></text></BalloonStyle></Style><StyleMap id="icon-61-nodesc"><Pair><key>normal</key><styleUrl>#icon-61-nodesc-normal</styleUrl></Pair><Pair><key>highlight</key><styleUrl>#icon-61-nodesc-highlight</styleUrl></Pair></StyleMap><Style id="line-0288D1-3906-nodesc-normal"><LineStyle><color>ffd18802</color><width>3.906</width></LineStyle><BalloonStyle><text><![CDATA[<h3>$[name]</h3>]]></text></BalloonStyle></Style><Style id="line-0288D1-3906-nodesc-highlight"><LineStyle><color>ffd18802</color><width>5.859</width></LineStyle><BalloonStyle><text><![CDATA[<h3>$[name]</h3>]]></text></BalloonStyle></Style><StyleMap id="line-0288D1-3906-nodesc"><Pair><key>normal</key><styleUrl>#line-0288D1-3906-nodesc-normal</styleUrl></Pair><Pair><key>highlight</key><styleUrl>#line-0288D1-3906-nodesc-highlight</styleUrl></Pair></StyleMap><Folder><name>Bunyaville_parkrun.gpx</name><Placemark><name>Start </name><styleUrl>#icon-61-nodesc</styleUrl><Point><coordinates>            152.948872,-27.377246,87.6          </coordinates></Point></Placemark><Placemark><name>Finish</name><styleUrl>#icon-123-nodesc</styleUrl><Point><coordinates>            152.949307,-27.376907,95.4          </coordinates></Point></Placemark><Placemark><name>Course</name><styleUrl>#line-0288D1-3906-nodesc</styleUrl><LineString><tessellate>1</tessellate><coordinates>            152.948872,-27.377246,87.6            152.948853,-27.377243,87.4            152.948847,-27.377237,87.4            152.948837,-27.377232,87.4            152.948829,-27.377229,87.4            152.948821,-27.377224,87.2            152.948804,-27.377217,87.2            152.948789,-27.37721,87.2            152.948787,-27.37721,87            152.948783,-27.377214,87            152.948769,-27.377212,87            152.948744,-27.377205,87            152.948727,-27.377187,87            152.948716,-27.377169,87            152.948695,-27.377151,86.8            152.948673,-27.37713,86.8            152.948651,-27.377126,86.6            152.94862,-27.37712,86.6            152.948592,-27.377118,86.4            152.948562,-27.377112,86.4            152.948532,-27.377108,86.4            152.948494,-27.377101,86.2            152.948462,-27.377097,86.2            152.948431,-27.377102,86.2            152.948399,-27.377109,86.2            152.948372,-27.377119,86.2            152.948337,-27.377119,86.2            152.948304,-27.377125,86.2            152.948269,-27.377127,86.2            152.948234,-27.377129,86            152.948204,-27.377133,85.8            152.948173,-27.377138,85.8            152.948148,-27.377143,85.8            152.948111,-27.377146,85.8            152.948083,-27.377152,85.8            152.948047,-27.377158,85.8            152.94802,-27.377158,85.8            152.947996,-27.377165,85.8            152.947966,-27.377172,85.6            152.947941,-27.377186,85.4            152.947916,-27.377196,85.4            152.947895,-27.37721,85.4            152.947873,-27.377222,85.2            152.947849,-27.377234,85.2            152.947823,-27.37725,85.2            152.947797,-27.377263,85.2            152.947774,-27.377276,84.6            152.947752,-27.377287,84.4            152.94773,-27.377296,84.2            152.947703,-27.377303,83.6            152.947673,-27.377315,83.4            152.947646,-27.377321,83            152.947622,-27.377329,82.8            152.947589,-27.377328,82.4            152.947564,-27.37732,82.2            152.947538,-27.377302,81.8            152.947513,-27.377281,81.4            152.947503,-27.377253,81            152.947494,-27.377225,80.8            152.947485,-27.377197,80.6            152.947483,-27.377166,80.6            152.947479,-27.377136,80.4            152.947481,-27.3771,80.4            152.947478,-27.377077,80.2            152.947477,-27.377046,80.2            152.947476,-27.377021,80            152.947475,-27.37699,80            152.947476,-27.376962,80            152.947474,-27.376937,80            152.947478,-27.376907,79.8            152.94748,-27.376885,79.8            152.947484,-27.376855,79.6            152.947492,-27.376823,79.6            152.947505,-27.376794,79.4            152.94754,-27.376783,79.2            152.947571,-27.376777,79.2            152.947606,-27.376782,79            152.947635,-27.376788,79.2            152.947665,-27.376797,79.4            152.947688,-27.376809,79.4            152.947714,-27.376817,79.8            152.947741,-27.376829,80            152.947761,-27.376836,80.4            152.947783,-27.376832,80.8            152.947809,-27.376834,81.4            152.947833,-27.376834,81.6            152.947853,-27.376838,81.8            152.947869,-27.376837,82            152.947892,-27.376839,82.6            152.947913,-27.376842,83.4            152.947931,-27.376837,83.8            152.947963,-27.376834,84            152.947991,-27.376831,84.4            152.948026,-27.376829,84.8            152.948051,-27.376826,84.8            152.948076,-27.376819,84.8            152.948104,-27.376817,84.8            152.94813,-27.376812,84.8            152.948155,-27.376808,84.8            152.948177,-27.376806,84.8            152.948206,-27.376804,84.8            152.948241,-27.376808,85            152.948273,-27.37681,85            152.948307,-27.376814,85            152.948335,-27.376813,85            152.948366,-27.37681,85            152.948393,-27.376806,85            152.948418,-27.376804,85            152.948449,-27.376809,85            152.948476,-27.37681,85            152.948511,-27.376811,85            152.948543,-27.376811,85            152.948573,-27.376809,85            152.948604,-27.376809,85.2            152.948632,-27.376806,85            152.948665,-27.376808,85.2            152.948693,-27.376807,85.2            152.948726,-27.376808,85            152.948753,-27.37681,85            152.948783,-27.376808,85            152.948814,-27.376809,85            152.948844,-27.376808,85            152.948873,-27.37681,85            152.948896,-27.37681,85            152.948924,-27.376811,85.2            152.948949,-27.376814,85.2            152.948972,-27.376814,85.4            152.948998,-27.376816,85.4            152.949016,-27.376817,85.6            152.949042,-27.376815,85.6            152.949072,-27.376818,85.6            152.949091,-27.376819,85.6            152.949119,-27.376821,85.6            152.949148,-27.376824,85.4            152.949171,-27.376826,85.4            152.949201,-27.376828,85.4            152.949225,-27.376829,85.4            152.949246,-27.376827,85.4            152.949274,-27.376828,85.4            152.949299,-27.376828,85.2            152.94933,-27.376828,85.2            152.949357,-27.376829,85.4            152.949393,-27.37683,85.4            152.949423,-27.376834,85.2            152.949449,-27.376838,85.2            152.949475,-27.376843,85.4            152.949498,-27.376842,85.4            152.949525,-27.376841,85.4            152.949554,-27.376842,85.2            152.949577,-27.37684,85.2            152.949604,-27.376841,85.2            152.949628,-27.376844,85.2            152.949651,-27.376846,85            152.949678,-27.376848,84.8            152.949707,-27.376849,85            152.949739,-27.376851,85            152.949763,-27.376841,84.8            152.949783,-27.376832,84.8            152.949804,-27.376821,84.6            152.949819,-27.376813,84.6            152.949835,-27.376806,84.6            152.949856,-27.376798,84.4            152.949875,-27.376791,84.4            152.949898,-27.376786,84            152.949924,-27.376779,83.6            152.949954,-27.376774,83.2            152.949981,-27.376771,82.8            152.950005,-27.376769,82.8            152.950032,-27.376763,82.8            152.950046,-27.376748,82.6            152.950068,-27.376733,82.6            152.950088,-27.376718,82.6            152.950102,-27.376699,82.2            152.950118,-27.376679,82.2            152.950131,-27.376662,82            152.950145,-27.37664,82            152.950151,-27.376623,81.8            152.950152,-27.3766,81.6            152.950145,-27.376581,81.4            152.95012,-27.376559,81.2            152.950099,-27.376541,81            152.950074,-27.376524,80.8            152.950041,-27.376524,80.2            152.950015,-27.376514,79.8            152.949992,-27.376506,79.6            152.949966,-27.376506,79.4            152.949944,-27.376505,79.2            152.949919,-27.376503,79            152.949892,-27.376501,78.6            152.949865,-27.376498,78.2            152.949833,-27.376493,78            152.949806,-27.376489,77.6            152.949772,-27.376483,77.4            152.949745,-27.376477,77            152.949712,-27.376472,76.6            152.949682,-27.376472,76.4            152.949653,-27.376465,76.2            152.949623,-27.376462,76.2            152.949596,-27.376461,76            152.949566,-27.376458,75.8            152.949536,-27.376455,75.6            152.949505,-27.376454,75.4            152.949473,-27.376448,75.4            152.949441,-27.376443,75.2            152.949407,-27.376437,75.2            152.949371,-27.376431,75.2            152.949341,-27.376427,75.2            152.949307,-27.37642,75.2            152.949279,-27.376415,75            152.949248,-27.376409,75            152.949219,-27.376405,75            152.949186,-27.376401,74.8            152.949157,-27.376397,74.8            152.949124,-27.376391,74.8            152.949089,-27.376383,74.6            152.949057,-27.376385,74.6            152.949021,-27.376383,74.4            152.948991,-27.376383,74.4            152.948955,-27.37638,74.2            152.948925,-27.376379,74.2            152.948893,-27.376373,74.2            152.948866,-27.376374,74            152.948834,-27.376371,74            152.948801,-27.376366,73.8            152.948771,-27.376365,73.8            152.948736,-27.376359,73.8            152.948706,-27.376358,73.6            152.94867,-27.376351,73.4            152.94864,-27.376347,73.4            152.948609,-27.376343,73.2            152.948578,-27.37634,73.2            152.948551,-27.376335,73.2            152.948522,-27.376328,73            152.9485,-27.376321,73            152.948478,-27.376306,72.6            152.94846,-27.37629,72.6            152.94844,-27.376268,72.6            152.948426,-27.376254,72.6            152.948406,-27.37624,72.6            152.948391,-27.37623,72.6            152.948373,-27.376219,72.6            152.948354,-27.376201,72.8            152.948336,-27.376187,72.8            152.948318,-27.37617,73.2            152.948305,-27.376157,73.4            152.948288,-27.376144,73.6            152.948277,-27.37613,74            152.948267,-27.376116,74            152.948255,-27.376098,74.2            152.94825,-27.376078,74.4            152.948243,-27.376063,74.8            152.948235,-27.376045,75            152.948229,-27.376034,75.2            152.948218,-27.376024,75.6            152.948203,-27.376007,76            152.948189,-27.375994,76.2            152.948179,-27.375976,76.2            152.948174,-27.375953,76.2            152.948172,-27.375935,76.4            152.948175,-27.375913,76.4            152.948177,-27.375896,76.6            152.948178,-27.375888,77            152.94818,-27.375885,77.2            152.948184,-27.375886,77.4            152.948192,-27.375883,77.4            152.948204,-27.375883,77.6            152.94822,-27.375883,77.6            152.948239,-27.375883,77.6            152.948264,-27.375883,77.6            152.948279,-27.375881,77.6            152.948292,-27.375876,78            152.948312,-27.375877,78.2            152.948338,-27.375881,78.8            152.948359,-27.375882,79.2            152.94839,-27.375888,79.2            152.948415,-27.375891,79.4            152.948442,-27.375894,79.6            152.948465,-27.375897,79.8            152.948488,-27.375898,80.4            152.948514,-27.375902,80.4            152.948542,-27.375907,80.8            152.94857,-27.375911,81.2            152.948596,-27.375915,81.4            152.948627,-27.375916,81.6            152.948652,-27.375917,81.8            152.948676,-27.375918,82            152.948704,-27.37592,82.4            152.948731,-27.375924,82.6            152.948758,-27.37593,82.8            152.948782,-27.375935,83            152.948809,-27.375939,83            152.94883,-27.375942,83.2            152.948854,-27.375946,83.2            152.948874,-27.375952,83.4            152.948898,-27.375956,83.6            152.948926,-27.375959,83.8            152.948943,-27.375958,83.8            152.948968,-27.37596,84            152.948991,-27.375962,84.2            152.949016,-27.375965,84.4            152.949048,-27.375971,84.4            152.949072,-27.375974,84.4            152.949108,-27.375978,84.6            152.949137,-27.375982,84.6            152.949168,-27.375987,84.8            152.949197,-27.375993,84.8            152.949226,-27.375998,85            152.949256,-27.376003,85            152.949286,-27.376006,85.2            152.949315,-27.376011,85.2            152.949347,-27.376017,85.4            152.949378,-27.376019,86            152.949402,-27.376021,86.2            152.949432,-27.376023,86.4            152.949457,-27.376027,86.8            152.949484,-27.376032,87            152.949515,-27.376039,87.2            152.949544,-27.376045,87.2            152.949572,-27.37605,87.6            152.949598,-27.376053,87.6            152.949627,-27.376058,87.8            152.949655,-27.376063,88            152.949687,-27.376067,88.2            152.949716,-27.376071,88.4            152.949743,-27.376072,88.8            152.949765,-27.376073,88.8            152.949787,-27.376072,89            152.949812,-27.376069,89.2            152.949835,-27.376068,89.4            152.949861,-27.376069,89.8            152.949881,-27.376073,90.2            152.949905,-27.37608,90.2            152.949932,-27.376087,90.6            152.949959,-27.376093,91            152.949986,-27.376099,91.2            152.950005,-27.376106,91.4            152.950029,-27.376113,91.6            152.950052,-27.376119,91.8            152.950077,-27.376124,92            152.950103,-27.376127,92.2            152.950128,-27.37613,92.6            152.950152,-27.376132,92.8            152.95017,-27.37613,93            152.950197,-27.376132,93.2            152.950222,-27.376133,93.4            152.950249,-27.376136,93.6            152.950278,-27.37614,93.8            152.950308,-27.376142,94.2            152.950335,-27.376143,94.4            152.95036,-27.376144,94.6            152.950389,-27.376145,94.6            152.95041,-27.376144,95            152.950437,-27.376143,95.2            152.95046,-27.37614,95.4            152.950483,-27.376136,95.6            152.950507,-27.376135,95.8            152.950526,-27.376131,96            152.950551,-27.37613,96.4            152.950567,-27.37613,96.8            152.950591,-27.376135,97.2            152.950616,-27.376143,97.6            152.950637,-27.37615,98            152.95066,-27.376158,98.2            152.950678,-27.376166,98.4            152.950699,-27.376173,98.6            152.95072,-27.37618,98.8            152.950744,-27.376187,99            152.950767,-27.37619,99.4            152.950787,-27.376193,99.4            152.950809,-27.376193,99.6            152.950833,-27.376195,99.8            152.950856,-27.376194,100.2            152.950878,-27.376193,100.4            152.950896,-27.376189,100.4            152.950919,-27.376185,100.4            152.950949,-27.376178,100.6            152.950975,-27.376173,100.6            152.951007,-27.376166,100.6            152.951036,-27.37616,100.6            152.951061,-27.376155,100.2            152.951084,-27.376154,99.6            152.951107,-27.376152,99.6            152.951122,-27.376144,99.4            152.951112,-27.376145,99.2            152.951094,-27.376152,99.2            152.951068,-27.37616,99.2            152.951041,-27.37617,99.2            152.951013,-27.37618,99            152.950983,-27.376187,99.2            152.950956,-27.376193,99.2            152.950936,-27.376198,99.2            152.95091,-27.376205,99.4            152.950888,-27.376211,99.6            152.950864,-27.376219,99.8            152.950833,-27.376222,99.8            152.950805,-27.376223,99.8            152.950767,-27.376225,99.8            152.950732,-27.376223,99.6            152.950704,-27.37622,99.6            152.950668,-27.376214,99.6            152.950643,-27.376209,99.4            152.950611,-27.3762,99.2            152.950579,-27.37619,99.2            152.950549,-27.376182,98.8            152.950514,-27.376172,98.6            152.950486,-27.376165,98.4            152.950452,-27.376154,98            152.950423,-27.376143,97.6            152.950392,-27.376133,97.4            152.950365,-27.37612,97            152.95033,-27.376107,97            152.950302,-27.376091,96.6            152.950271,-27.376077,96.6            152.950239,-27.376059,96.6            152.950211,-27.376043,96.4            152.950182,-27.376029,96.2            152.950157,-27.376013,96.2            152.95013,-27.375998,96            152.950105,-27.375983,96            152.950076,-27.37597,95.8            152.950047,-27.375953,95.8            152.950014,-27.375936,95.6            152.94998,-27.375916,95.6            152.949952,-27.375898,95.4            152.949925,-27.375881,95.4            152.949902,-27.375864,95.4            152.949878,-27.375844,95.4            152.949858,-27.375819,95.4            152.949838,-27.375794,95.4            152.949817,-27.375766,95.4            152.949797,-27.375746,95.4            152.949778,-27.375723,95.4            152.949754,-27.375705,95.4            152.94973,-27.375686,95.4            152.949709,-27.375667,95.4            152.949685,-27.375647,95.4            152.949665,-27.375629,95.4            152.949643,-27.375613,95.6            152.949622,-27.375592,95.6            152.9496,-27.375572,95.6            152.949578,-27.375548,95.6            152.949563,-27.375527,95.6            152.949546,-27.375499,95.8            152.949531,-27.375473,95.8            152.949516,-27.375445,95.8            152.949501,-27.375419,95.6            152.949485,-27.375393,95.6            152.949467,-27.375365,95.6            152.949454,-27.375341,95.4            152.94944,-27.375311,95.4            152.949431,-27.375287,95.2            152.949418,-27.375259,95.2            152.949408,-27.375231,95            152.949397,-27.375204,95            152.949389,-27.375175,94.8            152.949383,-27.375149,94.6            152.949377,-27.37512,94.4            152.949375,-27.375098,94.2            152.949371,-27.375072,94.2            152.949368,-27.375046,93.8            152.949361,-27.375019,93.6            152.949355,-27.37499,93.2            152.949347,-27.374962,93.2            152.949341,-27.374931,92.6            152.94933,-27.374903,92.2            152.949321,-27.374872,92            152.949311,-27.374846,91.6            152.949302,-27.374817,91.2            152.949298,-27.37479,91            152.949295,-27.37476,90.8            152.949294,-27.374731,90.6            152.94929,-27.374697,90.2            152.949288,-27.374664,90            152.94928,-27.374634,89.8            152.949272,-27.374601,89.2            152.94926,-27.374571,89.2            152.949251,-27.374539,88.8            152.949244,-27.374513,88.6            152.949234,-27.374484,88.4            152.949227,-27.374458,88.2            152.949214,-27.374432,88            152.949203,-27.374408,87.6            152.949188,-27.37438,87.6            152.949176,-27.374351,87.4            152.949166,-27.374326,87.4            152.94916,-27.374293,87.2            152.949157,-27.374264,87.2            152.949154,-27.374228,87.2            152.949154,-27.374198,87            152.949151,-27.374167,87            152.94915,-27.374131,87            152.949148,-27.3741,86.8            152.949152,-27.374068,86.8            152.949154,-27.37404,86.8            152.949158,-27.374006,86.8            152.949162,-27.373974,86.8            152.949162,-27.373941,86.6            152.949166,-27.373909,86.8            152.949165,-27.37388,86.8            152.949171,-27.373851,86.6            152.949175,-27.373825,86.6            152.949178,-27.373796,86.6            152.949183,-27.373769,86.4            152.949186,-27.373738,86.4            152.949195,-27.373707,86.4            152.949199,-27.373681,86.2            152.949207,-27.373652,86.2            152.949216,-27.373622,86.2            152.949227,-27.373592,86.2            152.94924,-27.373564,86.2            152.949254,-27.373534,86.2            152.949271,-27.373509,86            152.949286,-27.373483,86            152.949307,-27.373456,85.8            152.949323,-27.373431,85.8            152.949337,-27.373403,85.6            152.949349,-27.373377,85.6            152.949362,-27.373349,85.6            152.949376,-27.373321,85.4            152.949386,-27.373291,85.4            152.949396,-27.373261,85.4            152.949399,-27.373233,85.4            152.949405,-27.373202,85.4            152.949409,-27.373172,85.4            152.949415,-27.37314,85.4            152.949418,-27.373112,85.4            152.949422,-27.373082,85.4            152.949426,-27.373054,85.4            152.949426,-27.373024,85.4            152.949428,-27.372996,85.4            152.949424,-27.372967,85.4            152.949417,-27.372941,85.6            152.949408,-27.372917,85.6            152.9494,-27.372887,85.8            152.94939,-27.372859,85.8            152.949385,-27.37283,85.8            152.949381,-27.372807,85.8            152.949374,-27.372779,85.8            152.949371,-27.372752,85.8            152.949367,-27.372718,85.8            152.949364,-27.372689,85.8            152.949364,-27.37266,85.6            152.949361,-27.372628,85.4            152.949361,-27.372599,85.2            152.949359,-27.372566,84.8            152.94936,-27.372535,84.6            152.949358,-27.372506,84.4            152.949357,-27.372472,84.4            152.949358,-27.372445,84.2            152.949358,-27.372413,84.2            152.94936,-27.372384,84            152.94936,-27.372356,83.6            152.949362,-27.372324,83.2            152.949364,-27.372296,83            152.949367,-27.37226,82.8            152.949373,-27.37223,82.6            152.949378,-27.372201,82.2            152.949381,-27.372175,82.2            152.949382,-27.372148,82            152.949386,-27.372116,81.8            152.949389,-27.372089,81.6            152.949394,-27.372056,81.4            152.949397,-27.372027,81.2            152.949403,-27.37199,81            152.949411,-27.371963,80.8            152.949419,-27.371931,80.8            152.949431,-27.371899,80.6            152.949439,-27.37187,80.4            152.949451,-27.37184,80.4            152.94946,-27.371814,80.2            152.949468,-27.371784,80            152.949477,-27.371756,79.8            152.949482,-27.371728,79.8            152.949486,-27.371699,79.4            152.949487,-27.371671,79.4            152.94949,-27.371644,79.4            152.949493,-27.371616,79.4            152.949496,-27.371588,79.2            152.9495,-27.37156,79            152.949504,-27.371529,79            152.949507,-27.371503,78.8            152.949507,-27.371477,78.6            152.94951,-27.371448,78.4            152.949511,-27.371421,78.2            152.949512,-27.371392,78            152.949515,-27.371366,77.4            152.949514,-27.371336,77.2            152.949513,-27.371306,77            152.949509,-27.371275,76.8            152.949508,-27.371244,76.6            152.949506,-27.371217,76.4            152.949505,-27.371182,76.2            152.94951,-27.371153,75.8            152.94951,-27.371119,75.4            152.949514,-27.371087,75.2            152.949511,-27.37106,75            152.949509,-27.371032,74.8            152.949506,-27.371006,74.6            152.949503,-27.370974,74.4            152.949503,-27.370946,74            152.949501,-27.370913,73.8            152.949503,-27.370885,73.8            152.949501,-27.370853,73            152.949505,-27.370824,73            152.949505,-27.370796,72.6            152.949508,-27.370765,72.4            152.949511,-27.370737,72.2            152.949517,-27.370699,72.2            152.949526,-27.370668,71.8            152.94953,-27.370637,71.8            152.949536,-27.370606,71.6            152.949536,-27.370576,71.4            152.949538,-27.370545,71.2            152.949541,-27.370518,71            152.949543,-27.370486,70.6            152.949546,-27.370456,70.6            152.949545,-27.370426,70.2            152.949548,-27.370395,70            152.949544,-27.370364,70            152.949544,-27.370333,69.8            152.949541,-27.370305,69.8            152.949539,-27.370274,69.6            152.949536,-27.370242,69.6            152.949531,-27.370217,69.4            152.949527,-27.370191,69.4            152.949525,-27.370158,69.2            152.949525,-27.370128,69.2            152.949522,-27.370097,69.2            152.94952,-27.370068,69            152.949515,-27.370038,69            152.949511,-27.37001,68.8            152.949505,-27.369982,68.8            152.949501,-27.36995,68.6            152.949496,-27.369921,68.6            152.949496,-27.369889,68.6            152.949499,-27.36986,68.6            152.9495,-27.369828,68.4            152.949503,-27.3698,68.4            152.949501,-27.369773,68.4            152.949501,-27.369744,68.4            152.9495,-27.369715,68.4            152.949502,-27.369684,68.4            152.949505,-27.369656,68.4            152.949509,-27.369624,68.4            152.949514,-27.369592,68.2            152.949519,-27.369558,68.2            152.949523,-27.36953,68.2            152.949527,-27.369496,68.2            152.949526,-27.369466,68            152.949522,-27.369433,68            152.94952,-27.369405,68            152.949514,-27.369373,68            152.949511,-27.369344,68            152.949502,-27.369315,68            152.949494,-27.369287,68            152.949489,-27.369259,68            152.949487,-27.369225,68.2            152.949486,-27.369194,68.4            152.949492,-27.369159,68.4            152.949494,-27.369127,68.4            152.9495,-27.369096,68.6            152.949503,-27.369067,68.6            152.949502,-27.369036,68.6            152.949496,-27.369001,68.8            152.949488,-27.368969,68.8            152.949478,-27.368943,68.8            152.949462,-27.36891,68.8            152.949449,-27.368886,68.8            152.949433,-27.368854,68.8            152.949422,-27.36883,69            152.949409,-27.368805,69.2            152.949396,-27.368781,69.2            152.949378,-27.368758,69.2            152.949358,-27.368734,69.2            152.949335,-27.368707,69.2            152.949312,-27.368682,69.2            152.949293,-27.36866,69.2            152.949271,-27.368636,69            152.949248,-27.368616,68.8            152.949217,-27.368596,68.6            152.949189,-27.368582,68.4            152.949161,-27.368571,68.2            152.949132,-27.368558,67.8            152.949105,-27.368546,67.6            152.949076,-27.368533,67.4            152.949053,-27.368522,67.2            152.949024,-27.368513,66.8            152.948995,-27.368502,66.6            152.948967,-27.368491,66.2            152.948937,-27.368478,65.6            152.94891,-27.368465,65.2            152.94889,-27.368454,64.8            152.948865,-27.368445,64.6            152.948842,-27.36844,64.4            152.948824,-27.368436,64            152.948797,-27.368432,63.6            152.948769,-27.368427,62.8            152.948743,-27.368426,62.4            152.948717,-27.368425,62            152.94869,-27.368423,61.8            152.948663,-27.368424,61.4            152.948639,-27.368425,61            152.948616,-27.368427,60.4            152.948587,-27.368424,60            152.948554,-27.368418,59.6            152.948522,-27.36841,58.8            152.948488,-27.368398,58.2            152.948452,-27.368382,57.8            152.948421,-27.368364,57.6            152.948389,-27.368345,57            152.948358,-27.368331,56.2            152.948326,-27.368325,55.4            152.948296,-27.368324,54.8            152.94827,-27.36833,54.6            152.948245,-27.36834,54            152.948219,-27.368355,53.6            152.948198,-27.36837,53.2            152.948176,-27.36839,53.2            152.948156,-27.368412,52.6            152.948141,-27.368439,52.2            152.948127,-27.368464,51.6            152.948112,-27.36849,51.4            152.948097,-27.368511,51.4            152.948083,-27.368529,51.4            152.94807,-27.368548,51.4            152.948061,-27.368566,51.6            152.948055,-27.368583,51.8            152.948053,-27.368599,52.4            152.948056,-27.368616,52.8            152.948063,-27.368635,53.2            152.948075,-27.368656,53.6            152.94809,-27.368674,53.8            152.948108,-27.368691,54            152.948128,-27.368708,54.4            152.948151,-27.368723,54.8            152.948172,-27.36874,55            152.948195,-27.368758,55.2            152.948216,-27.368774,55.4            152.948237,-27.368792,55.4            152.948255,-27.368808,55.6            152.948275,-27.368826,55.6            152.948292,-27.368843,56            152.948311,-27.368863,56.2            152.948328,-27.36888,56.4            152.948346,-27.368901,56.6            152.948363,-27.368924,56.8            152.948377,-27.368947,56.8            152.948389,-27.368971,56.8            152.948402,-27.368995,57            152.948409,-27.369021,57.2            152.948416,-27.369045,57.2            152.94842,-27.369069,57.4            152.948421,-27.369093,57.6            152.948418,-27.369118,57.8            152.94841,-27.369142,58            152.948402,-27.369166,58            152.948391,-27.369187,58.2            152.948374,-27.369215,58.6            152.948358,-27.369239,58.8            152.948343,-27.369263,59            152.948326,-27.369287,59.2            152.94831,-27.369308,59.8            152.948294,-27.369323,60            152.948276,-27.36934,60.4            152.948258,-27.369353,60.6            152.94824,-27.369367,61.2            152.948217,-27.369381,61.8            152.948195,-27.369396,62.4            152.948178,-27.369407,62.8            152.948163,-27.369422,63            152.948146,-27.369435,63.4            152.948134,-27.369452,63.8            152.948121,-27.36947,64.4            152.948107,-27.369489,65            152.94809,-27.369509,65.2            152.948074,-27.369525,65.6            152.948057,-27.369541,65.8            152.94804,-27.369554,66            152.94802,-27.36957,66.4            152.948,-27.369583,66.6            152.947979,-27.369597,67            152.947959,-27.369609,67.4            152.947939,-27.369621,67.8            152.947921,-27.369633,68.2            152.947904,-27.369645,68.6            152.947888,-27.369657,69.2            152.947874,-27.36967,69.8            152.947854,-27.369684,70            152.947839,-27.369696,70.4            152.947819,-27.36971,70.8            152.9478,-27.369723,71.2            152.947785,-27.369734,71.4            152.947765,-27.369747,71.8            152.94775,-27.369756,72.2            152.947727,-27.36977,72.4            152.947709,-27.36978,72.8            152.947687,-27.369793,73.2            152.947664,-27.369804,73.6            152.947644,-27.369817,74            152.94763,-27.369828,74            152.947615,-27.369836,74.2            152.947605,-27.36984,74.6            152.947596,-27.369843,74.8            152.947587,-27.369844,75            152.94757,-27.36985,75.2            152.947556,-27.369856,75.2            152.947543,-27.369862,75.2            152.947533,-27.369867,75.8            152.947524,-27.369875,76            152.947516,-27.36988,76            152.947507,-27.369886,76.2            152.947494,-27.369891,76.4            152.947479,-27.369894,76.4            152.947465,-27.369898,76.6            152.947449,-27.369899,76.8            152.947432,-27.369902,77            152.947418,-27.369905,77            152.947403,-27.369908,77.2            152.94739,-27.369911,77.2            152.947378,-27.369915,77.6            152.947356,-27.369921,77.8            152.947342,-27.369925,78            152.947317,-27.369933,78            152.947291,-27.36994,78.2            152.947268,-27.36995,78.2            152.947246,-27.369961,78.2            152.947228,-27.369972,78.4            152.947208,-27.369983,78.8            152.947185,-27.369993,79            152.947165,-27.370005,79.4            152.947148,-27.370016,79.6            152.947127,-27.370029,79.8            152.947103,-27.370043,80            152.947085,-27.370054,80.2            152.94706,-27.370064,80.2            152.947039,-27.370072,80.4            152.94701,-27.370082,80.4            152.946987,-27.370088,80.6            152.946958,-27.370095,80.8            152.946929,-27.370101,80.8            152.946899,-27.370108,81            152.946867,-27.370113,81            152.946839,-27.370121,81.2            152.946812,-27.370127,81.4            152.946791,-27.370134,81.6            152.946768,-27.370141,81.6            152.946746,-27.370148,81.8            152.946722,-27.370155,82            152.946699,-27.370163,82.2            152.946675,-27.370173,82.2            152.946652,-27.370184,82.4            152.946634,-27.370193,82.6            152.946613,-27.370206,82.8            152.946596,-27.370217,83            152.94657,-27.370235,83.2            152.946551,-27.370248,83.6            152.946534,-27.370265,83.8            152.946518,-27.370284,84            152.946505,-27.370306,84.4            152.946491,-27.370324,84.4            152.946478,-27.370343,84.6            152.946465,-27.370364,84.6            152.946456,-27.370382,85            152.946444,-27.370402,85.2            152.946433,-27.370421,85.4            152.946422,-27.370447,85.4            152.946411,-27.370467,85.6            152.946402,-27.370487,85.8            152.94639,-27.370508,86            152.946377,-27.370526,86.2            152.946366,-27.370544,86.4            152.946352,-27.370561,86.4            152.946337,-27.37058,86.6            152.946319,-27.3706,86.6            152.946305,-27.370619,86.8            152.946292,-27.370639,86.8            152.94628,-27.37066,87            152.94627,-27.370683,87.2            152.946263,-27.370705,87.4            152.946258,-27.370728,87.4            152.946251,-27.370749,87.6            152.946246,-27.370775,87.8            152.946242,-27.370796,88            152.946239,-27.370823,88.2            152.946232,-27.370845,88.4            152.946223,-27.370869,88.6            152.946209,-27.370891,89            152.946196,-27.37091,89            152.946178,-27.37093,89            152.946159,-27.370943,89.4            152.946135,-27.37096,89.6            152.946112,-27.370975,89.8            152.946091,-27.37099,90            152.946068,-27.371004,90.2            152.946051,-27.371018,90.6            152.94603,-27.371034,90.8            152.946013,-27.37105,90.8            152.945995,-27.371066,91            152.945979,-27.371081,91.2            152.945962,-27.371101,91.6            152.945946,-27.371118,91.8            152.945929,-27.371135,92            152.945907,-27.371155,92.2            152.94589,-27.371172,92.2            152.945868,-27.371189,92.6            152.945848,-27.371202,92.8            152.945825,-27.371218,93.2            152.945801,-27.371232,93.4            152.945782,-27.371245,93.8            152.945761,-27.371258,94            152.945742,-27.37127,94.2            152.945721,-27.371281,94.4            152.945701,-27.371291,94.4            152.945682,-27.371301,94.4            152.94566,-27.371312,94.6            152.94564,-27.371322,94.6            152.945617,-27.371335,94.6            152.945599,-27.371344,94.6            152.945579,-27.371357,94.8            152.94556,-27.371369,94.8            152.945546,-27.37138,95            152.945527,-27.371393,95.4            152.945509,-27.371404,95.4            152.945491,-27.371416,95.4            152.945476,-27.371426,95.6            152.945459,-27.371435,95.8            152.945439,-27.371448,95.8            152.945421,-27.371461,95.8            152.945405,-27.371471,95.8            152.945384,-27.371483,96            152.945366,-27.371494,96            152.945344,-27.37151,96            152.945325,-27.371526,96            152.945308,-27.371541,96.2            152.945289,-27.371556,96.2            152.945273,-27.371569,96.4            152.945253,-27.371585,96.6            152.945231,-27.371603,96.6            152.945212,-27.371625,96.6            152.945191,-27.371646,96.6            152.945168,-27.371666,96.8            152.945147,-27.371685,96.8            152.945129,-27.371703,96.8            152.945107,-27.371721,96.6            152.945083,-27.371737,96.8            152.945058,-27.371753,96.8            152.94503,-27.371765,97            152.945003,-27.371775,97            152.944967,-27.371784,97            152.944939,-27.371791,96.8            152.944908,-27.371793,97            152.944877,-27.371791,97            152.944854,-27.371791,97            152.944827,-27.371788,97.2            152.944801,-27.37179,97.6            152.944775,-27.371795,97.6            152.944756,-27.371799,97.6            152.944734,-27.371806,97.8            152.944718,-27.37181,98            152.944696,-27.371821,98.2            152.94467,-27.371835,98.4            152.944653,-27.371849,98.6            152.944634,-27.371861,98.8            152.944618,-27.371873,98.8            152.944598,-27.371886,98.8            152.944578,-27.371899,99            152.944552,-27.371916,99            152.944523,-27.371932,99            152.944496,-27.371947,99            152.944468,-27.371961,98.8            152.944444,-27.371966,98.6            152.944418,-27.371969,98.6            152.944414,-27.371951,98.6            152.944415,-27.371933,98.6            152.944428,-27.371911,98.6            152.94445,-27.3719,98.8            152.944472,-27.371887,98.8            152.944503,-27.371874,99            152.94453,-27.371862,99.2            152.944554,-27.371847,99.2            152.944575,-27.371835,99.2            152.944594,-27.371821,99.2            152.944618,-27.371806,99.2            152.944637,-27.371791,99            152.944657,-27.371774,99            152.944675,-27.371759,99            152.944698,-27.371743,99            152.944722,-27.371732,98.8            152.944749,-27.371722,98.8            152.944783,-27.371713,98.6            152.944807,-27.371709,98.6            152.94484,-27.371708,98.4            152.944872,-27.371708,98.4            152.944904,-27.371706,98.2            152.944936,-27.3717,98            152.944963,-27.371692,97.6            152.94499,-27.371682,97.6            152.94501,-27.37167,97.2            152.945033,-27.371657,97.2            152.945055,-27.371643,97.2            152.945078,-27.371628,97.2            152.945106,-27.371611,97.2            152.945131,-27.371593,97.2            152.945155,-27.371574,97.2            152.945178,-27.371556,97.2            152.945199,-27.371535,97.2            152.94522,-27.371517,97.2            152.945241,-27.371499,97.2            152.945266,-27.37148,97            152.945289,-27.371462,97            152.945312,-27.371442,96.8            152.945335,-27.371423,96.8            152.945361,-27.3714,96.6            152.945386,-27.371382,96.6            152.945407,-27.371366,96.6            152.94543,-27.371352,96.2            152.945452,-27.371336,96.2            152.945478,-27.371318,96            152.945501,-27.371302,96            152.945529,-27.371285,95.8            152.945556,-27.371272,95.6            152.945584,-27.371255,95.6            152.945615,-27.37124,95.4            152.945641,-27.371224,95.2            152.945669,-27.371208,95            152.945692,-27.371191,94.8            152.945717,-27.371173,94.6            152.945745,-27.371156,94.4            152.945769,-27.37114,94.4            152.945795,-27.371125,94.4            152.945817,-27.371108,94.2            152.945843,-27.37109,94.2            152.945867,-27.371069,94            152.945893,-27.371044,93.8            152.945912,-27.371027,93.6            152.945931,-27.371006,93.4            152.945952,-27.370985,93            152.945974,-27.370962,92.8            152.946002,-27.370943,92.6            152.946027,-27.370926,92.2            152.946053,-27.37091,92            152.946076,-27.370897,91.4            152.946102,-27.37088,91.4            152.946125,-27.37086,91            152.946142,-27.370836,90.6            152.946155,-27.370812,90.4            152.946164,-27.370783,90.4            152.946173,-27.370754,89.8            152.946178,-27.370726,89.6            152.946184,-27.370696,89.2            152.946194,-27.370669,88.8            152.946207,-27.370639,88.8            152.94622,-27.370611,88.4            152.946232,-27.370585,88.2            152.946248,-27.370561,87.8            152.946262,-27.370536,87.8            152.946281,-27.370511,87.6            152.946297,-27.370488,87.4            152.946314,-27.370461,87.4            152.946328,-27.370437,87.2            152.946341,-27.370411,87            152.946355,-27.370388,86.8            152.946367,-27.370361,86.6            152.946382,-27.370332,86.4            152.946396,-27.370305,86.4            152.946412,-27.370275,86.2            152.946429,-27.370252,86.2            152.946449,-27.370225,85.8            152.946471,-27.370204,85.6            152.946492,-27.370184,85.4            152.946521,-27.370166,85.2            152.946545,-27.370148,85            152.946575,-27.37013,84.8            152.946602,-27.370115,84.4            152.946636,-27.370099,84.2            152.946668,-27.370086,84            152.946704,-27.370071,83.8            152.946739,-27.370059,83.8            152.946773,-27.370048,83.6            152.946812,-27.37004,83.6            152.946848,-27.370035,83.2            152.946883,-27.370029,83            152.946918,-27.370026,83            152.946947,-27.37002,82.8            152.946978,-27.370011,82.6            152.947006,-27.370001,82.4            152.947038,-27.369991,82.2            152.947065,-27.369981,81.8            152.947093,-27.369969,81.6            152.947119,-27.369955,81.4            152.947142,-27.36994,81.2            152.947169,-27.369925,81            152.947193,-27.369911,80.8            152.947225,-27.369895,80.8            152.947255,-27.369883,80.4            152.947285,-27.369872,80.4            152.947321,-27.369863,80            152.947354,-27.369854,79.8            152.947385,-27.369847,79.4            152.947416,-27.369839,79.2            152.947443,-27.369831,79            152.94747,-27.369822,78.6            152.947496,-27.369811,78.4            152.94752,-27.3698,78            152.947544,-27.369789,77.6            152.947565,-27.369778,77.2            152.947587,-27.369766,76.8            152.947609,-27.369751,76.4            152.94763,-27.369734,76            152.947652,-27.369715,75.6            152.947676,-27.369694,75.4            152.947695,-27.369679,75            152.947719,-27.369662,74.4            152.947742,-27.369649,74            152.94777,-27.369633,73.8            152.947796,-27.369619,73.6            152.947825,-27.369604,73            152.947853,-27.369589,72.4            152.947877,-27.369576,72            152.947898,-27.369563,71.6            152.947922,-27.369552,71            152.947943,-27.369539,70.6            152.947964,-27.369523,70.4            152.947986,-27.369505,69.6            152.948005,-27.369489,69            152.948021,-27.36947,68.8            152.948036,-27.369452,68.2            152.948051,-27.369433,67.6            152.948069,-27.369415,67.2            152.948089,-27.369397,67            152.948106,-27.36938,66.8            152.948123,-27.369364,66.4            152.948143,-27.369341,66            152.948164,-27.36932,65.4            152.948187,-27.369301,64.8            152.948206,-27.369282,64.4            152.948226,-27.369264,64            152.948246,-27.369241,63.4            152.948266,-27.369216,63            152.948287,-27.369189,62.2            152.948306,-27.369162,61.8            152.948319,-27.369138,61.2            152.948329,-27.369111,61            152.948333,-27.369086,60.6            152.948335,-27.369056,60            152.948333,-27.369026,59.8            152.948323,-27.369002,59.8            152.948313,-27.368979,59.4            152.948301,-27.368959,59.2            152.948287,-27.368943,59.2            152.948265,-27.368921,59            152.948245,-27.368906,59            152.948226,-27.368887,58.8            152.948208,-27.368871,58.8            152.948187,-27.36885,58.6            152.948162,-27.368829,58.4            152.948139,-27.368809,58.4            152.948117,-27.368787,58.2            152.948098,-27.368769,58            152.948076,-27.368748,58            152.948053,-27.368725,57.8            152.948032,-27.368705,57.6            152.948012,-27.368685,57.6            152.947994,-27.368662,57.4            152.947982,-27.368634,57.2            152.947978,-27.368607,57            152.947981,-27.368577,56.8            152.94799,-27.368549,56.8            152.948004,-27.368522,56.6            152.948021,-27.368491,56.4            152.948038,-27.368466,56.2            152.948057,-27.368438,55.8            152.948076,-27.368409,55.2            152.948097,-27.368381,54.8            152.948117,-27.368359,54.6            152.948138,-27.368337,54.6            152.94816,-27.368316,54.6            152.948176,-27.368299,54.6            152.948197,-27.368284,54.6            152.948215,-27.368271,54.8            152.94824,-27.368258,55.2            152.948264,-27.368249,55.6            152.948292,-27.368245,56            152.948324,-27.368244,56.4            152.948357,-27.36825,56.6            152.948387,-27.368259,57            152.948416,-27.368269,57            152.948437,-27.368282,57.4            152.948461,-27.368293,57.6            152.948482,-27.368307,58            152.948503,-27.368317,58.2            152.94852,-27.368327,58.4            152.948539,-27.368334,58.8            152.948564,-27.368342,59.2            152.948584,-27.368347,59.4            152.948601,-27.36835,60.2            152.94862,-27.368354,60.4            152.948641,-27.368356,60.6            152.948661,-27.368356,60.8            152.948683,-27.368355,61.4            152.9487,-27.368352,61.8            152.948719,-27.368351,62            152.948739,-27.368351,62.6            152.94876,-27.368355,63            152.94878,-27.368357,63.6            152.948798,-27.368361,64            152.948813,-27.368363,64.2            152.948824,-27.368367,64.8            152.948837,-27.368372,65.2            152.948848,-27.368374,65.4            152.948859,-27.368378,65.6            152.948875,-27.368382,65.8            152.94889,-27.368385,66.2            152.9489,-27.368387,66.4            152.948913,-27.36839,66.8            152.948932,-27.368396,67            152.948943,-27.368402,67.2            152.948954,-27.368407,67.4            152.948967,-27.368413,67.4            152.948977,-27.368416,67.6            152.94899,-27.368421,67.6            152.949004,-27.368427,67.8            152.949015,-27.368433,68            152.949029,-27.36844,68.2            152.949039,-27.368448,68.4            152.949057,-27.36846,68.6            152.949068,-27.368468,68.8            152.949082,-27.368473,68.8            152.949097,-27.368479,69            152.949107,-27.368482,69.2            152.949119,-27.368485,69.2            152.949125,-27.368489,69.2            152.949134,-27.368493,69.4            152.949139,-27.368495,69.6            152.949149,-27.3685,69.8            152.949165,-27.368511,70            152.949182,-27.368525,70.2            152.949201,-27.368539,70.4            152.949216,-27.368551,70.4            152.94923,-27.368559,70.4            152.949242,-27.368565,70.4            152.949253,-27.368572,70.6            152.949259,-27.368577,70.8            152.949262,-27.368579,70.8            152.949269,-27.368586,71            152.949275,-27.368594,71            152.949284,-27.368603,71.2            152.949299,-27.368616,71.4            152.949313,-27.368627,71.4            152.949328,-27.368635,71.6            152.949343,-27.368643,71.6            152.949357,-27.368653,71.6            152.949368,-27.368663,71.8            152.949379,-27.368676,71.8            152.949394,-27.368693,72            152.94941,-27.368709,72            152.949429,-27.368732,72            152.949445,-27.368749,72            152.949463,-27.36877,72.2            152.94948,-27.368794,72.2            152.949492,-27.368816,72.2            152.949501,-27.36884,72.4            152.949509,-27.368859,72.4            152.949518,-27.368883,72.4            152.949528,-27.368908,72.4            152.949538,-27.368936,72.4            152.949547,-27.368965,72.4            152.949555,-27.368991,72.4            152.94956,-27.369017,72.4            152.949559,-27.36904,72.4            152.949557,-27.369064,72.4            152.949553,-27.369088,72.4            152.94955,-27.369115,72.4            152.949545,-27.369143,72.4            152.949545,-27.369169,72.4            152.949543,-27.369195,72.4            152.949544,-27.369221,72.4            152.949548,-27.36925,72.4            152.949553,-27.369277,72.4            152.949561,-27.369304,72.4            152.949566,-27.369332,72.2            152.949569,-27.36936,72.2            152.949573,-27.369387,72.2            152.949578,-27.369416,72.2            152.949581,-27.369439,72            152.949582,-27.369465,72            152.949584,-27.369493,72            152.949583,-27.369517,72            152.949583,-27.369545,72            152.949581,-27.36957,72            152.949578,-27.369598,72            152.949573,-27.36962,72.2            152.949571,-27.369643,72.2            152.949566,-27.36967,72.4            152.949562,-27.3697,72.4            152.949561,-27.369727,72.4            152.949564,-27.369755,72.6            152.949567,-27.369782,72.6            152.949569,-27.369804,72.6            152.949571,-27.369829,72.6            152.949573,-27.369855,72.6            152.949574,-27.36988,72.8            152.949576,-27.369909,72.8            152.949578,-27.369937,72.8            152.94958,-27.369967,72.8            152.949581,-27.369991,72.8            152.949583,-27.370018,72.8            152.949586,-27.370042,72.8            152.949589,-27.370067,72.8            152.949591,-27.37009,72.8            152.949592,-27.370116,72.8            152.94959,-27.37014,73            152.949587,-27.370164,73            152.949585,-27.37019,73            152.949585,-27.370211,73            152.949588,-27.370239,73.2            152.949587,-27.370264,73.2            152.949591,-27.370289,73.2            152.949592,-27.370315,73.2            152.949597,-27.370353,73.4            152.949598,-27.370366,73.4            152.949601,-27.370389,73.4            152.949602,-27.370414,73.4            152.949604,-27.370438,73.4            152.949609,-27.370465,73.4            152.949609,-27.370489,73.6            152.94961,-27.370516,73.6            152.949608,-27.370542,73.6            152.949609,-27.370568,73.6            152.949607,-27.370594,73.8            152.949607,-27.370617,74            152.949605,-27.37064,74            152.949601,-27.37066,74.2            152.949599,-27.370681,74.2            152.949596,-27.370704,74.4            152.949594,-27.370728,75            152.949592,-27.370751,75            152.94959,-27.370774,75.2            152.949585,-27.370796,75.4            152.94958,-27.370817,75.8            152.949577,-27.370839,75.8            152.949575,-27.370859,76.2            152.94957,-27.370888,76.4            152.949563,-27.370913,76.4            152.949562,-27.370935,76.6            152.94956,-27.370956,77            152.949558,-27.370979,77            152.949556,-27.371006,77.2            152.949556,-27.371027,77.2            152.949555,-27.371051,77.4            152.949552,-27.371072,77.4            152.949552,-27.371095,77.6            152.949553,-27.371116,77.6            152.949555,-27.371134,77.6            152.949559,-27.371156,77.8            152.949565,-27.371175,78            152.949569,-27.371195,78.4            152.949573,-27.371216,78.4            152.949577,-27.371238,78.4            152.949577,-27.371259,78.6            152.94958,-27.371287,78.8            152.949581,-27.371297,79            152.949579,-27.371314,79            152.949579,-27.371337,79.2            152.949579,-27.371361,79.4            152.949579,-27.371387,79.8            152.949579,-27.37141,80            152.94958,-27.37143,80.2            152.94958,-27.371455,80.2            152.949581,-27.371474,80.4            152.949582,-27.371496,80.8            152.94958,-27.371515,81.2            152.949579,-27.371539,81.4            152.949576,-27.371565,81.6            152.949574,-27.371593,81.6            152.949569,-27.371621,81.8            152.949565,-27.371643,81.8            152.949559,-27.371668,82            152.949556,-27.371686,82            152.949554,-27.371709,82.2            152.94955,-27.371733,82.4            152.949547,-27.37176,82.4            152.949541,-27.371785,82.6            152.949537,-27.371809,82.6            152.949527,-27.371833,82.6            152.94952,-27.371855,82.6            152.949509,-27.371877,82.6            152.9495,-27.3719,82.6            152.949491,-27.371923,82.6            152.949483,-27.371944,82.6            152.949475,-27.371967,82.8            152.949466,-27.371991,82.8            152.949461,-27.372015,83            152.949455,-27.372036,83            152.949453,-27.372057,83.2            152.94945,-27.372079,83.4            152.949449,-27.372098,83.4            152.949446,-27.37212,83.6            152.949446,-27.37214,83.8            152.949444,-27.372166,84            152.949442,-27.372188,84            152.949437,-27.372223,84.2            152.949436,-27.372234,84.4            152.949433,-27.372255,84.4            152.949427,-27.372279,84.8            152.949421,-27.372301,85            152.949419,-27.372325,85            152.949414,-27.372347,85.2            152.949411,-27.37237,85.4            152.949408,-27.372392,85.6            152.949405,-27.372416,85.6            152.949402,-27.372439,85.8            152.949401,-27.372459,86            152.949398,-27.372484,86            152.949395,-27.372504,86.4            152.949393,-27.372526,86.6            152.949393,-27.372546,86.6            152.949394,-27.372571,86.8            152.949393,-27.372594,87            152.949396,-27.372626,87            152.949397,-27.372638,87.2            152.949399,-27.37266,87.4            152.949399,-27.372686,87.4            152.949402,-27.372708,87.6            152.949405,-27.372731,87.6            152.949407,-27.372754,87.8            152.949412,-27.372781,88            152.949415,-27.372806,88.2            152.949419,-27.372831,88.2            152.949423,-27.372856,88.4            152.949426,-27.372877,88.6            152.949432,-27.372898,88.8            152.949439,-27.372922,88.8            152.949447,-27.372946,88.8            152.949453,-27.372972,89            152.949458,-27.372994,89            152.949462,-27.37302,89            152.949466,-27.37304,88.8            152.949469,-27.373064,88.8            152.949469,-27.373087,88.8            152.949471,-27.373114,88.8            152.949471,-27.373144,88.8            152.949469,-27.373186,88.8            152.949468,-27.373201,88.8            152.949462,-27.373227,88.8            152.949456,-27.37325,88.8            152.949446,-27.373274,88.8            152.949437,-27.3733,88.8            152.949425,-27.373327,88.8            152.949415,-27.373354,88.6            152.9494,-27.373375,88.6            152.949391,-27.373397,88.6            152.949377,-27.37342,88.4            152.949363,-27.373443,88.6            152.949348,-27.373469,88.4            152.949334,-27.373489,88.4            152.94932,-27.373513,88.6            152.949307,-27.373534,88.6            152.949295,-27.373559,88.8            152.949285,-27.373581,89            152.949279,-27.373599,89            152.949269,-27.373624,89.2            152.949261,-27.373644,89.4            152.949252,-27.37367,89.4            152.949243,-27.373695,89.4            152.949236,-27.373718,89.4            152.949233,-27.373741,89.4            152.949229,-27.373765,89.4            152.949226,-27.373788,89.4            152.949224,-27.373812,89.4            152.949222,-27.37384,89.4            152.949217,-27.373869,89.4            152.949213,-27.373898,89.4            152.949211,-27.373919,89.6            152.949209,-27.373945,89.6            152.949207,-27.373973,89.6            152.949205,-27.373997,89.6            152.949201,-27.374022,89.8            152.949197,-27.374043,89.8            152.949196,-27.374067,89.8            152.949196,-27.374089,89.8            152.949197,-27.374116,89.8            152.949197,-27.374142,89.8            152.949203,-27.374185,89.8            152.949204,-27.374198,90            152.949208,-27.374223,90            152.949213,-27.37425,90.2            152.949217,-27.374274,90.2            152.949222,-27.374299,90.2            152.949226,-27.37432,90.2            152.949235,-27.374344,90.2            152.949244,-27.374367,90.2            152.949254,-27.374391,90.4            152.949263,-27.374416,90.4            152.949274,-27.374439,90.4            152.949285,-27.374467,90.6            152.949294,-27.374487,90.6            152.949305,-27.374513,90.6            152.949312,-27.374533,90.8            152.949322,-27.374555,91            152.949329,-27.374576,91            152.949337,-27.374599,91            152.949342,-27.374623,91.2            152.949349,-27.374646,91.2            152.949354,-27.37467,91.4            152.94936,-27.374694,91.6            152.949366,-27.37472,91.8            152.949372,-27.374743,92            152.949374,-27.374772,92.2            152.949375,-27.374793,92.4            152.949377,-27.374817,92.6            152.949379,-27.374841,92.8            152.949383,-27.374865,93            152.949387,-27.374889,93.4            152.949391,-27.374913,93.4            152.949395,-27.374936,93.6            152.949401,-27.374953,93.8            152.949407,-27.374974,94.2            152.949414,-27.374997,94.6            152.94942,-27.375018,94.8            152.949422,-27.375038,95            152.949426,-27.375057,95.2            152.94943,-27.375079,95.4            152.949435,-27.375097,95.8            152.949443,-27.375129,95.8            152.949446,-27.375139,96.2            152.949452,-27.375164,96.4            152.949456,-27.375184,96.8            152.94946,-27.375205,97            152.949464,-27.375228,97.2            152.949469,-27.375252,97.6            152.949473,-27.375274,97.8            152.949481,-27.375295,97.8            152.949491,-27.37532,98            152.949503,-27.37534,98.2            152.949515,-27.375362,98.2            152.949525,-27.375383,98.4            152.949536,-27.375407,98.4            152.949547,-27.375429,98.4            152.949561,-27.375454,98.6            152.949576,-27.375477,98.8            152.949592,-27.375497,98.8            152.949613,-27.375525,99            152.949633,-27.375545,99.2            152.949658,-27.375567,99.2            152.949679,-27.375583,99.2            152.949706,-27.375603,99.4            152.949727,-27.375617,99.4            152.949756,-27.375634,99.4            152.949778,-27.375647,99.4            152.949805,-27.375663,99.4            152.949826,-27.375678,99.4            152.949846,-27.375698,99.4            152.949862,-27.375719,99.4            152.949878,-27.375737,99.4            152.949896,-27.37576,99.6            152.949911,-27.375779,99.4            152.949931,-27.375801,99.6            152.949952,-27.375821,99.6            152.949975,-27.375841,99.6            152.949993,-27.375858,99.4            152.950017,-27.375871,99.4            152.950039,-27.375884,99.4            152.950059,-27.375897,99.4            152.950081,-27.375909,99.4            152.950112,-27.375924,99.4            152.950122,-27.375929,99.4            152.950142,-27.375939,99.4            152.950161,-27.37595,99.4            152.950183,-27.375961,99.4            152.950205,-27.375972,99.4            152.95023,-27.375984,99.4            152.950251,-27.375992,99.6            152.950276,-27.376004,99.6            152.9503,-27.376013,100            152.950323,-27.376024,100            152.95035,-27.376034,100.2            152.950376,-27.376044,100.4            152.950402,-27.376056,100.6            152.950424,-27.376066,100.6            152.95045,-27.376076,100.8            152.950475,-27.376086,101            152.950502,-27.376096,101            152.950528,-27.376106,101.2            152.950555,-27.376114,101.4            152.950593,-27.37613,101.4            152.950605,-27.376134,101.6            152.950627,-27.376143,101.6            152.950648,-27.376151,101.8            152.950673,-27.37616,102            152.950695,-27.376167,102.2            152.950719,-27.376174,102.4            152.95074,-27.376181,102.4            152.950765,-27.376186,102.6            152.95079,-27.376187,102.6            152.950811,-27.376187,102.6            152.950838,-27.376186,103            152.950861,-27.376184,103.2            152.950885,-27.376181,103.6            152.95091,-27.376177,104            152.95093,-27.376176,104            152.950954,-27.376171,104            152.950981,-27.376167,104            152.95101,-27.37616,104            152.951042,-27.376154,103.4            152.951071,-27.376148,103.4            152.951111,-27.376149,103            152.951122,-27.376151,102.8            152.95111,-27.376158,102.6            152.951093,-27.376161,102.4            152.951074,-27.376166,102.4            152.951039,-27.376173,102.4            152.951012,-27.37618,102.4            152.95098,-27.376189,102.4            152.950958,-27.376198,102.4            152.950929,-27.376204,102.4            152.950905,-27.37621,102.6            152.950877,-27.376216,102.8            152.950848,-27.376221,102.8            152.950822,-27.376225,103            152.950795,-27.376227,103.2            152.95077,-27.37623,103.2            152.950744,-27.37623,103.2            152.950713,-27.376227,103.2            152.950689,-27.376221,103.2            152.95066,-27.376213,103            152.950633,-27.376204,102.6            152.9506,-27.376198,102.2            152.950568,-27.37619,102            152.950542,-27.376184,101.8            152.950521,-27.376182,101.6            152.950498,-27.37618,101.2            152.950473,-27.376179,100.8            152.950441,-27.376182,100.6            152.950418,-27.376184,100.4            152.950385,-27.376185,100            152.950356,-27.376186,99.4            152.950322,-27.376186,99            152.95029,-27.376186,98.4            152.950255,-27.376185,98.4            152.950223,-27.376183,98            152.950195,-27.376181,98            152.950163,-27.376177,97.8            152.950137,-27.376172,97.8            152.9501,-27.37617,97.6            152.950072,-27.376164,97.4            152.950038,-27.376161,96.8            152.949993,-27.376156,96.6            152.949977,-27.376155,96.4            152.949946,-27.37615,96            152.949915,-27.376145,95.8            152.949882,-27.37614,95.6            152.949853,-27.376138,95.4            152.949821,-27.376134,95.2            152.949797,-27.376132,95            152.949768,-27.37613,94.6            152.949738,-27.376127,94.2            152.949701,-27.376125,93.8            152.949669,-27.376121,93.6            152.949634,-27.376114,93            152.949602,-27.376109,92.8            152.949568,-27.376107,92.8            152.949538,-27.376101,92.6            152.949505,-27.376096,92.4            152.949472,-27.376089,92.2            152.949442,-27.376084,91.8            152.949408,-27.376079,91.6            152.949374,-27.376072,91.2            152.94934,-27.376066,91            152.949308,-27.376055,91            152.949279,-27.376048,90.6            152.949253,-27.376042,90.6            152.949223,-27.376039,90.4            152.949196,-27.376035,90.2            152.949167,-27.376034,90            152.949136,-27.376031,89.8            152.949107,-27.376027,89.8            152.94908,-27.376024,89.4            152.949053,-27.376021,89.4            152.949019,-27.376016,89.4            152.948988,-27.376009,89.2            152.948957,-27.376008,89            152.948926,-27.376006,89            152.948892,-27.376004,89            152.948862,-27.376,88.8            152.948834,-27.375997,88.6            152.948803,-27.375992,88.6            152.94877,-27.375985,88.4            152.948723,-27.37598,88.4            152.948708,-27.375979,88.2            152.948678,-27.375975,88            152.948649,-27.375972,87.8            152.94862,-27.37597,87.6            152.948585,-27.375966,87.4            152.948555,-27.375961,87.2            152.948523,-27.375957,87            152.948496,-27.375951,86.8            152.94847,-27.375947,86.6            152.948442,-27.375943,86.2            152.948412,-27.375939,86            152.948388,-27.375935,85.8            152.948359,-27.375931,85.6            152.948332,-27.375926,85.2            152.948303,-27.375924,84.8            152.948277,-27.37592,84.2            152.948254,-27.375916,83.8            152.948237,-27.375914,83.6            152.948225,-27.37592,83.2            152.948214,-27.375932,83.2            152.948215,-27.375948,82.8            152.948223,-27.375963,82.6            152.94824,-27.375977,82.4            152.948252,-27.375992,82.2            152.948268,-27.376013,81.8            152.948282,-27.376034,81.6            152.948292,-27.376057,81.4            152.948304,-27.376079,81            152.948317,-27.376102,80.4            152.948331,-27.376121,79.8            152.948346,-27.376138,79.8            152.948363,-27.376152,79.6            152.948387,-27.376168,79.2            152.94841,-27.376181,78.8            152.948435,-27.376193,78.6            152.948457,-27.376204,78.2            152.948478,-27.376221,77.8            152.948501,-27.376243,77.6            152.948524,-27.376259,77.4            152.948549,-27.37627,77.2            152.948588,-27.37628,77.2            152.948604,-27.37628,77.2            152.948633,-27.376286,77.2            152.948664,-27.37629,77.2            152.948694,-27.376294,77.2            152.948724,-27.376299,77.4            152.948751,-27.376304,77.4            152.948776,-27.376308,77.6            152.9488,-27.37631,77.6            152.94884,-27.376315,77.8            152.948853,-27.376317,78            152.948882,-27.37632,78.2            152.948911,-27.376323,78.4            152.94894,-27.376326,78.6            152.948967,-27.376328,78.8            152.948993,-27.376331,79            152.949017,-27.376335,79.2            152.949041,-27.376336,79.4            152.949067,-27.376339,79.4            152.949095,-27.376341,79.6            152.949121,-27.376344,79.6            152.949149,-27.376345,79.8            152.949193,-27.376353,80            152.949206,-27.376355,80            152.949234,-27.376359,80.4            152.949258,-27.376364,80.4            152.949284,-27.376368,80.6            152.94931,-27.376374,80.6            152.94934,-27.376378,80.8            152.949369,-27.376382,81            152.949397,-27.376385,81.2            152.949423,-27.376389,81.2            152.949452,-27.376393,81.6            152.949481,-27.376397,81.6            152.949509,-27.376401,81.6            152.94954,-27.376406,82            152.949567,-27.376409,82            152.949591,-27.376413,82.2            152.949613,-27.376414,82.2            152.94964,-27.376417,82.4            152.949665,-27.376421,82.6            152.949707,-27.376429,82.6            152.949721,-27.376433,83            152.94975,-27.376439,83            152.949775,-27.376445,83.4            152.949799,-27.37645,83.4            152.949824,-27.376456,83.6            152.94985,-27.376461,83.6            152.949877,-27.376466,84            152.949899,-27.37647,84.4            152.949924,-27.376475,84.6            152.949945,-27.376478,85            152.94997,-27.376482,85.2            152.949993,-27.376486,85.4            152.95002,-27.376492,85.8            152.95005,-27.376502,86.2            152.950078,-27.376512,86.6            152.950103,-27.376525,87.2            152.950122,-27.376542,87.6            152.950135,-27.376565,88            152.950143,-27.37659,88.6            152.950145,-27.37662,88.8            152.950139,-27.376646,89.4            152.950129,-27.376675,89.8            152.950114,-27.376699,90.2            152.950099,-27.376724,90.8            152.950078,-27.376745,91            152.950058,-27.376766,91.2            152.950032,-27.376784,91.6            152.950007,-27.376802,91.8            152.94998,-27.37682,92            152.949959,-27.376834,92.2            152.949932,-27.37685,92.4            152.949908,-27.376864,92.4            152.949876,-27.376884,92.4            152.949853,-27.376899,92.6            152.949825,-27.376917,92.8            152.949805,-27.376933,92.8            152.94978,-27.376951,92.8            152.949756,-27.376966,93            152.949732,-27.376984,93.6            152.949709,-27.377001,94            152.949671,-27.377032,94.2            152.94966,-27.37704,94.2            152.949638,-27.377059,94.2            152.949614,-27.377078,94.2            152.949592,-27.377098,94.2            152.949571,-27.377116,94.2            152.949546,-27.377136,94.2            152.949519,-27.377153,94.2            152.949492,-27.377168,94.2            152.949461,-27.377181,94.2            152.949435,-27.377191,94.2            152.949406,-27.377193,94.2            152.949381,-27.377191,94.4            152.949352,-27.377178,94.4            152.94933,-27.377156,94.6            152.949311,-27.377133,95            152.949309,-27.377095,95.2            152.949302,-27.377064,95.4            152.949304,-27.377029,95.4            152.949311,-27.376997,95.6            152.949309,-27.376969,95.6            152.949311,-27.376942,95.4            152.949311,-27.376921,95.4            152.949307,-27.376907,95.4          </coordinates></LineString></Placemark></Folder></Document></kml>