<?xml version="1.0" encoding="UTF-8"?><kml xmlns="http://www.opengis.net/kml/2.2"><Document><name>Burswood Peninsula parkrun</name><description/><Style id="icon-1899-0F9D58-nodesc-normal"><IconStyle><color>ff589d0f</color><scale>1</scale><Icon><href>https://www.gstatic.com/mapspro/images/stock/503-wht-blank_maps.png</href></Icon><hotSpot x="32" xunits="pixels" y="64" yunits="insetPixels"/></IconStyle><LabelStyle><scale>0</scale></LabelStyle><BalloonStyle><text><![CDATA[<h3>$[name]</h3>]]></text></BalloonStyle></Style><Style id="icon-1899-0F9D58-nodesc-highlight"><IconStyle><color>ff589d0f</color><scale>1</scale><Icon><href>https://www.gstatic.com/mapspro/images/stock/503-wht-blank_maps.png</href></Icon><hotSpot x="32" xunits="pixels" y="64" yunits="insetPixels"/></IconStyle><LabelStyle><scale>1</scale></LabelStyle><BalloonStyle><text><![CDATA[<h3>$[name]</h3>]]></text></BalloonStyle></Style><StyleMap id="icon-1899-0F9D58-nodesc"><Pair><key>normal</key><styleUrl>#icon-1899-0F9D58-nodesc-normal</styleUrl></Pair><Pair><key>highlight</key><styleUrl>#icon-1899-0F9D58-nodesc-highlight</styleUrl></Pair></StyleMap><Style id="icon-1899-FF5252-nodesc-normal"><IconStyle><color>ff5252ff</color><scale>1</scale><Icon><href>https://www.gstatic.com/mapspro/images/stock/503-wht-blank_maps.png</href></Icon><hotSpot x="32" xunits="pixels" y="64" yunits="insetPixels"/></IconStyle><LabelStyle><scale>0</scale></LabelStyle><BalloonStyle><text><![CDATA[<h3>$[name]</h3>]]></text></BalloonStyle></Style><Style id="icon-1899-FF5252-nodesc-highlight"><IconStyle><color>ff5252ff</color><scale>1</scale><Icon><href>https://www.gstatic.com/mapspro/images/stock/503-wht-blank_maps.png</href></Icon><hotSpot x="32" xunits="pixels" y="64" yunits="insetPixels"/></IconStyle><LabelStyle><scale>1</scale></LabelStyle><BalloonStyle><text><![CDATA[<h3>$[name]</h3>]]></text></BalloonStyle></Style><StyleMap id="icon-1899-FF5252-nodesc"><Pair><key>normal</key><styleUrl>#icon-1899-FF5252-nodesc-normal</styleUrl></Pair><Pair><key>highlight</key><styleUrl>#icon-1899-FF5252-nodesc-highlight</styleUrl></Pair></StyleMap><Style id="line-0288D1-5069-nodesc-normal"><LineStyle><color>ffd18802</color><width>5.069</width></LineStyle><BalloonStyle><text><![CDATA[<h3>$[name]</h3>]]></text></BalloonStyle></Style><Style id="line-0288D1-5069-nodesc-highlight"><LineStyle><color>ffd18802</color><width>7.6035</width></LineStyle><BalloonStyle><text><![CDATA[<h3>$[name]</h3>]]></text></BalloonStyle></Style><StyleMap id="line-0288D1-5069-nodesc"><Pair><key>normal</key><styleUrl>#line-0288D1-5069-nodesc-normal</styleUrl></Pair><Pair><key>highlight</key><styleUrl>#line-0288D1-5069-nodesc-highlight</styleUrl></Pair></StyleMap><Folder><name>Untitled layer</name><Placemark><name>Course</name><styleUrl>#line-0288D1-5069-nodesc</styleUrl><LineString><tessellate>1</tessellate><coordinates>            115.887566,-31.953095,0            115.887324,-31.953077,0            115.887179,-31.952827,0            115.887217,-31.952408,0            115.887265,-31.951989,0            115.887115,-31.951448,0            115.887083,-31.95107,0            115.887238,-31.950656,0            115.887389,-31.95021,0            115.887512,-31.949804,0            115.886922,-31.94914,0            115.88689,-31.948111,0            115.886337,-31.948052,0            115.88587,-31.94807,0            115.885291,-31.947952,0            115.885254,-31.947792,0            115.885152,-31.947642,0            115.885152,-31.947524,0            115.884712,-31.947542,0            115.884615,-31.947788,0            115.884562,-31.948138,0            115.884674,-31.948844,0            115.885001,-31.949581,0            115.885184,-31.950342,0            115.886364,-31.952158,0            115.887051,-31.953441,0            115.887335,-31.954028,0            115.88755,-31.953987,0            115.887389,-31.953628,0            115.887335,-31.953305,0            115.887603,-31.953141,0            115.887726,-31.952845,0            115.887973,-31.95259,0            115.88837,-31.952449,0            115.889068,-31.952481,0            115.889786,-31.952431,0            115.890275,-31.952153,0            115.890854,-31.951675,0            115.890296,-31.952089,0            115.889738,-31.952385,0            115.889009,-31.952449,0            115.888408,-31.952422,0            115.887963,-31.952563,0            115.8877,-31.952831,0            115.887576,-31.953045,0            115.887356,-31.953054,0            115.887222,-31.952781,0            115.887281,-31.951935,0            115.887136,-31.951379,0            115.887104,-31.950933,0            115.887474,-31.949823,0            115.886976,-31.949126,0            115.886713,-31.949081,0            115.886562,-31.948616,0            115.886466,-31.948266,0            115.886428,-31.948093,0            115.885897,-31.948102,0            115.885238,-31.947979,0            115.884873,-31.948034,0            115.884615,-31.948052,0            115.884599,-31.947733,0            115.884771,-31.947506,0            115.885211,-31.947515,0            115.885243,-31.947756,0            115.885339,-31.947911,0            115.885527,-31.94787,0            115.886359,-31.947893,0            115.886927,-31.947993,0            115.886943,-31.949094,0            115.887523,-31.949841,0            115.887126,-31.951038,0            115.887099,-31.951643,0            115.887024,-31.951907,0            115.887034,-31.952089,0            115.88697,-31.952272,0            115.886605,-31.952567,0            115.887367,-31.953996,0            115.887582,-31.953956,0            115.887346,-31.953587,0            115.887324,-31.953273,0            115.887694,-31.953086,0          </coordinates></LineString></Placemark><Placemark><name>Finish</name><styleUrl>#icon-1899-FF5252-nodesc</styleUrl><Point><coordinates>            115.887694,-31.953086,0          </coordinates></Point></Placemark><Placemark><name>Start</name><styleUrl>#icon-1899-0F9D58-nodesc</styleUrl><Point><coordinates>            115.887566,-31.953095,0          </coordinates></Point></Placemark></Folder></Document></kml>