<?xml version="1.0" encoding="UTF-8"?><kml xmlns="http://www.opengis.net/kml/2.2"><Document><name>Carisbrooke parkrun</name><description/><Style id="icon-1899-0F9D58-nodesc-normal"><IconStyle><color>ff589d0f</color><scale>1</scale><Icon><href>https://www.gstatic.com/mapspro/images/stock/503-wht-blank_maps.png</href></Icon><hotSpot x="32" xunits="pixels" y="64" yunits="insetPixels"/></IconStyle><LabelStyle><scale>0</scale></LabelStyle><BalloonStyle><text><![CDATA[<h3>$[name]</h3>]]></text></BalloonStyle></Style><Style id="icon-1899-0F9D58-nodesc-highlight"><IconStyle><color>ff589d0f</color><scale>1</scale><Icon><href>https://www.gstatic.com/mapspro/images/stock/503-wht-blank_maps.png</href></Icon><hotSpot x="32" xunits="pixels" y="64" yunits="insetPixels"/></IconStyle><LabelStyle><scale>1</scale></LabelStyle><BalloonStyle><text><![CDATA[<h3>$[name]</h3>]]></text></BalloonStyle></Style><StyleMap id="icon-1899-0F9D58-nodesc"><Pair><key>normal</key><styleUrl>#icon-1899-0F9D58-nodesc-normal</styleUrl></Pair><Pair><key>highlight</key><styleUrl>#icon-1899-0F9D58-nodesc-highlight</styleUrl></Pair></StyleMap><Style id="icon-1899-FF5252-nodesc-normal"><IconStyle><color>ff5252ff</color><scale>1</scale><Icon><href>https://www.gstatic.com/mapspro/images/stock/503-wht-blank_maps.png</href></Icon><hotSpot x="32" xunits="pixels" y="64" yunits="insetPixels"/></IconStyle><LabelStyle><scale>0</scale></LabelStyle><BalloonStyle><text><![CDATA[<h3>$[name]</h3>]]></text></BalloonStyle></Style><Style id="icon-1899-FF5252-nodesc-highlight"><IconStyle><color>ff5252ff</color><scale>1</scale><Icon><href>https://www.gstatic.com/mapspro/images/stock/503-wht-blank_maps.png</href></Icon><hotSpot x="32" xunits="pixels" y="64" yunits="insetPixels"/></IconStyle><LabelStyle><scale>1</scale></LabelStyle><BalloonStyle><text><![CDATA[<h3>$[name]</h3>]]></text></BalloonStyle></Style><StyleMap id="icon-1899-FF5252-nodesc"><Pair><key>normal</key><styleUrl>#icon-1899-FF5252-nodesc-normal</styleUrl></Pair><Pair><key>highlight</key><styleUrl>#icon-1899-FF5252-nodesc-highlight</styleUrl></Pair></StyleMap><Style id="line-0288D1-5069-nodesc-normal"><LineStyle><color>ffd18802</color><width>5.069</width></LineStyle><BalloonStyle><text><![CDATA[<h3>$[name]</h3>]]></text></BalloonStyle></Style><Style id="line-0288D1-5069-nodesc-highlight"><LineStyle><color>ffd18802</color><width>7.6035</width></LineStyle><BalloonStyle><text><![CDATA[<h3>$[name]</h3>]]></text></BalloonStyle></Style><StyleMap id="line-0288D1-5069-nodesc"><Pair><key>normal</key><styleUrl>#line-0288D1-5069-nodesc-normal</styleUrl></Pair><Pair><key>highlight</key><styleUrl>#line-0288D1-5069-nodesc-highlight</styleUrl></Pair></StyleMap><Folder><name>Untitled layer</name><Placemark><name>Course</name><styleUrl>#line-0288D1-5069-nodesc</styleUrl><LineString><tessellate>1</tessellate><coordinates>            138.677756,-34.754622,0            138.67748,-34.754737,0            138.677279,-34.754728,0            138.677129,-34.75469,0            138.676378,-34.754673,0            138.675836,-34.754565,0            138.674321,-34.754316,0            138.674106,-34.754117,0            138.673838,-34.753769,0            138.673317,-34.75367,0            138.672904,-34.753476,0            138.672658,-34.753304,0            138.672582,-34.753344,0            138.672459,-34.753641,0            138.672524,-34.754078,0            138.67244,-34.754274,0            138.672164,-34.75447,0            138.671716,-34.754604,0            138.671322,-34.754452,0            138.67071,-34.754157,0            138.670482,-34.753884,0            138.67041,-34.75376,0            138.670431,-34.753635,0            138.670547,-34.753536,0            138.670686,-34.753439,0            138.670756,-34.753317,0            138.671113,-34.753247,0            138.671164,-34.753095,0            138.670968,-34.752828,0            138.670713,-34.752886,0            138.670254,-34.752881,0            138.669959,-34.753201,0            138.669906,-34.753223,0            138.669841,-34.753203,0            138.669603,-34.752938,0            138.669466,-34.752658,0            138.669257,-34.752702,0            138.668841,-34.752601,0            138.668591,-34.752542,0            138.668514,-34.752434,0            138.668388,-34.75237,0            138.668208,-34.752467,0            138.667832,-34.752584,0            138.667814,-34.752696,0            138.667902,-34.752784,0            138.668144,-34.752841,0            138.66821,-34.753002,0            138.668186,-34.753148,0            138.6681,-34.753249,0            138.667832,-34.753357,0            138.667696,-34.753692,0            138.667414,-34.753752,0            138.667232,-34.753835,0            138.66728,-34.753937,0            138.667462,-34.754036,0            138.667744,-34.754073,0            138.668039,-34.75406,0            138.668235,-34.754208,0            138.66828,-34.754419,0            138.668092,-34.754611,0            138.667143,-34.754878,0            138.666824,-34.7549,0            138.666596,-34.754906,0            138.666226,-34.754964,0            138.665874,-34.754849,0            138.665587,-34.754701,0            138.66533,-34.754726,0            138.665051,-34.75471,0            138.664925,-34.754697,0            138.66456,-34.754812,0            138.664222,-34.754847,0            138.663999,-34.754827,0            138.663597,-34.755008,0            138.662414,-34.755752,0            138.661883,-34.755929,0            138.661454,-34.756147,0            138.661151,-34.756425,0            138.660872,-34.756738,0            138.660588,-34.756909,0            138.660448,-34.756973,0          </coordinates></LineString></Placemark><Placemark><name>Finish</name><styleUrl>#icon-1899-FF5252-nodesc</styleUrl><Point><coordinates>            138.677775,-34.754624,0          </coordinates></Point></Placemark><Placemark><name>Start</name><styleUrl>#icon-1899-0F9D58-nodesc</styleUrl><Point><coordinates>            138.677756,-34.754622,0          </coordinates></Point></Placemark></Folder></Document></kml>