<?xml version="1.0" encoding="UTF-8"?><kml xmlns="http://www.opengis.net/kml/2.2"><Document><name>Castlemaine parkrun</name><description/><Style id="icon-503-009D57-nodesc-normal"><IconStyle><color>ff579d00</color><scale>1.1</scale><Icon><href>https://www.gstatic.com/mapspro/images/stock/503-wht-blank_maps.png</href></Icon><hotSpot x="16" xunits="pixels" y="32" yunits="insetPixels"/></IconStyle><LabelStyle><scale>0</scale></LabelStyle><BalloonStyle><text><![CDATA[<h3>$[name]</h3>]]></text></BalloonStyle></Style><Style id="icon-503-009D57-nodesc-highlight"><IconStyle><color>ff579d00</color><scale>1.1</scale><Icon><href>https://www.gstatic.com/mapspro/images/stock/503-wht-blank_maps.png</href></Icon><hotSpot x="16" xunits="pixels" y="32" yunits="insetPixels"/></IconStyle><LabelStyle><scale>1.1</scale></LabelStyle><BalloonStyle><text><![CDATA[<h3>$[name]</h3>]]></text></BalloonStyle></Style><StyleMap id="icon-503-009D57-nodesc"><Pair><key>normal</key><styleUrl>#icon-503-009D57-nodesc-normal</styleUrl></Pair><Pair><key>highlight</key><styleUrl>#icon-503-009D57-nodesc-highlight</styleUrl></Pair></StyleMap><Style id="icon-503-DB4436-normal"><IconStyle><color>ff3644db</color><scale>1.1</scale><Icon><href>https://www.gstatic.com/mapspro/images/stock/503-wht-blank_maps.png</href></Icon><hotSpot x="16" xunits="pixels" y="32" yunits="insetPixels"/></IconStyle><LabelStyle><scale>0</scale></LabelStyle></Style><Style id="icon-503-DB4436-highlight"><IconStyle><color>ff3644db</color><scale>1.1</scale><Icon><href>https://www.gstatic.com/mapspro/images/stock/503-wht-blank_maps.png</href></Icon><hotSpot x="16" xunits="pixels" y="32" yunits="insetPixels"/></IconStyle><LabelStyle><scale>1.1</scale></LabelStyle></Style><StyleMap id="icon-503-DB4436"><Pair><key>normal</key><styleUrl>#icon-503-DB4436-normal</styleUrl></Pair><Pair><key>highlight</key><styleUrl>#icon-503-DB4436-highlight</styleUrl></Pair></StyleMap><Style id="line-4186F0-4704-nodesc-normal"><LineStyle><color>fff08641</color><width>4.704</width></LineStyle><BalloonStyle><text><![CDATA[<h3>$[name]</h3>]]></text></BalloonStyle></Style><Style id="line-4186F0-4704-nodesc-highlight"><LineStyle><color>fff08641</color><width>7.056</width></LineStyle><BalloonStyle><text><![CDATA[<h3>$[name]</h3>]]></text></BalloonStyle></Style><StyleMap id="line-4186F0-4704-nodesc"><Pair><key>normal</key><styleUrl>#line-4186F0-4704-nodesc-normal</styleUrl></Pair><Pair><key>highlight</key><styleUrl>#line-4186F0-4704-nodesc-highlight</styleUrl></Pair></StyleMap><Folder><name>Untitled layer</name><Placemark><name>Course</name><styleUrl>#line-4186F0-4704-nodesc</styleUrl><LineString><tessellate>1</tessellate><coordinates>            144.217755,-37.050673,0            144.21872,-37.04932,0            144.218613,-37.049218,0            144.21813,-37.049192,0            144.217851,-37.049175,0            144.217594,-37.049183,0            144.217476,-37.049278,0            144.217293,-37.0495,0            144.217175,-37.049671,0            144.217046,-37.04986,0            144.216961,-37.05004,0            144.216682,-37.050416,0            144.216456,-37.050767,0            144.216081,-37.05111,0            144.215845,-37.051401,0            144.21548,-37.051684,0            144.215233,-37.051983,0            144.215062,-37.0523,0            144.21504,-37.052531,0            144.214987,-37.052771,0            144.214761,-37.052977,0            144.214686,-37.053182,0            144.214718,-37.053439,0            144.214729,-37.053636,0            144.214804,-37.053876,0            144.214729,-37.054073,0            144.214396,-37.054509,0            144.214236,-37.054775,0            144.214139,-37.055117,0            144.214171,-37.055237,0            144.214246,-37.05528,0            144.214354,-37.055297,0            144.21445,-37.055297,0            144.214568,-37.055271,0            144.21475,-37.055254,0            144.214858,-37.055297,0            144.214901,-37.055366,0            144.214954,-37.055434,0            144.215083,-37.055511,0            144.215169,-37.055485,0            144.215255,-37.055374,0            144.215341,-37.055271,0            144.215384,-37.055151,0            144.215426,-37.05504,0            144.215437,-37.054963,0            144.215502,-37.054852,0            144.215663,-37.054398,0            144.215984,-37.053456,0            144.216059,-37.053293,0            144.21622,-37.053062,0            144.216542,-37.052548,0            144.216875,-37.052069,0            144.217207,-37.051615,0            144.21739,-37.051213,0            144.217562,-37.050913,0            144.217712,-37.050733,0          </coordinates></LineString></Placemark><Placemark><name>Start</name><styleUrl>#icon-503-009D57-nodesc</styleUrl><Point><coordinates>            144.217647,-37.05081,0          </coordinates></Point></Placemark><Placemark><name>Finish</name><description>After 3 Laps</description><styleUrl>#icon-503-DB4436</styleUrl><Point><coordinates>            144.217476,-37.05105,0          </coordinates></Point></Placemark></Folder></Document></kml>