<?xml version="1.0" encoding="UTF-8"?><kml xmlns="http://www.opengis.net/kml/2.2"><Document><name>Chelsea Bicentennial parkrun</name><description/><Style id="icon-1899-0F9D58-normal"><IconStyle><color>ff589d0f</color><scale>1</scale><Icon><href>https://www.gstatic.com/mapspro/images/stock/503-wht-blank_maps.png</href></Icon><hotSpot x="32" xunits="pixels" y="64" yunits="insetPixels"/></IconStyle><LabelStyle><scale>0</scale></LabelStyle></Style><Style id="icon-1899-0F9D58-highlight"><IconStyle><color>ff589d0f</color><scale>1</scale><Icon><href>https://www.gstatic.com/mapspro/images/stock/503-wht-blank_maps.png</href></Icon><hotSpot x="32" xunits="pixels" y="64" yunits="insetPixels"/></IconStyle><LabelStyle><scale>1</scale></LabelStyle></Style><StyleMap id="icon-1899-0F9D58"><Pair><key>normal</key><styleUrl>#icon-1899-0F9D58-normal</styleUrl></Pair><Pair><key>highlight</key><styleUrl>#icon-1899-0F9D58-highlight</styleUrl></Pair></StyleMap><Style id="icon-1899-FF5252-nodesc-normal"><IconStyle><color>ff5252ff</color><scale>1</scale><Icon><href>https://www.gstatic.com/mapspro/images/stock/503-wht-blank_maps.png</href></Icon><hotSpot x="32" xunits="pixels" y="64" yunits="insetPixels"/></IconStyle><LabelStyle><scale>0</scale></LabelStyle><BalloonStyle><text><![CDATA[<h3>$[name]</h3>]]></text></BalloonStyle></Style><Style id="icon-1899-FF5252-nodesc-highlight"><IconStyle><color>ff5252ff</color><scale>1</scale><Icon><href>https://www.gstatic.com/mapspro/images/stock/503-wht-blank_maps.png</href></Icon><hotSpot x="32" xunits="pixels" y="64" yunits="insetPixels"/></IconStyle><LabelStyle><scale>1</scale></LabelStyle><BalloonStyle><text><![CDATA[<h3>$[name]</h3>]]></text></BalloonStyle></Style><StyleMap id="icon-1899-FF5252-nodesc"><Pair><key>normal</key><styleUrl>#icon-1899-FF5252-nodesc-normal</styleUrl></Pair><Pair><key>highlight</key><styleUrl>#icon-1899-FF5252-nodesc-highlight</styleUrl></Pair></StyleMap><Style id="line-0288D1-5000-normal"><LineStyle><color>ffd18802</color><width>5</width></LineStyle></Style><Style id="line-0288D1-5000-highlight"><LineStyle><color>ffd18802</color><width>7.5</width></LineStyle></Style><StyleMap id="line-0288D1-5000"><Pair><key>normal</key><styleUrl>#line-0288D1-5000-normal</styleUrl></Pair><Pair><key>highlight</key><styleUrl>#line-0288D1-5000-highlight</styleUrl></Pair></StyleMap><Folder><name>Chelsea Bicentennial parkrun</name><Placemark><name>Start</name><description>Elevation: 22 feet</description><styleUrl>#icon-1899-0F9D58</styleUrl><Point><coordinates>            145.127036031336,-38.0487646535039,6.67          </coordinates></Point></Placemark><Placemark><name>Finish</name><styleUrl>#icon-1899-FF5252-nodesc</styleUrl><Point><coordinates>            145.126945674419,-38.0488983448595,5.6          </coordinates></Point></Placemark><Placemark><name>Chelsea Bicentennial parkrun</name><description><![CDATA[Statistics computed from imported data<br><br>Distance: 3.1 miles<br>Minimum Elevation: 7 feet<br>Maximum Elevation: 26 feet<br>Total climb: 11 feet<br>Total descent: 19 feet]]></description><styleUrl>#line-0288D1-5000</styleUrl><LineString><tessellate>1</tessellate><coordinates>            145.127036031336,-38.0487646535039,6.67            145.127023626119,-38.0487610492855,6.86            145.12700619176,-38.0487101711333,7.17            145.127003174275,-38.0486606340855,7.49            145.12705212459,-38.0485683493316,7.86            145.127061260864,-38.0485555250198,8.15            145.127068134025,-38.0485415272415,8.41            145.1270737499,-38.0484967678785,8.71            145.127058075741,-38.0484065786004,9.07            145.127040557563,-38.0483706202358,9.37            145.127027984709,-38.0483522638679,9.63            145.127017926425,-38.0483355000615,9.85            145.127010969445,-38.0483223404735,10.03            145.127003006637,-38.0483057443053,10.16            145.126996636391,-38.0482888966799,10.26            145.126977944747,-38.0482394434512,10.33            145.12697249651,-38.048223266378,10.37            145.126965288073,-38.0482039880008,10.39            145.12695774436,-38.0481844581664,10.4            145.12692916207,-38.0481231864542,10.39            145.126917595044,-38.0481058359146,10.38            145.126903345808,-38.0480892397463,10.35            145.126848109066,-38.0480421334505,10.31            145.126807373017,-38.0480146408081,10.28            145.126751633361,-38.0479827895761,10.22            145.126732774079,-38.0479743238539,10.14            145.126714836806,-38.0479645170271,10.04            145.126592125744,-38.0478764232248,9.88            145.126579385251,-38.0478644371033,9.77            145.126557257026,-38.047837363556,9.64            145.126553820446,-38.0477161612362,9.51            145.126559184864,-38.0476996488869,9.37            145.126667646691,-38.047581044957,9.25            145.126751046628,-38.0475487746298,9.12            145.126793626696,-38.0475369561464,8.96            145.126947434619,-38.0474912747741,8.77            145.127340964973,-38.0473980680108,8.55            145.127626955509,-38.0476595833898,8.16            145.12787790969,-38.0479334201664,7.71            145.128006152809,-38.0480369366705,7.47            145.128208491951,-38.0482818558812,7.29            145.128284348175,-38.048469023779,6.92            145.128434048966,-38.0489047989249,6.59            145.128441844136,-38.0489191319793,6.32            145.128448214382,-38.0489312019199,6.08            145.128453662619,-38.048944612965,5.85            145.128449555486,-38.0491880234331,5.59            145.128442263231,-38.0492305196822,5.38            145.128432959318,-38.0492912884802,5.18            145.128417871892,-38.0493502132595,5            145.128389289603,-38.0495352856815,4.85            145.128379398957,-38.0497836414725,4.76            145.128499343991,-38.0502249486744,4.77            145.128671173006,-38.0505230091512,4.59            145.128774940968,-38.050702046603,4.34            145.128784747794,-38.0507208220661,4.23            145.128794303164,-38.0507370829582,4.16            145.128802517429,-38.050752254203,4.1            145.128890778869,-38.0509224068373,4.02            145.128931598738,-38.051000693813,4            145.128969652578,-38.0510439444333,4.03            145.129010891542,-38.0510797351599,4.09            145.12910191901,-38.0511741992086,4.25            145.129527049139,-38.0514801386744,4.34            145.129764843732,-38.0519074480981,4.3            145.129789821804,-38.0523493420333,4.42            145.129881603643,-38.0525432154536,4.36            145.130156949162,-38.0529580358416,4.37            145.130412429571,-38.0533648096025,4.41            145.130490045995,-38.0535204615444,4.48            145.130532206967,-38.0537125747651,4.5            145.130759272724,-38.0541263893247,4.41            145.130983656272,-38.0545609071851,4.57            145.131018944085,-38.054645145312,4.63            145.131137799472,-38.0548737198114,4.75            145.131411133334,-38.0552692618221,4.66            145.131447678432,-38.0552882887423,4.65            145.131571311504,-38.0553400889039,4.6            145.132024856284,-38.0556044541299,4.53            145.132457949221,-38.0558940488845,4.47            145.132878301665,-38.0561667960137,4.55            145.132933119312,-38.0562193505466,4.57            145.132973687723,-38.0562581587583,4.6            145.13334274292,-38.0566076003015,4.76            145.133406193927,-38.0567345023155,4.73            145.133416587487,-38.0567826144397,4.7            145.133520271629,-38.0569265317172,4.6            145.133775416762,-38.05733573623,4.37            145.134021509439,-38.0577524006367,4.36            145.134166097268,-38.0581823084503,4.53            145.134313618764,-38.0584027525038,4.56            145.134492153302,-38.0586506053805,4.44            145.134782837704,-38.0590522661805,4.33            145.13506539166,-38.0594517476857,4.15            145.135362446308,-38.0598582699895,3.92            145.135482894257,-38.0600140057504,3.66            145.135682215914,-38.060229504481,3.45            145.135870222002,-38.0604364536703,3.35            145.136176999658,-38.0608299002051,3.23            145.136336339638,-38.0610001366585,3.09            145.136598525569,-38.0613644979894,3.25            145.136791896075,-38.0615934915841,3.26            145.137067157775,-38.061997583136,3.12            145.137184252962,-38.0621476192027,3.16            145.137538388371,-38.0625015031546,3.25            145.137863606215,-38.0628801137209,3.41            145.138193434104,-38.0632527731359,3.7            145.138504905626,-38.0635916534811,3.82            145.138799194247,-38.0637880414724,3.88            145.138817131519,-38.0637988541275,4.02            145.138836577535,-38.0638096667826,4.15            145.138890556991,-38.0638431105763,4.27            145.138910422102,-38.0638524983078,4.39            145.138928191736,-38.0638611316681,4.48            145.138961803168,-38.0638779792935,4.56            145.139130949974,-38.0640122573823,4.66            145.139105217531,-38.0640127602965,4.69            145.138931544498,-38.0639205593616,4.66            145.138866500929,-38.0638853553683,4.63            145.138823920861,-38.0638644844294,4.57            145.138746388257,-38.0638236645609,4.48            145.138608254492,-38.0637568607926,4.42            145.138500295579,-38.063686536625,4.31            145.13848034665,-38.0636716168374,4.15            145.138354031369,-38.063546391204,3.97            145.138179017231,-38.063353355974,3.79            145.138109950349,-38.0632729735225,3.56            145.13779127039,-38.062882963568,3.2            145.137580633163,-38.0626183468848,2.92            145.137260779738,-38.0622337013483,2.69            145.137132871896,-38.0620767083019,2.55            145.136806480587,-38.0616902187467,2.51            145.136483190581,-38.0613106861711,2.37            145.136239696294,-38.0610034894198,2.09            145.136198876426,-38.0609612446278,2.02            145.136185130104,-38.0609464086592,2            145.136161074042,-38.0609145574272,2.03            145.135837784037,-38.0605292413384,2.12            145.135745415464,-38.0604245513678,2.21            145.135697973892,-38.0603465158492,2.33            145.135657237843,-38.0603113118559,2.5            145.135642234236,-38.0602980684489,2.68            145.135627985001,-38.0602817237377,2.87            145.135578531772,-38.0602298397571,3.1            145.135529413819,-38.0601647961885,3.33            145.135468561202,-38.0600824858993,3.57            145.135156838223,-38.0597004387528,4            145.134862465784,-38.0593184754252,4.26            145.134668089449,-38.0590636655688,4.39            145.134551245719,-38.0589284654707,4.47            145.134250419214,-38.0585330910981,4.58            145.134043553844,-38.0581429973245,4.49            145.133868958801,-38.0577288474888,4.34            145.133742894977,-38.0574694275856,4.36            145.133678186685,-38.0573572777212,4.4            145.133428238332,-38.0569318961352,4.61            145.133295804262,-38.0566557124257,4.71            145.133039318025,-38.0563439056277,4.59            145.13300511986,-38.056320939213,4.58            145.132922641933,-38.0562774371356,4.55            145.132822981104,-38.0562170036137,4.55            145.132412016392,-38.0558997485787,4.44            145.132299698889,-38.055818779394,4.45            145.131859146059,-38.0555631313473,4.52            145.131393363699,-38.0553001910448,4.67            145.131130339578,-38.0549747217447,4.81            145.130981560796,-38.0547142121941,4.71            145.130965132266,-38.0546803493053,4.69            145.130956834182,-38.0546631664038,4.68            145.130947865546,-38.0546447262168,4.66            145.130938980728,-38.0546281300485,4.63            145.130930682644,-38.0546139646322,4.61            145.130711244419,-38.054217165336,4.45            145.130573362112,-38.0539627745748,4.56            145.130477556959,-38.0537656322122,4.6            145.130410669371,-38.0535277538002,4.64            145.130407232791,-38.0535110738128,4.65            145.130380326882,-38.0534617044032,4.65            145.13035886921,-38.0534297693521,4.67            145.130232051015,-38.0532164499164,4.69            145.130104981363,-38.0529736261815,4.72            145.129846148193,-38.0525530222803,4.83            145.129819242284,-38.0525168124586,4.95            145.1297572162,-38.0520673748106,5.11            145.12964380905,-38.0518293287605,5.21            145.129499891773,-38.0515678133816,5.41            145.12941448018,-38.0514398217201,5.63            145.12899370864,-38.0511601176113,5.64            145.128777623177,-38.0507380887866,5.76            145.128523148596,-38.0503303930163,6.2            145.128341093659,-38.0498899240047,6.29            145.128322988749,-38.0495211202651,6.43            145.128365820274,-38.0490559246391,6.7            145.12825015001,-38.0486100073904,6.96            145.128092821687,-38.0481684487313,7.17            145.127853015438,-38.0479370243847,7.18            145.127575239167,-38.0475749261677,7.47            145.12717676349,-38.0474614351988,7.57            145.126696564257,-38.0476699769497,7.48            145.12634050101,-38.0478272214532,7.34            145.125837754458,-38.0479943566024,7.04            145.125804394484,-38.0479989666492,6.92            145.125669278204,-38.0480130482465,6.76            145.12560297735,-38.0480232741684,6.63            145.12547490187,-38.0480509344488,6.51            145.125226043165,-38.0482134595513,6.35            145.125242136419,-38.0483084265143,6.24            145.125396531075,-38.0485927406698,6.17            145.125817134976,-38.0488731153309,6.33            145.12637604028,-38.049034466967,6.19            145.126638980582,-38.0491596926004,6.01            145.126920947805,-38.0488708522171,5.91            145.126937292516,-38.0488677509129,5.83            145.126923713833,-38.0489163659513,5.74            145.126927653328,-38.0488980934024,5.69            145.126921115443,-38.0489025358111,5.64            145.126923546195,-38.0489031225443,5.59            145.1269248873,-38.0489035416394,5.56            145.126933353022,-38.048907648772,5.52            145.126934777945,-38.0489141028374,5.5            145.12693259865,-38.0489167850465,5.49            145.126929497346,-38.0489176232368,5.49            145.126928826794,-38.0489167850465,5.49            145.126928491518,-38.0489150248468,5.5            145.126928240061,-38.0489141866565,5.51            145.126926647499,-38.0489090736955,5.53            145.12692832388,-38.0489030387253,5.55            145.126932933927,-38.048902368173,5.57            145.126941483468,-38.0488984286785,5.59            145.12694215402,-38.0488979257643,5.6            145.126945674419,-38.0488983448595,5.6          </coordinates></LineString></Placemark></Folder></Document></kml>