<?xml version="1.0" encoding="UTF-8"?><kml xmlns="http://www.opengis.net/kml/2.2"><Document><name>Cleveland parkrun</name><description/><Style id="icon-1502-FFEA00-nodesc-normal"><IconStyle><color>ff00eaff</color><scale>1</scale><Icon><href>https://www.gstatic.com/mapspro/images/stock/503-wht-blank_maps.png</href></Icon></IconStyle><LabelStyle><scale>0</scale></LabelStyle><BalloonStyle><text><![CDATA[<h3>$[name]</h3>]]></text></BalloonStyle></Style><Style id="icon-1502-FFEA00-nodesc-highlight"><IconStyle><color>ff00eaff</color><scale>1</scale><Icon><href>https://www.gstatic.com/mapspro/images/stock/503-wht-blank_maps.png</href></Icon></IconStyle><LabelStyle><scale>1</scale></LabelStyle><BalloonStyle><text><![CDATA[<h3>$[name]</h3>]]></text></BalloonStyle></Style><StyleMap id="icon-1502-FFEA00-nodesc"><Pair><key>normal</key><styleUrl>#icon-1502-FFEA00-nodesc-normal</styleUrl></Pair><Pair><key>highlight</key><styleUrl>#icon-1502-FFEA00-nodesc-highlight</styleUrl></Pair></StyleMap><Style id="icon-1644-0288D1-nodesc-normal"><IconStyle><color>ffd18802</color><scale>1</scale><Icon><href>https://www.gstatic.com/mapspro/images/stock/503-wht-blank_maps.png</href></Icon></IconStyle><LabelStyle><scale>0</scale></LabelStyle><BalloonStyle><text><![CDATA[<h3>$[name]</h3>]]></text></BalloonStyle></Style><Style id="icon-1644-0288D1-nodesc-highlight"><IconStyle><color>ffd18802</color><scale>1</scale><Icon><href>https://www.gstatic.com/mapspro/images/stock/503-wht-blank_maps.png</href></Icon></IconStyle><LabelStyle><scale>1</scale></LabelStyle><BalloonStyle><text><![CDATA[<h3>$[name]</h3>]]></text></BalloonStyle></Style><StyleMap id="icon-1644-0288D1-nodesc"><Pair><key>normal</key><styleUrl>#icon-1644-0288D1-nodesc-normal</styleUrl></Pair><Pair><key>highlight</key><styleUrl>#icon-1644-0288D1-nodesc-highlight</styleUrl></Pair></StyleMap><Style id="icon-1703-0288D1-nodesc-normal"><IconStyle><color>ffd18802</color><scale>1</scale><Icon><href>https://www.gstatic.com/mapspro/images/stock/503-wht-blank_maps.png</href></Icon></IconStyle><LabelStyle><scale>0</scale></LabelStyle><BalloonStyle><text><![CDATA[<h3>$[name]</h3>]]></text></BalloonStyle></Style><Style id="icon-1703-0288D1-nodesc-highlight"><IconStyle><color>ffd18802</color><scale>1</scale><Icon><href>https://www.gstatic.com/mapspro/images/stock/503-wht-blank_maps.png</href></Icon></IconStyle><LabelStyle><scale>1</scale></LabelStyle><BalloonStyle><text><![CDATA[<h3>$[name]</h3>]]></text></BalloonStyle></Style><StyleMap id="icon-1703-0288D1-nodesc"><Pair><key>normal</key><styleUrl>#icon-1703-0288D1-nodesc-normal</styleUrl></Pair><Pair><key>highlight</key><styleUrl>#icon-1703-0288D1-nodesc-highlight</styleUrl></Pair></StyleMap><Style id="icon-1733-0288D1-nodesc-normal"><IconStyle><color>ffd18802</color><scale>1</scale><Icon><href>https://www.gstatic.com/mapspro/images/stock/503-wht-blank_maps.png</href></Icon></IconStyle><LabelStyle><scale>0</scale></LabelStyle><BalloonStyle><text><![CDATA[<h3>$[name]</h3>]]></text></BalloonStyle></Style><Style id="icon-1733-0288D1-nodesc-highlight"><IconStyle><color>ffd18802</color><scale>1</scale><Icon><href>https://www.gstatic.com/mapspro/images/stock/503-wht-blank_maps.png</href></Icon></IconStyle><LabelStyle><scale>1</scale></LabelStyle><BalloonStyle><text><![CDATA[<h3>$[name]</h3>]]></text></BalloonStyle></Style><StyleMap id="icon-1733-0288D1-nodesc"><Pair><key>normal</key><styleUrl>#icon-1733-0288D1-nodesc-normal</styleUrl></Pair><Pair><key>highlight</key><styleUrl>#icon-1733-0288D1-nodesc-highlight</styleUrl></Pair></StyleMap><Style id="icon-503-FFD600-nodesc-normal"><IconStyle><color>ff00d6ff</color><scale>1.1</scale><Icon><href>https://www.gstatic.com/mapspro/images/stock/503-wht-blank_maps.png</href></Icon><hotSpot x="16" xunits="pixels" y="32" yunits="insetPixels"/></IconStyle><LabelStyle><scale>0</scale></LabelStyle><BalloonStyle><text><![CDATA[<h3>$[name]</h3>]]></text></BalloonStyle></Style><Style id="icon-503-FFD600-nodesc-highlight"><IconStyle><color>ff00d6ff</color><scale>1.1</scale><Icon><href>https://www.gstatic.com/mapspro/images/stock/503-wht-blank_maps.png</href></Icon><hotSpot x="16" xunits="pixels" y="32" yunits="insetPixels"/></IconStyle><LabelStyle><scale>1.1</scale></LabelStyle><BalloonStyle><text><![CDATA[<h3>$[name]</h3>]]></text></BalloonStyle></Style><StyleMap id="icon-503-FFD600-nodesc"><Pair><key>normal</key><styleUrl>#icon-503-FFD600-nodesc-normal</styleUrl></Pair><Pair><key>highlight</key><styleUrl>#icon-503-FFD600-nodesc-highlight</styleUrl></Pair></StyleMap><Style id="line-4186F0-5263-nodesc-normal"><LineStyle><color>fff08641</color><width>5.263</width></LineStyle><BalloonStyle><text><![CDATA[<h3>$[name]</h3>]]></text></BalloonStyle></Style><Style id="line-4186F0-5263-nodesc-highlight"><LineStyle><color>fff08641</color><width>7.8945</width></LineStyle><BalloonStyle><text><![CDATA[<h3>$[name]</h3>]]></text></BalloonStyle></Style><StyleMap id="line-4186F0-5263-nodesc"><Pair><key>normal</key><styleUrl>#line-4186F0-5263-nodesc-normal</styleUrl></Pair><Pair><key>highlight</key><styleUrl>#line-4186F0-5263-nodesc-highlight</styleUrl></Pair></StyleMap><Folder><name>Untitled layer</name><Placemark><name>Run Brief Location</name><styleUrl>#icon-1502-FFEA00-nodesc</styleUrl><Point><coordinates>            153.274125,-27.539162,0          </coordinates></Point></Placemark><Placemark><name>Start/Finish</name><styleUrl>#icon-503-FFD600-nodesc</styleUrl><Point><coordinates>            153.274494,-27.539628,0          </coordinates></Point></Placemark><Placemark><name>Course</name><styleUrl>#line-4186F0-5263-nodesc</styleUrl><LineString><tessellate>1</tessellate><coordinates>            153.274487,-27.539632,0            153.274554,-27.539736,0            153.274574,-27.539832,0            153.274559,-27.540066,0            153.274472,-27.54036,0            153.274359,-27.540588,0            153.274346,-27.540659,0            153.274352,-27.540739,0            153.274282,-27.541038,0            153.274264,-27.541136,0            153.274292,-27.541264,0            153.274277,-27.541347,0            153.274243,-27.541406,0            153.274215,-27.541489,0            153.274202,-27.541624,0            153.274214,-27.541944,0            153.27416,-27.542053,0            153.274064,-27.542147,0            153.274033,-27.542256,0            153.274065,-27.542405,0            153.27403,-27.542488,0            153.273916,-27.542574,0            153.273846,-27.542894,0            153.273731,-27.543205,0            153.273706,-27.543402,0            153.273678,-27.543653,0            153.27375,-27.543721,0            153.273929,-27.54378,0            153.274122,-27.543673,0            153.274407,-27.543751,0            153.274576,-27.543954,0            153.274649,-27.543974,0            153.274748,-27.543928,0            153.274817,-27.543807,0            153.274886,-27.54377,0            153.274966,-27.543744,0            153.275143,-27.543694,0            153.275486,-27.543838,0            153.275776,-27.543935,0            153.275957,-27.544029,0            153.276262,-27.544082,0            153.276634,-27.544159,0            153.27711,-27.544088,0            153.277131,-27.544283,0            153.277137,-27.54447,0            153.277643,-27.544283,0            153.277969,-27.544307,0            153.278277,-27.544281,0            153.278724,-27.544244,0            153.279188,-27.54449,0            153.27966,-27.54455,0            153.279824,-27.544637,0            153.280353,-27.544811,0            153.28128,-27.545203,0            153.281709,-27.545414,0            153.281979,-27.545579,0            153.282315,-27.545721,0            153.282375,-27.545793,0            153.282345,-27.545903,0            153.282274,-27.545954,0            153.28219,-27.545969,0            153.281956,-27.545884,0            153.281323,-27.5458,0            153.281077,-27.545773,0            153.280818,-27.545786,0            153.28056,-27.545858,0            153.280348,-27.545945,0            153.280176,-27.546048,0            153.280049,-27.546131,0            153.279905,-27.546282,0            153.279798,-27.546443,0            153.279667,-27.546634,0            153.279418,-27.546898,0            153.279383,-27.54699,0            153.27931,-27.547392,0            153.279293,-27.547751,0            153.279367,-27.547751,0            153.279416,-27.547939,0            153.279473,-27.547935,0            153.279433,-27.548079,0            153.279259,-27.54858,0            153.279,-27.548953,0            153.278849,-27.549565,0            153.278717,-27.549907,0            153.278603,-27.549987,0            153.278906,-27.550515,0            153.278964,-27.550805,0            153.279093,-27.551076,0            153.279382,-27.551304,0            153.279595,-27.551436,0            153.279728,-27.551473,0            153.279835,-27.55167,0            153.279787,-27.551746,0            153.279693,-27.552362,0            153.279706,-27.552612,0          </coordinates></LineString></Placemark><Placemark><name>Toilets</name><styleUrl>#icon-1733-0288D1-nodesc</styleUrl><Point><coordinates>            153.271166,-27.540336,0          </coordinates></Point></Placemark><Placemark><name>Water Fountain</name><styleUrl>#icon-1703-0288D1-nodesc</styleUrl><Point><coordinates>            153.274358,-27.539355,0          </coordinates></Point></Placemark><Placemark><name>Water Fountain</name><styleUrl>#icon-1703-0288D1-nodesc</styleUrl><Point><coordinates>            153.278671,-27.549982,0          </coordinates></Point></Placemark><Placemark><name>Water Fountain</name><styleUrl>#icon-1703-0288D1-nodesc</styleUrl><Point><coordinates>            153.279873,-27.551724,0          </coordinates></Point></Placemark><Placemark><name>Parking</name><styleUrl>#icon-1644-0288D1-nodesc</styleUrl><Point><coordinates>            153.27255,-27.540574,0          </coordinates></Point></Placemark></Folder></Document></kml>