<?xml version="1.0" encoding="UTF-8"?><kml xmlns="http://www.opengis.net/kml/2.2"><Document><name>Coburg parkrun</name><description/><Style id="icon-1453-nodesc-normal"><IconStyle><scale>1.1</scale><Icon><href>https://www.gstatic.com/mapspro/images/stock/1453-trans-parking.png</href></Icon></IconStyle><LabelStyle><scale>0</scale></LabelStyle><BalloonStyle><text><![CDATA[<h3>$[name]</h3>]]></text></BalloonStyle></Style><Style id="icon-1453-nodesc-highlight"><IconStyle><scale>1.1</scale><Icon><href>https://www.gstatic.com/mapspro/images/stock/1453-trans-parking.png</href></Icon></IconStyle><LabelStyle><scale>1.1</scale></LabelStyle><BalloonStyle><text><![CDATA[<h3>$[name]</h3>]]></text></BalloonStyle></Style><StyleMap id="icon-1453-nodesc"><Pair><key>normal</key><styleUrl>#icon-1453-nodesc-normal</styleUrl></Pair><Pair><key>highlight</key><styleUrl>#icon-1453-nodesc-highlight</styleUrl></Pair></StyleMap><Style id="icon-503-F4EB37-nodesc-normal"><IconStyle><color>ff37ebf4</color><scale>1.1</scale><Icon><href>https://www.gstatic.com/mapspro/images/stock/503-wht-blank_maps.png</href></Icon><hotSpot x="16" xunits="pixels" y="32" yunits="insetPixels"/></IconStyle><LabelStyle><scale>0</scale></LabelStyle><BalloonStyle><text><![CDATA[<h3>$[name]</h3>]]></text></BalloonStyle></Style><Style id="icon-503-F4EB37-nodesc-highlight"><IconStyle><color>ff37ebf4</color><scale>1.1</scale><Icon><href>https://www.gstatic.com/mapspro/images/stock/503-wht-blank_maps.png</href></Icon><hotSpot x="16" xunits="pixels" y="32" yunits="insetPixels"/></IconStyle><LabelStyle><scale>1.1</scale></LabelStyle><BalloonStyle><text><![CDATA[<h3>$[name]</h3>]]></text></BalloonStyle></Style><StyleMap id="icon-503-F4EB37-nodesc"><Pair><key>normal</key><styleUrl>#icon-503-F4EB37-nodesc-normal</styleUrl></Pair><Pair><key>highlight</key><styleUrl>#icon-503-F4EB37-nodesc-highlight</styleUrl></Pair></StyleMap><Style id="line-4186F0-4000-nodesc-normal"><LineStyle><color>fff08641</color><width>4</width></LineStyle><BalloonStyle><text><![CDATA[<h3>$[name]</h3>]]></text></BalloonStyle></Style><Style id="line-4186F0-4000-nodesc-highlight"><LineStyle><color>fff08641</color><width>6</width></LineStyle><BalloonStyle><text><![CDATA[<h3>$[name]</h3>]]></text></BalloonStyle></Style><StyleMap id="line-4186F0-4000-nodesc"><Pair><key>normal</key><styleUrl>#line-4186F0-4000-nodesc-normal</styleUrl></Pair><Pair><key>highlight</key><styleUrl>#line-4186F0-4000-nodesc-highlight</styleUrl></Pair></StyleMap><Folder><name>Tracks</name><Placemark><name>Course</name><styleUrl>#line-4186F0-4000-nodesc</styleUrl><LineString><tessellate>1</tessellate><coordinates>            144.968865,-37.733794,0            144.96854,-37.733629,0            144.968359,-37.733363,0            144.96779,-37.73308,0            144.96731,-37.73302,0            144.96681,-37.73288,0            144.966073,-37.732809,0            144.9658,-37.73274,0            144.96577,-37.73268,0            144.96583,-37.73256,0            144.96614,-37.73231,0            144.96655,-37.73217,0            144.96661,-37.73221,0            144.96678,-37.73226,0            144.96707,-37.7323,0            144.9676,-37.73236,0            144.96819,-37.7325,0            144.96853,-37.73265,0            144.96899,-37.73299,0            144.96924,-37.73312,0            144.96978,-37.73333,0            144.97103,-37.73433,0            144.971167,-37.734355,0            144.97131,-37.73435,0            144.97146,-37.73449,0            144.97158,-37.73454,0            144.97174,-37.73465,0            144.97177,-37.73474,0            144.9718,-37.73479,0            144.97185,-37.73483,0            144.97189,-37.73485,0            144.97196,-37.73493,0            144.97217,-37.73498,0            144.97235,-37.73496,0            144.97248,-37.73489,0            144.97292,-37.73449,0            144.97307,-37.73437,0            144.97332,-37.73409,0            144.97356,-37.733915,0            144.97414,-37.73371,0            144.97522,-37.73344,0            144.97544,-37.73342,0            144.97565,-37.73346,0            144.97611,-37.73371,0            144.97621,-37.73374,0            144.97642,-37.73373,0            144.97646,-37.73388,0            144.97639,-37.73404,0            144.97617,-37.7342,0            144.97615,-37.73429,0            144.97617,-37.73454,0            144.97621,-37.73465,0            144.97645,-37.73494,0            144.97672,-37.73556,0            144.976767,-37.735719,0            144.97676,-37.7359,0            144.97676,-37.73595,0            144.97669,-37.7361,0            144.97671,-37.73621,0            144.976819,-37.736282,0            144.97719,-37.73628,0            144.97753,-37.73664,0            144.9778,-37.73713,0            144.97806,-37.73733,0            144.97817,-37.73758,0            144.97822,-37.73776,0            144.97831,-37.73807,0            144.97833,-37.73831,0            144.97841,-37.73854,0            144.978587,-37.738724,0            144.978586,-37.73895,0            144.97871,-37.73926,0            144.97863,-37.7395,0            144.9788,-37.73986,0            144.97892,-37.74,0            144.97904,-37.74009,0            144.97927,-37.74033,0            144.97935,-37.74049,0            144.979372,-37.740666,0            144.97934,-37.74096,0            144.97927,-37.741443,0            144.97927,-37.74188,0            144.979247,-37.742021,0            144.97927,-37.74188,0            144.97927,-37.741443,0            144.97934,-37.74096,0            144.979372,-37.740666,0            144.97935,-37.74049,0            144.97927,-37.74033,0            144.97904,-37.74009,0            144.97892,-37.74,0            144.9788,-37.73986,0            144.97863,-37.7395,0            144.97871,-37.73926,0            144.978586,-37.73895,0            144.978587,-37.738724,0            144.978423,-37.738525,0            144.97833,-37.73831,0            144.97831,-37.73807,0            144.97822,-37.73776,0            144.97817,-37.73758,0            144.97806,-37.73733,0            144.9778,-37.73713,0            144.97753,-37.73664,0            144.97719,-37.73628,0            144.976819,-37.736282,0            144.97671,-37.73621,0            144.97669,-37.7361,0            144.97676,-37.73595,0            144.97676,-37.7359,0            144.976767,-37.735719,0            144.97672,-37.73556,0            144.97645,-37.73494,0            144.97621,-37.73465,0            144.97617,-37.73454,0            144.97615,-37.73429,0            144.97617,-37.7342,0            144.97639,-37.73404,0            144.97646,-37.73388,0            144.97642,-37.73373,0            144.97621,-37.73374,0            144.97611,-37.73371,0            144.97565,-37.73346,0            144.97544,-37.73342,0            144.97522,-37.73344,0            144.97414,-37.73371,0            144.97356,-37.733915,0            144.97332,-37.73409,0            144.97307,-37.73437,0            144.97292,-37.73449,0            144.97248,-37.73489,0            144.97235,-37.73496,0            144.97217,-37.73498,0            144.97196,-37.73493,0            144.97189,-37.73485,0            144.97185,-37.73483,0            144.9718,-37.73479,0            144.97177,-37.73474,0            144.97174,-37.73465,0            144.97158,-37.73454,0            144.97146,-37.73449,0            144.97131,-37.73435,0            144.971167,-37.734355,0            144.97103,-37.73433,0            144.96978,-37.73333,0            144.96924,-37.73312,0            144.96899,-37.73299,0            144.96853,-37.73265,0            144.96819,-37.7325,0            144.9676,-37.73236,0            144.96707,-37.7323,0            144.96678,-37.73226,0            144.96661,-37.73221,0            144.96655,-37.73217,0            144.96614,-37.73231,0            144.96583,-37.73256,0            144.96577,-37.73268,0            144.965822,-37.732734,0            144.965948,-37.732785,0            144.966322,-37.732847,0            144.966491,-37.732836,0            144.96681,-37.73288,0            144.967063,-37.732929,0            144.96731,-37.73302,0            144.967782,-37.733097,0            144.968359,-37.733363,0            144.96854,-37.733629,0            144.96884,-37.73378,0          </coordinates></LineString></Placemark><Placemark><name>Start / Finish</name><styleUrl>#icon-503-F4EB37-nodesc</styleUrl><Point><coordinates>            144.968865,-37.733794,0          </coordinates></Point></Placemark><Placemark><name>Parking</name><styleUrl>#icon-1453-nodesc</styleUrl><Point><coordinates>            144.966896,-37.733776,0          </coordinates></Point></Placemark></Folder></Document></kml>