<?xml version="1.0" encoding="UTF-8"?><kml xmlns="http://www.opengis.net/kml/2.2"><Document><name>Constellations of the South parkrun</name><description/><Style id="icon-1899-0F9D58-nodesc-normal"><IconStyle><color>ff589d0f</color><scale>1</scale><Icon><href>https://www.gstatic.com/mapspro/images/stock/503-wht-blank_maps.png</href></Icon><hotSpot x="32" xunits="pixels" y="64" yunits="insetPixels"/></IconStyle><LabelStyle><scale>0</scale></LabelStyle><BalloonStyle><text><![CDATA[<h3>$[name]</h3>]]></text></BalloonStyle></Style><Style id="icon-1899-0F9D58-nodesc-highlight"><IconStyle><color>ff589d0f</color><scale>1</scale><Icon><href>https://www.gstatic.com/mapspro/images/stock/503-wht-blank_maps.png</href></Icon><hotSpot x="32" xunits="pixels" y="64" yunits="insetPixels"/></IconStyle><LabelStyle><scale>1</scale></LabelStyle><BalloonStyle><text><![CDATA[<h3>$[name]</h3>]]></text></BalloonStyle></Style><StyleMap id="icon-1899-0F9D58-nodesc"><Pair><key>normal</key><styleUrl>#icon-1899-0F9D58-nodesc-normal</styleUrl></Pair><Pair><key>highlight</key><styleUrl>#icon-1899-0F9D58-nodesc-highlight</styleUrl></Pair></StyleMap><Style id="icon-1899-FF5252-nodesc-normal"><IconStyle><color>ff5252ff</color><scale>1</scale><Icon><href>https://www.gstatic.com/mapspro/images/stock/503-wht-blank_maps.png</href></Icon><hotSpot x="32" xunits="pixels" y="64" yunits="insetPixels"/></IconStyle><LabelStyle><scale>0</scale></LabelStyle><BalloonStyle><text><![CDATA[<h3>$[name]</h3>]]></text></BalloonStyle></Style><Style id="icon-1899-FF5252-nodesc-highlight"><IconStyle><color>ff5252ff</color><scale>1</scale><Icon><href>https://www.gstatic.com/mapspro/images/stock/503-wht-blank_maps.png</href></Icon><hotSpot x="32" xunits="pixels" y="64" yunits="insetPixels"/></IconStyle><LabelStyle><scale>1</scale></LabelStyle><BalloonStyle><text><![CDATA[<h3>$[name]</h3>]]></text></BalloonStyle></Style><StyleMap id="icon-1899-FF5252-nodesc"><Pair><key>normal</key><styleUrl>#icon-1899-FF5252-nodesc-normal</styleUrl></Pair><Pair><key>highlight</key><styleUrl>#icon-1899-FF5252-nodesc-highlight</styleUrl></Pair></StyleMap><Style id="line-0288D1-5844-nodesc-normal"><LineStyle><color>ffd18802</color><width>5.844</width></LineStyle><BalloonStyle><text><![CDATA[<h3>$[name]</h3>]]></text></BalloonStyle></Style><Style id="line-0288D1-5844-nodesc-highlight"><LineStyle><color>ffd18802</color><width>8.766</width></LineStyle><BalloonStyle><text><![CDATA[<h3>$[name]</h3>]]></text></BalloonStyle></Style><StyleMap id="line-0288D1-5844-nodesc"><Pair><key>normal</key><styleUrl>#line-0288D1-5844-nodesc-normal</styleUrl></Pair><Pair><key>highlight</key><styleUrl>#line-0288D1-5844-nodesc-highlight</styleUrl></Pair></StyleMap><Folder><name>Untitled layer</name><Placemark><name>Finish</name><styleUrl>#icon-1899-FF5252-nodesc</styleUrl><Point><coordinates>            151.50725,-30.637268,1007.5          </coordinates></Point></Placemark><Placemark><name>Course</name><styleUrl>#line-0288D1-5844-nodesc</styleUrl><LineString><tessellate>1</tessellate><coordinates>            151.50725,-30.637268,0            151.5073411,-30.6372024,0            151.507467,-30.637098,0            151.507496,-30.637031,0            151.5074457,-30.6369601,0            151.5070944,-30.6368308,0            151.506871,-30.63676,0            151.506943,-30.637153,0            151.507022,-30.6374262,0            151.5071373,-30.6375993,0            151.507234,-30.637808,0            151.5072111,-30.6379385,0            151.5071292,-30.6380321,0            151.506951,-30.638137,0            151.506687,-30.638218,0            151.5067472,-30.6382963,0            151.5069871,-30.638407,0            151.5076496,-30.6384059,0            151.507835,-30.638324,0            151.5079527,-30.638017,0            151.508062,-30.637855,0            151.508055,-30.63783,0            151.5078373,-30.637867,0            151.5076013,-30.637949,0            151.5074524,-30.6380955,0            151.507549,-30.6382835,0            151.507523,-30.638324,0            151.5074096,-30.6383883,0            151.50721,-30.638215,0            151.5071949,-30.6380471,0            151.5072634,-30.6379086,0            151.5070675,-30.6374078,0            151.5075396,-30.6372831,0            151.5076516,-30.6372681,0            151.5077636,-30.6372785,0            151.5079795,-30.6373501,0            151.508178,-30.6373259,0            151.5083376,-30.6372151,0            151.5086179,-30.6367131,0            151.508664,-30.636333,0            151.5088257,-30.6361062,0            151.509014,-30.635857,0            151.509117,-30.635672,0            151.5092348,-30.6352153,0            151.509341,-30.634755,0            151.5092777,-30.6346384,0            151.5091033,-30.6348415,0            151.5088673,-30.6350238,0            151.5085481,-30.6353907,0            151.5083657,-30.6357623,0            151.5081136,-30.6363254,0            151.5076845,-30.6364939,0            151.5079446,-30.6367662,0            151.508131,-30.637017,0            151.508243,-30.6371789,0            151.5082263,-30.6372624,0            151.5081016,-30.6373176,0            151.5079796,-30.6373105,0            151.507733,-30.637234,0            151.5075303,-30.6369955,0            151.5074618,-30.636757,0            151.507348,-30.636493,0            151.5073599,-30.6363716,0            151.5073693,-30.6363253,0            151.507478,-30.636242,0            151.5075316,-30.6362308,0            151.507618,-30.636198,0            151.5076576,-30.6360439,0            151.5076697,-30.6358315,0            151.508042,-30.635266,0            151.5083983,-30.6346683,0            151.5086087,-30.6343637,0            151.5088713,-30.6340453,0            151.5089471,-30.6338133,0            151.5089692,-30.6335698,0            151.5089263,-30.6333298,0            151.508871,-30.633165,0            151.5088325,-30.6334325,0            151.5088834,-30.6336131,0            151.5088244,-30.6339045,0            151.5087868,-30.6340556,0            151.5085736,-30.6343302,0            151.5079996,-30.6351484,0            151.507663,-30.6354218,0            151.5074216,-30.6357484,0            151.507209,-30.636018,0            151.5069619,-30.6362765,0            151.506865,-30.636535,0            151.506871,-30.63676,0          </coordinates></LineString></Placemark><Placemark><name>Start</name><styleUrl>#icon-1899-0F9D58-nodesc</styleUrl><Point><coordinates>            151.506995,-30.637333,1005.7          </coordinates></Point></Placemark></Folder></Document></kml>