<?xml version="1.0" encoding="UTF-8"?><kml xmlns="http://www.opengis.net/kml/2.2"><Document><name>Coombs parkrun</name><description/><Style id="icon-1899-0F9D58-nodesc-normal"><IconStyle><color>ff589d0f</color><scale>1</scale><Icon><href>https://www.gstatic.com/mapspro/images/stock/503-wht-blank_maps.png</href></Icon><hotSpot x="32" xunits="pixels" y="64" yunits="insetPixels"/></IconStyle><LabelStyle><scale>0</scale></LabelStyle><BalloonStyle><text><![CDATA[<h3>$[name]</h3>]]></text></BalloonStyle></Style><Style id="icon-1899-0F9D58-nodesc-highlight"><IconStyle><color>ff589d0f</color><scale>1</scale><Icon><href>https://www.gstatic.com/mapspro/images/stock/503-wht-blank_maps.png</href></Icon><hotSpot x="32" xunits="pixels" y="64" yunits="insetPixels"/></IconStyle><LabelStyle><scale>1</scale></LabelStyle><BalloonStyle><text><![CDATA[<h3>$[name]</h3>]]></text></BalloonStyle></Style><StyleMap id="icon-1899-0F9D58-nodesc"><Pair><key>normal</key><styleUrl>#icon-1899-0F9D58-nodesc-normal</styleUrl></Pair><Pair><key>highlight</key><styleUrl>#icon-1899-0F9D58-nodesc-highlight</styleUrl></Pair></StyleMap><Style id="icon-1899-FF5252-nodesc-normal"><IconStyle><color>ff5252ff</color><scale>1</scale><Icon><href>https://www.gstatic.com/mapspro/images/stock/503-wht-blank_maps.png</href></Icon><hotSpot x="32" xunits="pixels" y="64" yunits="insetPixels"/></IconStyle><LabelStyle><scale>0</scale></LabelStyle><BalloonStyle><text><![CDATA[<h3>$[name]</h3>]]></text></BalloonStyle></Style><Style id="icon-1899-FF5252-nodesc-highlight"><IconStyle><color>ff5252ff</color><scale>1</scale><Icon><href>https://www.gstatic.com/mapspro/images/stock/503-wht-blank_maps.png</href></Icon><hotSpot x="32" xunits="pixels" y="64" yunits="insetPixels"/></IconStyle><LabelStyle><scale>1</scale></LabelStyle><BalloonStyle><text><![CDATA[<h3>$[name]</h3>]]></text></BalloonStyle></Style><StyleMap id="icon-1899-FF5252-nodesc"><Pair><key>normal</key><styleUrl>#icon-1899-FF5252-nodesc-normal</styleUrl></Pair><Pair><key>highlight</key><styleUrl>#icon-1899-FF5252-nodesc-highlight</styleUrl></Pair></StyleMap><Style id="line-0288D1-5000-nodesc-normal"><LineStyle><color>ffd18802</color><width>5</width></LineStyle><BalloonStyle><text><![CDATA[<h3>$[name]</h3>]]></text></BalloonStyle></Style><Style id="line-0288D1-5000-nodesc-highlight"><LineStyle><color>ffd18802</color><width>7.5</width></LineStyle><BalloonStyle><text><![CDATA[<h3>$[name]</h3>]]></text></BalloonStyle></Style><StyleMap id="line-0288D1-5000-nodesc"><Pair><key>normal</key><styleUrl>#line-0288D1-5000-nodesc-normal</styleUrl></Pair><Pair><key>highlight</key><styleUrl>#line-0288D1-5000-nodesc-highlight</styleUrl></Pair></StyleMap><Folder><name>Running Nov 11</name><Placemark><name>Course</name><styleUrl>#line-0288D1-5000-nodesc</styleUrl><LineString><tessellate>1</tessellate><coordinates>            149.047508,-35.326187,562.76            149.048063,-35.32522,562.38            149.048084,-35.325177,562.69            149.048102,-35.325106,563.29            149.048119,-35.32507,563.6            149.048147,-35.325025,563.95            149.048201,-35.324954,564.46            149.048237,-35.324897,564.9            149.048278,-35.324845,565.27            149.048331,-35.324768,565.84            149.048363,-35.324741,565.98            149.048375,-35.324735,565.99            149.048435,-35.324707,566            149.048512,-35.32468,565.92            149.048532,-35.324667,565.97            149.048583,-35.324644,565.97            149.048611,-35.324638,565.81            149.048634,-35.324625,565.78            149.048665,-35.324613,565.65            149.048698,-35.324606,565.43            149.048755,-35.324586,565.18            149.048812,-35.324558,565.03            149.048869,-35.324544,564.69            149.048949,-35.324513,564.36            149.048997,-35.324511,563.93            149.049056,-35.324497,563.57            149.049108,-35.3245,563.03            149.049183,-35.324487,562.49            149.049229,-35.324484,562.09            149.049253,-35.324477,561.97            149.049284,-35.324475,561.7            149.049409,-35.324475,560.5            149.049422,-35.324479,560.31            149.04942,-35.324483,560.28            149.049419,-35.324482,560.3            149.049422,-35.324482,560.27            149.049417,-35.324485,560.28            149.049419,-35.324486,560.24            149.049417,-35.324485,560.28            149.049422,-35.324479,560.31            149.049439,-35.32447,560.36            149.049478,-35.324473,560.18            149.049478,-35.324466,560.28            149.049492,-35.32447,560.17            149.049495,-35.324473,560.12            149.049491,-35.324472,560.15            149.04953,-35.324456,560.24            149.049585,-35.324452,560.1            149.049616,-35.324438,560.19            149.049687,-35.324425,560.12            149.049771,-35.3244,560.17            149.049803,-35.324396,560.12            149.049842,-35.324382,560.18            149.049962,-35.324357,560.11            149.050047,-35.32433,560.19            149.050075,-35.324326,560.15            149.050092,-35.324328,560.06            149.050208,-35.324321,559.74            149.050236,-35.324317,559.7            149.05028,-35.324304,559.6            149.050465,-35.324264,558.4            149.050528,-35.324254,557.94            149.050574,-35.324242,557.67            149.050643,-35.324233,557.14            149.050743,-35.3242,556.99            149.050867,-35.324169,556.91            149.050928,-35.32415,556.9            149.05105,-35.324127,556.78            149.051179,-35.324067,556.48            149.051184,-35.324067,556.45            149.051179,-35.324065,556.5            149.05118,-35.324058,556.54            149.051193,-35.324046,556.53            149.051209,-35.324002,556.73            149.051222,-35.323978,556.81            149.051224,-35.32396,556.93            149.051238,-35.323924,557.09            149.051235,-35.323904,557.25            149.051229,-35.323896,557.35            149.051218,-35.323866,557.65            149.051198,-35.323831,558.05            149.051176,-35.323801,558.39            149.051165,-35.323775,558.41            149.051125,-35.323725,558.58            149.051093,-35.323665,558.66            149.051073,-35.323623,558.75            149.051067,-35.323597,558.75            149.05105,-35.323565,558.83            149.051038,-35.323517,558.83            149.051007,-35.323468,559.01            149.050988,-35.323452,559.16            149.050961,-35.323411,559.32            149.050945,-35.323393,559.43            149.050917,-35.323344,559.58            149.05087,-35.323287,559.89            149.050826,-35.323151,560.51            149.05081,-35.323028,561.2            149.050796,-35.323005,561.5            149.050773,-35.322923,561.7            149.050772,-35.322856,561.31            149.050764,-35.322837,561.32            149.050766,-35.322793,561.03            149.050769,-35.322783,560.92            149.050766,-35.322744,560.73            149.050772,-35.322639,560.01            149.050753,-35.32253,559.65            149.050738,-35.322486,559.64            149.050664,-35.32236,560.76            149.050659,-35.322347,560.82            149.050651,-35.322306,560.88            149.050638,-35.322266,561.03            149.050623,-35.32219,561.14            149.050623,-35.322126,560.97            149.050632,-35.32204,560.49            149.050627,-35.322005,560.46            149.050628,-35.321999,560.42            149.05062,-35.321961,560.44            149.050604,-35.32192,560.59            149.05059,-35.321896,560.78            149.050587,-35.321872,560.75            149.050569,-35.321799,560.9            149.050535,-35.321687,561.5            149.050494,-35.321606,562.29            149.050467,-35.321536,562.79            149.050448,-35.321455,563.1            149.050443,-35.321413,563.16            149.050446,-35.321347,563.01            149.05046,-35.321298,562.65            149.050469,-35.321234,562.38            149.050479,-35.321205,562.13            149.050481,-35.321162,562.03            149.050497,-35.321106,561.62            149.050501,-35.321068,561.49            149.050514,-35.321035,561.14            149.050539,-35.320946,560.34            149.050553,-35.320925,559.99            149.050593,-35.320835,558.9            149.050618,-35.32079,558.26            149.050667,-35.320725,557.08            149.050699,-35.320671,556.28            149.050738,-35.320634,555.39            149.050782,-35.320563,554.29            149.050821,-35.32051,553.35            149.050829,-35.320489,553.12            149.050852,-35.320458,552.69            149.050863,-35.320446,552.55            149.050864,-35.320441,552.56            149.05089,-35.320376,552.45            149.050903,-35.320358,552.31            149.050912,-35.320337,552.26            149.050954,-35.320283,551.78            149.05099,-35.320188,551.66            149.050992,-35.320174,551.7            149.050986,-35.320105,552.23            149.050977,-35.320063,552.66            149.050966,-35.320037,553.02            149.050934,-35.319988,553.93            149.050903,-35.319901,555.05            149.050895,-35.319864,555.43            149.050895,-35.31985,555.51            149.05091,-35.319796,555.32            149.050935,-35.319743,554.89            149.051014,-35.319618,553.82            149.051024,-35.319595,553.81            149.051049,-35.319553,553.72            149.051071,-35.319471,553.8            149.051078,-35.319406,553.97            149.051077,-35.3194,554            149.051053,-35.319339,554.45            149.051027,-35.319307,554.81            149.051004,-35.319289,555.1            149.050954,-35.319259,555.69            149.050879,-35.319238,556.48            149.050804,-35.319228,557.24            149.050805,-35.319234,557.21            149.0508,-35.319235,557.25            149.050799,-35.319241,557.24            149.05073,-35.319241,557.9            149.050553,-35.319277,558.76            149.050488,-35.319301,558.86            149.050362,-35.319337,558.97            149.050307,-35.319359,559.06            149.050274,-35.319367,559.08            149.050242,-35.319379,559.06            149.050181,-35.319386,558.82            149.050006,-35.319417,558.21            149.049791,-35.319477,557.61            149.049716,-35.319483,557.29            149.049672,-35.319494,557.16            149.04958,-35.319509,556.82            149.049417,-35.319547,556.07            149.049256,-35.319592,555.15            149.049211,-35.319601,554.86            149.049095,-35.319632,554.18            149.04889,-35.319672,552.76            149.048859,-35.319674,552.51            149.048759,-35.319693,551.81            149.048714,-35.319704,551.51            149.048656,-35.319725,551.17            149.048607,-35.319738,550.86            149.04852,-35.319756,550.69            149.048457,-35.319764,550.6            149.048381,-35.319781,550.61            149.048351,-35.319784,550.6            149.048295,-35.319797,550.61            149.04824,-35.319814,550.64            149.048104,-35.319843,550.65            149.048059,-35.319859,550.69            149.048005,-35.319873,550.71            149.0479,-35.319917,550.85            149.047873,-35.31993,550.9            149.047817,-35.319972,551.08            149.047772,-35.319993,551.15            149.047739,-35.320017,551.21            149.04773,-35.320029,551.25            149.047642,-35.320108,551.41            149.047579,-35.320177,551.6            149.047547,-35.320207,551.66            149.047466,-35.320269,551.74            149.047428,-35.320288,551.72            149.047356,-35.320314,551.61            149.04727,-35.320318,551.33            149.047084,-35.320267,550.41            149.047003,-35.320239,550.08            149.046957,-35.320231,549.93            149.046851,-35.320186,550.17            149.046799,-35.320166,550.45            149.046784,-35.320163,550.54            149.046719,-35.32013,550.85            149.046651,-35.320104,551.22            149.046517,-35.320043,551.88            149.046469,-35.320014,551.62            149.046339,-35.31992,550.76            149.046298,-35.319878,550.36            149.046262,-35.319854,550.14            149.046234,-35.319827,549.89            149.046199,-35.319808,549.72            149.046169,-35.319781,549.47            149.046077,-35.319717,548.8            149.046024,-35.319675,548.3            149.045942,-35.3196,548.32            149.045919,-35.31959,548.36            149.045878,-35.319561,548.42            149.045853,-35.319529,548.44            149.045786,-35.319477,548.54            149.045687,-35.319381,548.66            149.045646,-35.319337,548.71            149.045594,-35.319264,548.92            149.045547,-35.319217,549.43            149.045511,-35.31917,549.86            149.045498,-35.319121,550.13            149.045463,-35.319047,550.65            149.045446,-35.31897,551.05            149.045431,-35.318938,551.27            149.045387,-35.318801,552.07            149.045353,-35.31872,552.32            149.045325,-35.31864,552.98            149.045312,-35.318619,553.24            149.045295,-35.318573,553.66            149.045249,-35.318498,554.51            149.04523,-35.318461,554.78            149.04518,-35.318404,555.29            149.045127,-35.318302,556.03            149.045098,-35.318266,556.35            149.045061,-35.31821,556.79            149.045041,-35.318159,557.07            149.04504,-35.318144,557.1            149.04503,-35.318105,557.22            149.045015,-35.318068,557.35            149.045009,-35.318043,557.42            149.04493,-35.317879,557.68            149.044752,-35.31765,557.83            149.044722,-35.317617,557.8            149.044679,-35.31758,557.76            149.044583,-35.317484,557.64            149.044561,-35.317466,557.63            149.044527,-35.317422,557.56            149.04437,-35.317257,557.62            149.044318,-35.317214,557.86            149.044282,-35.317192,558.09            149.044261,-35.317173,558.22            149.044256,-35.317162,558.24            149.044225,-35.317131,558.42            149.044187,-35.317082,558.52            149.044169,-35.317037,558.48            149.044165,-35.316954,558.21            149.044171,-35.316874,557.88            149.044194,-35.316778,557.37            149.044192,-35.316753,557.3            149.044197,-35.316727,557.17            149.044226,-35.316667,556.74            149.044233,-35.316658,556.66            149.044251,-35.31661,556.36            149.04429,-35.31654,555.82            149.044305,-35.316497,555.56            149.044319,-35.316471,555.37            149.044331,-35.316434,555.15            149.044342,-35.316416,555            149.044376,-35.316336,554.45            149.044415,-35.316285,554.14            149.044425,-35.316223,554.38            149.044463,-35.316133,554.35            149.044491,-35.316087,554.24            149.044494,-35.316076,554.26            149.044516,-35.316037,554.18            149.044532,-35.316016,554.09            149.044547,-35.31598,554.08            149.044573,-35.31594,553.96            149.044647,-35.315872,553.4            149.044733,-35.31577,552.86            149.04479,-35.315712,552.45            149.044869,-35.315646,551.82            149.044925,-35.315276,553.85            149.044938,-35.315195,554.47            149.044965,-35.315139,554.69            149.044977,-35.315096,554.96            149.045006,-35.315037,555.17            149.04502,-35.314957,555.77            149.045037,-35.314926,555.87            149.04507,-35.314852,556.18            149.0451,-35.314769,556.65            149.045115,-35.314714,557.04            149.045127,-35.314689,557.16            149.045161,-35.31464,557.24            149.045159,-35.314636,557.31            149.04519,-35.314606,557.11            149.045227,-35.314566,556.91            149.045271,-35.314483,556.82            149.045295,-35.314422,556.74            149.045295,-35.314408,556.84            149.045354,-35.314307,556.3            149.04537,-35.31429,556.07            149.045389,-35.31426,555.88            149.045406,-35.31424,555.66            149.045426,-35.314206,555.47            149.045481,-35.314129,554.83            149.045505,-35.314086,554.63            149.045511,-35.314074,554.58            149.045514,-35.314044,554.73            149.045537,-35.313991,554.62            149.045543,-35.313962,554.7            149.045551,-35.31395,554.61            149.045568,-35.313902,554.59            149.045574,-35.313854,554.81            149.045571,-35.31377,555.51            149.045573,-35.313731,555.8            149.04556,-35.31364,556.84            149.04555,-35.313598,557.41            149.045554,-35.313551,557.72            149.04554,-35.313449,558.71            149.045537,-35.313366,559.26            149.045528,-35.313283,559.93            149.045524,-35.313269,560.09            149.045339,-35.313014,565.18            149.045269,-35.31274,565.78            149.045311,-35.312606,564.69            149.045316,-35.312598,564.6            149.045352,-35.312567,564.06            149.045376,-35.312523,563.59            149.045446,-35.312517,562.8            149.045464,-35.312577,562.9            149.045499,-35.313004,562.16            149.045507,-35.313075,561.59            149.045521,-35.313177,560.7            149.045521,-35.31328,560.09            149.045527,-35.313317,559.75            149.045536,-35.31344,558.84            149.045546,-35.313477,558.42            149.045549,-35.313502,558.22            149.04556,-35.313644,556.81            149.045554,-35.313823,555.46            149.045548,-35.313859,555.33            149.045549,-35.31387,555.23            149.045547,-35.313875,555.24            149.045549,-35.313874,555.2            149.045545,-35.313888,555.19            149.045543,-35.313921,554.99            149.045534,-35.313959,554.91            149.045532,-35.313986,554.76            149.045534,-35.314009,554.55            149.045529,-35.314046,554.4            149.045533,-35.314054,554.25            149.045533,-35.314064,554.18            149.045518,-35.314111,554.16            149.045487,-35.314168,554.42            149.045386,-35.314309,555.59            149.045219,-35.314603,556.75            149.045067,-35.314902,555.74            149.045015,-35.315076,554.69            149.044972,-35.315219,553.83            149.044889,-35.315665,551.49            149.044767,-35.315754,552.53            149.044625,-35.315908,553.49            149.044551,-35.316027,553.81            149.044516,-35.316094,553.91            149.044497,-35.316148,553.87            149.044484,-35.316169,553.93            149.04447,-35.316207,553.91            149.044416,-35.316299,554.07            149.044402,-35.316338,554.29            149.044368,-35.31641,554.79            149.044322,-35.316532,555.56            149.044294,-35.316583,555.95            149.044227,-35.316729,556.96            149.044214,-35.316764,557.18            149.044198,-35.316831,557.53            149.044189,-35.316889,557.81            149.044181,-35.316945,558.07            149.044175,-35.317043,558.46            149.044438,-35.317298,557.37            149.044676,-35.317542,557.67            149.044953,-35.317878,557.62            149.045074,-35.318173,556.91            149.045337,-35.31862,552.93            149.045517,-35.319118,550            149.045667,-35.319343,548.67            149.045944,-35.31959,548.3            149.046126,-35.319798,549.7            149.046194,-35.319855,550.24            149.046315,-35.31994,551.01            149.046515,-35.320077,552.07            149.046679,-35.320132,551.15            149.046729,-35.320143,550.84            149.046739,-35.320148,550.79            149.046748,-35.320152,550.75            149.046804,-35.320164,550.4            149.046852,-35.320182,550.14            149.046885,-35.32019,549.94            149.04693,-35.320208,549.75            149.047224,-35.320291,551            149.047263,-35.320305,551.23            149.047337,-35.320307,551.5            149.047388,-35.320298,551.63            149.047457,-35.320272,551.73            149.047522,-35.32023,551.71            149.047612,-35.32016,551.61            149.047696,-35.320091,551.5            149.047764,-35.320024,551.33            149.047871,-35.319943,550.97            149.047923,-35.319916,550.87            149.047977,-35.319895,550.81            149.048017,-35.319872,550.72            149.048047,-35.319859,550.68            149.048156,-35.319838,550.69            149.048262,-35.31981,550.64            149.048363,-35.319791,550.65            149.048422,-35.319772,550.61            149.048637,-35.319727,551.03            149.048746,-35.319709,551.81            149.048788,-35.319695,552.07            149.048939,-35.31966,553.08            149.049017,-35.319637,553.57            149.049255,-35.3196,555.22            149.049378,-35.319568,555.94            149.049431,-35.31956,556.3            149.049513,-35.319538,556.68            149.049594,-35.319521,556.98            149.049775,-35.319472,557.49            149.049937,-35.319441,558.05            149.050066,-35.319409,558.44            149.050118,-35.319404,558.65            149.050266,-35.319373,559.11            149.050314,-35.319361,559.08            149.050359,-35.319342,559            149.050418,-35.319328,558.97            149.050485,-35.319306,558.89            149.05061,-35.31928,558.85            149.05076,-35.319242,557.61            149.050812,-35.319234,557.14            149.05088,-35.319231,556.5            149.050914,-35.319239,556.14            149.050982,-35.319271,555.38            149.051024,-35.319301,554.86            149.051058,-35.319335,554.42            149.051079,-35.319375,554.07            149.051095,-35.319429,553.72            149.051065,-35.319569,553.51            149.050976,-35.319723,554.43            149.050941,-35.319781,554.97            149.050926,-35.319832,555.02            149.050923,-35.319872,554.84            149.050936,-35.319938,554.19            149.050958,-35.319991,553.45            149.050981,-35.32003,552.78            149.050991,-35.320055,552.44            149.050996,-35.320135,551.86            149.050973,-35.320222,551.78            149.050941,-35.320283,552.03            149.050925,-35.320307,552.19            149.050889,-35.320349,552.63            149.050865,-35.320372,552.95            149.050869,-35.320368,552.9            149.050873,-35.320358,552.88            149.050883,-35.320347,552.76            149.050855,-35.320385,553.07            149.050823,-35.320437,553.37            149.050799,-35.320473,553.64            149.05078,-35.320495,554.09            149.05075,-35.320543,554.84            149.050718,-35.320567,555.54            149.050675,-35.320614,556.53            149.050638,-35.320674,557.46            149.050622,-35.320694,557.84            149.050619,-35.320706,557.94            149.050591,-35.320752,558.64            149.050573,-35.320793,559.13            149.050552,-35.32083,559.67            149.050527,-35.320893,560.38            149.050514,-35.320947,560.82            149.050508,-35.320987,561.08            149.050497,-35.321026,561.43            149.050479,-35.321072,561.94            149.050469,-35.321133,562.26            149.050462,-35.321147,562.43            149.050448,-35.321199,562.79            149.050439,-35.321277,563.08            149.05044,-35.321292,563.08            149.050453,-35.321341,562.85            149.050458,-35.32135,562.76            149.05049,-35.321509,562.26            149.050647,-35.322042,560.21            149.050685,-35.322339,560.31            149.050766,-35.322499,559.26            149.050794,-35.322656,559.77            149.050785,-35.322894,561.34            149.050884,-35.32328,559.74            149.051015,-35.323452,558.9            149.051098,-35.323622,558.52            149.051251,-35.323901,557.16            149.05123,-35.32404,556.31            149.051062,-35.324145,556.62            149.050266,-35.324355,559            149.050196,-35.324386,558.85            149.050101,-35.324445,558.34            149.049877,-35.324577,557.24            149.049644,-35.324664,557.21            149.049283,-35.324747,558.45            149.049237,-35.324755,558.82            149.049176,-35.324772,559.26            149.049095,-35.324789,559.9            149.04905,-35.324806,560.19            149.048986,-35.32482,560.68            149.048945,-35.324836,560.94            149.048834,-35.324892,561.54            149.048794,-35.324935,561.56            149.048704,-35.32501,561.8            149.048665,-35.325053,561.81            149.048629,-35.325086,561.88            149.048604,-35.325115,561.87            149.048592,-35.325134,561.83            149.048578,-35.325168,561.58            149.04857,-35.325177,561.52            149.048551,-35.325212,561.27            149.048524,-35.325333,560.32            149.048526,-35.325373,559.98            149.048534,-35.325425,559.52            149.04855,-35.325473,559.1            149.048556,-35.325509,559.13            149.048546,-35.325531,559.17            149.048497,-35.325558,559.33            149.048472,-35.325564,559.4            149.048456,-35.325573,559.45            149.048427,-35.325593,559.54            149.048391,-35.325625,559.67            149.048363,-35.325639,559.75            149.048311,-35.325682,559.93            149.048233,-35.325735,560.18            149.048197,-35.32577,560.31            149.048156,-35.325789,560.43            149.048093,-35.325831,560.63            149.048066,-35.32584,560.71            149.048036,-35.325844,560.78            149.048019,-35.325843,560.82            149.047985,-35.325833,560.89            149.04796,-35.325813,560.93            149.047951,-35.325804,560.94            149.047915,-35.325756,560.97            149.047905,-35.325729,560.96            149.047894,-35.325684,560.93            149.047892,-35.32567,560.92            149.047897,-35.325629,560.86            149.047896,-35.325598,560.82            149.047903,-35.325541,560.74            149.047933,-35.325486,560.6            149.047956,-35.325405,561.08            149.04797,-35.325379,561.26            149.047998,-35.325307,561.8            149.048092,-35.325074,563.69            149.048264,-35.324823,565.57            149.048304,-35.324772,565.93            149.048332,-35.324756,565.97            149.048383,-35.324713,566.19            149.048432,-35.324699,566.1            149.048469,-35.324676,566.17            149.048497,-35.324663,566.18            149.048528,-35.324641,566.27            149.048565,-35.324624,566.31            149.0486,-35.324617,566.2            149.048662,-35.324597,565.91            149.048699,-35.324591,565.64            149.048745,-35.324574,565.44            149.048778,-35.324576,565.1            149.048821,-35.324574,564.72            149.04902,-35.324534,563.38            149.049058,-35.32453,563.07            149.049071,-35.324525,563.02            149.049074,-35.324525,562.99            149.049074,-35.324522,563.04            149.049928,-35.324383,559.85          </coordinates></LineString></Placemark><Placemark><name>Finish</name><styleUrl>#icon-1899-FF5252-nodesc</styleUrl><Point><coordinates>            149.049928,-35.324383,559.85          </coordinates></Point></Placemark><Placemark><name>Start</name><styleUrl>#icon-1899-0F9D58-nodesc</styleUrl><Point><coordinates>            149.047508,-35.326187,562.76          </coordinates></Point></Placemark></Folder></Document></kml>