<?xml version="1.0" encoding="UTF-8"?><kml xmlns="http://www.opengis.net/kml/2.2"><Document><name>Cronulla parkrun</name><description/><Style id="icon-503-009D57-nodesc-normal"><IconStyle><color>ff579d00</color><scale>1.1</scale><Icon><href>https://www.gstatic.com/mapspro/images/stock/503-wht-blank_maps.png</href></Icon><hotSpot x="16" xunits="pixels" y="32" yunits="insetPixels"/></IconStyle><LabelStyle><scale>0</scale></LabelStyle><BalloonStyle><text><![CDATA[<h3>$[name]</h3>]]></text></BalloonStyle></Style><Style id="icon-503-009D57-nodesc-highlight"><IconStyle><color>ff579d00</color><scale>1.1</scale><Icon><href>https://www.gstatic.com/mapspro/images/stock/503-wht-blank_maps.png</href></Icon><hotSpot x="16" xunits="pixels" y="32" yunits="insetPixels"/></IconStyle><LabelStyle><scale>1.1</scale></LabelStyle><BalloonStyle><text><![CDATA[<h3>$[name]</h3>]]></text></BalloonStyle></Style><StyleMap id="icon-503-009D57-nodesc"><Pair><key>normal</key><styleUrl>#icon-503-009D57-nodesc-normal</styleUrl></Pair><Pair><key>highlight</key><styleUrl>#icon-503-009D57-nodesc-highlight</styleUrl></Pair></StyleMap><Style id="icon-503-4186F0-nodesc-normal"><IconStyle><color>fff08641</color><scale>1.1</scale><Icon><href>https://www.gstatic.com/mapspro/images/stock/503-wht-blank_maps.png</href></Icon><hotSpot x="16" xunits="pixels" y="32" yunits="insetPixels"/></IconStyle><LabelStyle><scale>0</scale></LabelStyle><BalloonStyle><text><![CDATA[<h3>$[name]</h3>]]></text></BalloonStyle></Style><Style id="icon-503-4186F0-nodesc-highlight"><IconStyle><color>fff08641</color><scale>1.1</scale><Icon><href>https://www.gstatic.com/mapspro/images/stock/503-wht-blank_maps.png</href></Icon><hotSpot x="16" xunits="pixels" y="32" yunits="insetPixels"/></IconStyle><LabelStyle><scale>1.1</scale></LabelStyle><BalloonStyle><text><![CDATA[<h3>$[name]</h3>]]></text></BalloonStyle></Style><StyleMap id="icon-503-4186F0-nodesc"><Pair><key>normal</key><styleUrl>#icon-503-4186F0-nodesc-normal</styleUrl></Pair><Pair><key>highlight</key><styleUrl>#icon-503-4186F0-nodesc-highlight</styleUrl></Pair></StyleMap><Style id="line-4186F0-4314-nodesc-normal"><LineStyle><color>fff08641</color><width>4.314</width></LineStyle><BalloonStyle><text><![CDATA[<h3>$[name]</h3>]]></text></BalloonStyle></Style><Style id="line-4186F0-4314-nodesc-highlight"><LineStyle><color>fff08641</color><width>6.471</width></LineStyle><BalloonStyle><text><![CDATA[<h3>$[name]</h3>]]></text></BalloonStyle></Style><StyleMap id="line-4186F0-4314-nodesc"><Pair><key>normal</key><styleUrl>#line-4186F0-4314-nodesc-normal</styleUrl></Pair><Pair><key>highlight</key><styleUrl>#line-4186F0-4314-nodesc-highlight</styleUrl></Pair></StyleMap><Folder><name>Untitled layer</name><Placemark><name>Start</name><styleUrl>#icon-503-009D57-nodesc</styleUrl><Point><coordinates>            151.161876,-34.040925,0          </coordinates></Point></Placemark><Placemark><name>2.5km </name><styleUrl>#line-4186F0-4314-nodesc</styleUrl><LineString><tessellate>1</tessellate><coordinates>            151.161876,-34.040925,0            151.1643,-34.03808,0            151.167047,-34.035591,0            151.173398,-34.032461,0            151.176896,-34.031394,0            151.17945,-34.030754,0            151.182754,-34.030078,0          </coordinates></LineString></Placemark><Placemark><name>Turnaround</name><styleUrl>#icon-503-4186F0-nodesc</styleUrl><Point><coordinates>            151.182754,-34.030078,0          </coordinates></Point></Placemark></Folder></Document></kml>