<?xml version="1.0" encoding="UTF-8"?><kml xmlns="http://www.opengis.net/kml/2.2"><Document><name>Curl Curl parkrun</name><description/><Style id="icon-157-nodesc-normal"><IconStyle><scale>1.1</scale><Icon><href>https://www.gstatic.com/mapspro/images/stock/157-yellow-dot.png</href></Icon><hotSpot x="16" xunits="pixels" y="32" yunits="insetPixels"/></IconStyle><LabelStyle><scale>0</scale></LabelStyle><BalloonStyle><text><![CDATA[<h3>$[name]</h3>]]></text></BalloonStyle></Style><Style id="icon-157-nodesc-highlight"><IconStyle><scale>1.1</scale><Icon><href>https://www.gstatic.com/mapspro/images/stock/157-yellow-dot.png</href></Icon><hotSpot x="16" xunits="pixels" y="32" yunits="insetPixels"/></IconStyle><LabelStyle><scale>1.1</scale></LabelStyle><BalloonStyle><text><![CDATA[<h3>$[name]</h3>]]></text></BalloonStyle></Style><StyleMap id="icon-157-nodesc"><Pair><key>normal</key><styleUrl>#icon-157-nodesc-normal</styleUrl></Pair><Pair><key>highlight</key><styleUrl>#icon-157-nodesc-highlight</styleUrl></Pair></StyleMap><Style id="line-0000FF-5000-nodesc-normal"><LineStyle><color>ffff0000</color><width>5</width></LineStyle><BalloonStyle><text><![CDATA[<h3>$[name]</h3>]]></text></BalloonStyle></Style><Style id="line-0000FF-5000-nodesc-highlight"><LineStyle><color>ffff0000</color><width>7.5</width></LineStyle><BalloonStyle><text><![CDATA[<h3>$[name]</h3>]]></text></BalloonStyle></Style><StyleMap id="line-0000FF-5000-nodesc"><Pair><key>normal</key><styleUrl>#line-0000FF-5000-nodesc-normal</styleUrl></Pair><Pair><key>highlight</key><styleUrl>#line-0000FF-5000-nodesc-highlight</styleUrl></Pair></StyleMap><Folder><name>Untitled layer</name><Placemark><name>Course</name><styleUrl>#line-0000FF-5000-nodesc</styleUrl><LineString><tessellate>1</tessellate><coordinates>            151.282446,-33.766474,0            151.28441,-33.766385,0            151.285676,-33.766341,0            151.286556,-33.766608,0            151.286824,-33.766715,0            151.287092,-33.766858,0            151.287661,-33.767152,0            151.288025,-33.767322,0            151.288218,-33.7675,0            151.288401,-33.7675,0            151.288637,-33.7675,0            151.288776,-33.76758,0            151.288948,-33.767625,0            151.28912,-33.767714,0            151.289356,-33.767759,0            151.289581,-33.767803,0            151.290193,-33.767768,0            151.2906,-33.767785,0            151.290965,-33.767848,0            151.291201,-33.76783,0            151.291491,-33.767928,0            151.291684,-33.767964,0            151.292006,-33.767901,0            151.292242,-33.767794,0            151.292446,-33.767705,0            151.292596,-33.767616,0            151.292853,-33.767616,0            151.293111,-33.767571,0            151.293433,-33.767482,0            151.293733,-33.767438,0            151.294001,-33.767429,0            151.294184,-33.767366,0            151.294366,-33.767375,0            151.294484,-33.767286,0            151.294999,-33.764726,0            151.294945,-33.764682,0            151.294034,-33.764539,0            151.29383,-33.764548,0            151.293401,-33.764682,0            151.292843,-33.764851,0            151.292768,-33.764914,0            151.29266,-33.764958,0            151.292574,-33.764922,0            151.289753,-33.765859,0            151.289828,-33.766341,0            151.28957,-33.76701,0            151.288701,-33.766956,0            151.288562,-33.766938,0            151.288401,-33.766822,0            151.28809,-33.766742,0            151.287929,-33.766778,0            151.287768,-33.766724,0            151.287585,-33.766635,0            151.287414,-33.766572,0            151.287264,-33.766546,0            151.286942,-33.766385,0            151.286523,-33.766153,0            151.286159,-33.765993,0            151.285751,-33.765859,0            151.285375,-33.765859,0            151.285032,-33.76585,0            151.284399,-33.765841,0            151.28427,-33.765805,0            151.283948,-33.765984,0            151.283584,-33.766002,0            151.282929,-33.765993,0            151.282575,-33.765984,0            151.282243,-33.765904,0            151.281899,-33.765761,0            151.281642,-33.765582,0            151.281374,-33.765511,0            151.280923,-33.765475,0            151.28,-33.765502,0            151.279528,-33.76552,0            151.279507,-33.765368,0            151.279893,-33.763611,0            151.280172,-33.763727,0            151.281728,-33.76395,0            151.281781,-33.764048,0            151.281781,-33.764682,0            151.28161,-33.765145,0            151.281792,-33.76569,0            151.282049,-33.765832,0            151.282361,-33.765948,0            151.282715,-33.765993,0            151.283369,-33.766011,0            151.283841,-33.766002,0            151.284034,-33.765939,0            151.284217,-33.765823,0            151.284345,-33.765814,0            151.284496,-33.76585,0            151.285182,-33.765859,0            151.285558,-33.765859,0            151.285805,-33.765877,0            151.286266,-33.766037,0            151.286695,-33.766234,0            151.287092,-33.766465,0            151.287339,-33.766564,0            151.28751,-33.76659,0            151.287693,-33.76668,0            151.287854,-33.76676,0            151.288004,-33.76676,0            151.288154,-33.76676,0            151.288337,-33.766787,0            151.288508,-33.766911,0            151.288744,-33.767001,0            151.288841,-33.767108,0            151.288766,-33.767348,0            151.288637,-33.7675,0          </coordinates></LineString></Placemark><Placemark><name>Start / Finish</name><styleUrl>#icon-157-nodesc</styleUrl><Point><coordinates>            151.282425,-33.766483,0          </coordinates></Point></Placemark></Folder></Document></kml>