<?xml version="1.0" encoding="UTF-8"?><kml xmlns="http://www.opengis.net/kml/2.2"><Document><name>Dolls Point parkrun</name><description/><Style id="icon-1899-0F9D58-nodesc-normal"><IconStyle><color>ff589d0f</color><scale>1</scale><Icon><href>https://www.gstatic.com/mapspro/images/stock/503-wht-blank_maps.png</href></Icon><hotSpot x="32" xunits="pixels" y="64" yunits="insetPixels"/></IconStyle><LabelStyle><scale>0</scale></LabelStyle><BalloonStyle><text><![CDATA[<h3>$[name]</h3>]]></text></BalloonStyle></Style><Style id="icon-1899-0F9D58-nodesc-highlight"><IconStyle><color>ff589d0f</color><scale>1</scale><Icon><href>https://www.gstatic.com/mapspro/images/stock/503-wht-blank_maps.png</href></Icon><hotSpot x="32" xunits="pixels" y="64" yunits="insetPixels"/></IconStyle><LabelStyle><scale>1</scale></LabelStyle><BalloonStyle><text><![CDATA[<h3>$[name]</h3>]]></text></BalloonStyle></Style><StyleMap id="icon-1899-0F9D58-nodesc"><Pair><key>normal</key><styleUrl>#icon-1899-0F9D58-nodesc-normal</styleUrl></Pair><Pair><key>highlight</key><styleUrl>#icon-1899-0F9D58-nodesc-highlight</styleUrl></Pair></StyleMap><Style id="icon-1899-FF5252-nodesc-normal"><IconStyle><color>ff5252ff</color><scale>1</scale><Icon><href>https://www.gstatic.com/mapspro/images/stock/503-wht-blank_maps.png</href></Icon><hotSpot x="32" xunits="pixels" y="64" yunits="insetPixels"/></IconStyle><LabelStyle><scale>0</scale></LabelStyle><BalloonStyle><text><![CDATA[<h3>$[name]</h3>]]></text></BalloonStyle></Style><Style id="icon-1899-FF5252-nodesc-highlight"><IconStyle><color>ff5252ff</color><scale>1</scale><Icon><href>https://www.gstatic.com/mapspro/images/stock/503-wht-blank_maps.png</href></Icon><hotSpot x="32" xunits="pixels" y="64" yunits="insetPixels"/></IconStyle><LabelStyle><scale>1</scale></LabelStyle><BalloonStyle><text><![CDATA[<h3>$[name]</h3>]]></text></BalloonStyle></Style><StyleMap id="icon-1899-FF5252-nodesc"><Pair><key>normal</key><styleUrl>#icon-1899-FF5252-nodesc-normal</styleUrl></Pair><Pair><key>highlight</key><styleUrl>#icon-1899-FF5252-nodesc-highlight</styleUrl></Pair></StyleMap><Style id="icon-959-0288D1-nodesc-normal"><IconStyle><color>ffd18802</color><scale>1.1</scale><Icon><href>https://www.gstatic.com/mapspro/images/stock/959-wht-circle-blank.png</href></Icon></IconStyle><LabelStyle><scale>0</scale></LabelStyle><BalloonStyle><text><![CDATA[<h3>$[name]</h3>]]></text></BalloonStyle></Style><Style id="icon-959-0288D1-nodesc-highlight"><IconStyle><color>ffd18802</color><scale>1.1</scale><Icon><href>https://www.gstatic.com/mapspro/images/stock/959-wht-circle-blank.png</href></Icon></IconStyle><LabelStyle><scale>1.1</scale></LabelStyle><BalloonStyle><text><![CDATA[<h3>$[name]</h3>]]></text></BalloonStyle></Style><StyleMap id="icon-959-0288D1-nodesc"><Pair><key>normal</key><styleUrl>#icon-959-0288D1-nodesc-normal</styleUrl></Pair><Pair><key>highlight</key><styleUrl>#icon-959-0288D1-nodesc-highlight</styleUrl></Pair></StyleMap><Style id="icon-959-0BA9CC-nodesc-normal"><IconStyle><color>ffcca90b</color><scale>1.1</scale><Icon><href>https://www.gstatic.com/mapspro/images/stock/959-wht-circle-blank.png</href></Icon></IconStyle><LabelStyle><scale>0</scale></LabelStyle><BalloonStyle><text><![CDATA[<h3>$[name]</h3>]]></text></BalloonStyle></Style><Style id="icon-959-0BA9CC-nodesc-highlight"><IconStyle><color>ffcca90b</color><scale>1.1</scale><Icon><href>https://www.gstatic.com/mapspro/images/stock/959-wht-circle-blank.png</href></Icon></IconStyle><LabelStyle><scale>1.1</scale></LabelStyle><BalloonStyle><text><![CDATA[<h3>$[name]</h3>]]></text></BalloonStyle></Style><StyleMap id="icon-959-0BA9CC-nodesc"><Pair><key>normal</key><styleUrl>#icon-959-0BA9CC-nodesc-normal</styleUrl></Pair><Pair><key>highlight</key><styleUrl>#icon-959-0BA9CC-nodesc-highlight</styleUrl></Pair></StyleMap><Style id="line-0288D1-4875-nodesc-normal"><LineStyle><color>ffd18802</color><width>4.875</width></LineStyle><BalloonStyle><text><![CDATA[<h3>$[name]</h3>]]></text></BalloonStyle></Style><Style id="line-0288D1-4875-nodesc-highlight"><LineStyle><color>ffd18802</color><width>7.3125</width></LineStyle><BalloonStyle><text><![CDATA[<h3>$[name]</h3>]]></text></BalloonStyle></Style><StyleMap id="line-0288D1-4875-nodesc"><Pair><key>normal</key><styleUrl>#line-0288D1-4875-nodesc-normal</styleUrl></Pair><Pair><key>highlight</key><styleUrl>#line-0288D1-4875-nodesc-highlight</styleUrl></Pair></StyleMap><Folder><name>Untitled layer</name><Placemark><name>Course</name><styleUrl>#line-0288D1-4875-nodesc</styleUrl><LineString><tessellate>1</tessellate><coordinates>            151.142306,-33.996119,0            151.1424137,-33.9960704,0            151.142754,-33.995866,0            151.143693,-33.995797,0            151.143921,-33.995888,0            151.144903,-33.995759,0            151.143921,-33.995888,0            151.144291,-33.996022,0            151.144474,-33.996284,0            151.144441,-33.996408,0            151.144645,-33.996875,0            151.1464155,-33.9959281,0            151.1468875,-33.9956434,0            151.1478639,-33.9949585,0            151.148135,-33.994745,0            151.148374,-33.994496,0            151.148545,-33.99438,0            151.148685,-33.994205,0            151.148781,-33.993913,0            151.148786,-33.993704,0            151.1486042,-33.9929215,0            151.148282,-33.991472,0            151.148019,-33.990315,0            151.1479282,-33.9891854,0            151.1478853,-33.9883847,0            151.1479497,-33.9871037,0            151.1479712,-33.985627,0            151.1479926,-33.9851466,0            151.148475,-33.982624,0            151.148848,-33.981742,0            151.149001,-33.981357,0            151.149511,-33.980569,0          </coordinates></LineString></Placemark><Placemark><name>Finish</name><styleUrl>#icon-1899-FF5252-nodesc</styleUrl><Point><coordinates>            151.144892,-33.995744,0          </coordinates></Point></Placemark><Placemark><name>START</name><styleUrl>#icon-1899-0F9D58-nodesc</styleUrl><Point><coordinates>            151.144916,-33.995741,0          </coordinates></Point></Placemark><Placemark><name>Turnaround -  Before entry to carpark</name><styleUrl>#icon-959-0BA9CC-nodesc</styleUrl><Point><coordinates>            151.149511,-33.980569,0          </coordinates></Point></Placemark><Placemark><name>Turnaround head to Finish</name><styleUrl>#icon-959-0288D1-nodesc</styleUrl><Point><coordinates>            151.142306,-33.996119,0          </coordinates></Point></Placemark></Folder></Document></kml>