<?xml version="1.0" encoding="UTF-8"?><kml xmlns="http://www.opengis.net/kml/2.2"><Document><name>East Richmond parkrun</name><description/><Style id="icon-1899-0F9D58-nodesc-normal"><IconStyle><color>ff589d0f</color><scale>1</scale><Icon><href>https://www.gstatic.com/mapspro/images/stock/503-wht-blank_maps.png</href></Icon><hotSpot x="32" xunits="pixels" y="64" yunits="insetPixels"/></IconStyle><LabelStyle><scale>0</scale></LabelStyle><BalloonStyle><text><![CDATA[<h3>$[name]</h3>]]></text></BalloonStyle></Style><Style id="icon-1899-0F9D58-nodesc-highlight"><IconStyle><color>ff589d0f</color><scale>1</scale><Icon><href>https://www.gstatic.com/mapspro/images/stock/503-wht-blank_maps.png</href></Icon><hotSpot x="32" xunits="pixels" y="64" yunits="insetPixels"/></IconStyle><LabelStyle><scale>1</scale></LabelStyle><BalloonStyle><text><![CDATA[<h3>$[name]</h3>]]></text></BalloonStyle></Style><StyleMap id="icon-1899-0F9D58-nodesc"><Pair><key>normal</key><styleUrl>#icon-1899-0F9D58-nodesc-normal</styleUrl></Pair><Pair><key>highlight</key><styleUrl>#icon-1899-0F9D58-nodesc-highlight</styleUrl></Pair></StyleMap><Style id="icon-1899-FF5252-nodesc-normal"><IconStyle><color>ff5252ff</color><scale>1</scale><Icon><href>https://www.gstatic.com/mapspro/images/stock/503-wht-blank_maps.png</href></Icon><hotSpot x="32" xunits="pixels" y="64" yunits="insetPixels"/></IconStyle><LabelStyle><scale>0</scale></LabelStyle><BalloonStyle><text><![CDATA[<h3>$[name]</h3>]]></text></BalloonStyle></Style><Style id="icon-1899-FF5252-nodesc-highlight"><IconStyle><color>ff5252ff</color><scale>1</scale><Icon><href>https://www.gstatic.com/mapspro/images/stock/503-wht-blank_maps.png</href></Icon><hotSpot x="32" xunits="pixels" y="64" yunits="insetPixels"/></IconStyle><LabelStyle><scale>1</scale></LabelStyle><BalloonStyle><text><![CDATA[<h3>$[name]</h3>]]></text></BalloonStyle></Style><StyleMap id="icon-1899-FF5252-nodesc"><Pair><key>normal</key><styleUrl>#icon-1899-FF5252-nodesc-normal</styleUrl></Pair><Pair><key>highlight</key><styleUrl>#icon-1899-FF5252-nodesc-highlight</styleUrl></Pair></StyleMap><Style id="line-0288D1-5456-nodesc-normal"><LineStyle><color>ffd18802</color><width>5.456</width></LineStyle><BalloonStyle><text><![CDATA[<h3>$[name]</h3>]]></text></BalloonStyle></Style><Style id="line-0288D1-5456-nodesc-highlight"><LineStyle><color>ffd18802</color><width>8.184</width></LineStyle><BalloonStyle><text><![CDATA[<h3>$[name]</h3>]]></text></BalloonStyle></Style><StyleMap id="line-0288D1-5456-nodesc"><Pair><key>normal</key><styleUrl>#line-0288D1-5456-nodesc-normal</styleUrl></Pair><Pair><key>highlight</key><styleUrl>#line-0288D1-5456-nodesc-highlight</styleUrl></Pair></StyleMap><Folder><name>Untitled layer</name><Placemark><name>Course</name><styleUrl>#line-0288D1-5456-nodesc</styleUrl><LineString><tessellate>1</tessellate><coordinates>            150.774259,-33.604808,0            150.773508,-33.604393,0            150.772414,-33.60412,0            150.771502,-33.603884,0            150.77104,-33.603843,0            150.77022,-33.603566,0            150.769029,-33.60333,0            150.768782,-33.603352,0            150.767548,-33.603026,0            150.766642,-33.602726,0            150.766475,-33.602552,0            150.766368,-33.60253,0            150.76633,-33.602655,0            150.766604,-33.602708,0            150.767205,-33.602932,0            150.768471,-33.603267,0            150.76876,-33.603365,0            150.769168,-33.603352,0            150.770107,-33.603553,0            150.770799,-33.603754,0            150.77119,-33.603861,0            150.771523,-33.603879,0            150.772269,-33.604067,0            150.774211,-33.604536,0            150.774903,-33.604737,0            150.775133,-33.605188,0            150.776018,-33.605425,0            150.776136,-33.605081,0            150.777016,-33.605264,0            150.777129,-33.605233,0            150.777263,-33.605309,0            150.777365,-33.60534,0            150.777558,-33.605358,0            150.778003,-33.60547,0            150.778374,-33.605537,0            150.779012,-33.605827,0            150.779162,-33.605764,0            150.779607,-33.605997,0            150.779747,-33.606064,0            150.779908,-33.60614,0            150.78009,-33.606202,0            150.780246,-33.60614,0            150.78067,-33.606229,0            150.780922,-33.606144,0            150.781828,-33.606354,0            150.782048,-33.606546,0            150.78245,-33.606667,0            150.783405,-33.606783,0            150.784038,-33.606944,0            150.784162,-33.607114,0            150.784661,-33.607257,0            150.784929,-33.607216,0            150.785487,-33.607279,0            150.786034,-33.607418,0            150.786254,-33.607623,0            150.786039,-33.607659,0            150.785674,-33.60756,0            150.785122,-33.607409,0            150.784854,-33.607418,0            150.784634,-33.607279,0            150.784119,-33.607118,0            150.783834,-33.607123,0            150.783641,-33.607006,0            150.783416,-33.606953,0            150.78326,-33.606966,0            150.782874,-33.606765,0            150.782509,-33.606698,0            150.782086,-33.60652,0            150.781716,-33.606314,0            150.780916,-33.60614,0            150.780664,-33.606247,0            150.780251,-33.606113,0            150.780085,-33.606202,0            150.779285,-33.605818,0            150.779141,-33.605747,0            150.779012,-33.605827,0            150.778368,-33.605541,0            150.777574,-33.605322,0            150.777402,-33.605344,0            150.777242,-33.605313,0            150.777172,-33.60521,0            150.776963,-33.605269,0            150.776158,-33.605045,0            150.775992,-33.605425,0            150.775064,-33.605193,0            150.774844,-33.604714,0            150.77413,-33.604505,0            150.771427,-33.603852,0            150.773358,-33.604259,0            150.77435,-33.604773,0          </coordinates></LineString></Placemark><Placemark><name>Finish</name><styleUrl>#icon-1899-FF5252-nodesc</styleUrl><Point><coordinates>            150.774374,-33.604784,0          </coordinates></Point></Placemark><Placemark><name>Start</name><styleUrl>#icon-1899-0F9D58-nodesc</styleUrl><Point><coordinates>            150.774259,-33.604808,0          </coordinates></Point></Placemark></Folder></Document></kml>