<?xml version="1.0" encoding="UTF-8"?><kml xmlns="http://www.opengis.net/kml/2.2"><Document><name>Gainsborough Parklands parkrun (from Aug 2025)</name><description/><Style id="icon-1899-FFD600-nodesc-normal"><IconStyle><color>ff00d6ff</color><scale>1</scale><Icon><href>https://www.gstatic.com/mapspro/images/stock/503-wht-blank_maps.png</href></Icon><hotSpot x="32" xunits="pixels" y="64" yunits="insetPixels"/></IconStyle><LabelStyle><scale>0</scale></LabelStyle><BalloonStyle><text><![CDATA[<h3>$[name]</h3>]]></text></BalloonStyle></Style><Style id="icon-1899-FFD600-nodesc-highlight"><IconStyle><color>ff00d6ff</color><scale>1</scale><Icon><href>https://www.gstatic.com/mapspro/images/stock/503-wht-blank_maps.png</href></Icon><hotSpot x="32" xunits="pixels" y="64" yunits="insetPixels"/></IconStyle><LabelStyle><scale>1</scale></LabelStyle><BalloonStyle><text><![CDATA[<h3>$[name]</h3>]]></text></BalloonStyle></Style><StyleMap id="icon-1899-FFD600-nodesc"><Pair><key>normal</key><styleUrl>#icon-1899-FFD600-nodesc-normal</styleUrl></Pair><Pair><key>highlight</key><styleUrl>#icon-1899-FFD600-nodesc-highlight</styleUrl></Pair></StyleMap><Style id="line-0288D1-5000-nodesc-normal"><LineStyle><color>ffd18802</color><width>5</width></LineStyle><BalloonStyle><text><![CDATA[<h3>$[name]</h3>]]></text></BalloonStyle></Style><Style id="line-0288D1-5000-nodesc-highlight"><LineStyle><color>ffd18802</color><width>7.5</width></LineStyle><BalloonStyle><text><![CDATA[<h3>$[name]</h3>]]></text></BalloonStyle></Style><StyleMap id="line-0288D1-5000-nodesc"><Pair><key>normal</key><styleUrl>#line-0288D1-5000-nodesc-normal</styleUrl></Pair><Pair><key>highlight</key><styleUrl>#line-0288D1-5000-nodesc-highlight</styleUrl></Pair></StyleMap><Folder><name>Untitled layer</name><Placemark><name>Course</name><styleUrl>#line-0288D1-5000-nodesc</styleUrl><LineString><tessellate>1</tessellate><coordinates>            153.299612,-27.813348,0            153.29958,-27.813497,0            153.299597,-27.813651,0            153.299625,-27.813702,0            153.299657,-27.813752,0            153.299676,-27.813817,0            153.299687,-27.813882,0            153.299665,-27.813958,0            153.299631,-27.814029,0            153.299526,-27.814122,0            153.299464,-27.814155,0            153.299426,-27.814193,0            153.299438,-27.814264,0            153.299548,-27.814349,0            153.299644,-27.814492,0            153.299692,-27.814502,0            153.299817,-27.81445,0            153.299942,-27.814406,0            153.300073,-27.81438,0            153.300207,-27.814366,0            153.300339,-27.814372,0            153.30047,-27.814392,0            153.300598,-27.814432,0            153.300725,-27.814482,0            153.300926,-27.814625,0            153.301758,-27.815891,0            153.301551,-27.816242,0            153.301168,-27.816713,0            153.301023,-27.816997,0            153.300626,-27.817189,0            153.30054,-27.81745,0            153.300933,-27.818053,0            153.301241,-27.818157,0            153.3015,-27.8181,0            153.302133,-27.818102,0            153.302587,-27.818154,0            153.302844,-27.818211,0            153.302935,-27.81827,0            153.303294,-27.818326,0            153.303351,-27.818411,0            153.303402,-27.818532,0            153.304202,-27.818659,0            153.304403,-27.81845,0            153.305052,-27.818555,0            153.305145,-27.818603,0            153.30542,-27.818641,0            153.305569,-27.818852,0            153.305406,-27.818651,0            153.305137,-27.818614,0            153.305045,-27.818566,0            153.304406,-27.818461,0            153.304204,-27.818669,0            153.303399,-27.818542,0            153.303335,-27.818418,0            153.303285,-27.818334,0            153.302934,-27.818283,0            153.302835,-27.818224,0            153.302581,-27.818172,0            153.302133,-27.818115,0            153.301502,-27.818112,0            153.301239,-27.818174,0            153.300933,-27.818053,0            153.30054,-27.81745,0            153.300615,-27.817183,0            153.301015,-27.816983,0            153.301152,-27.816707,0            153.301538,-27.816235,0            153.301734,-27.815889,0            153.301332,-27.815262,0            153.300919,-27.814633,0            153.300716,-27.814492,0            153.300579,-27.81444,0            153.300506,-27.814414,0            153.300431,-27.814396,0            153.300322,-27.814382,0            153.300208,-27.814379,0            153.300108,-27.814387,0            153.300026,-27.814403,0            153.299979,-27.814412,0            153.299943,-27.814419,0            153.299691,-27.814514,0            153.299635,-27.814508,0            153.299587,-27.81443,0            153.299538,-27.814355,0            153.299438,-27.814281,0            153.299416,-27.814186,0            153.299537,-27.814103,0            153.299639,-27.813996,0            153.299658,-27.813947,0            153.299666,-27.813894,0            153.299665,-27.813818,0            153.299644,-27.813765,0            153.299619,-27.813713,0            153.299582,-27.81364,0            153.299569,-27.813502,0            153.299566,-27.813421,0            153.299564,-27.813341,0          </coordinates></LineString></Placemark><Placemark><name>Start/Finish</name><styleUrl>#icon-1899-FFD600-nodesc</styleUrl><Point><coordinates>            153.2995758,-27.8133414,0          </coordinates></Point></Placemark></Folder></Document></kml>