<?xml version="1.0" encoding="UTF-8"?><kml xmlns="http://www.opengis.net/kml/2.2"><Document><name>Galston parkrun Regular Course (from Oct 2024)</name><description/><Style id="icon-1899-FFEA00-nodesc-normal"><IconStyle><color>ff00eaff</color><scale>1</scale><Icon><href>https://www.gstatic.com/mapspro/images/stock/503-wht-blank_maps.png</href></Icon><hotSpot x="32" xunits="pixels" y="64" yunits="insetPixels"/></IconStyle><LabelStyle><scale>0</scale></LabelStyle><BalloonStyle><text><![CDATA[<h3>$[name]</h3>]]></text></BalloonStyle></Style><Style id="icon-1899-FFEA00-nodesc-highlight"><IconStyle><color>ff00eaff</color><scale>1</scale><Icon><href>https://www.gstatic.com/mapspro/images/stock/503-wht-blank_maps.png</href></Icon><hotSpot x="32" xunits="pixels" y="64" yunits="insetPixels"/></IconStyle><LabelStyle><scale>1</scale></LabelStyle><BalloonStyle><text><![CDATA[<h3>$[name]</h3>]]></text></BalloonStyle></Style><StyleMap id="icon-1899-FFEA00-nodesc"><Pair><key>normal</key><styleUrl>#icon-1899-FFEA00-nodesc-normal</styleUrl></Pair><Pair><key>highlight</key><styleUrl>#icon-1899-FFEA00-nodesc-highlight</styleUrl></Pair></StyleMap><Style id="line-0288D1-4681-nodesc-normal"><LineStyle><color>ffd18802</color><width>4.681</width></LineStyle><BalloonStyle><text><![CDATA[<h3>$[name]</h3>]]></text></BalloonStyle></Style><Style id="line-0288D1-4681-nodesc-highlight"><LineStyle><color>ffd18802</color><width>7.0215</width></LineStyle><BalloonStyle><text><![CDATA[<h3>$[name]</h3>]]></text></BalloonStyle></Style><StyleMap id="line-0288D1-4681-nodesc"><Pair><key>normal</key><styleUrl>#line-0288D1-4681-nodesc-normal</styleUrl></Pair><Pair><key>highlight</key><styleUrl>#line-0288D1-4681-nodesc-highlight</styleUrl></Pair></StyleMap><Folder><name>Galston parkrun</name><Placemark><name>Course</name><styleUrl>#line-0288D1-4681-nodesc</styleUrl><LineString><tessellate>1</tessellate><coordinates>            151.043735,-33.642842,0            151.043483,-33.642512,0            151.043509,-33.642315,0            151.04353,-33.642211,0            151.043538,-33.642111,0            151.043523,-33.642033,0            151.043492,-33.641962,0            151.043452,-33.641912,0            151.04341,-33.641864,0            151.04322,-33.641616,0            151.043137,-33.641506,0            151.042958,-33.64133,0            151.042887,-33.641226,0            151.042856,-33.64113,0            151.042848,-33.641064,0            151.042874,-33.640996,0            151.042896,-33.640928,0            151.042937,-33.640872,0            151.042993,-33.640828,0            151.04307,-33.640782,0            151.043154,-33.640765,0            151.043226,-33.640759,0            151.043307,-33.640758,0            151.04337,-33.640754,0            151.043436,-33.640736,0            151.043495,-33.640705,0            151.043548,-33.640659,0            151.043599,-33.640597,0            151.043636,-33.640532,0            151.043681,-33.640463,0            151.043732,-33.640399,0            151.043986,-33.640129,0            151.04415,-33.639791,0            151.044204,-33.639715,0            151.044258,-33.639664,0            151.044496,-33.639504,0            151.044621,-33.639403,0            151.044743,-33.6393,0            151.044865,-33.639244,0            151.045158,-33.639156,0            151.045293,-33.639122,0            151.045348,-33.639096,0            151.045382,-33.639052,0            151.045396,-33.638947,0            151.045386,-33.638852,0            151.045364,-33.638732,0            151.045359,-33.638661,0            151.045406,-33.638547,0            151.045494,-33.638451,0            151.045553,-33.638411,0            151.045518,-33.638248,0            151.045525,-33.638085,0            151.045533,-33.637962,0            151.045567,-33.637828,0            151.045599,-33.637742,0            151.045663,-33.637642,0            151.045737,-33.637542,0            151.045783,-33.637449,0            151.045843,-33.637406,0            151.045894,-33.637401,0            151.045948,-33.637415,0            151.046039,-33.637447,0            151.046295,-33.637558,0            151.046434,-33.6375,0            151.046535,-33.63747,0            151.046645,-33.637452,0            151.046752,-33.637447,0            151.04686,-33.63745,0            151.046829,-33.637458,0            151.046731,-33.637456,0            151.046681,-33.637457,0            151.046614,-33.637464,0            151.046559,-33.637477,0            151.046519,-33.637487,0            151.046472,-33.637502,0            151.046409,-33.637522,0            151.046335,-33.637555,0            151.046257,-33.637604,0            151.046196,-33.637648,0            151.046138,-33.637692,0            151.046043,-33.637784,0            151.045949,-33.637887,0            151.045839,-33.637989,0            151.04571,-33.638047,0            151.045594,-33.638094,0            151.045546,-33.638107,0            151.045532,-33.63819,0            151.04553,-33.638261,0            151.045551,-33.63834,0            151.045565,-33.638405,0            151.04552,-33.638451,0            151.045481,-33.638486,0            151.045435,-33.638532,0            151.045403,-33.638581,0            151.045382,-33.638632,0            151.045372,-33.638674,0            151.045378,-33.638713,0            151.045386,-33.638771,0            151.045396,-33.638828,0            151.045402,-33.638873,0            151.045406,-33.638925,0            151.045408,-33.638973,0            151.0454,-33.639017,0            151.045394,-33.639065,0            151.045414,-33.639097,0            151.045534,-33.63909,0            151.045632,-33.639087,0            151.045779,-33.639079,0            151.045915,-33.639069,0            151.046032,-33.639085,0            151.046123,-33.639114,0            151.046177,-33.639149,0            151.04621,-33.639203,0            151.046221,-33.639255,0            151.046224,-33.639304,0            151.046224,-33.639344,0            151.046214,-33.639386,0            151.045962,-33.639997,0            151.045931,-33.640032,0            151.045876,-33.640082,0            151.045827,-33.640113,0            151.04578,-33.640146,0            151.045734,-33.640169,0            151.045665,-33.640205,0            151.045598,-33.640234,0            151.045518,-33.640266,0            151.045438,-33.640293,0            151.045359,-33.640321,0            151.045293,-33.64035,0            151.045248,-33.640372,0            151.045146,-33.6404,0            151.044928,-33.640473,0            151.044531,-33.640574,0            151.044479,-33.640602,0            151.044417,-33.640663,0            151.044378,-33.64074,0            151.044342,-33.640824,0            151.04431,-33.64091,0            151.044307,-33.640988,0            151.044322,-33.641032,0            151.044365,-33.641105,0            151.044504,-33.641306,0            151.044538,-33.6414,0            151.044556,-33.641463,0            151.04455,-33.641504,0            151.044526,-33.64155,0            151.044506,-33.641582,0            151.044454,-33.641625,0            151.044369,-33.641657,0            151.044294,-33.641686,0            151.044223,-33.641712,0            151.044148,-33.641742,0            151.044026,-33.641784,0            151.043869,-33.641848,0            151.043792,-33.641885,0            151.043702,-33.641942,0            151.043633,-33.642009,0            151.043555,-33.64214,0            151.043546,-33.642196,0            151.043538,-33.642248,0            151.043528,-33.642299,0            151.043516,-33.642355,0            151.043505,-33.642445,0            151.04352,-33.642505,0            151.043558,-33.642541,0            151.043648,-33.642572,0            151.043727,-33.642591,0            151.043802,-33.64262,0            151.043839,-33.642664,0            151.043858,-33.642739,0            151.043878,-33.642834,0            151.043949,-33.64281,0            151.044002,-33.642796,0            151.044058,-33.64279,0            151.044112,-33.642792,0            151.044172,-33.642801,0            151.04423,-33.642823,0            151.044279,-33.642851,0            151.04433,-33.642891,0            151.04437,-33.642938,0            151.044399,-33.642993,0            151.044408,-33.643035,0            151.044415,-33.643094,0            151.044419,-33.643149,0            151.044419,-33.643209,0            151.044415,-33.643368,0            151.04439,-33.643454,0            151.044353,-33.6435,0            151.04431,-33.64353,0            151.044274,-33.643543,0            151.043955,-33.64361,0            151.043921,-33.643608,0            151.04388,-33.643583,0            151.043843,-33.643538,0            151.043798,-33.643476,0            151.043775,-33.643427,0            151.043719,-33.643337,0            151.043697,-33.643273,0            151.043678,-33.6432,0            151.04369,-33.643132,0            151.04372,-33.64308,0            151.043747,-33.643018,0            151.043772,-33.642957,0            151.0438,-33.642915,0            151.043755,-33.642862,0          </coordinates></LineString></Placemark><Placemark><name>Start / Finish</name><styleUrl>#icon-1899-FFEA00-nodesc</styleUrl><Point><coordinates>            151.043755,-33.642862,0          </coordinates></Point></Placemark></Folder></Document></kml>