<?xml version="1.0" encoding="UTF-8"?><kml xmlns="http://www.opengis.net/kml/2.2"><Document><name>George Town parkrun</name><description/><Style id="icon-1899-FFD600-nodesc-normal"><IconStyle><color>ff00d6ff</color><scale>1</scale><Icon><href>https://www.gstatic.com/mapspro/images/stock/503-wht-blank_maps.png</href></Icon><hotSpot x="32" xunits="pixels" y="64" yunits="insetPixels"/></IconStyle><LabelStyle><scale>0</scale></LabelStyle><BalloonStyle><text><![CDATA[<h3>$[name]</h3>]]></text></BalloonStyle></Style><Style id="icon-1899-FFD600-nodesc-highlight"><IconStyle><color>ff00d6ff</color><scale>1</scale><Icon><href>https://www.gstatic.com/mapspro/images/stock/503-wht-blank_maps.png</href></Icon><hotSpot x="32" xunits="pixels" y="64" yunits="insetPixels"/></IconStyle><LabelStyle><scale>1</scale></LabelStyle><BalloonStyle><text><![CDATA[<h3>$[name]</h3>]]></text></BalloonStyle></Style><StyleMap id="icon-1899-FFD600-nodesc"><Pair><key>normal</key><styleUrl>#icon-1899-FFD600-nodesc-normal</styleUrl></Pair><Pair><key>highlight</key><styleUrl>#icon-1899-FFD600-nodesc-highlight</styleUrl></Pair></StyleMap><Style id="line-0288D1-5456-nodesc-normal"><LineStyle><color>ffd18802</color><width>5.456</width></LineStyle><BalloonStyle><text><![CDATA[<h3>$[name]</h3>]]></text></BalloonStyle></Style><Style id="line-0288D1-5456-nodesc-highlight"><LineStyle><color>ffd18802</color><width>8.184</width></LineStyle><BalloonStyle><text><![CDATA[<h3>$[name]</h3>]]></text></BalloonStyle></Style><StyleMap id="line-0288D1-5456-nodesc"><Pair><key>normal</key><styleUrl>#line-0288D1-5456-nodesc-normal</styleUrl></Pair><Pair><key>highlight</key><styleUrl>#line-0288D1-5456-nodesc-highlight</styleUrl></Pair></StyleMap><Folder><name>Untitled layer</name><Placemark><name>Course</name><styleUrl>#line-0288D1-5456-nodesc</styleUrl><LineString><tessellate>1</tessellate><coordinates>            146.82121,-41.109189,0            146.821025,-41.10934,0            146.820939,-41.109313,0            146.820632,-41.109346,0            146.820259,-41.109317,0            146.820039,-41.109326,0            146.819907,-41.109364,0            146.819773,-41.109349,0            146.819702,-41.109288,0            146.819654,-41.109207,0            146.818799,-41.109284,0            146.818283,-41.109409,0            146.81817,-41.10956,0            146.817654,-41.109742,0            146.817422,-41.109816,0            146.817225,-41.109784,0            146.81699,-41.109668,0            146.816903,-41.109551,0            146.816871,-41.109477,0            146.81685,-41.109178,0            146.816811,-41.109032,0            146.816713,-41.108911,0            146.816653,-41.108764,0            146.816379,-41.108385,0            146.816197,-41.108106,0            146.816114,-41.107958,0            146.816063,-41.107806,0            146.816021,-41.107563,0            146.816012,-41.10746,0            146.815887,-41.107318,0            146.815667,-41.107136,0            146.815564,-41.107047,0            146.815448,-41.106903,0            146.815293,-41.106645,0            146.815141,-41.10642,0            146.814872,-41.106014,0            146.814759,-41.105861,0            146.814756,-41.105794,0            146.814992,-41.105385,0            146.815209,-41.105151,0            146.8154,-41.1051,0            146.815561,-41.105021,0            146.815737,-41.104815,0            146.815748,-41.10468,0            146.815648,-41.104365,0            146.815501,-41.104084,0            146.81532,-41.103814,0            146.815254,-41.103664,0            146.8152,-41.103421,0            146.815167,-41.103169,0            146.81523,-41.10261,0            146.81523,-41.102282,0            146.815099,-41.101826,0            146.815004,-41.101682,0            146.8149,-41.101592,0            146.814735,-41.101258,0            146.814425,-41.10084,0            146.814354,-41.10071,0            146.814345,-41.100584,0            146.814413,-41.100436,0            146.814515,-41.100294,0            146.814634,-41.100135,0            146.81467,-41.099832,0            146.81484,-41.098931,0            146.81484,-41.098768,0            146.814771,-41.098664,0            146.814688,-41.098574,0            146.814515,-41.09821,0            146.814419,-41.09808,0            146.814285,-41.097932,0            146.814264,-41.09777,0            146.814303,-41.097485,0            146.814434,-41.097227,0            146.814544,-41.097077,0            146.814938,-41.096751,0            146.815093,-41.096657,0            146.815191,-41.09656,0            146.815304,-41.096345,0            146.815492,-41.096109,0            146.8156,-41.095923,0            146.815638,-41.095806,0            146.815728,-41.095455,0            146.815838,-41.094909,0            146.815832,-41.094843,0            146.815632,-41.09456,0            146.815611,-41.094495,0            146.815555,-41.094028,0            146.815465,-41.093686,0            146.815367,-41.093529,0            146.815251,-41.093397,0            146.815135,-41.093296,0            146.815078,-41.093138,0            146.814899,-41.092874,0            146.814801,-41.09277,0            146.814601,-41.092633,0            146.81455,-41.092546,0            146.814574,-41.092393,0          </coordinates></LineString></Placemark><Placemark><name><![CDATA[Start & Finish]]></name><styleUrl>#icon-1899-FFD600-nodesc</styleUrl><Point><coordinates>            146.82121,-41.109189,0          </coordinates></Point></Placemark></Folder></Document></kml>