<?xml version="1.0" encoding="UTF-8"?><kml xmlns="http://www.opengis.net/kml/2.2"><Document><name>Goondiwindi parkrun </name><description/><Style id="icon-1207-nodesc-normal"><IconStyle><scale>1.1</scale><Icon><href>https://www.gstatic.com/mapspro/images/stock/1207-fac-parking.png</href></Icon></IconStyle><LabelStyle><scale>0</scale></LabelStyle><BalloonStyle><text><![CDATA[<h3>$[name]</h3>]]></text></BalloonStyle></Style><Style id="icon-1207-nodesc-highlight"><IconStyle><scale>1.1</scale><Icon><href>https://www.gstatic.com/mapspro/images/stock/1207-fac-parking.png</href></Icon></IconStyle><LabelStyle><scale>1.1</scale></LabelStyle><BalloonStyle><text><![CDATA[<h3>$[name]</h3>]]></text></BalloonStyle></Style><StyleMap id="icon-1207-nodesc"><Pair><key>normal</key><styleUrl>#icon-1207-nodesc-normal</styleUrl></Pair><Pair><key>highlight</key><styleUrl>#icon-1207-nodesc-highlight</styleUrl></Pair></StyleMap><Style id="icon-1219-nodesc-normal"><IconStyle><scale>1.1</scale><Icon><href>https://www.gstatic.com/mapspro/images/stock/1219-fac-wc-unisex.png</href></Icon></IconStyle><LabelStyle><scale>0</scale></LabelStyle><BalloonStyle><text><![CDATA[<h3>$[name]</h3>]]></text></BalloonStyle></Style><Style id="icon-1219-nodesc-highlight"><IconStyle><scale>1.1</scale><Icon><href>https://www.gstatic.com/mapspro/images/stock/1219-fac-wc-unisex.png</href></Icon></IconStyle><LabelStyle><scale>1.1</scale></LabelStyle><BalloonStyle><text><![CDATA[<h3>$[name]</h3>]]></text></BalloonStyle></Style><StyleMap id="icon-1219-nodesc"><Pair><key>normal</key><styleUrl>#icon-1219-nodesc-normal</styleUrl></Pair><Pair><key>highlight</key><styleUrl>#icon-1219-nodesc-highlight</styleUrl></Pair></StyleMap><Style id="icon-503-F4EB37-normal"><IconStyle><color>ff37ebf4</color><scale>1.1</scale><Icon><href>https://www.gstatic.com/mapspro/images/stock/503-wht-blank_maps.png</href></Icon><hotSpot x="16" xunits="pixels" y="32" yunits="insetPixels"/></IconStyle><LabelStyle><scale>0</scale></LabelStyle></Style><Style id="icon-503-F4EB37-highlight"><IconStyle><color>ff37ebf4</color><scale>1.1</scale><Icon><href>https://www.gstatic.com/mapspro/images/stock/503-wht-blank_maps.png</href></Icon><hotSpot x="16" xunits="pixels" y="32" yunits="insetPixels"/></IconStyle><LabelStyle><scale>1.1</scale></LabelStyle></Style><StyleMap id="icon-503-F4EB37"><Pair><key>normal</key><styleUrl>#icon-503-F4EB37-normal</styleUrl></Pair><Pair><key>highlight</key><styleUrl>#icon-503-F4EB37-highlight</styleUrl></Pair></StyleMap><Style id="icon-959-4186F0-nodesc-normal"><IconStyle><color>fff08641</color><scale>1.1</scale><Icon><href>https://www.gstatic.com/mapspro/images/stock/959-wht-circle-blank.png</href></Icon></IconStyle><LabelStyle><scale>0</scale></LabelStyle><BalloonStyle><text><![CDATA[<h3>$[name]</h3>]]></text></BalloonStyle></Style><Style id="icon-959-4186F0-nodesc-highlight"><IconStyle><color>fff08641</color><scale>1.1</scale><Icon><href>https://www.gstatic.com/mapspro/images/stock/959-wht-circle-blank.png</href></Icon></IconStyle><LabelStyle><scale>1.1</scale></LabelStyle><BalloonStyle><text><![CDATA[<h3>$[name]</h3>]]></text></BalloonStyle></Style><StyleMap id="icon-959-4186F0-nodesc"><Pair><key>normal</key><styleUrl>#icon-959-4186F0-nodesc-normal</styleUrl></Pair><Pair><key>highlight</key><styleUrl>#icon-959-4186F0-nodesc-highlight</styleUrl></Pair></StyleMap><Style id="line-4186F0-4509-nodesc-normal"><LineStyle><color>fff08641</color><width>4.509</width></LineStyle><BalloonStyle><text><![CDATA[<h3>$[name]</h3>]]></text></BalloonStyle></Style><Style id="line-4186F0-4509-nodesc-highlight"><LineStyle><color>fff08641</color><width>6.7635</width></LineStyle><BalloonStyle><text><![CDATA[<h3>$[name]</h3>]]></text></BalloonStyle></Style><StyleMap id="line-4186F0-4509-nodesc"><Pair><key>normal</key><styleUrl>#line-4186F0-4509-nodesc-normal</styleUrl></Pair><Pair><key>highlight</key><styleUrl>#line-4186F0-4509-nodesc-highlight</styleUrl></Pair></StyleMap><Folder><name>Course</name><Placemark><name>Carpark</name><styleUrl>#icon-1207-nodesc</styleUrl><Point><coordinates>            150.308029,-28.549371,0          </coordinates></Point></Placemark><Placemark><name>Toilets</name><styleUrl>#icon-1219-nodesc</styleUrl><Point><coordinates>            150.308851,-28.54987,0          </coordinates></Point></Placemark><Placemark><name>Turnaround at Customs House</name><styleUrl>#icon-959-4186F0-nodesc</styleUrl><Point><coordinates>            150.307703,-28.549852,0          </coordinates></Point></Placemark><Placemark><name>Start / Finish at Goondiwindi Skate Park</name><description>There is ample shade, picnic benches and a play ground.</description><styleUrl>#icon-503-F4EB37</styleUrl><Point><coordinates>            150.291002,-28.535608,0          </coordinates></Point></Placemark><Placemark><name>Course</name><styleUrl>#line-4186F0-4509-nodesc</styleUrl><LineString><tessellate>1</tessellate><coordinates>            150.307703,-28.549852,0            150.30645,-28.54944,0            150.30564,-28.54911,0            150.30538,-28.54902,0            150.3051,-28.54894,0            150.30485,-28.54888,0            150.3046,-28.54884,0            150.30426,-28.54879,0            150.30297,-28.54876,0            150.30258,-28.54875,0            150.30211,-28.54872,0            150.30186,-28.5487,0            150.30156,-28.54862,0            150.30123,-28.54849,0            150.30095,-28.54834,0            150.30073,-28.54817,0            150.3006,-28.54805,0            150.30051,-28.54797,0            150.29915,-28.54642,0            150.29877,-28.54599,0            150.29844,-28.54558,0            150.298,-28.54497,0            150.29768,-28.54446,0            150.29745,-28.54401,0            150.2972,-28.54347,0            150.29705,-28.54307,0            150.29697,-28.54285,0            150.29692,-28.54253,0            150.29691,-28.5422,0            150.29696,-28.54183,0            150.29698,-28.54157,0            150.29694,-28.54112,0            150.29687,-28.54081,0            150.29673,-28.54043,0            150.29649,-28.54003,0            150.29623,-28.5397,0            150.29588,-28.53936,0            150.29546,-28.53898,0            150.29499,-28.5386,0            150.29486,-28.5385,0            150.29439,-28.53818,0            150.29423,-28.53807,0            150.29394,-28.53788,0            150.29367,-28.53772,0            150.29351,-28.53763,0            150.29314,-28.53745,0            150.2928,-28.53733,0            150.29244,-28.53722,0            150.29156,-28.53708,0            150.29092,-28.537006,0            150.291002,-28.535608,0          </coordinates></LineString></Placemark></Folder></Document></kml>