<?xml version="1.0" encoding="UTF-8"?><kml xmlns="http://www.opengis.net/kml/2.2"><Document><name>Grafton parkrun</name><description/><Style id="icon-503-009D57-nodesc-normal"><IconStyle><color>ff579d00</color><scale>1.1</scale><Icon><href>https://www.gstatic.com/mapspro/images/stock/503-wht-blank_maps.png</href></Icon><hotSpot x="16" xunits="pixels" y="32" yunits="insetPixels"/></IconStyle><LabelStyle><scale>0</scale></LabelStyle><BalloonStyle><text><![CDATA[<h3>$[name]</h3>]]></text></BalloonStyle></Style><Style id="icon-503-009D57-nodesc-highlight"><IconStyle><color>ff579d00</color><scale>1.1</scale><Icon><href>https://www.gstatic.com/mapspro/images/stock/503-wht-blank_maps.png</href></Icon><hotSpot x="16" xunits="pixels" y="32" yunits="insetPixels"/></IconStyle><LabelStyle><scale>1.1</scale></LabelStyle><BalloonStyle><text><![CDATA[<h3>$[name]</h3>]]></text></BalloonStyle></Style><StyleMap id="icon-503-009D57-nodesc"><Pair><key>normal</key><styleUrl>#icon-503-009D57-nodesc-normal</styleUrl></Pair><Pair><key>highlight</key><styleUrl>#icon-503-009D57-nodesc-highlight</styleUrl></Pair></StyleMap><Style id="icon-503-DB4436-nodesc-normal"><IconStyle><color>ff3644db</color><scale>1.1</scale><Icon><href>https://www.gstatic.com/mapspro/images/stock/503-wht-blank_maps.png</href></Icon><hotSpot x="16" xunits="pixels" y="32" yunits="insetPixels"/></IconStyle><LabelStyle><scale>0</scale></LabelStyle><BalloonStyle><text><![CDATA[<h3>$[name]</h3>]]></text></BalloonStyle></Style><Style id="icon-503-DB4436-nodesc-highlight"><IconStyle><color>ff3644db</color><scale>1.1</scale><Icon><href>https://www.gstatic.com/mapspro/images/stock/503-wht-blank_maps.png</href></Icon><hotSpot x="16" xunits="pixels" y="32" yunits="insetPixels"/></IconStyle><LabelStyle><scale>1.1</scale></LabelStyle><BalloonStyle><text><![CDATA[<h3>$[name]</h3>]]></text></BalloonStyle></Style><StyleMap id="icon-503-DB4436-nodesc"><Pair><key>normal</key><styleUrl>#icon-503-DB4436-nodesc-normal</styleUrl></Pair><Pair><key>highlight</key><styleUrl>#icon-503-DB4436-nodesc-highlight</styleUrl></Pair></StyleMap><Style id="line-4186F0-4704-nodesc-normal"><LineStyle><color>fff08641</color><width>4.704</width></LineStyle><BalloonStyle><text><![CDATA[<h3>$[name]</h3>]]></text></BalloonStyle></Style><Style id="line-4186F0-4704-nodesc-highlight"><LineStyle><color>fff08641</color><width>7.056</width></LineStyle><BalloonStyle><text><![CDATA[<h3>$[name]</h3>]]></text></BalloonStyle></Style><StyleMap id="line-4186F0-4704-nodesc"><Pair><key>normal</key><styleUrl>#line-4186F0-4704-nodesc-normal</styleUrl></Pair><Pair><key>highlight</key><styleUrl>#line-4186F0-4704-nodesc-highlight</styleUrl></Pair></StyleMap><Folder><name>Untitled layer</name><Placemark><name>Course</name><styleUrl>#line-4186F0-4704-nodesc</styleUrl><LineString><tessellate>1</tessellate><coordinates>            152.920406,-29.644447,0            152.91935,-29.644231,0            152.919864,-29.641994,0            152.919909,-29.642008,0            152.919395,-29.644207,0            152.920406,-29.644408,0            152.920716,-29.642872,0            152.920649,-29.642734,0            152.920852,-29.642519,0            152.921264,-29.642784,0            152.921411,-29.642749,0            152.921518,-29.64269,0            152.921643,-29.642573,0            152.921699,-29.642435,0            152.921756,-29.642317,0            152.921795,-29.642175,0            152.921789,-29.641984,0            152.921784,-29.641797,0            152.921744,-29.641694,0            152.921688,-29.641601,0            152.921654,-29.641522,0            152.921648,-29.641429,0            152.921744,-29.641341,0            152.921818,-29.641243,0            152.921902,-29.64112,0            152.921976,-29.640978,0            152.921981,-29.640909,0            152.9221,-29.640874,0            152.922236,-29.640855,0            152.922337,-29.64083,0            152.922473,-29.640816,0            152.922614,-29.64083,0            152.922806,-29.64086,0            152.923297,-29.640938,0            152.923444,-29.640948,0            152.923517,-29.640928,0            152.923642,-29.640928,0            152.923783,-29.640943,0            152.923912,-29.640963,0            152.923907,-29.641007,0            152.923534,-29.640958,0            152.923382,-29.640987,0            152.923043,-29.640943,0            152.922766,-29.640894,0            152.922569,-29.640865,0            152.922461,-29.64086,0            152.92236,-29.64086,0            152.922258,-29.640904,0            152.922151,-29.640914,0            152.922077,-29.640928,0            152.922038,-29.640943,0            152.922004,-29.641041,0            152.921948,-29.641159,0            152.921852,-29.641272,0            152.921772,-29.641375,0            152.921693,-29.641449,0            152.92171,-29.641542,0            152.92175,-29.64163,0            152.921806,-29.641743,0            152.92184,-29.641846,0            152.921835,-29.641984,0            152.921846,-29.642106,0            152.92184,-29.642204,0            152.921801,-29.642317,0            152.921756,-29.64245,0            152.921705,-29.642573,0            152.921564,-29.642705,0            152.921501,-29.642769,0            152.921366,-29.642823,0            152.921276,-29.642872,0            152.921213,-29.642862,0            152.92083,-29.642612,0            152.920728,-29.64271,0            152.920705,-29.642764,0            152.920756,-29.642857,0            152.920796,-29.642936,0            152.920875,-29.643039,0            152.920807,-29.643171,0            152.920745,-29.64324,0            152.920739,-29.643319,0            152.920756,-29.643392,0            152.920728,-29.6435,0            152.920696,-29.643591,0            152.920623,-29.643689,0            152.920584,-29.643748,0            152.920544,-29.64391,0            152.920516,-29.644067,0            152.920448,-29.644438,0          </coordinates></LineString></Placemark><Placemark><name>Start</name><styleUrl>#icon-503-009D57-nodesc</styleUrl><Point><coordinates>            152.920498,-29.643858,0          </coordinates></Point></Placemark><Placemark><name>Finish</name><styleUrl>#icon-503-DB4436-nodesc</styleUrl><Point><coordinates>            152.920622,-29.64373,0          </coordinates></Point></Placemark></Folder></Document></kml>