<?xml version="1.0" encoding="UTF-8"?><kml xmlns="http://www.opengis.net/kml/2.2"><Document><name>Horseshoe Bay Reserve parkrun</name><description/><Style id="icon-1899-0F9D58-nodesc-normal"><IconStyle><color>ff589d0f</color><scale>1</scale><Icon><href>https://www.gstatic.com/mapspro/images/stock/503-wht-blank_maps.png</href></Icon><hotSpot x="32" xunits="pixels" y="64" yunits="insetPixels"/></IconStyle><LabelStyle><scale>0</scale></LabelStyle><BalloonStyle><text><![CDATA[<h3>$[name]</h3>]]></text></BalloonStyle></Style><Style id="icon-1899-0F9D58-nodesc-highlight"><IconStyle><color>ff589d0f</color><scale>1</scale><Icon><href>https://www.gstatic.com/mapspro/images/stock/503-wht-blank_maps.png</href></Icon><hotSpot x="32" xunits="pixels" y="64" yunits="insetPixels"/></IconStyle><LabelStyle><scale>1</scale></LabelStyle><BalloonStyle><text><![CDATA[<h3>$[name]</h3>]]></text></BalloonStyle></Style><StyleMap id="icon-1899-0F9D58-nodesc"><Pair><key>normal</key><styleUrl>#icon-1899-0F9D58-nodesc-normal</styleUrl></Pair><Pair><key>highlight</key><styleUrl>#icon-1899-0F9D58-nodesc-highlight</styleUrl></Pair></StyleMap><Style id="icon-1899-FF5252-nodesc-normal"><IconStyle><color>ff5252ff</color><scale>1</scale><Icon><href>https://www.gstatic.com/mapspro/images/stock/503-wht-blank_maps.png</href></Icon><hotSpot x="32" xunits="pixels" y="64" yunits="insetPixels"/></IconStyle><LabelStyle><scale>0</scale></LabelStyle><BalloonStyle><text><![CDATA[<h3>$[name]</h3>]]></text></BalloonStyle></Style><Style id="icon-1899-FF5252-nodesc-highlight"><IconStyle><color>ff5252ff</color><scale>1</scale><Icon><href>https://www.gstatic.com/mapspro/images/stock/503-wht-blank_maps.png</href></Icon><hotSpot x="32" xunits="pixels" y="64" yunits="insetPixels"/></IconStyle><LabelStyle><scale>1</scale></LabelStyle><BalloonStyle><text><![CDATA[<h3>$[name]</h3>]]></text></BalloonStyle></Style><StyleMap id="icon-1899-FF5252-nodesc"><Pair><key>normal</key><styleUrl>#icon-1899-FF5252-nodesc-normal</styleUrl></Pair><Pair><key>highlight</key><styleUrl>#icon-1899-FF5252-nodesc-highlight</styleUrl></Pair></StyleMap><Style id="line-0288D1-5263-nodesc-normal"><LineStyle><color>ffd18802</color><width>5.263</width></LineStyle><BalloonStyle><text><![CDATA[<h3>$[name]</h3>]]></text></BalloonStyle></Style><Style id="line-0288D1-5263-nodesc-highlight"><LineStyle><color>ffd18802</color><width>7.8945</width></LineStyle><BalloonStyle><text><![CDATA[<h3>$[name]</h3>]]></text></BalloonStyle></Style><StyleMap id="line-0288D1-5263-nodesc"><Pair><key>normal</key><styleUrl>#line-0288D1-5263-nodesc-normal</styleUrl></Pair><Pair><key>highlight</key><styleUrl>#line-0288D1-5263-nodesc-highlight</styleUrl></Pair></StyleMap><Folder><name>Untitled layer</name><Placemark><name>Course</name><styleUrl>#line-0288D1-5263-nodesc</styleUrl><LineString><tessellate>1</tessellate><coordinates>            153.042268,-30.884396,0            153.042392,-30.884557,0            153.042542,-30.884667,0            153.042735,-30.884773,0            153.042842,-30.884851,0            153.042918,-30.884948,0            153.043111,-30.885174,0            153.043245,-30.885367,0            153.043325,-30.88545,0            153.043229,-30.885606,0            153.043186,-30.885685,0            153.043213,-30.885869,0            153.043266,-30.885915,0            153.043293,-30.885961,0            153.043331,-30.886016,0            153.043465,-30.886164,0            153.043561,-30.886237,0            153.043728,-30.886302,0            153.043894,-30.886403,0            153.044135,-30.886522,0            153.044355,-30.886656,0            153.044532,-30.886766,0            153.044597,-30.886785,0            153.04472,-30.886891,0            153.045031,-30.887038,0            153.045321,-30.887112,0            153.045675,-30.88719,0            153.045906,-30.887264,0            153.046045,-30.887324,0            153.046201,-30.88742,0            153.046362,-30.887591,0            153.046431,-30.88766,0            153.046512,-30.88772,0            153.046758,-30.887899,0            153.046952,-30.888046,0            153.047123,-30.88812,0            153.047236,-30.888189,0            153.047343,-30.888295,0            153.047628,-30.888465,0            153.048046,-30.888682,0            153.048303,-30.888829,0            153.048513,-30.888986,0            153.048706,-30.889206,0            153.048856,-30.889395,0            153.048931,-30.889487,0            153.049017,-30.889506,0            153.049253,-30.88952,0            153.049387,-30.889478,0            153.049494,-30.889386,0            153.049569,-30.889276,0            153.049634,-30.889179,0            153.049639,-30.889082,0            153.049634,-30.888866,0            153.049639,-30.888797,0            153.049698,-30.888737,0            153.049763,-30.888732,0            153.049881,-30.88876,0            153.050117,-30.888847,0            153.050433,-30.888986,0            153.051023,-30.88928,0            153.051184,-30.889372,0            153.051313,-30.889464,0            153.051474,-30.889552,0            153.052321,-30.889934,0            153.052445,-30.889971,0            153.052541,-30.889966,0            153.052638,-30.889943,0            153.052756,-30.889929,0            153.052885,-30.889929,0            153.053051,-30.889994,0            153.053206,-30.890054,0            153.053341,-30.890146,0            153.053416,-30.89021,0            153.053518,-30.890288,0            153.053609,-30.890348,0            153.053711,-30.89039,0            153.053813,-30.890422,0            153.053915,-30.890472,0            153.054022,-30.890528,0            153.054188,-30.890574,0            153.054279,-30.890606,0            153.054392,-30.890675,0            153.054596,-30.890739,0            153.055084,-30.890836,0            153.055444,-30.890914,0            153.055835,-30.891002,0            153.056168,-30.891066,0          </coordinates></LineString></Placemark><Placemark><name>Finish</name><styleUrl>#icon-1899-FF5252-nodesc</styleUrl><Point><coordinates>            153.056168,-30.891066,0          </coordinates></Point></Placemark><Placemark><name>Start</name><styleUrl>#icon-1899-0F9D58-nodesc</styleUrl><Point><coordinates>            153.042268,-30.884396,0          </coordinates></Point></Placemark></Folder></Document></kml>