<?xml version="1.0" encoding="UTF-8"?><kml xmlns="http://www.opengis.net/kml/2.2"><Document><name>Inverell parkrun</name><description/><Style id="icon-1899-FFD600-nodesc-normal"><IconStyle><color>ff00d6ff</color><scale>1</scale><Icon><href>https://www.gstatic.com/mapspro/images/stock/503-wht-blank_maps.png</href></Icon><hotSpot x="32" xunits="pixels" y="64" yunits="insetPixels"/></IconStyle><LabelStyle><scale>0</scale></LabelStyle><BalloonStyle><text><![CDATA[<h3>$[name]</h3>]]></text></BalloonStyle></Style><Style id="icon-1899-FFD600-nodesc-highlight"><IconStyle><color>ff00d6ff</color><scale>1</scale><Icon><href>https://www.gstatic.com/mapspro/images/stock/503-wht-blank_maps.png</href></Icon><hotSpot x="32" xunits="pixels" y="64" yunits="insetPixels"/></IconStyle><LabelStyle><scale>1</scale></LabelStyle><BalloonStyle><text><![CDATA[<h3>$[name]</h3>]]></text></BalloonStyle></Style><StyleMap id="icon-1899-FFD600-nodesc"><Pair><key>normal</key><styleUrl>#icon-1899-FFD600-nodesc-normal</styleUrl></Pair><Pair><key>highlight</key><styleUrl>#icon-1899-FFD600-nodesc-highlight</styleUrl></Pair></StyleMap><Style id="line-1267FF-5000-nodesc-normal"><LineStyle><color>ffff6712</color><width>5</width></LineStyle><BalloonStyle><text><![CDATA[<h3>$[name]</h3>]]></text></BalloonStyle></Style><Style id="line-1267FF-5000-nodesc-highlight"><LineStyle><color>ffff6712</color><width>7.5</width></LineStyle><BalloonStyle><text><![CDATA[<h3>$[name]</h3>]]></text></BalloonStyle></Style><StyleMap id="line-1267FF-5000-nodesc"><Pair><key>normal</key><styleUrl>#line-1267FF-5000-nodesc-normal</styleUrl></Pair><Pair><key>highlight</key><styleUrl>#line-1267FF-5000-nodesc-highlight</styleUrl></Pair></StyleMap><Folder><name>Untitled layer</name><Placemark><name>Course</name><styleUrl>#line-1267FF-5000-nodesc</styleUrl><LineString><tessellate>1</tessellate><coordinates>            151.11431,-29.76944,0            151.11414,-29.76956,0            151.1137853,-29.7696993,0            151.11357,-29.76982,0            151.1132993,-29.7701173,0            151.11305,-29.77034,0            151.11302,-29.7704,0            151.11303,-29.77049,0            151.11301,-29.77055,0            151.112764,-29.7706914,0            151.11221,-29.77108,0            151.11196,-29.77121,0            151.1112034,-29.7715451,0            151.1103342,-29.7720711,0            151.1101139,-29.7722616,0            151.11007,-29.77233,0            151.1098825,-29.7725176,0            151.10967,-29.77269,0            151.10961,-29.77274,0            151.1094,-29.77286,0            151.10916,-29.77304,0            151.10879,-29.77351,0            151.10875,-29.7736194,0            151.10871,-29.77378,0            151.108716,-29.7740094,0            151.10875,-29.77411,0            151.1087815,-29.7742105,0            151.10883,-29.77432,0            151.10891,-29.77446,0            151.10894,-29.77452,0            151.10902,-29.77463,0            151.10906,-29.77468,0            151.10921,-29.77486,0            151.10926,-29.77492,0            151.10935,-29.775,0            151.10943,-29.77507,0            151.10957,-29.77515,0            151.11005,-29.77542,0            151.11022,-29.77554,0            151.11047,-29.77574,0            151.11066,-29.7759,0            151.11076,-29.77603,0            151.111,-29.77631,0            151.11139,-29.77676,0            151.11145,-29.77684,0            151.11151,-29.7769,0            151.11159,-29.77698,0            151.1117,-29.77707,0            151.11186,-29.77718,0            151.11196,-29.77726,0            151.11205,-29.77735,0            151.11209,-29.7774,0            151.11213,-29.77746,0            151.11218,-29.77755,0            151.11229,-29.77776,0            151.11236,-29.77794,0            151.1124,-29.77801,0            151.11262,-29.77827,0            151.11276,-29.7784,0            151.11284,-29.77847,0            151.11311,-29.77863,0            151.11344,-29.77883,0            151.11365,-29.77896,0            151.11375,-29.77903,0            151.11386,-29.77912,0            151.11395,-29.7792,0            151.11403,-29.77928,0            151.11412,-29.77935,0            151.11424,-29.77941,0            151.11437,-29.77945,0            151.1145,-29.77949,0            151.11469,-29.77953,0            151.11477,-29.77955,0            151.11505,-29.77967,0            151.11529,-29.77977,0            151.11542,-29.77982,0            151.11562,-29.77988,0            151.11569,-29.7799,0            151.11584,-29.77994,0            151.11607,-29.77998,0            151.11614,-29.78004,0            151.11655,-29.7803,0            151.11669,-29.78037,0            151.11683,-29.78042,0            151.11715,-29.7805,0            151.11778,-29.78066,0            151.11818,-29.78076,0            151.11833,-29.78079,0            151.11855,-29.78082,0            151.11898,-29.78087,0            151.11915,-29.78089,0            151.11987,-29.78104,0            151.12001,-29.78108,0            151.1202,-29.78111,0            151.12059,-29.78109,0            151.12074,-29.7811,0            151.12085,-29.7811,0            151.12098,-29.78111,0            151.12131,-29.78116,0            151.12138,-29.78116,0            151.12145,-29.78115,0            151.1215,-29.78113,0            151.12158,-29.78111,0            151.12176,-29.78102,0            151.12182,-29.781,0            151.12187,-29.78099,0            151.12192,-29.78099,0            151.12199,-29.78099,0            151.1221,-29.78101,0            151.12236,-29.78108,0            151.1225,-29.7811,0            151.12261,-29.78111,0            151.12272,-29.78112,0            151.12304,-29.7811,0            151.12324,-29.78109,0            151.12346,-29.78107,0            151.1237,-29.78104,0          </coordinates></LineString></Placemark><Placemark><name>Start / Finish</name><styleUrl>#icon-1899-FFD600-nodesc</styleUrl><Point><coordinates>            151.10909,-29.773802,0          </coordinates></Point></Placemark></Folder></Document></kml>