<?xml version="1.0" encoding="UTF-8"?><kml xmlns="http://www.opengis.net/kml/2.2"><Document><name>Kadina Trail parkrun</name><description/><Style id="icon-1899-0F9D58-nodesc-normal"><IconStyle><color>ff589d0f</color><scale>1</scale><Icon><href>https://www.gstatic.com/mapspro/images/stock/503-wht-blank_maps.png</href></Icon><hotSpot x="32" xunits="pixels" y="64" yunits="insetPixels"/></IconStyle><LabelStyle><scale>0</scale></LabelStyle><BalloonStyle><text><![CDATA[<h3>$[name]</h3>]]></text></BalloonStyle></Style><Style id="icon-1899-0F9D58-nodesc-highlight"><IconStyle><color>ff589d0f</color><scale>1</scale><Icon><href>https://www.gstatic.com/mapspro/images/stock/503-wht-blank_maps.png</href></Icon><hotSpot x="32" xunits="pixels" y="64" yunits="insetPixels"/></IconStyle><LabelStyle><scale>1</scale></LabelStyle><BalloonStyle><text><![CDATA[<h3>$[name]</h3>]]></text></BalloonStyle></Style><StyleMap id="icon-1899-0F9D58-nodesc"><Pair><key>normal</key><styleUrl>#icon-1899-0F9D58-nodesc-normal</styleUrl></Pair><Pair><key>highlight</key><styleUrl>#icon-1899-0F9D58-nodesc-highlight</styleUrl></Pair></StyleMap><Style id="icon-1899-FF5252-nodesc-normal"><IconStyle><color>ff5252ff</color><scale>1</scale><Icon><href>https://www.gstatic.com/mapspro/images/stock/503-wht-blank_maps.png</href></Icon><hotSpot x="32" xunits="pixels" y="64" yunits="insetPixels"/></IconStyle><LabelStyle><scale>0</scale></LabelStyle><BalloonStyle><text><![CDATA[<h3>$[name]</h3>]]></text></BalloonStyle></Style><Style id="icon-1899-FF5252-nodesc-highlight"><IconStyle><color>ff5252ff</color><scale>1</scale><Icon><href>https://www.gstatic.com/mapspro/images/stock/503-wht-blank_maps.png</href></Icon><hotSpot x="32" xunits="pixels" y="64" yunits="insetPixels"/></IconStyle><LabelStyle><scale>1</scale></LabelStyle><BalloonStyle><text><![CDATA[<h3>$[name]</h3>]]></text></BalloonStyle></Style><StyleMap id="icon-1899-FF5252-nodesc"><Pair><key>normal</key><styleUrl>#icon-1899-FF5252-nodesc-normal</styleUrl></Pair><Pair><key>highlight</key><styleUrl>#icon-1899-FF5252-nodesc-highlight</styleUrl></Pair></StyleMap><Style id="line-0288D1-5650-nodesc-normal"><LineStyle><color>ffd18802</color><width>5.65</width></LineStyle><BalloonStyle><text><![CDATA[<h3>$[name]</h3>]]></text></BalloonStyle></Style><Style id="line-0288D1-5650-nodesc-highlight"><LineStyle><color>ffd18802</color><width>8.475</width></LineStyle><BalloonStyle><text><![CDATA[<h3>$[name]</h3>]]></text></BalloonStyle></Style><StyleMap id="line-0288D1-5650-nodesc"><Pair><key>normal</key><styleUrl>#line-0288D1-5650-nodesc-normal</styleUrl></Pair><Pair><key>highlight</key><styleUrl>#line-0288D1-5650-nodesc-highlight</styleUrl></Pair></StyleMap><Folder><name>Untitled layer</name><Placemark><name>Course</name><styleUrl>#line-0288D1-5650-nodesc</styleUrl><LineString><tessellate>1</tessellate><coordinates>            116.026037,-31.926221,0            116.026123,-31.92614,0            116.0262235,-31.926094,0            116.026246,-31.926033,0            116.0263845,-31.9259665,0            116.026502,-31.925959,0            116.026613,-31.925919,0            116.026859,-31.925892,0            116.02705,-31.925841,0            116.027267,-31.925865,0            116.027393,-31.925839,0            116.027498,-31.925726,0            116.027608,-31.925779,0            116.027696,-31.92581,0            116.027789,-31.92563,0            116.027964,-31.92538,0            116.028025,-31.925176,0            116.027976,-31.924959,0            116.027979,-31.924677,0            116.027995,-31.924391,0            116.0280099,-31.9241134,0            116.028103,-31.924003,0            116.027944,-31.923839,0            116.027853,-31.923714,0            116.027807,-31.923526,0            116.027705,-31.92332,0            116.02755,-31.92312,0            116.027467,-31.922964,0            116.0275,-31.922878,0            116.02759,-31.92265,0            116.027694,-31.922458,0            116.027711,-31.922202,0            116.027678,-31.922071,0            116.02769,-31.921886,0            116.027576,-31.92169,0            116.0276129,-31.9214453,0            116.027618,-31.921127,0            116.027456,-31.920928,0            116.027218,-31.920636,0            116.026937,-31.9202205,0            116.02674,-31.919943,0            116.026652,-31.919622,0            116.026498,-31.919553,0            116.026281,-31.919551,0            116.026065,-31.919495,0            116.02587,-31.91936,0            116.02588,-31.919279,0            116.02602,-31.919159,0            116.026147,-31.919101,0            116.026584,-31.918965,0            116.026622,-31.918855,0            116.0255657,-31.918392,0            116.024558,-31.917968,0            116.026568,-31.918817,0            116.0268565,-31.9190093,0            116.027181,-31.919221,0            116.027401,-31.919299,0            116.027579,-31.919525,0            116.027585,-31.919632,0            116.027589,-31.919774,0            116.027668,-31.919841,0            116.027863,-31.920057,0            116.02796,-31.92023,0            116.028033,-31.920543,0            116.028172,-31.920847,0            116.028298,-31.921054,0            116.028296,-31.921157,0            116.028184,-31.921239,0            116.028132,-31.92128,0            116.028142,-31.921383,0            116.028263,-31.921459,0            116.028406,-31.92158,0            116.028453,-31.921807,0            116.0285356,-31.9219325,0            116.028509,-31.922192,0            116.028373,-31.922338,0            116.028318,-31.922435,0            116.028377,-31.922602,0            116.0285893,-31.9227657,0            116.028681,-31.922864,0            116.028672,-31.922882,0            116.028605,-31.92303,0            116.028606,-31.923091,0            116.028664,-31.923155,0            116.028801,-31.923273,0            116.028843,-31.923458,0            116.028981,-31.923667,0            116.029116,-31.92392,0            116.02916,-31.924068,0            116.029067,-31.924194,0            116.028921,-31.924402,0            116.0288521,-31.9245869,0            116.028846,-31.924862,0            116.028826,-31.925073,0            116.028706,-31.925202,0            116.028482,-31.925407,0            116.028413,-31.925581,0            116.028417,-31.925773,0            116.02846,-31.925991,0            116.02834,-31.92605,0            116.028059,-31.926098,0            116.027788,-31.926072,0            116.02767,-31.926028,0            116.027696,-31.92581,0          </coordinates></LineString></Placemark><Placemark><name>Finish</name><styleUrl>#icon-1899-FF5252-nodesc</styleUrl><Point><coordinates>            116.027772,-31.925799,34.2          </coordinates></Point></Placemark><Placemark><name>Start</name><styleUrl>#icon-1899-0F9D58-nodesc</styleUrl><Point><coordinates>            116.026037,-31.926221,0          </coordinates></Point></Placemark></Folder></Document></kml>