<?xml version="1.0" encoding="UTF-8"?><kml xmlns="http://www.opengis.net/kml/2.2"><Document><name>Karoola Park parkrun</name><description/><Style id="icon-1899-FFEA00-nodesc-normal"><IconStyle><color>ff00eaff</color><scale>1</scale><Icon><href>https://www.gstatic.com/mapspro/images/stock/503-wht-blank_maps.png</href></Icon><hotSpot x="32" xunits="pixels" y="64" yunits="insetPixels"/></IconStyle><LabelStyle><scale>0</scale></LabelStyle><BalloonStyle><text><![CDATA[<h3>$[name]</h3>]]></text></BalloonStyle></Style><Style id="icon-1899-FFEA00-nodesc-highlight"><IconStyle><color>ff00eaff</color><scale>1</scale><Icon><href>https://www.gstatic.com/mapspro/images/stock/503-wht-blank_maps.png</href></Icon><hotSpot x="32" xunits="pixels" y="64" yunits="insetPixels"/></IconStyle><LabelStyle><scale>1</scale></LabelStyle><BalloonStyle><text><![CDATA[<h3>$[name]</h3>]]></text></BalloonStyle></Style><StyleMap id="icon-1899-FFEA00-nodesc"><Pair><key>normal</key><styleUrl>#icon-1899-FFEA00-nodesc-normal</styleUrl></Pair><Pair><key>highlight</key><styleUrl>#icon-1899-FFEA00-nodesc-highlight</styleUrl></Pair></StyleMap><Style id="line-0288D1-4875-nodesc-normal"><LineStyle><color>ffd18802</color><width>4.875</width></LineStyle><BalloonStyle><text><![CDATA[<h3>$[name]</h3>]]></text></BalloonStyle></Style><Style id="line-0288D1-4875-nodesc-highlight"><LineStyle><color>ffd18802</color><width>7.3125</width></LineStyle><BalloonStyle><text><![CDATA[<h3>$[name]</h3>]]></text></BalloonStyle></Style><StyleMap id="line-0288D1-4875-nodesc"><Pair><key>normal</key><styleUrl>#line-0288D1-4875-nodesc-normal</styleUrl></Pair><Pair><key>highlight</key><styleUrl>#line-0288D1-4875-nodesc-highlight</styleUrl></Pair></StyleMap><Folder><name>Untitled layer</name><Placemark><name>Course</name><styleUrl>#line-0288D1-4875-nodesc</styleUrl><LineString><tessellate>1</tessellate><coordinates>            150.895222,-32.255219,0            150.895411,-32.255527,0            150.895651,-32.255987,0            150.89577,-32.256222,0            150.895915,-32.256326,0            150.896394,-32.256336,0            150.8968563,-32.2565576,0            150.897176,-32.257095,0            150.897314,-32.257468,0            150.8975056,-32.2578284,0            150.897826,-32.258216,0            150.8980905,-32.2587091,0            150.8980954,-32.2588137,0            150.8980894,-32.2590045,0            150.8984381,-32.2591799,0            150.8990174,-32.2593508,0            150.8994895,-32.2595168,0            150.9001611,-32.2598896,0            150.9009144,-32.2599313,0            150.901106,-32.259973,0            150.9010891,-32.2601611,0            150.9006698,-32.2603175,0            150.900264,-32.260306,0            150.899932,-32.2602008,0            150.899607,-32.259943,0            150.899131,-32.259746,0            150.89862,-32.259544,0            150.898138,-32.259438,0            150.897913,-32.259001,0            150.897796,-32.258773,0            150.897336,-32.258212,0            150.896966,-32.257714,0            150.8967377,-32.2575796,0            150.896363,-32.257461,0            150.895745,-32.256468,0            150.895222,-32.255219,0          </coordinates></LineString></Placemark><Placemark><name>Start/Finish</name><styleUrl>#icon-1899-FFEA00-nodesc</styleUrl><Point><coordinates>            150.895259,-32.255259,158          </coordinates></Point></Placemark></Folder></Document></kml>