<?xml version="1.0" encoding="UTF-8"?><kml xmlns="http://www.opengis.net/kml/2.2"><Document><name>Kawana parkrun</name><description>Kawana parkrun, Buddina, QLD, Australia</description><Style id="icon-123-nodesc-normal"><IconStyle><scale>1.1</scale><Icon><href>https://www.gstatic.com/mapspro/images/stock/123-red-dot.png</href></Icon><hotSpot x="16" xunits="pixels" y="32" yunits="insetPixels"/></IconStyle><LabelStyle><scale>0</scale></LabelStyle><BalloonStyle><text><![CDATA[<h3>$[name]</h3>]]></text></BalloonStyle></Style><Style id="icon-123-nodesc-highlight"><IconStyle><scale>1.1</scale><Icon><href>https://www.gstatic.com/mapspro/images/stock/123-red-dot.png</href></Icon><hotSpot x="16" xunits="pixels" y="32" yunits="insetPixels"/></IconStyle><LabelStyle><scale>1.1</scale></LabelStyle><BalloonStyle><text><![CDATA[<h3>$[name]</h3>]]></text></BalloonStyle></Style><StyleMap id="icon-123-nodesc"><Pair><key>normal</key><styleUrl>#icon-123-nodesc-normal</styleUrl></Pair><Pair><key>highlight</key><styleUrl>#icon-123-nodesc-highlight</styleUrl></Pair></StyleMap><Style id="icon-61-nodesc-normal"><IconStyle><scale>1.1</scale><Icon><href>https://www.gstatic.com/mapspro/images/stock/61-green-dot.png</href></Icon><hotSpot x="16" xunits="pixels" y="32" yunits="insetPixels"/></IconStyle><LabelStyle><scale>0</scale></LabelStyle><BalloonStyle><text><![CDATA[<h3>$[name]</h3>]]></text></BalloonStyle></Style><Style id="icon-61-nodesc-highlight"><IconStyle><scale>1.1</scale><Icon><href>https://www.gstatic.com/mapspro/images/stock/61-green-dot.png</href></Icon><hotSpot x="16" xunits="pixels" y="32" yunits="insetPixels"/></IconStyle><LabelStyle><scale>1.1</scale></LabelStyle><BalloonStyle><text><![CDATA[<h3>$[name]</h3>]]></text></BalloonStyle></Style><StyleMap id="icon-61-nodesc"><Pair><key>normal</key><styleUrl>#icon-61-nodesc-normal</styleUrl></Pair><Pair><key>highlight</key><styleUrl>#icon-61-nodesc-highlight</styleUrl></Pair></StyleMap><Style id="line-0288D1-5000-nodesc-normal"><LineStyle><color>ffd18802</color><width>5</width></LineStyle><BalloonStyle><text><![CDATA[<h3>$[name]</h3>]]></text></BalloonStyle></Style><Style id="line-0288D1-5000-nodesc-highlight"><LineStyle><color>ffd18802</color><width>7.5</width></LineStyle><BalloonStyle><text><![CDATA[<h3>$[name]</h3>]]></text></BalloonStyle></Style><StyleMap id="line-0288D1-5000-nodesc"><Pair><key>normal</key><styleUrl>#line-0288D1-5000-nodesc-normal</styleUrl></Pair><Pair><key>highlight</key><styleUrl>#line-0288D1-5000-nodesc-highlight</styleUrl></Pair></StyleMap><Folder><name>Untitled layer</name><Placemark><name>Course</name><styleUrl>#line-0288D1-5000-nodesc</styleUrl><LineString><tessellate>1</tessellate><coordinates>            153.13579,-26.69871,6.49            153.13577,-26.69865,6.65            153.13577,-26.6986,6.65            153.13579,-26.69857,6.47            153.1358,-26.69854,6.3            153.13582,-26.69843,6.13            153.13582,-26.69838,6.12            153.1358,-26.69825,6.52            153.13582,-26.69812,6.87            153.13582,-26.69803,7.11            153.13583,-26.69795,7            153.13586,-26.69792,6.67            153.13586,-26.69786,6.67            153.13586,-26.69751,7.63            153.13586,-26.69745,8.04            153.13586,-26.6974,8.43            153.13589,-26.69731,8.86            153.13589,-26.69722,9.57            153.13589,-26.69713,9.89            153.13589,-26.69702,10.29            153.13589,-26.69696,10.5            153.13589,-26.69687,10.62            153.13593,-26.6968,10.51            153.13593,-26.69674,10.58            153.13593,-26.69671,10.62            153.13593,-26.69666,10.7            153.13594,-26.69659,10.89            153.13594,-26.69635,11.53            153.13596,-26.69612,11.02            153.13596,-26.69605,10.56            153.13591,-26.69598,10.06            153.13589,-26.69593,9.7            153.13593,-26.6957,9.16            153.13593,-26.6956,9.28            153.13591,-26.69543,9.93            153.13593,-26.69539,10.13            153.13594,-26.69533,10.38            153.13593,-26.69516,11.24            153.13593,-26.69504,11.82            153.13593,-26.69481,13.14            153.13596,-26.69473,13.19            153.13597,-26.69465,12.76            153.13602,-26.69454,11.7            153.13602,-26.6945,11.56            153.13603,-26.69445,11.16            153.13603,-26.69439,10.83            153.13602,-26.69431,10.54            153.136,-26.69422,10.13            153.13602,-26.69415,9.58            153.13603,-26.6941,9.19            153.13602,-26.69406,9.03            153.13602,-26.69401,8.73            153.13602,-26.69393,8.25            153.136,-26.69386,8.04            153.13599,-26.6938,8.14            153.13599,-26.6937,8.3            153.13599,-26.69364,8.4            153.13599,-26.69358,8.51            153.13599,-26.69353,8.61            153.136,-26.69345,8.74            153.13602,-26.69335,8.96            153.13603,-26.69327,9.23            153.13602,-26.69319,9.52            153.13602,-26.69314,9.7            153.13603,-26.69277,9.95            153.13605,-26.69264,9.12            153.13606,-26.6926,8.83            153.13606,-26.69251,8.24            153.13606,-26.69244,8.35            153.13609,-26.69215,9.5            153.13608,-26.69207,10.03            153.13609,-26.69201,10.47            153.13612,-26.69195,10.96            153.13612,-26.69189,10.98            153.13611,-26.6916,10.77            153.13611,-26.69154,10.55            153.13614,-26.69138,9.87            153.13614,-26.6913,9.58            153.13617,-26.69087,7.74            153.13622,-26.69079,7.31            153.13626,-26.6907,7.18            153.13626,-26.69065,7.28            153.13626,-26.69059,7.39            153.13623,-26.69052,7.57            153.13622,-26.69046,7.63            153.13622,-26.69042,7.63            153.13625,-26.69015,7.05            153.13626,-26.68984,6.2            153.13628,-26.68979,6.1            153.13637,-26.68964,6            153.13637,-26.68959,6            153.13637,-26.68948,6            153.13637,-26.68944,6.02            153.13638,-26.6894,6.16            153.1364,-26.68935,6.36            153.1364,-26.6893,6.53            153.13634,-26.68904,7.19            153.13629,-26.6889,7.27            153.13629,-26.68888,7.3            153.13628,-26.68883,7.19            153.13626,-26.68878,7.08            153.13626,-26.68874,7.08            153.13631,-26.6886,7.39            153.13634,-26.68839,7.13            153.13634,-26.68815,7            153.13637,-26.68806,7            153.13638,-26.68795,7.38            153.13641,-26.68765,8.66            153.13641,-26.68763,8.79            153.13641,-26.68758,9.12            153.13644,-26.6875,9.21            153.13646,-26.68744,9.25            153.13647,-26.68731,9.66            153.13649,-26.68726,9.73            153.13651,-26.6872,9.78            153.13651,-26.68716,9.84            153.13651,-26.68711,9.91            153.13651,-26.68704,10.02            153.13651,-26.68696,10.14            153.13651,-26.68689,10.05            153.13655,-26.68683,9.66            153.1366,-26.68677,9.35            153.1366,-26.68672,9.3            153.1366,-26.68666,9.23            153.1366,-26.6866,9.01            153.1366,-26.68651,8.69            153.13661,-26.68646,8.45            153.13664,-26.68639,8.09            153.13664,-26.68634,8.41            153.13661,-26.68631,8.65            153.13658,-26.68627,8.9            153.13658,-26.68623,9.1            153.13658,-26.68611,9.69            153.13661,-26.68605,9.85            153.13664,-26.68594,9.97            153.13667,-26.68576,10.2            153.13669,-26.68566,10.37            153.13667,-26.68552,10.91            153.13667,-26.68545,10.92            153.1367,-26.6853,10.59            153.13673,-26.68525,10.12            153.13678,-26.68519,9.4            153.13678,-26.68513,9.14            153.13678,-26.68507,8.89            153.13676,-26.685,8.65            153.13676,-26.68495,8.47            153.1368,-26.68475,7.64            153.1368,-26.68469,7.36            153.13678,-26.6846,6.9            153.13678,-26.68451,6.37            153.13681,-26.68443,6.03            153.13683,-26.68438,6.1            153.13692,-26.68432,6.04            153.13696,-26.68428,6.04            153.13696,-26.68423,6.05            153.13696,-26.68418,6.06            153.13698,-26.68409,6.85            153.13699,-26.68401,7.57            153.13699,-26.68395,8.1            153.13698,-26.68384,9.22            153.13695,-26.6837,10.99            153.13696,-26.6837,10.77            153.13695,-26.68367,11.31            153.13686,-26.68361,13.28            153.13683,-26.68356,14.46            153.13678,-26.68346,16.54            153.13675,-26.68334,18.71            153.13683,-26.68294,18.12            153.13718,-26.68211,13.7            153.13733,-26.68168,14.53            153.13736,-26.68158,15.29            153.13727,-26.68155,15.75            153.1373,-26.68128,17.11            153.13733,-26.68112,17.37            153.13737,-26.68099,18.03            153.1375,-26.68075,19.96            153.1376,-26.68069,19.82            153.1377,-26.68064,19.79            153.13782,-26.68059,19.41            153.13797,-26.68055,17.99            153.13803,-26.68052,17.85            153.13809,-26.68046,18.5            153.13812,-26.68042,19.08            153.13812,-26.68002,22.43            153.13812,-26.68001,22.46            153.13812,-26.67994,21.34            153.13815,-26.67988,20.39            153.13821,-26.67982,19.51            153.13828,-26.67978,18.98            153.13826,-26.67975,18.32            153.13828,-26.6797,16.42            153.13832,-26.67966,13.98            153.13837,-26.67962,11.12            153.13841,-26.67961,10.01            153.13847,-26.67962,10.14            153.13855,-26.67964,10.47            153.13857,-26.67966,11.42            153.13857,-26.67968,12.43            153.13857,-26.67973,14.73            153.13853,-26.67979,15.87            153.13849,-26.67984,17.36            153.13849,-26.68002,19.31            153.13847,-26.68007,19.2            153.13841,-26.68011,20.52            153.13841,-26.68012,20.42            153.1384,-26.68012,20.86            153.13835,-26.68014,21.97            153.13828,-26.68021,21.79            153.13823,-26.6803,20.93            153.13817,-26.68036,19.98            153.13812,-26.68042,19.08            153.13809,-26.68046,18.5            153.13803,-26.68052,17.85            153.13797,-26.68055,17.99            153.13782,-26.68059,19.41            153.1377,-26.68064,19.79            153.1376,-26.68069,19.82            153.1375,-26.68075,19.96            153.13737,-26.68099,18.03            153.13733,-26.68112,17.37            153.1373,-26.68128,17.11            153.13727,-26.68155,15.75            153.13736,-26.68158,15.29            153.13733,-26.68168,14.53            153.13718,-26.68211,13.7            153.13683,-26.68294,18.12            153.13675,-26.68334,18.71            153.13678,-26.68346,16.54            153.13683,-26.68356,14.46            153.13686,-26.68361,13.28            153.13695,-26.68367,11.31            153.13698,-26.68384,9.22            153.13699,-26.68395,8.1            153.13699,-26.68401,7.57            153.13698,-26.68409,6.85            153.13696,-26.68418,6.06            153.13696,-26.68423,6.05            153.13696,-26.68428,6.04            153.13692,-26.68432,6.04            153.13683,-26.68438,6.1            153.13681,-26.68443,6.03            153.13678,-26.68451,6.37            153.13678,-26.6846,6.9            153.1368,-26.68469,7.36            153.1368,-26.68475,7.64            153.13676,-26.68495,8.47            153.13676,-26.685,8.65            153.13678,-26.68507,8.89            153.13678,-26.68513,9.14            153.13678,-26.68519,9.4            153.13673,-26.68525,10.12            153.1367,-26.6853,10.59            153.13667,-26.68545,10.92            153.13667,-26.68552,10.91            153.13669,-26.68566,10.37            153.13667,-26.68576,10.2            153.13664,-26.68594,9.97            153.13661,-26.68605,9.85            153.13658,-26.68611,9.69            153.13658,-26.68623,9.1            153.13658,-26.68627,8.9            153.13661,-26.68631,8.65            153.13664,-26.68634,8.41            153.13664,-26.68639,8.09            153.13661,-26.68646,8.45            153.1366,-26.68651,8.69            153.1366,-26.6866,9.01            153.1366,-26.68666,9.23            153.1366,-26.68672,9.3            153.1366,-26.68677,9.35            153.13655,-26.68683,9.66            153.13651,-26.68689,10.05            153.13651,-26.68696,10.14            153.13651,-26.68704,10.02            153.13651,-26.68711,9.91            153.13651,-26.68716,9.84            153.13651,-26.6872,9.78            153.13649,-26.68726,9.73            153.13647,-26.68731,9.66            153.13646,-26.68744,9.25            153.13644,-26.6875,9.21            153.13641,-26.68758,9.12            153.13641,-26.68763,8.79            153.13641,-26.68765,8.66            153.13638,-26.68795,7.38            153.13637,-26.68806,7            153.13634,-26.68815,7            153.13634,-26.68839,7.13            153.13631,-26.6886,7.39            153.13626,-26.68874,7.08            153.13626,-26.68878,7.08            153.13628,-26.68883,7.19            153.13629,-26.68888,7.3            153.13634,-26.68904,7.19            153.1364,-26.6893,6.53            153.1364,-26.68935,6.36            153.13638,-26.6894,6.16            153.13637,-26.68944,6.02            153.13637,-26.68948,6            153.13637,-26.68959,6            153.13637,-26.68964,6            153.13628,-26.68979,6.1            153.13626,-26.68984,6.2            153.13625,-26.69015,7.05            153.13623,-26.69033,7.57            153.13622,-26.69042,7.63            153.13622,-26.69046,7.63            153.13623,-26.69052,7.57            153.13626,-26.69059,7.39            153.13626,-26.69065,7.28            153.13626,-26.6907,7.18            153.13622,-26.69079,7.31            153.13617,-26.69087,7.74            153.13614,-26.6913,9.58            153.13614,-26.69138,9.87            153.13611,-26.69154,10.55            153.13611,-26.6916,10.77            153.13612,-26.69189,10.98            153.13612,-26.69195,10.96            153.13609,-26.69201,10.47            153.13608,-26.69207,10.03            153.13609,-26.69215,9.5            153.13606,-26.69244,8.35            153.13606,-26.69251,8.24            153.13606,-26.6926,8.83            153.13605,-26.69264,9.12            153.13603,-26.69277,9.95            153.13602,-26.69314,9.7            153.13602,-26.69319,9.52            153.13603,-26.69327,9.23            153.13602,-26.69335,8.96            153.136,-26.69345,8.74            153.13599,-26.69353,8.61            153.13599,-26.69358,8.51            153.13599,-26.69364,8.4            153.13599,-26.6937,8.3            153.13599,-26.6938,8.14            153.136,-26.69386,8.04            153.13602,-26.69393,8.25            153.13602,-26.69401,8.73            153.13602,-26.69406,9.03            153.13603,-26.6941,9.19            153.13602,-26.69415,9.58            153.136,-26.69422,10.13            153.13602,-26.69431,10.54            153.13603,-26.69439,10.83            153.13603,-26.69445,11.16            153.13602,-26.69454,11.7            153.13597,-26.69465,12.76            153.13596,-26.69473,13.19            153.13593,-26.69481,13.14            153.13593,-26.69504,11.82            153.13593,-26.69516,11.24            153.13594,-26.69533,10.38            153.13593,-26.69539,10.13            153.13591,-26.69543,9.93            153.13593,-26.6956,9.28            153.13593,-26.6957,9.16            153.13589,-26.69593,9.7            153.13591,-26.69598,10.06            153.13596,-26.69605,10.56            153.13596,-26.69612,11.02            153.13594,-26.69635,11.53            153.13594,-26.69659,10.89            153.13593,-26.69666,10.7            153.13593,-26.69671,10.62            153.13593,-26.69674,10.58            153.13593,-26.6968,10.51            153.13589,-26.69687,10.62            153.13589,-26.69696,10.5            153.13589,-26.69702,10.29            153.13589,-26.69713,9.89            153.13589,-26.69722,9.57            153.13589,-26.69731,8.86            153.13586,-26.6974,8.43            153.13586,-26.69745,8.04            153.13586,-26.69751,7.63            153.13586,-26.69786,6.67            153.13586,-26.69792,6.67            153.13583,-26.69795,7            153.13582,-26.69803,7.11            153.13582,-26.69812,6.87            153.1358,-26.69825,6.52            153.13582,-26.69838,6.12            153.13582,-26.69843,6.13            153.1358,-26.69854,6.3            153.13579,-26.69857,6.47            153.13577,-26.6986,6.65            153.13577,-26.69865,6.65            153.1358,-26.69873,6.33            153.1358,-26.69881,6.33            153.13579,-26.69887,6.49            153.13576,-26.69895,7.2            153.13576,-26.69908,8            153.13573,-26.69918,8.85            153.1357,-26.6995,10.4            153.13568,-26.69961,10.22            153.13568,-26.6997,10.05            153.13568,-26.69982,9.33            153.13565,-26.69992,8.8            153.13567,-26.70006,7.69            153.13568,-26.70013,6.94            153.1357,-26.70018,6.36            153.13564,-26.70027,6.2            153.13564,-26.70036,5.64            153.13564,-26.70043,5.2            153.13565,-26.70051,4.59            153.13568,-26.7006,4.33            153.13567,-26.70065,4.68            153.13564,-26.70073,5.23            153.13564,-26.70077,5.42            153.13565,-26.70083,5.64            153.13565,-26.70087,5.97            153.13564,-26.70093,6.51            153.13565,-26.70099,6.98            153.13565,-26.70104,7.4            153.13562,-26.70111,8            153.1356,-26.70118,8.2            153.13562,-26.70124,8.36            153.13562,-26.70127,8.44            153.13559,-26.70133,8.69            153.13559,-26.70137,8.82            153.1356,-26.7014,8.85            153.13559,-26.70152,9.24            153.13556,-26.70163,9.83            153.13553,-26.70167,10.09            153.13553,-26.7017,9.99            153.13553,-26.70175,9.83            153.13553,-26.70181,9.63            153.13553,-26.70186,9.47            153.13553,-26.70192,9.28            153.13553,-26.70202,9.17            153.13551,-26.70207,9.24            153.13553,-26.70214,9.13            153.13557,-26.70221,8.8            153.13562,-26.70228,8.3            153.13562,-26.70233,8.3            153.1356,-26.7025,8.47            153.13557,-26.70301,7.03            153.13551,-26.70302,7.13            153.1355,-26.70304,7.06            153.13548,-26.70307,7            153.13545,-26.70309,7            153.13538,-26.70309,7            153.13538,-26.70314,7            153.13538,-26.70316,7            153.13536,-26.70319,7          </coordinates></LineString></Placemark><Placemark><name>Start</name><styleUrl>#icon-61-nodesc</styleUrl><Point><coordinates>            153.13579,-26.69871,6.49          </coordinates></Point></Placemark><Placemark><name>Finish</name><styleUrl>#icon-123-nodesc</styleUrl><Point><coordinates>            153.13536,-26.70319,7          </coordinates></Point></Placemark></Folder></Document></kml>