<?xml version="1.0" encoding="UTF-8"?><kml xmlns="http://www.opengis.net/kml/2.2"><Document><name>Kelvin Grove parkrun</name><description/><Style id="icon-1899-FFEA00-nodesc-normal"><IconStyle><color>ff00eaff</color><scale>1</scale><Icon><href>https://www.gstatic.com/mapspro/images/stock/503-wht-blank_maps.png</href></Icon><hotSpot x="32" xunits="pixels" y="64" yunits="insetPixels"/></IconStyle><LabelStyle><scale>0</scale></LabelStyle><BalloonStyle><text><![CDATA[<h3>$[name]</h3>]]></text></BalloonStyle></Style><Style id="icon-1899-FFEA00-nodesc-highlight"><IconStyle><color>ff00eaff</color><scale>1</scale><Icon><href>https://www.gstatic.com/mapspro/images/stock/503-wht-blank_maps.png</href></Icon><hotSpot x="32" xunits="pixels" y="64" yunits="insetPixels"/></IconStyle><LabelStyle><scale>1</scale></LabelStyle><BalloonStyle><text><![CDATA[<h3>$[name]</h3>]]></text></BalloonStyle></Style><StyleMap id="icon-1899-FFEA00-nodesc"><Pair><key>normal</key><styleUrl>#icon-1899-FFEA00-nodesc-normal</styleUrl></Pair><Pair><key>highlight</key><styleUrl>#icon-1899-FFEA00-nodesc-highlight</styleUrl></Pair></StyleMap><Style id="line-0288D1-5456-nodesc-normal"><LineStyle><color>ffd18802</color><width>5.456</width></LineStyle><BalloonStyle><text><![CDATA[<h3>$[name]</h3>]]></text></BalloonStyle></Style><Style id="line-0288D1-5456-nodesc-highlight"><LineStyle><color>ffd18802</color><width>8.184</width></LineStyle><BalloonStyle><text><![CDATA[<h3>$[name]</h3>]]></text></BalloonStyle></Style><StyleMap id="line-0288D1-5456-nodesc"><Pair><key>normal</key><styleUrl>#line-0288D1-5456-nodesc-normal</styleUrl></Pair><Pair><key>highlight</key><styleUrl>#line-0288D1-5456-nodesc-highlight</styleUrl></Pair></StyleMap><Folder><name>Untitled layer</name><Placemark><name>Course</name><styleUrl>#line-0288D1-5456-nodesc</styleUrl><LineString><tessellate>1</tessellate><coordinates>            153.0023865,-27.4440343,0            153.0027509,-27.4441871,0            153.0032337,-27.4443871,0            153.0037915,-27.4446253,0            153.0039955,-27.4449869,0            153.0040705,-27.4451203,0            153.0041443,-27.4451524,0            153.0042234,-27.4451655,0            153.0044461,-27.4451202,0            153.0050576,-27.4446632,0            153.0053045,-27.4444633,0            153.0058408,-27.4442633,0            153.0062375,-27.4441013,0            153.0065838,-27.4434921,0            153.0067987,-27.4431569,0            153.0074072,-27.4429208,0            153.0076484,-27.4428139,0            153.0080615,-27.4425873,0            153.0084587,-27.4422805,0            153.0086705,-27.4421269,0            153.0088408,-27.4420417,0            153.0089098,-27.4420372,0            153.0089735,-27.4420613,0            153.0091295,-27.4421113,0            153.0092495,-27.4420783,0            153.0093706,-27.441921,0            153.0094105,-27.4418213,0            153.0096066,-27.4416258,0            153.0098963,-27.4412831,0            153.0101324,-27.4409784,0            153.0101915,-27.4408973,0            153.0105347,-27.4407546,0            153.0106795,-27.4406923,0            153.0107573,-27.4407118,0            153.0109475,-27.4407883,0            153.0112265,-27.4408073,0            153.0116345,-27.4404833,0            153.0118705,-27.4405503,0            153.0118652,-27.4406358,0            153.0118815,-27.4407213,0            153.0121815,-27.4412833,0            153.0124391,-27.4415687,0            153.0125839,-27.4417448,0            153.0128038,-27.441921,0            153.0129622,-27.4419801,0            153.0133835,-27.4420263,0            153.0137186,-27.4420308,0            153.0139035,-27.44194,0            153.014161,-27.4417901,0            153.0148101,-27.4415496,0            153.0151315,-27.4413733,0            153.0155933,-27.4411117,0            153.0160435,-27.4408163,0            153.0163555,-27.4405973,0            153.0166769,-27.4404642,0            153.0167843,-27.4404309,0            153.0179,-27.4404547,0            153.0181145,-27.4405213,0            153.018533,-27.4407118,0            153.0188925,-27.4408883,0            153.0192492,-27.4410593,0            153.0195095,-27.4412593,0            153.0200673,-27.4414449,0            153.0206359,-27.441702,0            153.0211938,-27.4419305,0            153.0216337,-27.4419686,0            153.0220785,-27.4420543,0            153.0225615,-27.4419683,0          </coordinates></LineString></Placemark><Placemark><name>Start and finish</name><styleUrl>#icon-1899-FFEA00-nodesc</styleUrl><Point><coordinates>            153.0098373,-27.4413735,0          </coordinates></Point></Placemark></Folder></Document></kml>