<?xml version="1.0" encoding="UTF-8"?><kml xmlns="http://www.opengis.net/kml/2.2"><Document><name>Kennington Reservoir parkrun</name><description/><Style id="icon-503-009D57-nodesc-normal"><IconStyle><color>ff579d00</color><scale>1.1</scale><Icon><href>https://www.gstatic.com/mapspro/images/stock/503-wht-blank_maps.png</href></Icon><hotSpot x="16" xunits="pixels" y="32" yunits="insetPixels"/></IconStyle><LabelStyle><scale>0</scale></LabelStyle><BalloonStyle><text><![CDATA[<h3>$[name]</h3>]]></text></BalloonStyle></Style><Style id="icon-503-009D57-nodesc-highlight"><IconStyle><color>ff579d00</color><scale>1.1</scale><Icon><href>https://www.gstatic.com/mapspro/images/stock/503-wht-blank_maps.png</href></Icon><hotSpot x="16" xunits="pixels" y="32" yunits="insetPixels"/></IconStyle><LabelStyle><scale>1.1</scale></LabelStyle><BalloonStyle><text><![CDATA[<h3>$[name]</h3>]]></text></BalloonStyle></Style><StyleMap id="icon-503-009D57-nodesc"><Pair><key>normal</key><styleUrl>#icon-503-009D57-nodesc-normal</styleUrl></Pair><Pair><key>highlight</key><styleUrl>#icon-503-009D57-nodesc-highlight</styleUrl></Pair></StyleMap><Style id="icon-503-DB4436-nodesc-normal"><IconStyle><color>ff3644db</color><scale>1.1</scale><Icon><href>https://www.gstatic.com/mapspro/images/stock/503-wht-blank_maps.png</href></Icon><hotSpot x="16" xunits="pixels" y="32" yunits="insetPixels"/></IconStyle><LabelStyle><scale>0</scale></LabelStyle><BalloonStyle><text><![CDATA[<h3>$[name]</h3>]]></text></BalloonStyle></Style><Style id="icon-503-DB4436-nodesc-highlight"><IconStyle><color>ff3644db</color><scale>1.1</scale><Icon><href>https://www.gstatic.com/mapspro/images/stock/503-wht-blank_maps.png</href></Icon><hotSpot x="16" xunits="pixels" y="32" yunits="insetPixels"/></IconStyle><LabelStyle><scale>1.1</scale></LabelStyle><BalloonStyle><text><![CDATA[<h3>$[name]</h3>]]></text></BalloonStyle></Style><StyleMap id="icon-503-DB4436-nodesc"><Pair><key>normal</key><styleUrl>#icon-503-DB4436-nodesc-normal</styleUrl></Pair><Pair><key>highlight</key><styleUrl>#icon-503-DB4436-nodesc-highlight</styleUrl></Pair></StyleMap><Style id="line-4186F0-4000-nodesc-normal"><LineStyle><color>fff08641</color><width>4</width></LineStyle><BalloonStyle><text><![CDATA[<h3>$[name]</h3>]]></text></BalloonStyle></Style><Style id="line-4186F0-4000-nodesc-highlight"><LineStyle><color>fff08641</color><width>6</width></LineStyle><BalloonStyle><text><![CDATA[<h3>$[name]</h3>]]></text></BalloonStyle></Style><StyleMap id="line-4186F0-4000-nodesc"><Pair><key>normal</key><styleUrl>#line-4186F0-4000-nodesc-normal</styleUrl></Pair><Pair><key>highlight</key><styleUrl>#line-4186F0-4000-nodesc-highlight</styleUrl></Pair></StyleMap><Folder><name>Untitled layer</name><Placemark><name>Course</name><styleUrl>#line-4186F0-4000-nodesc</styleUrl><LineString><tessellate>1</tessellate><coordinates>            144.312217,-36.772271,0            144.31351,-36.771295,0            144.313976,-36.770736,0            144.315687,-36.766912,0            144.314738,-36.766624,0            144.314754,-36.76674,0            144.314942,-36.766925,0            144.314915,-36.767333,0            144.314754,-36.7676,0            144.314454,-36.767926,0            144.314185,-36.768137,0            144.313847,-36.768197,0            144.313638,-36.768446,0            144.31293,-36.768803,0            144.31212,-36.769396,0            144.311879,-36.769529,0            144.31161,-36.769783,0            144.31145,-36.770066,0            144.3116,-36.770444,0            144.312077,-36.770784,0            144.312233,-36.770926,0            144.312265,-36.771098,0            144.312313,-36.771403,0            144.312163,-36.77154,0            144.311991,-36.771708,0            144.310436,-36.770114,0            144.310296,-36.770032,0            144.309803,-36.770388,0            144.309706,-36.770612,0            144.30961,-36.770698,0            144.309626,-36.770874,0            144.30947,-36.771149,0            144.309438,-36.771411,0            144.309143,-36.771695,0            144.309089,-36.771871,0            144.309084,-36.772314,0            144.308928,-36.772541,0            144.308698,-36.772696,0            144.308322,-36.773104,0            144.308118,-36.773435,0            144.308451,-36.774333,0            144.308397,-36.774642,0            144.308435,-36.774862,0            144.308708,-36.774965,0            144.31035,-36.773633,0            144.311278,-36.772889,0            144.31249,-36.77206,0            144.313515,-36.771291,0            144.313976,-36.770732,0            144.315687,-36.766908,0            144.314738,-36.766628,0            144.313917,-36.766573,0            144.313799,-36.766796,0            144.310307,-36.76986,0            144.31006,-36.770118,0            144.30999,-36.770242,0          </coordinates></LineString></Placemark><Placemark><name>Start</name><styleUrl>#icon-503-009D57-nodesc</styleUrl><Point><coordinates>            144.312217,-36.772271,0          </coordinates></Point></Placemark><Placemark><name>Finish</name><styleUrl>#icon-503-DB4436-nodesc</styleUrl><Point><coordinates>            144.311303,-36.77287,0          </coordinates></Point></Placemark></Folder></Document></kml>