<?xml version="1.0" encoding="UTF-8"?><kml xmlns="http://www.opengis.net/kml/2.2"><Document><name>Kirkdale Reserve parkrun</name><description/><Style id="icon-1899-0F9D58-nodesc-normal"><IconStyle><color>ff589d0f</color><scale>1</scale><Icon><href>https://www.gstatic.com/mapspro/images/stock/503-wht-blank_maps.png</href></Icon><hotSpot x="32" xunits="pixels" y="64" yunits="insetPixels"/></IconStyle><LabelStyle><scale>0</scale></LabelStyle><BalloonStyle><text><![CDATA[<h3>$[name]</h3>]]></text></BalloonStyle></Style><Style id="icon-1899-0F9D58-nodesc-highlight"><IconStyle><color>ff589d0f</color><scale>1</scale><Icon><href>https://www.gstatic.com/mapspro/images/stock/503-wht-blank_maps.png</href></Icon><hotSpot x="32" xunits="pixels" y="64" yunits="insetPixels"/></IconStyle><LabelStyle><scale>1</scale></LabelStyle><BalloonStyle><text><![CDATA[<h3>$[name]</h3>]]></text></BalloonStyle></Style><StyleMap id="icon-1899-0F9D58-nodesc"><Pair><key>normal</key><styleUrl>#icon-1899-0F9D58-nodesc-normal</styleUrl></Pair><Pair><key>highlight</key><styleUrl>#icon-1899-0F9D58-nodesc-highlight</styleUrl></Pair></StyleMap><Style id="icon-1899-FF5252-nodesc-normal"><IconStyle><color>ff5252ff</color><scale>1</scale><Icon><href>https://www.gstatic.com/mapspro/images/stock/503-wht-blank_maps.png</href></Icon><hotSpot x="32" xunits="pixels" y="64" yunits="insetPixels"/></IconStyle><LabelStyle><scale>0</scale></LabelStyle><BalloonStyle><text><![CDATA[<h3>$[name]</h3>]]></text></BalloonStyle></Style><Style id="icon-1899-FF5252-nodesc-highlight"><IconStyle><color>ff5252ff</color><scale>1</scale><Icon><href>https://www.gstatic.com/mapspro/images/stock/503-wht-blank_maps.png</href></Icon><hotSpot x="32" xunits="pixels" y="64" yunits="insetPixels"/></IconStyle><LabelStyle><scale>1</scale></LabelStyle><BalloonStyle><text><![CDATA[<h3>$[name]</h3>]]></text></BalloonStyle></Style><StyleMap id="icon-1899-FF5252-nodesc"><Pair><key>normal</key><styleUrl>#icon-1899-FF5252-nodesc-normal</styleUrl></Pair><Pair><key>highlight</key><styleUrl>#icon-1899-FF5252-nodesc-highlight</styleUrl></Pair></StyleMap><Style id="line-0288D1-5069-nodesc-normal"><LineStyle><color>ffd18802</color><width>5.069</width></LineStyle><BalloonStyle><text><![CDATA[<h3>$[name]</h3>]]></text></BalloonStyle></Style><Style id="line-0288D1-5069-nodesc-highlight"><LineStyle><color>ffd18802</color><width>7.6035</width></LineStyle><BalloonStyle><text><![CDATA[<h3>$[name]</h3>]]></text></BalloonStyle></Style><StyleMap id="line-0288D1-5069-nodesc"><Pair><key>normal</key><styleUrl>#line-0288D1-5069-nodesc-normal</styleUrl></Pair><Pair><key>highlight</key><styleUrl>#line-0288D1-5069-nodesc-highlight</styleUrl></Pair></StyleMap><Folder><name>Untitled layer</name><Placemark><name>Course</name><styleUrl>#line-0288D1-5069-nodesc</styleUrl><LineString><tessellate>1</tessellate><coordinates>            144.987595,-37.775487,0            144.9878163,-37.775384,0            144.9879129,-37.7752526,0            144.987787,-37.775154,0            144.9873764,-37.7750745,0            144.986639,-37.774374,0            144.9865288,-37.7738025,0            144.986221,-37.773255,0            144.986028,-37.773043,0            144.98547,-37.772627,0            144.9850375,-37.7721403,0            144.984729,-37.771694,0            144.984204,-37.771253,0            144.9840156,-37.7708915,0            144.983882,-37.770549,0            144.9838493,-37.7702639,0            144.9837957,-37.7699416,0            144.9836052,-37.7696427,0            144.9835435,-37.7694095,0            144.983614,-37.769625,0            144.9837957,-37.7699416,0            144.9838815,-37.7694837,0            144.9839941,-37.7686419,0            144.9840236,-37.7685232,0            144.9840451,-37.7679677,0            144.9842034,-37.7677345,0            144.984386,-37.76759,0            144.9844045,-37.767374,0            144.984225,-37.767148,0            144.984322,-37.766911,0            144.9848927,-37.7667549,0            144.985362,-37.766487,0            144.985459,-37.766266,0            144.9852467,-37.7658813,0            144.9852099,-37.7658215,0            144.9851925,-37.7657926,0            144.985171,-37.7657494,0            144.9850765,-37.7657022,0            144.9848629,-37.7656007,0            144.9847472,-37.7655156,0            144.9844653,-37.7652969,0            144.9841749,-37.765078,0            144.9838373,-37.7648228,0            144.9837659,-37.7646929,0            144.983571,-37.764341,0            144.9831362,-37.7640931,0            144.982627,-37.763798,0            144.9824097,-37.7637483,0            144.9820731,-37.7636438,0            144.9819195,-37.7635807,0            144.9815343,-37.7633512,0            144.981414,-37.762967,0            144.9812081,-37.762726,0            144.9811484,-37.7625375,0            144.9811561,-37.7624063,0            144.9812258,-37.7621561,0            144.981253,-37.762043,0            144.981318,-37.761975,0            144.9815748,-37.7619788,0            144.9818575,-37.7619252,0            144.9821435,-37.7618656,0            144.9824551,-37.7616989,0            144.9826192,-37.7615321,0            144.9826239,-37.761367,0            144.9824667,-37.7611881,0            144.9822099,-37.7609042,0            144.9819872,-37.7607476,0            144.981769,-37.7605212,0            144.981713,-37.7604234,0            144.9816429,-37.7603669,0            144.981533,-37.7601225,0            144.9813619,-37.7599966,0            144.9812128,-37.759884,0            144.9810951,-37.7594188,0            144.9809297,-37.7593452,0            144.9807831,-37.7592971,0            144.9806964,-37.7591903,0            144.9806649,-37.7588476,0            144.9806346,-37.7587466,0            144.9805754,-37.758608,0            144.9804772,-37.7584444,0            144.980352,-37.758251,0            144.9802059,-37.7581462,0            144.9801687,-37.7581629,0            144.9803645,-37.758266,0            144.9805754,-37.758608,0            144.9805935,-37.7586562,0            144.9806346,-37.7587466,0            144.9806649,-37.7588476,0            144.980695,-37.759184,0            144.9807831,-37.7592971,0            144.9809297,-37.7593452,0            144.9810951,-37.7594188,0            144.9812128,-37.759884,0            144.9812104,-37.7600984,0            144.9811886,-37.7602392,0            144.9810716,-37.760448,0            144.9810067,-37.7604945,0            144.9809526,-37.760558,0            144.9809172,-37.7606279,0            144.9809315,-37.7606998,0            144.9809358,-37.7609779,0            144.980971,-37.761186,0            144.9810937,-37.7613392,0            144.9813264,-37.7614818,0            144.9813841,-37.761591,0            144.9813623,-37.7618871,0            144.981253,-37.762043,0          </coordinates></LineString></Placemark><Placemark><name>Finish</name><styleUrl>#icon-1899-FF5252-nodesc</styleUrl><Point><coordinates>            144.983571,-37.769404,0          </coordinates></Point></Placemark><Placemark><name>Start</name><styleUrl>#icon-1899-0F9D58-nodesc</styleUrl><Point><coordinates>            144.983882,-37.770549,0          </coordinates></Point></Placemark></Folder></Document></kml>