<?xml version="1.0" encoding="UTF-8"?><kml xmlns="http://www.opengis.net/kml/2.2"><Document><name>Lakes Entrance parkrun</name><description/><Style id="icon-1899-0F9D58-nodesc-normal"><IconStyle><color>ff589d0f</color><scale>1</scale><Icon><href>https://www.gstatic.com/mapspro/images/stock/503-wht-blank_maps.png</href></Icon><hotSpot x="32" xunits="pixels" y="64" yunits="insetPixels"/></IconStyle><LabelStyle><scale>0</scale></LabelStyle><BalloonStyle><text><![CDATA[<h3>$[name]</h3>]]></text></BalloonStyle></Style><Style id="icon-1899-0F9D58-nodesc-highlight"><IconStyle><color>ff589d0f</color><scale>1</scale><Icon><href>https://www.gstatic.com/mapspro/images/stock/503-wht-blank_maps.png</href></Icon><hotSpot x="32" xunits="pixels" y="64" yunits="insetPixels"/></IconStyle><LabelStyle><scale>1</scale></LabelStyle><BalloonStyle><text><![CDATA[<h3>$[name]</h3>]]></text></BalloonStyle></Style><StyleMap id="icon-1899-0F9D58-nodesc"><Pair><key>normal</key><styleUrl>#icon-1899-0F9D58-nodesc-normal</styleUrl></Pair><Pair><key>highlight</key><styleUrl>#icon-1899-0F9D58-nodesc-highlight</styleUrl></Pair></StyleMap><Style id="icon-1899-FF5252-nodesc-normal"><IconStyle><color>ff5252ff</color><scale>1</scale><Icon><href>https://www.gstatic.com/mapspro/images/stock/503-wht-blank_maps.png</href></Icon><hotSpot x="32" xunits="pixels" y="64" yunits="insetPixels"/></IconStyle><LabelStyle><scale>0</scale></LabelStyle><BalloonStyle><text><![CDATA[<h3>$[name]</h3>]]></text></BalloonStyle></Style><Style id="icon-1899-FF5252-nodesc-highlight"><IconStyle><color>ff5252ff</color><scale>1</scale><Icon><href>https://www.gstatic.com/mapspro/images/stock/503-wht-blank_maps.png</href></Icon><hotSpot x="32" xunits="pixels" y="64" yunits="insetPixels"/></IconStyle><LabelStyle><scale>1</scale></LabelStyle><BalloonStyle><text><![CDATA[<h3>$[name]</h3>]]></text></BalloonStyle></Style><StyleMap id="icon-1899-FF5252-nodesc"><Pair><key>normal</key><styleUrl>#icon-1899-FF5252-nodesc-normal</styleUrl></Pair><Pair><key>highlight</key><styleUrl>#icon-1899-FF5252-nodesc-highlight</styleUrl></Pair></StyleMap><Style id="icon-959-4186F0-normal"><IconStyle><color>fff08641</color><scale>1.1</scale><Icon><href>https://www.gstatic.com/mapspro/images/stock/959-wht-circle-blank.png</href></Icon></IconStyle><LabelStyle><scale>0</scale></LabelStyle></Style><Style id="icon-959-4186F0-highlight"><IconStyle><color>fff08641</color><scale>1.1</scale><Icon><href>https://www.gstatic.com/mapspro/images/stock/959-wht-circle-blank.png</href></Icon></IconStyle><LabelStyle><scale>1.1</scale></LabelStyle></Style><StyleMap id="icon-959-4186F0"><Pair><key>normal</key><styleUrl>#icon-959-4186F0-normal</styleUrl></Pair><Pair><key>highlight</key><styleUrl>#icon-959-4186F0-highlight</styleUrl></Pair></StyleMap><Style id="line-0288D1-5069-nodesc-normal"><LineStyle><color>ffd18802</color><width>5.069</width></LineStyle><BalloonStyle><text><![CDATA[<h3>$[name]</h3>]]></text></BalloonStyle></Style><Style id="line-0288D1-5069-nodesc-highlight"><LineStyle><color>ffd18802</color><width>7.6035</width></LineStyle><BalloonStyle><text><![CDATA[<h3>$[name]</h3>]]></text></BalloonStyle></Style><StyleMap id="line-0288D1-5069-nodesc"><Pair><key>normal</key><styleUrl>#line-0288D1-5069-nodesc-normal</styleUrl></Pair><Pair><key>highlight</key><styleUrl>#line-0288D1-5069-nodesc-highlight</styleUrl></Pair></StyleMap><Folder><name>Untitled layer</name><Placemark><name>Course</name><styleUrl>#line-0288D1-5069-nodesc</styleUrl><LineString><tessellate>1</tessellate><coordinates>            147.997162,-37.878516,0            147.996553,-37.879363,0            147.996317,-37.879515,0            147.995085,-37.87978,0            147.994951,-37.879604,0            147.995085,-37.87978,0            147.994863,-37.879867,0            147.994104,-37.879932,0            147.994863,-37.879867,0            147.994828,-37.879399,0            147.995394,-37.879268,0            147.995372,-37.87909,0            147.99828,-37.878158,0            147.998645,-37.877964,0            148.000876,-37.87754,0            148.001702,-37.878057,0            148.001788,-37.878088,0            148.001874,-37.878099,0            148.001976,-37.87811,0            148.002078,-37.878099,0            148.002182,-37.878069,0            148.002271,-37.87804,0            148.002317,-37.87802,0            148.002373,-37.877987,0            148.002464,-37.877921,0            148.002769,-37.877607,0            148.003057,-37.87735,0            148.004352,-37.877074,0            148.004749,-37.877337,0            148.004851,-37.877371,0            148.004964,-37.877371,0            148.005066,-37.877343,0            148.005146,-37.877286,0            148.005637,-37.876905,0            148.006166,-37.87653,0            148.006166,-37.876392,0          </coordinates></LineString></Placemark><Placemark><name>Start</name><styleUrl>#icon-1899-0F9D58-nodesc</styleUrl><Point><coordinates>            147.994096,-37.879928,0          </coordinates></Point></Placemark><Placemark><name>Finish</name><styleUrl>#icon-1899-FF5252-nodesc</styleUrl><Point><coordinates>            147.994959,-37.879572,0          </coordinates></Point></Placemark><Placemark><name>Turn around point</name><description>In line with RHS of park bench</description><styleUrl>#icon-959-4186F0</styleUrl><Point><coordinates>            148.006171,-37.876371,0          </coordinates></Point></Placemark></Folder></Document></kml>