<?xml version="1.0" encoding="UTF-8"?><kml xmlns="http://www.opengis.net/kml/2.2"><Document><name>Lake Fyans Walking Track parkrun</name><description/><Style id="icon-1899-0288D1-nodesc-normal"><IconStyle><color>ffd18802</color><scale>1</scale><Icon><href>https://www.gstatic.com/mapspro/images/stock/503-wht-blank_maps.png</href></Icon><hotSpot x="32" xunits="pixels" y="64" yunits="insetPixels"/></IconStyle><LabelStyle><scale>0</scale></LabelStyle><BalloonStyle><text><![CDATA[<h3>$[name]</h3>]]></text></BalloonStyle></Style><Style id="icon-1899-0288D1-nodesc-highlight"><IconStyle><color>ffd18802</color><scale>1</scale><Icon><href>https://www.gstatic.com/mapspro/images/stock/503-wht-blank_maps.png</href></Icon><hotSpot x="32" xunits="pixels" y="64" yunits="insetPixels"/></IconStyle><LabelStyle><scale>1</scale></LabelStyle><BalloonStyle><text><![CDATA[<h3>$[name]</h3>]]></text></BalloonStyle></Style><StyleMap id="icon-1899-0288D1-nodesc"><Pair><key>normal</key><styleUrl>#icon-1899-0288D1-nodesc-normal</styleUrl></Pair><Pair><key>highlight</key><styleUrl>#icon-1899-0288D1-nodesc-highlight</styleUrl></Pair></StyleMap><Style id="icon-1899-FFEA00-nodesc-normal"><IconStyle><color>ff00eaff</color><scale>1</scale><Icon><href>https://www.gstatic.com/mapspro/images/stock/503-wht-blank_maps.png</href></Icon><hotSpot x="32" xunits="pixels" y="64" yunits="insetPixels"/></IconStyle><LabelStyle><scale>0</scale></LabelStyle><BalloonStyle><text><![CDATA[<h3>$[name]</h3>]]></text></BalloonStyle></Style><Style id="icon-1899-FFEA00-nodesc-highlight"><IconStyle><color>ff00eaff</color><scale>1</scale><Icon><href>https://www.gstatic.com/mapspro/images/stock/503-wht-blank_maps.png</href></Icon><hotSpot x="32" xunits="pixels" y="64" yunits="insetPixels"/></IconStyle><LabelStyle><scale>1</scale></LabelStyle><BalloonStyle><text><![CDATA[<h3>$[name]</h3>]]></text></BalloonStyle></Style><StyleMap id="icon-1899-FFEA00-nodesc"><Pair><key>normal</key><styleUrl>#icon-1899-FFEA00-nodesc-normal</styleUrl></Pair><Pair><key>highlight</key><styleUrl>#icon-1899-FFEA00-nodesc-highlight</styleUrl></Pair></StyleMap><Style id="line-0288D1-5814-nodesc-normal"><LineStyle><color>ffd18802</color><width>5.814</width></LineStyle><BalloonStyle><text><![CDATA[<h3>$[name]</h3>]]></text></BalloonStyle></Style><Style id="line-0288D1-5814-nodesc-highlight"><LineStyle><color>ffd18802</color><width>8.721</width></LineStyle><BalloonStyle><text><![CDATA[<h3>$[name]</h3>]]></text></BalloonStyle></Style><StyleMap id="line-0288D1-5814-nodesc"><Pair><key>normal</key><styleUrl>#line-0288D1-5814-nodesc-normal</styleUrl></Pair><Pair><key>highlight</key><styleUrl>#line-0288D1-5814-nodesc-highlight</styleUrl></Pair></StyleMap><Folder><name>Untitled layer</name><Placemark><name>Course</name><styleUrl>#line-0288D1-5814-nodesc</styleUrl><LineString><tessellate>1</tessellate><coordinates>            142.616375,-37.145693,0            142.616613,-37.145789,0            142.616713,-37.145794,0            142.616811,-37.145795,0            142.616972,-37.145844,0            142.617213,-37.145891,0            142.61758,-37.146124,0            142.617681,-37.146149,0            142.617778,-37.1461,0            142.618144,-37.146136,0            142.618558,-37.146254,0            142.618965,-37.146301,0            142.619653,-37.14655,0            142.619814,-37.146808,0            142.619872,-37.147168,0            142.619894,-37.147647,0            142.620058,-37.147776,0            142.620169,-37.147888,0            142.620169,-37.148027,0            142.620195,-37.148342,0            142.620483,-37.148606,0            142.620599,-37.148781,0            142.620483,-37.149082,0            142.620845,-37.149448,0            142.621041,-37.149575,0            142.621184,-37.149864,0            142.621699,-37.150311,0            142.622443,-37.151002,0            142.623383,-37.151588,0            142.623922,-37.152296,0            142.624671,-37.152739,0            142.625471,-37.153293,0            142.626489,-37.153991,0            142.626785,-37.154009,0            142.627501,-37.154091,0            142.629474,-37.154444,0            142.630509,-37.154624,0            142.631004,-37.154514,0            142.631432,-37.154241,0            142.63193,-37.153737,0            142.63214,-37.153383,0            142.632365,-37.15309,0            142.633413,-37.151667,0            142.634275,-37.150086,0            142.634444,-37.149661,0            142.634503,-37.149277,0            142.634429,-37.148931,0          </coordinates></LineString></Placemark><Placemark><name>Turnaround</name><styleUrl>#icon-1899-0288D1-nodesc</styleUrl><Point><coordinates>            142.634449,-37.148952,214.11          </coordinates></Point></Placemark><Placemark><name>Start/Finish</name><styleUrl>#icon-1899-FFEA00-nodesc</styleUrl><Point><coordinates>            142.616346,-37.145643,0          </coordinates></Point></Placemark></Folder></Document></kml>