<?xml version="1.0" encoding="UTF-8"?><kml xmlns="http://www.opengis.net/kml/2.2"><Document><name>Lillydale Lake parkrun</name><description/><Style id="icon-1899-0F9D58-nodesc-normal"><IconStyle><color>ff589d0f</color><scale>1</scale><Icon><href>https://www.gstatic.com/mapspro/images/stock/503-wht-blank_maps.png</href></Icon><hotSpot x="32" xunits="pixels" y="64" yunits="insetPixels"/></IconStyle><LabelStyle><scale>0</scale></LabelStyle><BalloonStyle><text><![CDATA[<h3>$[name]</h3>]]></text></BalloonStyle></Style><Style id="icon-1899-0F9D58-nodesc-highlight"><IconStyle><color>ff589d0f</color><scale>1</scale><Icon><href>https://www.gstatic.com/mapspro/images/stock/503-wht-blank_maps.png</href></Icon><hotSpot x="32" xunits="pixels" y="64" yunits="insetPixels"/></IconStyle><LabelStyle><scale>1</scale></LabelStyle><BalloonStyle><text><![CDATA[<h3>$[name]</h3>]]></text></BalloonStyle></Style><StyleMap id="icon-1899-0F9D58-nodesc"><Pair><key>normal</key><styleUrl>#icon-1899-0F9D58-nodesc-normal</styleUrl></Pair><Pair><key>highlight</key><styleUrl>#icon-1899-0F9D58-nodesc-highlight</styleUrl></Pair></StyleMap><Style id="icon-1899-FF5252-nodesc-normal"><IconStyle><color>ff5252ff</color><scale>1</scale><Icon><href>https://www.gstatic.com/mapspro/images/stock/503-wht-blank_maps.png</href></Icon><hotSpot x="32" xunits="pixels" y="64" yunits="insetPixels"/></IconStyle><LabelStyle><scale>0</scale></LabelStyle><BalloonStyle><text><![CDATA[<h3>$[name]</h3>]]></text></BalloonStyle></Style><Style id="icon-1899-FF5252-nodesc-highlight"><IconStyle><color>ff5252ff</color><scale>1</scale><Icon><href>https://www.gstatic.com/mapspro/images/stock/503-wht-blank_maps.png</href></Icon><hotSpot x="32" xunits="pixels" y="64" yunits="insetPixels"/></IconStyle><LabelStyle><scale>1</scale></LabelStyle><BalloonStyle><text><![CDATA[<h3>$[name]</h3>]]></text></BalloonStyle></Style><StyleMap id="icon-1899-FF5252-nodesc"><Pair><key>normal</key><styleUrl>#icon-1899-FF5252-nodesc-normal</styleUrl></Pair><Pair><key>highlight</key><styleUrl>#icon-1899-FF5252-nodesc-highlight</styleUrl></Pair></StyleMap><Style id="line-4186F0-5456-nodesc-normal"><LineStyle><color>fff08641</color><width>5.456</width></LineStyle><BalloonStyle><text><![CDATA[<h3>$[name]</h3>]]></text></BalloonStyle></Style><Style id="line-4186F0-5456-nodesc-highlight"><LineStyle><color>fff08641</color><width>8.184</width></LineStyle><BalloonStyle><text><![CDATA[<h3>$[name]</h3>]]></text></BalloonStyle></Style><StyleMap id="line-4186F0-5456-nodesc"><Pair><key>normal</key><styleUrl>#line-4186F0-5456-nodesc-normal</styleUrl></Pair><Pair><key>highlight</key><styleUrl>#line-4186F0-5456-nodesc-highlight</styleUrl></Pair></StyleMap><Folder><name>Lillydale Lake parkrun</name><Placemark><name>Course</name><styleUrl>#line-4186F0-5456-nodesc</styleUrl><LineString><tessellate>1</tessellate><coordinates>            145.356771,-37.764497,0            145.356342,-37.764531,0            145.35602,-37.764412,0            145.355548,-37.764158,0            145.35514,-37.763988,0            145.354969,-37.763734,0            145.354239,-37.763428,0            145.353081,-37.762648,0            145.352909,-37.762495,0            145.349991,-37.764463,0            145.349755,-37.764718,0            145.349411,-37.764989,0            145.349519,-37.76521,0            145.350227,-37.765803,0            145.351235,-37.766329,0            145.351471,-37.766651,0            145.351493,-37.767024,0            145.3513,-37.767466,0            145.351085,-37.767805,0            145.351321,-37.76811,0            145.3519,-37.768602,0            145.352136,-37.769264,0            145.352587,-37.76984,0            145.353038,-37.770179,0            145.353381,-37.770146,0            145.353939,-37.76984,0            145.354454,-37.768704,0            145.354518,-37.767109,0            145.354754,-37.766634,0            145.354797,-37.766516,0            145.355398,-37.766516,0            145.356557,-37.766821,0            145.356943,-37.766634,0            145.357093,-37.766346,0            145.3569,-37.766058,0            145.356793,-37.765922,0            145.356964,-37.765735,0            145.357029,-37.765277,0            145.356964,-37.764972,0            145.356664,-37.764616,0            145.355827,-37.76431,0            145.355892,-37.764124,0          </coordinates></LineString></Placemark><Placemark><name>Start</name><styleUrl>#icon-1899-0F9D58-nodesc</styleUrl><Point><coordinates>            145.356771,-37.764497,0          </coordinates></Point></Placemark><Placemark><name>Finish</name><styleUrl>#icon-1899-FF5252-nodesc</styleUrl><Point><coordinates>            145.355892,-37.764124,0          </coordinates></Point></Placemark></Folder></Document></kml>