<?xml version="1.0" encoding="UTF-8"?><kml xmlns="http://www.opengis.net/kml/2.2"><Document><name>Lochiel parkrun</name><description/><Style id="icon-503-009D57-normal"><IconStyle><color>ff579d00</color><scale>1.1</scale><Icon><href>https://www.gstatic.com/mapspro/images/stock/503-wht-blank_maps.png</href></Icon><hotSpot x="16" xunits="pixels" y="32" yunits="insetPixels"/></IconStyle><LabelStyle><scale>0</scale></LabelStyle></Style><Style id="icon-503-009D57-highlight"><IconStyle><color>ff579d00</color><scale>1.1</scale><Icon><href>https://www.gstatic.com/mapspro/images/stock/503-wht-blank_maps.png</href></Icon><hotSpot x="16" xunits="pixels" y="32" yunits="insetPixels"/></IconStyle><LabelStyle><scale>1.1</scale></LabelStyle></Style><StyleMap id="icon-503-009D57"><Pair><key>normal</key><styleUrl>#icon-503-009D57-normal</styleUrl></Pair><Pair><key>highlight</key><styleUrl>#icon-503-009D57-highlight</styleUrl></Pair></StyleMap><Style id="icon-503-4186F0-nodesc-normal"><IconStyle><color>fff08641</color><scale>1.1</scale><Icon><href>https://www.gstatic.com/mapspro/images/stock/503-wht-blank_maps.png</href></Icon><hotSpot x="16" xunits="pixels" y="32" yunits="insetPixels"/></IconStyle><LabelStyle><scale>0</scale></LabelStyle><BalloonStyle><text><![CDATA[<h3>$[name]</h3>]]></text></BalloonStyle></Style><Style id="icon-503-4186F0-nodesc-highlight"><IconStyle><color>fff08641</color><scale>1.1</scale><Icon><href>https://www.gstatic.com/mapspro/images/stock/503-wht-blank_maps.png</href></Icon><hotSpot x="16" xunits="pixels" y="32" yunits="insetPixels"/></IconStyle><LabelStyle><scale>1.1</scale></LabelStyle><BalloonStyle><text><![CDATA[<h3>$[name]</h3>]]></text></BalloonStyle></Style><StyleMap id="icon-503-4186F0-nodesc"><Pair><key>normal</key><styleUrl>#icon-503-4186F0-nodesc-normal</styleUrl></Pair><Pair><key>highlight</key><styleUrl>#icon-503-4186F0-nodesc-highlight</styleUrl></Pair></StyleMap><Style id="icon-503-DB4436-nodesc-normal"><IconStyle><color>ff3644db</color><scale>1.1</scale><Icon><href>https://www.gstatic.com/mapspro/images/stock/503-wht-blank_maps.png</href></Icon><hotSpot x="16" xunits="pixels" y="32" yunits="insetPixels"/></IconStyle><LabelStyle><scale>0</scale></LabelStyle><BalloonStyle><text><![CDATA[<h3>$[name]</h3>]]></text></BalloonStyle></Style><Style id="icon-503-DB4436-nodesc-highlight"><IconStyle><color>ff3644db</color><scale>1.1</scale><Icon><href>https://www.gstatic.com/mapspro/images/stock/503-wht-blank_maps.png</href></Icon><hotSpot x="16" xunits="pixels" y="32" yunits="insetPixels"/></IconStyle><LabelStyle><scale>1.1</scale></LabelStyle><BalloonStyle><text><![CDATA[<h3>$[name]</h3>]]></text></BalloonStyle></Style><StyleMap id="icon-503-DB4436-nodesc"><Pair><key>normal</key><styleUrl>#icon-503-DB4436-nodesc-normal</styleUrl></Pair><Pair><key>highlight</key><styleUrl>#icon-503-DB4436-nodesc-highlight</styleUrl></Pair></StyleMap><Style id="line-0BA9CC-4314-nodesc-normal"><LineStyle><color>ffcca90b</color><width>4.314</width></LineStyle><BalloonStyle><text><![CDATA[<h3>$[name]</h3>]]></text></BalloonStyle></Style><Style id="line-0BA9CC-4314-nodesc-highlight"><LineStyle><color>ffcca90b</color><width>6.471</width></LineStyle><BalloonStyle><text><![CDATA[<h3>$[name]</h3>]]></text></BalloonStyle></Style><StyleMap id="line-0BA9CC-4314-nodesc"><Pair><key>normal</key><styleUrl>#line-0BA9CC-4314-nodesc-normal</styleUrl></Pair><Pair><key>highlight</key><styleUrl>#line-0BA9CC-4314-nodesc-highlight</styleUrl></Pair></StyleMap><Folder><name>Course map</name><Placemark><name>Start</name><description>Lochiel parkrun</description><styleUrl>#icon-503-009D57</styleUrl><Point><coordinates>            138.649243,-34.880843,0          </coordinates></Point></Placemark><Placemark><name>Turn around point</name><styleUrl>#icon-503-4186F0-nodesc</styleUrl><Point><coordinates>            138.657141,-34.8657,0          </coordinates></Point></Placemark><Placemark><name>Finish</name><styleUrl>#icon-503-DB4436-nodesc</styleUrl><Point><coordinates>            138.649262,-34.88084,0          </coordinates></Point></Placemark><Placemark><name>Course</name><styleUrl>#line-0BA9CC-4314-nodesc</styleUrl><LineString><tessellate>1</tessellate><coordinates>            138.649243,-34.880843,0            138.649199,-34.880756,0            138.648992,-34.880455,0            138.648775,-34.88023,0            138.648746,-34.88019,0            138.648735,-34.88014,0            138.648762,-34.880063,0            138.648821,-34.879948,0            138.648952,-34.879627,0            138.649033,-34.879458,0            138.649086,-34.879334,0            138.649129,-34.879242,0            138.649167,-34.879143,0            138.649223,-34.878969,0            138.649255,-34.878738,0            138.649263,-34.878685,0            138.649263,-34.878582,0            138.649255,-34.878454,0            138.649245,-34.878386,0            138.649228,-34.878267,0            138.649188,-34.878192,0            138.649108,-34.878036,0            138.649041,-34.877928,0            138.648979,-34.877834,0            138.648767,-34.87759,0            138.648478,-34.877249,0            138.648276,-34.877015,0            138.648062,-34.876749,0            138.647893,-34.876503,0            138.647804,-34.87636,0            138.647769,-34.876294,0            138.647759,-34.876241,0            138.647743,-34.876162,0            138.64774,-34.876093,0            138.647756,-34.875981,0            138.647772,-34.875902,0            138.647839,-34.87573,0            138.64789,-34.875633,0            138.647933,-34.875554,0            138.647965,-34.875462,0            138.64804,-34.875292,0            138.64807,-34.875231,0            138.648164,-34.875116,0            138.648279,-34.874991,0            138.648376,-34.87489,0            138.64852,-34.874758,0            138.648593,-34.874696,0            138.648697,-34.874621,0            138.648751,-34.874595,0            138.648834,-34.874553,0            138.649344,-34.874344,0            138.649985,-34.874095,0            138.6502,-34.874034,0            138.650658,-34.873906,0            138.651457,-34.873657,0            138.651519,-34.873644,0            138.651581,-34.873635,0            138.651653,-34.873633,0            138.651769,-34.873626,0            138.65187,-34.873626,0            138.652021,-34.873604,0            138.652147,-34.873578,0            138.652284,-34.873567,0            138.652431,-34.87355,0            138.652533,-34.873508,0            138.652581,-34.873499,0            138.65279,-34.873532,0            138.6529,-34.87355,0            138.653032,-34.873558,0            138.653091,-34.873554,0            138.653139,-34.873543,0            138.65323,-34.873512,0            138.653327,-34.873466,0            138.653383,-34.873446,0            138.653662,-34.873367,0            138.653796,-34.873301,0            138.653831,-34.873283,0            138.653965,-34.87325,0            138.654032,-34.873222,0            138.654081,-34.873195,0            138.654244,-34.873006,0            138.654325,-34.87294,0            138.65444,-34.872861,0            138.65451,-34.872819,0            138.654671,-34.872729,0            138.654856,-34.872632,0            138.654963,-34.872575,0            138.655325,-34.872396,0            138.655518,-34.872322,0            138.655593,-34.872293,0            138.655717,-34.872234,0            138.655867,-34.872093,0            138.655926,-34.872051,0            138.656124,-34.871928,0            138.656275,-34.871864,0            138.656382,-34.871816,0            138.656422,-34.87178,0            138.656508,-34.871609,0            138.656669,-34.871349,0            138.656688,-34.871298,0            138.656682,-34.871261,0            138.656664,-34.871228,0            138.656556,-34.871094,0            138.656436,-34.870962,0            138.656318,-34.870878,0            138.656162,-34.870819,0            138.656049,-34.870757,0            138.655915,-34.870636,0            138.655792,-34.870502,0            138.655703,-34.870383,0            138.65558,-34.870154,0            138.655505,-34.869958,0            138.655483,-34.869886,0            138.655486,-34.869811,0            138.655505,-34.869762,0            138.65555,-34.869679,0            138.655599,-34.869591,0            138.655634,-34.869544,0            138.655733,-34.869472,0            138.655776,-34.869448,0            138.655894,-34.869404,0            138.655947,-34.86939,0            138.656141,-34.86936,0            138.656221,-34.869355,0            138.656323,-34.869366,0            138.65642,-34.869349,0            138.656988,-34.86925,0            138.657173,-34.869217,0            138.657361,-34.869142,0            138.65757,-34.869016,0            138.657686,-34.868924,0            138.657736,-34.868853,0            138.657796,-34.868759,0            138.657825,-34.868706,0            138.65786,-34.868616,0            138.657887,-34.868534,0            138.657906,-34.868433,0            138.65793,-34.868312,0            138.657962,-34.868072,0            138.657981,-34.867885,0            138.657975,-34.867821,0            138.657911,-34.867722,0            138.657431,-34.867317,0            138.657366,-34.86726,0            138.656948,-34.866732,0            138.656712,-34.866417,0            138.65669,-34.866373,0            138.656701,-34.86627,0            138.656717,-34.86618,0            138.656739,-34.866054,0            138.65679,-34.865911,0            138.65683,-34.865845,0            138.656854,-34.865819,0            138.656894,-34.865792,0            138.656951,-34.865766,0            138.65701,-34.865742,0            138.657095,-34.865715,0            138.657141,-34.8657,0            138.657128,-34.86572,0            138.657036,-34.865744,0            138.656972,-34.865772,0            138.656924,-34.865792,0            138.656865,-34.865828,0            138.656816,-34.865894,0            138.65679,-34.865966,0            138.656763,-34.866032,0            138.656736,-34.866171,0            138.656717,-34.866268,0            138.656712,-34.866349,0            138.656717,-34.866382,0            138.656744,-34.866437,0            138.657366,-34.86724,0            138.657425,-34.867291,0            138.65768,-34.867513,0            138.657903,-34.867702,0            138.657943,-34.867755,0            138.657978,-34.867797,0            138.657994,-34.867841,0            138.657994,-34.867872,0            138.657989,-34.86796,0            138.657978,-34.868055,0            138.657962,-34.868173,0            138.657948,-34.868288,0            138.657922,-34.868418,0            138.657914,-34.868486,0            138.657895,-34.868567,0            138.657862,-34.868649,0            138.657846,-34.868706,0            138.657793,-34.868785,0            138.657755,-34.868851,0            138.657712,-34.868913,0            138.657656,-34.868966,0            138.657592,-34.869018,0            138.657396,-34.869137,0            138.657302,-34.869181,0            138.657192,-34.869221,0            138.657101,-34.869245,0            138.656446,-34.869357,0            138.656336,-34.869373,0            138.656283,-34.869373,0            138.656165,-34.869371,0            138.655964,-34.869401,0            138.655859,-34.86943,0            138.655757,-34.869476,0            138.655666,-34.869536,0            138.655628,-34.869578,0            138.655596,-34.869622,0            138.655548,-34.869707,0            138.655508,-34.869791,0            138.655497,-34.869837,0            138.655505,-34.869897,0            138.65554,-34.870013,0            138.655588,-34.87013,0            138.655671,-34.870286,0            138.655741,-34.870412,0            138.655838,-34.870535,0            138.655964,-34.870662,0            138.656052,-34.870739,0            138.656202,-34.870821,0            138.656304,-34.87086,0            138.656436,-34.870944,0            138.65657,-34.871085,0            138.656674,-34.871212,0            138.656701,-34.87125,0            138.656709,-34.871292,0            138.656696,-34.871336,0            138.656548,-34.871571,0            138.656446,-34.871767,0            138.656414,-34.871813,0            138.656355,-34.871844,0            138.656237,-34.871897,0            138.656106,-34.871954,0            138.655923,-34.872071,0            138.655827,-34.872148,0            138.655728,-34.872251,0            138.655371,-34.872392,0            138.655261,-34.87244,0            138.654724,-34.872711,0            138.654408,-34.872894,0            138.654311,-34.872966,0            138.654247,-34.873026,0            138.654113,-34.873182,0            138.65407,-34.873222,0            138.654019,-34.873248,0            138.653955,-34.87327,0            138.653836,-34.873299,0            138.65371,-34.87336,0            138.653641,-34.873389,0            138.653356,-34.873468,0            138.653209,-34.873534,0            138.653144,-34.873554,0            138.653094,-34.873574,0            138.653035,-34.873576,0            138.652906,-34.873567,0            138.652579,-34.873514,0            138.65253,-34.873523,0            138.652436,-34.873563,0            138.652353,-34.873574,0            138.652184,-34.873587,0            138.651935,-34.873635,0            138.651597,-34.873646,0            138.651468,-34.873666,0            138.650626,-34.873928,0            138.650009,-34.874102,0            138.649481,-34.874306,0            138.648866,-34.874553,0            138.648772,-34.874599,0            138.648689,-34.874639,0            138.648625,-34.874689,0            138.648547,-34.874751,0            138.648405,-34.874881,0            138.64825,-34.875042,0            138.64815,-34.875158,0            138.648097,-34.875222,0            138.648038,-34.875328,0            138.647992,-34.875435,0            138.647952,-34.875539,0            138.647842,-34.875759,0            138.647791,-34.875895,0            138.647777,-34.875957,0            138.647764,-34.876014,0            138.647756,-34.876109,0            138.647761,-34.876181,0            138.647772,-34.876225,0            138.64778,-34.876272,0            138.647799,-34.87632,0            138.647834,-34.876382,0            138.648038,-34.876692,0            138.648134,-34.876813,0            138.648258,-34.876967,0            138.648341,-34.877064,0            138.648416,-34.877156,0            138.648472,-34.877222,0            138.648735,-34.877528,0            138.648807,-34.877614,0            138.648939,-34.877766,0            138.649011,-34.877854,0            138.649073,-34.877944,0            138.649145,-34.878065,0            138.649188,-34.878148,0            138.649239,-34.87825,0            138.64925,-34.878298,0            138.649261,-34.878353,0            138.649274,-34.87849,0            138.649277,-34.87856,0            138.649282,-34.878705,0            138.649261,-34.878837,0            138.649242,-34.878954,0            138.649215,-34.879037,0            138.649186,-34.879134,0            138.649089,-34.879368,0            138.648976,-34.879614,0            138.648842,-34.879935,0            138.648786,-34.880054,0            138.648751,-34.880138,0            138.648759,-34.880166,0            138.648772,-34.880199,0            138.648807,-34.880245,0            138.648971,-34.880417,0            138.64903,-34.880481,0            138.649086,-34.880562,0            138.649148,-34.880659,0            138.649207,-34.88074,0            138.649266,-34.880859,0          </coordinates></LineString></Placemark></Folder></Document></kml>