<?xml version="1.0" encoding="UTF-8"?><kml xmlns="http://www.opengis.net/kml/2.2"><Document><name>Long Point parkrun</name><description/><Style id="icon-1899-FFEA00-nodesc-normal"><IconStyle><color>ff00eaff</color><scale>1</scale><Icon><href>https://www.gstatic.com/mapspro/images/stock/503-wht-blank_maps.png</href></Icon><hotSpot x="32" xunits="pixels" y="64" yunits="insetPixels"/></IconStyle><LabelStyle><scale>0</scale></LabelStyle><BalloonStyle><text><![CDATA[<h3>$[name]</h3>]]></text></BalloonStyle></Style><Style id="icon-1899-FFEA00-nodesc-highlight"><IconStyle><color>ff00eaff</color><scale>1</scale><Icon><href>https://www.gstatic.com/mapspro/images/stock/503-wht-blank_maps.png</href></Icon><hotSpot x="32" xunits="pixels" y="64" yunits="insetPixels"/></IconStyle><LabelStyle><scale>1</scale></LabelStyle><BalloonStyle><text><![CDATA[<h3>$[name]</h3>]]></text></BalloonStyle></Style><StyleMap id="icon-1899-FFEA00-nodesc"><Pair><key>normal</key><styleUrl>#icon-1899-FFEA00-nodesc-normal</styleUrl></Pair><Pair><key>highlight</key><styleUrl>#icon-1899-FFEA00-nodesc-highlight</styleUrl></Pair></StyleMap><Style id="line-0288D1-4294-nodesc-normal"><LineStyle><color>ffd18802</color><width>4.294</width></LineStyle><BalloonStyle><text><![CDATA[<h3>$[name]</h3>]]></text></BalloonStyle></Style><Style id="line-0288D1-4294-nodesc-highlight"><LineStyle><color>ffd18802</color><width>6.441</width></LineStyle><BalloonStyle><text><![CDATA[<h3>$[name]</h3>]]></text></BalloonStyle></Style><StyleMap id="line-0288D1-4294-nodesc"><Pair><key>normal</key><styleUrl>#line-0288D1-4294-nodesc-normal</styleUrl></Pair><Pair><key>highlight</key><styleUrl>#line-0288D1-4294-nodesc-highlight</styleUrl></Pair></StyleMap><Folder><name>Untitled layer</name><Placemark><name>Course</name><styleUrl>#line-0288D1-4294-nodesc</styleUrl><LineString><tessellate>1</tessellate><coordinates>            115.729661,-32.367075,0            115.729817,-32.366497,0            115.730946,-32.366334,0            115.731755,-32.366151,0            115.732373,-32.365873,0            115.732781,-32.365572,0            115.733521,-32.365208,0            115.734551,-32.364542,0            115.734937,-32.3641914,0            115.735366,-32.363877,0            115.736096,-32.363791,0            115.736268,-32.363942,0            115.736654,-32.363706,0            115.737233,-32.36307,0            115.738091,-32.362053,0            115.739121,-32.360744,0            115.739551,-32.36053,0            115.740366,-32.359221,0            115.741482,-32.357161,0            115.74404,-32.350466,0          </coordinates></LineString></Placemark><Placemark><name>Start/Finish</name><styleUrl>#icon-1899-FFEA00-nodesc</styleUrl><Point><coordinates>            115.729661,-32.367075,0          </coordinates></Point></Placemark></Folder></Document></kml>