<?xml version="1.0" encoding="UTF-8"?><kml xmlns="http://www.opengis.net/kml/2.2"><Document><name>Maryborough parkrun</name><description/><Style id="icon-1899-FFEA00-nodesc-normal"><IconStyle><color>ff00eaff</color><scale>1</scale><Icon><href>https://www.gstatic.com/mapspro/images/stock/503-wht-blank_maps.png</href></Icon><hotSpot x="32" xunits="pixels" y="64" yunits="insetPixels"/></IconStyle><LabelStyle><scale>0</scale></LabelStyle><BalloonStyle><text><![CDATA[<h3>$[name]</h3>]]></text></BalloonStyle></Style><Style id="icon-1899-FFEA00-nodesc-highlight"><IconStyle><color>ff00eaff</color><scale>1</scale><Icon><href>https://www.gstatic.com/mapspro/images/stock/503-wht-blank_maps.png</href></Icon><hotSpot x="32" xunits="pixels" y="64" yunits="insetPixels"/></IconStyle><LabelStyle><scale>1</scale></LabelStyle><BalloonStyle><text><![CDATA[<h3>$[name]</h3>]]></text></BalloonStyle></Style><StyleMap id="icon-1899-FFEA00-nodesc"><Pair><key>normal</key><styleUrl>#icon-1899-FFEA00-nodesc-normal</styleUrl></Pair><Pair><key>highlight</key><styleUrl>#icon-1899-FFEA00-nodesc-highlight</styleUrl></Pair></StyleMap><Style id="line-4186F0-5263-nodesc-normal"><LineStyle><color>fff08641</color><width>5.263</width></LineStyle><BalloonStyle><text><![CDATA[<h3>$[name]</h3>]]></text></BalloonStyle></Style><Style id="line-4186F0-5263-nodesc-highlight"><LineStyle><color>fff08641</color><width>7.8945</width></LineStyle><BalloonStyle><text><![CDATA[<h3>$[name]</h3>]]></text></BalloonStyle></Style><StyleMap id="line-4186F0-5263-nodesc"><Pair><key>normal</key><styleUrl>#line-4186F0-5263-nodesc-normal</styleUrl></Pair><Pair><key>highlight</key><styleUrl>#line-4186F0-5263-nodesc-highlight</styleUrl></Pair></StyleMap><Folder><name>Maryborough parkrun course.</name><Placemark><name>Course</name><styleUrl>#line-4186F0-5263-nodesc</styleUrl><LineString><tessellate>1</tessellate><coordinates>            152.682242,-25.535603,0            152.6830581,-25.5362178,0            152.683622,-25.53661,0            152.683876,-25.53667,0            152.684716,-25.53667,0            152.685521,-25.536521,0            152.68602,-25.536177,0            152.686044,-25.535876,0            152.686134,-25.535738,0            152.686032,-25.53554,0            152.6860085,-25.5353807,0            152.686038,-25.535203,0            152.686028,-25.534989,0            152.686136,-25.534315,0            152.686201,-25.534281,0            152.686323,-25.534122,0            152.686358,-25.534034,0            152.68635,-25.533962,0            152.686309,-25.533883,0            152.686302,-25.533824,0            152.686344,-25.533774,0            152.686391,-25.533752,0            152.686434,-25.533759,0            152.6864719,-25.5338007,0            152.686537,-25.533783,0            152.6866545,-25.5338249,0            152.686729,-25.533828,0            152.68678,-25.533788,0            152.6868328,-25.5336969,0            152.686899,-25.533618,0            152.6868328,-25.5336969,0            152.68678,-25.533788,0            152.686729,-25.533828,0            152.6866545,-25.5338249,0            152.686537,-25.533783,0            152.6864719,-25.5338007,0            152.686434,-25.533759,0            152.686391,-25.533752,0            152.686344,-25.533774,0            152.686302,-25.533824,0            152.686309,-25.533883,0            152.68635,-25.533962,0            152.686358,-25.534034,0            152.686323,-25.534122,0            152.686201,-25.534281,0            152.686136,-25.534315,0            152.686167,-25.534116,0            152.686151,-25.534045,0            152.686135,-25.533948,0            152.686095,-25.533889,0            152.686029,-25.533849,0            152.685801,-25.533751,0            152.68573,-25.533696,0            152.685696,-25.533628,0            152.685683,-25.533538,0            152.685704,-25.533448,0            152.685755,-25.533349,0            152.685844,-25.533287,0            152.68591,-25.533261,0            152.685973,-25.533223,0            152.685991,-25.533177,0            152.685989,-25.533137,0            152.685967,-25.533101,0            152.685778,-25.532994,0            152.6857141,-25.5328625,0            152.6859742,-25.5329269,0            152.6861231,-25.5329408,0            152.686256,-25.532974,0            152.68676,-25.533247,0            152.686824,-25.533322,0            152.686843,-25.533402,0            152.686854,-25.533533,0            152.6868807,-25.5336423,0            152.686854,-25.533533,0            152.686843,-25.533402,0            152.686824,-25.533322,0            152.68676,-25.533247,0            152.686256,-25.532974,0            152.6861231,-25.5329408,0            152.6859742,-25.5329269,0            152.6857141,-25.5328625,0            152.685682,-25.532787,0            152.685682,-25.532737,0            152.685698,-25.532671,0            152.685633,-25.532618,0            152.685561,-25.532579,0            152.685488,-25.532528,0            152.68544,-25.532446,0            152.685419,-25.532366,0            152.6854,-25.532253,0            152.685373,-25.532178,0            152.685328,-25.532059,0            152.685302,-25.531951,0            152.68531,-25.531854,0            152.685333,-25.531794,0            152.685369,-25.531727,0            152.6854,-25.531683,0            152.685425,-25.531628,0            152.685443,-25.531551,0            152.685451,-25.531496,0            152.685467,-25.531448,0            152.685514,-25.531374,0            152.685573,-25.531317,0            152.685629,-25.531264,0            152.685662,-25.531212,0            152.685641,-25.531174,0            152.685604,-25.531131,0            152.685548,-25.531058,0            152.685502,-25.531002,0            152.68542,-25.530934,0            152.685318,-25.530875,0            152.685218,-25.530832,0            152.685118,-25.53079,0            152.685028,-25.530758,0            152.68496,-25.530728,0            152.684888,-25.530702,0            152.684796,-25.530677,0            152.684676,-25.530643,0            152.684528,-25.5306,0            152.684452,-25.530579,0            152.684311,-25.530532,0            152.684237,-25.530497,0            152.683915,-25.530356,0            152.68378,-25.530305,0            152.683694,-25.530266,0            152.683608,-25.530227,0            152.683492,-25.530178,0            152.68338,-25.530135,0            152.6833,-25.530096,0            152.683214,-25.530062,0            152.683005,-25.529974,0            152.682873,-25.529916,0            152.682759,-25.529865,0            152.682678,-25.529831,0            152.682522,-25.529769,0            152.682374,-25.529705,0            152.682248,-25.529646,0            152.682054,-25.529567,0            152.681959,-25.52953,0            152.681845,-25.52947,0            152.681779,-25.529438,0            152.681706,-25.52941,0            152.681627,-25.52938,0            152.681507,-25.529334,0            152.68145,-25.529307,0            152.681335,-25.529231,0            152.681279,-25.529197,0            152.681189,-25.529174,0            152.681137,-25.529175,0            152.6811,-25.529188,0            152.681063,-25.529205,0            152.681028,-25.529232,0            152.680587,-25.529564,0            152.680078,-25.529941,0            152.679511,-25.530367,0            152.679095,-25.530676,0            152.678588,-25.531062,0            152.678013,-25.531499,0            152.677965,-25.531545,0            152.677949,-25.531574,0            152.677946,-25.531598,0            152.677953,-25.531629,0            152.677972,-25.531669,0            152.678008,-25.531714,0            152.678031,-25.531743,0            152.678059,-25.531777,0            152.678236,-25.531995,0            152.678318,-25.532083,0            152.67859,-25.532364,0            152.678756,-25.532541,0            152.678909,-25.53271,0            152.679099,-25.532906,0            152.679336,-25.533163,0            152.679682,-25.533516,0            152.680414,-25.534179,0            152.68072,-25.534407,0            152.681028,-25.534636,0          </coordinates></LineString></Placemark><Placemark><name>Start / Finish</name><styleUrl>#icon-1899-FFEA00-nodesc</styleUrl><Point><coordinates>            152.686883,-25.53363,0          </coordinates></Point></Placemark></Folder></Document></kml>