<?xml version="1.0" encoding="UTF-8"?><kml xmlns="http://www.opengis.net/kml/2.2"><Document><name>Maylands Peninsula parkrun</name><description/><Style id="icon-503-009D57-nodesc-normal"><IconStyle><color>ff579d00</color><scale>1.1</scale><Icon><href>https://www.gstatic.com/mapspro/images/stock/503-wht-blank_maps.png</href></Icon><hotSpot x="16" xunits="pixels" y="32" yunits="insetPixels"/></IconStyle><LabelStyle><scale>0</scale></LabelStyle><BalloonStyle><text><![CDATA[<h3>$[name]</h3>]]></text></BalloonStyle></Style><Style id="icon-503-009D57-nodesc-highlight"><IconStyle><color>ff579d00</color><scale>1.1</scale><Icon><href>https://www.gstatic.com/mapspro/images/stock/503-wht-blank_maps.png</href></Icon><hotSpot x="16" xunits="pixels" y="32" yunits="insetPixels"/></IconStyle><LabelStyle><scale>1.1</scale></LabelStyle><BalloonStyle><text><![CDATA[<h3>$[name]</h3>]]></text></BalloonStyle></Style><StyleMap id="icon-503-009D57-nodesc"><Pair><key>normal</key><styleUrl>#icon-503-009D57-nodesc-normal</styleUrl></Pair><Pair><key>highlight</key><styleUrl>#icon-503-009D57-nodesc-highlight</styleUrl></Pair></StyleMap><Style id="icon-503-DB4436-nodesc-normal"><IconStyle><color>ff3644db</color><scale>1.1</scale><Icon><href>https://www.gstatic.com/mapspro/images/stock/503-wht-blank_maps.png</href></Icon><hotSpot x="16" xunits="pixels" y="32" yunits="insetPixels"/></IconStyle><LabelStyle><scale>0</scale></LabelStyle><BalloonStyle><text><![CDATA[<h3>$[name]</h3>]]></text></BalloonStyle></Style><Style id="icon-503-DB4436-nodesc-highlight"><IconStyle><color>ff3644db</color><scale>1.1</scale><Icon><href>https://www.gstatic.com/mapspro/images/stock/503-wht-blank_maps.png</href></Icon><hotSpot x="16" xunits="pixels" y="32" yunits="insetPixels"/></IconStyle><LabelStyle><scale>1.1</scale></LabelStyle><BalloonStyle><text><![CDATA[<h3>$[name]</h3>]]></text></BalloonStyle></Style><StyleMap id="icon-503-DB4436-nodesc"><Pair><key>normal</key><styleUrl>#icon-503-DB4436-nodesc-normal</styleUrl></Pair><Pair><key>highlight</key><styleUrl>#icon-503-DB4436-nodesc-highlight</styleUrl></Pair></StyleMap><Style id="line-4186F0-4119-nodesc-normal"><LineStyle><color>fff08641</color><width>4.119</width></LineStyle><BalloonStyle><text><![CDATA[<h3>$[name]</h3>]]></text></BalloonStyle></Style><Style id="line-4186F0-4119-nodesc-highlight"><LineStyle><color>fff08641</color><width>6.1785</width></LineStyle><BalloonStyle><text><![CDATA[<h3>$[name]</h3>]]></text></BalloonStyle></Style><StyleMap id="line-4186F0-4119-nodesc"><Pair><key>normal</key><styleUrl>#line-4186F0-4119-nodesc-normal</styleUrl></Pair><Pair><key>highlight</key><styleUrl>#line-4186F0-4119-nodesc-highlight</styleUrl></Pair></StyleMap><Folder><name>Untitled layer</name><Placemark><name>Start</name><styleUrl>#icon-503-009D57-nodesc</styleUrl><Point><coordinates>            115.915042,-31.947183,0          </coordinates></Point></Placemark><Placemark><name>Course</name><styleUrl>#line-4186F0-4119-nodesc</styleUrl><LineString><tessellate>1</tessellate><coordinates>            115.913465,-31.945444,0            115.913529,-31.94579,0            115.913379,-31.946336,0            115.9143714,-31.9467457,0            115.9147389,-31.9470143,0            115.9150849,-31.947465,0            115.9151493,-31.9473467,0            115.915042,-31.947183,0            115.914817,-31.946755,0            115.9145433,-31.946645,0            115.914302,-31.946281,0            115.914152,-31.946008,0            115.913916,-31.945699,0            115.913465,-31.945444,0            115.913293,-31.945298,0            115.912972,-31.945116,0            115.912456,-31.945007,0            115.912135,-31.944807,0            115.911641,-31.945007,0            115.91119,-31.94446,0            115.91074,-31.943969,0            115.91074,-31.943769,0            115.91104,-31.943532,0            115.910976,-31.943368,0            115.910783,-31.943404,0            115.91059,-31.943222,0            115.91016,-31.942967,0            115.909839,-31.942731,0            115.909646,-31.942148,0            115.909281,-31.941857,0            115.908744,-31.941602,0            115.907672,-31.940018,0            115.907071,-31.940254,0          </coordinates></LineString></Placemark><Placemark><name>Finish</name><styleUrl>#icon-503-DB4436-nodesc</styleUrl><Point><coordinates>            115.914753,-31.946919,0          </coordinates></Point></Placemark></Folder></Document></kml>