<?xml version="1.0" encoding="UTF-8"?><kml xmlns="http://www.opengis.net/kml/2.2"><Document><name>Meadowbrook parkrun</name><description/><Style id="icon-1219-nodesc-normal"><IconStyle><scale>1.1</scale><Icon><href>https://www.gstatic.com/mapspro/images/stock/1219-fac-wc-unisex.png</href></Icon></IconStyle><LabelStyle><scale>0</scale></LabelStyle><BalloonStyle><text><![CDATA[<h3>$[name]</h3>]]></text></BalloonStyle></Style><Style id="icon-1219-nodesc-highlight"><IconStyle><scale>1.1</scale><Icon><href>https://www.gstatic.com/mapspro/images/stock/1219-fac-wc-unisex.png</href></Icon></IconStyle><LabelStyle><scale>1.1</scale></LabelStyle><BalloonStyle><text><![CDATA[<h3>$[name]</h3>]]></text></BalloonStyle></Style><StyleMap id="icon-1219-nodesc"><Pair><key>normal</key><styleUrl>#icon-1219-nodesc-normal</styleUrl></Pair><Pair><key>highlight</key><styleUrl>#icon-1219-nodesc-highlight</styleUrl></Pair></StyleMap><Style id="icon-1453-normal"><IconStyle><scale>1.1</scale><Icon><href>https://www.gstatic.com/mapspro/images/stock/1453-trans-parking.png</href></Icon></IconStyle><LabelStyle><scale>0</scale></LabelStyle></Style><Style id="icon-1453-highlight"><IconStyle><scale>1.1</scale><Icon><href>https://www.gstatic.com/mapspro/images/stock/1453-trans-parking.png</href></Icon></IconStyle><LabelStyle><scale>1.1</scale></LabelStyle></Style><StyleMap id="icon-1453"><Pair><key>normal</key><styleUrl>#icon-1453-normal</styleUrl></Pair><Pair><key>highlight</key><styleUrl>#icon-1453-highlight</styleUrl></Pair></StyleMap><Style id="icon-503-009D57-normal"><IconStyle><color>ff579d00</color><scale>1.1</scale><Icon><href>https://www.gstatic.com/mapspro/images/stock/503-wht-blank_maps.png</href></Icon><hotSpot x="16" xunits="pixels" y="32" yunits="insetPixels"/></IconStyle><LabelStyle><scale>0</scale></LabelStyle></Style><Style id="icon-503-009D57-highlight"><IconStyle><color>ff579d00</color><scale>1.1</scale><Icon><href>https://www.gstatic.com/mapspro/images/stock/503-wht-blank_maps.png</href></Icon><hotSpot x="16" xunits="pixels" y="32" yunits="insetPixels"/></IconStyle><LabelStyle><scale>1.1</scale></LabelStyle></Style><StyleMap id="icon-503-009D57"><Pair><key>normal</key><styleUrl>#icon-503-009D57-normal</styleUrl></Pair><Pair><key>highlight</key><styleUrl>#icon-503-009D57-highlight</styleUrl></Pair></StyleMap><Style id="icon-503-DB4436-normal"><IconStyle><color>ff3644db</color><scale>1.1</scale><Icon><href>https://www.gstatic.com/mapspro/images/stock/503-wht-blank_maps.png</href></Icon><hotSpot x="16" xunits="pixels" y="32" yunits="insetPixels"/></IconStyle><LabelStyle><scale>0</scale></LabelStyle></Style><Style id="icon-503-DB4436-highlight"><IconStyle><color>ff3644db</color><scale>1.1</scale><Icon><href>https://www.gstatic.com/mapspro/images/stock/503-wht-blank_maps.png</href></Icon><hotSpot x="16" xunits="pixels" y="32" yunits="insetPixels"/></IconStyle><LabelStyle><scale>1.1</scale></LabelStyle></Style><StyleMap id="icon-503-DB4436"><Pair><key>normal</key><styleUrl>#icon-503-DB4436-normal</styleUrl></Pair><Pair><key>highlight</key><styleUrl>#icon-503-DB4436-highlight</styleUrl></Pair></StyleMap><Style id="line-4186F0-4314-nodesc-normal"><LineStyle><color>fff08641</color><width>4.314</width></LineStyle><BalloonStyle><text><![CDATA[<h3>$[name]</h3>]]></text></BalloonStyle></Style><Style id="line-4186F0-4314-nodesc-highlight"><LineStyle><color>fff08641</color><width>6.471</width></LineStyle><BalloonStyle><text><![CDATA[<h3>$[name]</h3>]]></text></BalloonStyle></Style><StyleMap id="line-4186F0-4314-nodesc"><Pair><key>normal</key><styleUrl>#line-4186F0-4314-nodesc-normal</styleUrl></Pair><Pair><key>highlight</key><styleUrl>#line-4186F0-4314-nodesc-highlight</styleUrl></Pair></StyleMap><Folder><name>Course</name><Placemark><name>Course</name><styleUrl>#line-4186F0-4314-nodesc</styleUrl><LineString><tessellate>1</tessellate><coordinates>            153.155884,-27.673488,0            153.155516,-27.673217,0            153.155387,-27.673112,0            153.155208,-27.673013,0            153.155202,-27.672839,0            153.155208,-27.67263,0            153.155218,-27.6723,0            153.155237,-27.671523,0            153.155272,-27.671452,0            153.155379,-27.671416,0            153.155682,-27.671314,0            153.155816,-27.67134,0            153.156208,-27.671428,0            153.156425,-27.671362,0            153.156581,-27.67135,0            153.15671,-27.671376,0            153.156943,-27.671424,0            153.157109,-27.671469,0            153.157364,-27.671378,0            153.157536,-27.671257,0            153.157734,-27.671238,0            153.157844,-27.671112,0            153.157884,-27.671029,0            153.157772,-27.67078,0            153.157737,-27.670654,0            153.157745,-27.670538,0            153.157917,-27.670184,0            153.158072,-27.669827,0            153.158078,-27.669628,0            153.158123,-27.669556,0            153.158279,-27.669454,0            153.15848,-27.669385,0            153.158568,-27.669333,0            153.158603,-27.669262,0            153.158638,-27.669172,0            153.158719,-27.66916,0            153.158861,-27.669164,0            153.159126,-27.669155,0            153.159226,-27.669129,0            153.159263,-27.669169,0            153.159499,-27.669934,0            153.159695,-27.670483,0            153.159794,-27.670815,0            153.15981,-27.671027,0            153.159802,-27.671176,0            153.159784,-27.671269,0            153.15969,-27.671359,0            153.159443,-27.671521,0            153.15937,-27.671566,0            153.159263,-27.671595,0            153.159164,-27.671642,0            153.159081,-27.671744,0            153.15896,-27.671875,0            153.158762,-27.672013,0            153.158542,-27.672169,0            153.158214,-27.672438,0            153.157909,-27.672597,0            153.157691,-27.672697,0            153.157544,-27.672825,0            153.157337,-27.672989,0            153.157099,-27.673122,0            153.15693,-27.673208,0            153.156763,-27.673329,0            153.156495,-27.673504,0            153.156214,-27.673645,0            153.156018,-27.67378,0            153.155824,-27.674139,0            153.155564,-27.674291,0            153.15524,-27.674393,0            153.154953,-27.674431,0            153.154626,-27.674471,0            153.154553,-27.674493,0            153.15447,-27.674702,0            153.15439,-27.674799,0            153.154296,-27.674839,0            153.154129,-27.674797,0            153.15385,-27.67482,0            153.15366,-27.67483,0            153.153392,-27.674816,0            153.153207,-27.674804,0            153.153032,-27.67478,0            153.152893,-27.674754,0            153.152778,-27.67473,0            153.152673,-27.674709,0            153.1526,-27.674645,0            153.152587,-27.67455,0            153.152625,-27.674386,0            153.152654,-27.674298,0            153.152713,-27.674269,0            153.153188,-27.674196,0            153.153523,-27.674139,0            153.153652,-27.67412,0            153.153842,-27.674165,0            153.154223,-27.674243,0            153.15451,-27.674348,0            153.154786,-27.674421,0            153.154966,-27.674405,0            153.155218,-27.674369,0            153.155369,-27.674326,0            153.155535,-27.674274,0            153.155661,-27.674198,0            153.155795,-27.674129,0            153.155881,-27.673963,0            153.155972,-27.673792,0            153.156069,-27.673694,0            153.15594,-27.673573,0            153.155685,-27.673376,0            153.155554,-27.673269,0            153.155425,-27.673184,0            153.15531,-27.673105,0            153.155208,-27.673053,0            153.155189,-27.672865,0            153.155355,-27.67292,0            153.155733,-27.673231,0            153.155792,-27.673264,0            153.155953,-27.673329,0          </coordinates></LineString></Placemark><Placemark><name>Start</name><description>Adjacent to Pergola on Path</description><styleUrl>#icon-503-009D57</styleUrl><Point><coordinates>            153.155886,-27.673507,0          </coordinates></Point></Placemark><Placemark><name>Finish</name><description>Finish Next to Pergola on Grass</description><styleUrl>#icon-503-DB4436</styleUrl><Point><coordinates>            153.155953,-27.673329,0          </coordinates></Point></Placemark><Placemark><name>Parking</name><description>Closest parking here, but hundreds of spaces very close to the start/finish</description><styleUrl>#icon-1453</styleUrl><Point><coordinates>            153.155095,-27.673393,0          </coordinates></Point></Placemark><Placemark><name>Toilets</name><styleUrl>#icon-1219-nodesc</styleUrl><Point><coordinates>            153.15304,-27.673635,0          </coordinates></Point></Placemark><Placemark><name>Toilets</name><styleUrl>#icon-1219-nodesc</styleUrl><Point><coordinates>            153.156077,-27.673835,0          </coordinates></Point></Placemark></Folder></Document></kml>