<?xml version="1.0" encoding="UTF-8"?><kml xmlns="http://www.opengis.net/kml/2.2"><Document><name>Menai parkrun (from June 2024)</name><description/><Style id="icon-123-nodesc-normal"><IconStyle><scale>1.1</scale><Icon><href>https://www.gstatic.com/mapspro/images/stock/123-red-dot.png</href></Icon><hotSpot x="16" xunits="pixels" y="32" yunits="insetPixels"/></IconStyle><LabelStyle><scale>0</scale></LabelStyle><BalloonStyle><text><![CDATA[<h3>$[name]</h3>]]></text></BalloonStyle></Style><Style id="icon-123-nodesc-highlight"><IconStyle><scale>1.1</scale><Icon><href>https://www.gstatic.com/mapspro/images/stock/123-red-dot.png</href></Icon><hotSpot x="16" xunits="pixels" y="32" yunits="insetPixels"/></IconStyle><LabelStyle><scale>1.1</scale></LabelStyle><BalloonStyle><text><![CDATA[<h3>$[name]</h3>]]></text></BalloonStyle></Style><StyleMap id="icon-123-nodesc"><Pair><key>normal</key><styleUrl>#icon-123-nodesc-normal</styleUrl></Pair><Pair><key>highlight</key><styleUrl>#icon-123-nodesc-highlight</styleUrl></Pair></StyleMap><Style id="icon-61-nodesc-normal"><IconStyle><scale>1.1</scale><Icon><href>https://www.gstatic.com/mapspro/images/stock/61-green-dot.png</href></Icon><hotSpot x="16" xunits="pixels" y="32" yunits="insetPixels"/></IconStyle><LabelStyle><scale>0</scale></LabelStyle><BalloonStyle><text><![CDATA[<h3>$[name]</h3>]]></text></BalloonStyle></Style><Style id="icon-61-nodesc-highlight"><IconStyle><scale>1.1</scale><Icon><href>https://www.gstatic.com/mapspro/images/stock/61-green-dot.png</href></Icon><hotSpot x="16" xunits="pixels" y="32" yunits="insetPixels"/></IconStyle><LabelStyle><scale>1.1</scale></LabelStyle><BalloonStyle><text><![CDATA[<h3>$[name]</h3>]]></text></BalloonStyle></Style><StyleMap id="icon-61-nodesc"><Pair><key>normal</key><styleUrl>#icon-61-nodesc-normal</styleUrl></Pair><Pair><key>highlight</key><styleUrl>#icon-61-nodesc-highlight</styleUrl></Pair></StyleMap><Style id="line-0288D1-4681-nodesc-normal"><LineStyle><color>ffd18802</color><width>4.681</width></LineStyle><BalloonStyle><text><![CDATA[<h3>$[name]</h3>]]></text></BalloonStyle></Style><Style id="line-0288D1-4681-nodesc-highlight"><LineStyle><color>ffd18802</color><width>7.0215</width></LineStyle><BalloonStyle><text><![CDATA[<h3>$[name]</h3>]]></text></BalloonStyle></Style><StyleMap id="line-0288D1-4681-nodesc"><Pair><key>normal</key><styleUrl>#line-0288D1-4681-nodesc-normal</styleUrl></Pair><Pair><key>highlight</key><styleUrl>#line-0288D1-4681-nodesc-highlight</styleUrl></Pair></StyleMap><Folder><name>Menai_Freedom_parkrun.gpx</name><Placemark><name>Start </name><styleUrl>#icon-61-nodesc</styleUrl><Point><coordinates>            151.015356,-34.016448,169          </coordinates></Point></Placemark><Placemark><name>Finish</name><styleUrl>#icon-123-nodesc</styleUrl><Point><coordinates>            151.015448,-34.01653,158.2          </coordinates></Point></Placemark><Placemark><name>Course</name><styleUrl>#line-0288D1-4681-nodesc</styleUrl><LineString><tessellate>1</tessellate><coordinates>            151.015356,-34.016448,169            151.015343,-34.016448,169            151.015287,-34.016432,168.2            151.01526,-34.016419,168.2            151.015247,-34.01641,168.2            151.015237,-34.016404,168.2            151.015206,-34.016385,168.4            151.01516,-34.016365,168            151.015111,-34.016344,167.8            151.015033,-34.016276,167.4            151.015016,-34.016243,167.4            151.014951,-34.016122,167.4            151.014943,-34.01608,167.2            151.01493,-34.016021,167.4            151.014911,-34.015952,167            151.014877,-34.015891,166.8            151.01484,-34.015853,166.8            151.014824,-34.015759,167            151.014815,-34.015734,167            151.014824,-34.015636,166.8            151.014843,-34.015611,166.8            151.014893,-34.015595,167            151.014967,-34.015586,166.8            151.014994,-34.015581,166.8            151.015035,-34.015571,166.8            151.015089,-34.015566,166.6            151.015097,-34.015564,166.6            151.015102,-34.015562,166.8            151.0151,-34.015558,166.8            151.015102,-34.01555,166.8            151.015104,-34.01555,167.2            151.015103,-34.01555,167.4            151.015103,-34.015541,167.2            151.015103,-34.015542,167.4            151.015104,-34.015542,167.2            151.0151,-34.015541,167            151.015105,-34.015543,167.8            151.015105,-34.015547,167.4            151.015104,-34.015547,167.2            151.015106,-34.015546,167.2            151.015105,-34.015547,167            151.015114,-34.015548,166.8            151.015156,-34.01554,166.8            151.015182,-34.015534,166.6            151.0152,-34.015528,166.8            151.015222,-34.015525,166.8            151.015313,-34.015523,167            151.015361,-34.015524,167            151.015394,-34.01552,166.8            151.015422,-34.015515,167            151.015503,-34.015489,167            151.015665,-34.015436,167.2            151.015745,-34.01541,167.2            151.01581,-34.015395,167.4            151.015835,-34.015391,167.6            151.015873,-34.015382,167.6            151.015913,-34.01538,167.8            151.015923,-34.015378,168            151.015929,-34.015374,168            151.015943,-34.015366,168            151.015969,-34.015355,168            151.016028,-34.015358,168            151.016059,-34.015378,168            151.016066,-34.015394,168            151.016069,-34.015419,168            151.016071,-34.015432,168            151.016073,-34.015443,168            151.016059,-34.015563,168.4            151.016059,-34.015597,168.4            151.016044,-34.015685,168.6            151.016041,-34.015707,168.4            151.01602,-34.015763,168.2            151.016017,-34.015808,168            151.016011,-34.015848,167.8            151.015986,-34.01591,168.2            151.015965,-34.015973,168.4            151.015962,-34.015986,168.4            151.015961,-34.015999,168.4            151.01595,-34.016061,168.4            151.015953,-34.01614,168.4            151.015977,-34.016184,168.2            151.016027,-34.016248,168.8            151.016045,-34.016286,169            151.016046,-34.016295,169            151.016054,-34.016343,169.2            151.016052,-34.016403,169            151.016051,-34.016433,168.8            151.016054,-34.016484,168.6            151.016056,-34.016608,169            151.016069,-34.016657,169            151.016081,-34.016726,169.2            151.016088,-34.016797,169.2            151.016097,-34.016943,169.2            151.016096,-34.016955,169            151.016124,-34.017065,169            151.016127,-34.017112,169.2            151.016121,-34.017133,169.2            151.016059,-34.017285,169.4            151.016037,-34.01739,169.4            151.016043,-34.017414,169.6            151.016072,-34.017474,169.8            151.016103,-34.017545,169.8            151.016097,-34.017618,170.2            151.016101,-34.017697,170.6            151.016111,-34.01778,171.2            151.01615,-34.017792,171.4            151.016154,-34.017775,171.6            151.016152,-34.01777,171.6            151.016155,-34.017752,172            151.016155,-34.017748,172            151.016158,-34.017719,172            151.016159,-34.017716,172            151.016149,-34.017691,172            151.016147,-34.017687,172.2            151.016138,-34.017687,172.6            151.016133,-34.01769,172.6            151.016119,-34.017717,173            151.016117,-34.017737,173.2            151.016113,-34.017758,173.4            151.016112,-34.017777,173.4            151.016102,-34.017822,173.8            151.016099,-34.017847,174            151.016098,-34.01786,174.2            151.016098,-34.017871,174.4            151.016096,-34.017929,174.4            151.016096,-34.017964,174.4            151.016098,-34.017974,174.4            151.0161,-34.018002,174.4            151.016101,-34.018025,174.4            151.016091,-34.018105,174.2            151.016101,-34.0182,174.6            151.01613,-34.018281,174            151.016203,-34.018403,173.4            151.016209,-34.018411,173.4            151.016215,-34.018421,173.4            151.016244,-34.018456,173            151.016249,-34.018457,172.8            151.016251,-34.018454,172.8            151.01625,-34.018445,172.8            151.016244,-34.018438,172.6            151.016225,-34.018412,173.2            151.01621,-34.018383,173            151.016206,-34.018373,173            151.016167,-34.018276,172.2            151.016124,-34.018268,171.8            151.016082,-34.018266,171.8            151.016045,-34.018262,172.2            151.015994,-34.018239,171.4            151.015982,-34.018226,171.2            151.015966,-34.018216,171.2            151.015894,-34.018189,171            151.01588,-34.018184,171            151.015839,-34.018177,170.8            151.015809,-34.018171,170.6            151.015782,-34.018166,170            151.015724,-34.018148,169.6            151.015705,-34.018144,169.4            151.015692,-34.018145,169.4            151.015647,-34.018136,169.2            151.015577,-34.018113,169.2            151.015543,-34.018101,169            151.01545,-34.018077,168.4            151.015352,-34.018064,168.2            151.015291,-34.018044,168            151.015213,-34.018008,167.8            151.015188,-34.017992,167.6            151.01517,-34.017982,167.6            151.015126,-34.017963,167.2            151.015103,-34.017961,167            151.015019,-34.017918,167.2            151.014997,-34.017902,166.8            151.014985,-34.017895,166.8            151.014902,-34.017866,166.4            151.014844,-34.017848,166            151.014829,-34.017842,166            151.0148,-34.017822,165.8            151.014787,-34.017811,165.8            151.014708,-34.017775,165.4            151.014599,-34.017738,165.2            151.014549,-34.017724,164.8            151.014484,-34.017704,164.4            151.014393,-34.017655,164.2            151.014367,-34.017639,164            151.014347,-34.017625,163.8            151.014333,-34.017617,163.8            151.014306,-34.017596,163.6            151.014227,-34.017526,163.2            151.014183,-34.017498,163            151.014163,-34.01749,163            151.014138,-34.01748,163            151.014099,-34.017456,162.6            151.014056,-34.017434,162.4            151.013961,-34.017375,161.8            151.013949,-34.01737,161.6            151.013861,-34.017309,161            151.013778,-34.017228,160.8            151.01375,-34.017202,160.6            151.013714,-34.017183,160.4            151.013702,-34.017175,160.4            151.013676,-34.017158,160.2            151.013599,-34.017096,160.2            151.013547,-34.017042,159.6            151.013473,-34.016975,159            151.01345,-34.016949,158.8            151.013394,-34.016884,158.6            151.01338,-34.016863,158.6            151.013345,-34.016827,158.4            151.013332,-34.016816,158.4            151.013293,-34.016782,158.4            151.013279,-34.01677,158.2            151.013193,-34.016714,158.2            151.013176,-34.016679,157.8            151.013173,-34.016677,157.8            151.01317,-34.016677,157.8            151.013169,-34.016674,157.8            151.013168,-34.016674,157.6            151.013164,-34.016676,157.8            151.013162,-34.016676,157.8            151.013161,-34.016676,157.6            151.013158,-34.016678,157.4            151.013153,-34.016676,157.2            151.013155,-34.016675,156.8            151.013153,-34.016675,156.8            151.013148,-34.016674,157            151.013148,-34.016676,157.2            151.013141,-34.016682,157.4            151.013145,-34.016685,156.8            151.0132,-34.016709,156.4            151.013212,-34.016714,156.4            151.013249,-34.016739,156.2            151.013292,-34.01677,156.6            151.013304,-34.016785,156.8            151.013331,-34.016815,157            151.013343,-34.016825,157            151.013349,-34.016836,158.4            151.013403,-34.016901,158.6            151.01341,-34.016912,158.6            151.013558,-34.017052,159            151.013619,-34.017108,160.2            151.013696,-34.017171,160.8            151.013849,-34.017298,161.4            151.013874,-34.017317,161.6            151.013929,-34.017365,161.6            151.013969,-34.01742,161.6            151.013986,-34.017439,161.6            151.014079,-34.01751,162.2            151.01411,-34.017532,162.4            151.01412,-34.017539,162.4            151.014259,-34.017656,163.2            151.014427,-34.017736,162.8            151.014455,-34.01775,163            151.014512,-34.017776,163.4            151.014627,-34.017819,164.6            151.01464,-34.017826,164.6            151.014654,-34.017832,164.6            151.01484,-34.017922,164.8            151.014917,-34.017969,165.6            151.014972,-34.017998,165.6            151.015083,-34.018039,165.8            151.015221,-34.018096,166.6            151.015273,-34.018109,167.2            151.015289,-34.018113,167.2            151.015339,-34.018111,166.8            151.015365,-34.018116,166.4            151.015447,-34.018139,166.8            151.015508,-34.018165,167.6            151.015518,-34.018169,167.6            151.015646,-34.018199,167.4            151.015705,-34.018205,167.6            151.015724,-34.018207,167.8            151.015802,-34.018216,168.6            151.015826,-34.018214,168.8            151.015831,-34.01821,168.8            151.015838,-34.0182,169.2            151.015837,-34.018199,169.2            151.015836,-34.0182,169.2            151.015826,-34.018195,168.8            151.015835,-34.018192,169            151.01584,-34.01819,169            151.015842,-34.01819,168.8            151.015875,-34.018189,168.6            151.016001,-34.018185,167.6            151.01604,-34.018174,167.4            151.016119,-34.018172,167.4            151.016228,-34.018179,167.4            151.016298,-34.018173,167.6            151.016344,-34.018161,167.6            151.016399,-34.01815,167.4            151.016417,-34.018148,167.4            151.016465,-34.018144,166.8            151.016562,-34.018143,166.6            151.016598,-34.018145,166.4            151.016723,-34.018119,166.8            151.016801,-34.018106,167            151.01696,-34.018099,165.8            151.017105,-34.018091,165.6            151.017205,-34.018084,165.2            151.01728,-34.018059,165.2            151.017323,-34.018048,165.2            151.017349,-34.01804,164.6            151.017362,-34.018038,164.4            151.017373,-34.018036,164.2            151.017496,-34.018005,163.8            151.017509,-34.018002,163.6            151.017605,-34.017988,163.4            151.017696,-34.017981,163            151.0178,-34.017973,162.4            151.017813,-34.017972,162.2            151.017902,-34.017955,161.4            151.017915,-34.017953,161.2            151.018097,-34.017913,160.6            151.018271,-34.017872,160            151.018323,-34.017861,159.8            151.018374,-34.01784,159.4            151.018442,-34.017826,159            151.01847,-34.017815,158.8            151.01866,-34.017761,158.2            151.018807,-34.017705,158            151.018855,-34.017689,157.4            151.018954,-34.01767,157.4            151.019086,-34.017646,157.2            151.019139,-34.017649,156.8            151.019237,-34.017693,156.2            151.019262,-34.017713,155.8            151.019299,-34.017745,155.6            151.019306,-34.017755,155.4            151.019315,-34.01777,155.2            151.019324,-34.017782,154.8            151.019325,-34.017783,154.8            151.019327,-34.017781,154.8            151.019328,-34.01778,154.8            151.019328,-34.017782,155            151.019318,-34.017778,154.6            151.019314,-34.017758,154.6            151.0193,-34.017737,154.6            151.019286,-34.017724,154.6            151.019277,-34.017717,154.6            151.01922,-34.017664,155.2            151.019181,-34.017651,155.6            151.019157,-34.017649,155.8            151.019142,-34.01765,155.8            151.019128,-34.017649,157            151.019099,-34.017656,156.8            151.019016,-34.017688,156.6            151.019003,-34.017688,156.6            151.018964,-34.017693,156.6            151.018932,-34.0177,156.6            151.01888,-34.017708,157            151.018861,-34.017711,157.2            151.018837,-34.01772,157.2            151.018767,-34.017752,157.6            151.018638,-34.017788,158            151.018551,-34.017835,158.2            151.018466,-34.017864,158.2            151.018439,-34.017866,158.6            151.018377,-34.017876,159            151.018336,-34.01788,159.2            151.018242,-34.017894,159.6            151.018223,-34.017893,159.8            151.018191,-34.017891,160.2            151.018158,-34.017897,160.4            151.018141,-34.017899,160.4            151.018086,-34.017928,160.6            151.018054,-34.017944,160.6            151.018,-34.017952,160.6            151.017932,-34.017958,160.8            151.017897,-34.017959,160.8            151.017806,-34.017968,160.8            151.017775,-34.017975,160.8            151.017686,-34.017996,161.2            151.017669,-34.018001,161.2            151.017568,-34.018035,162            151.01754,-34.018043,162.2            151.017524,-34.018046,162.2            151.017462,-34.018063,162.6            151.017423,-34.018074,163            151.017383,-34.018084,163.2            151.017369,-34.01809,163.4            151.017268,-34.018122,163.8            151.017218,-34.018129,164            151.017166,-34.018138,164.2            151.017131,-34.018145,164.4            151.017113,-34.018149,164.4            151.017052,-34.018157,164.4            151.017034,-34.018156,164.4            151.016932,-34.018162,164.6            151.016917,-34.018165,164.4            151.016881,-34.018172,164.2            151.016869,-34.01817,164.2            151.016729,-34.018201,164.8            151.016575,-34.0182,164.8            151.016517,-34.018191,164.8            151.01637,-34.018197,165            151.016354,-34.018197,165            151.016291,-34.01819,164.8            151.016277,-34.01819,164.8            151.016207,-34.018195,165            151.016154,-34.018188,165.4            151.016117,-34.018185,165.6            151.016077,-34.018178,167.4            151.016047,-34.018176,167.6            151.016023,-34.018172,167.2            151.01602,-34.018172,167.4            151.016016,-34.018173,167.4            151.016016,-34.018172,167.4            151.016018,-34.018172,167.4            151.016016,-34.018177,167.2            151.01601,-34.018176,167.4            151.016005,-34.018198,167.4            151.01602,-34.018202,167.4            151.01611,-34.018211,167            151.016134,-34.018218,167.4            151.016133,-34.018229,167.4            151.016133,-34.018271,168            151.01614,-34.01829,168.2            151.016145,-34.0183,168.4            151.016165,-34.018336,168.8            151.016194,-34.0184,169            151.016218,-34.01846,169.2            151.016197,-34.01849,169.4            151.016186,-34.018493,169.4            151.016176,-34.018495,169.4            151.016161,-34.018493,169.4            151.016147,-34.018481,169.6            151.016137,-34.018471,169.8            151.016131,-34.018467,170            151.016109,-34.018438,170            151.016092,-34.018411,170.4            151.016068,-34.018366,171            151.016039,-34.018284,171.6            151.016044,-34.018251,171.6            151.016046,-34.018243,171.6            151.016053,-34.018172,171.4            151.016051,-34.018152,171.2            151.016048,-34.01814,171.2            151.016041,-34.018005,170.8            151.016043,-34.017992,170.4            151.016049,-34.017952,170.2            151.016063,-34.017884,169.8            151.016067,-34.017862,169.6            151.016068,-34.017837,169.4            151.016085,-34.017764,168.4            151.016088,-34.017762,168.2            151.016095,-34.017767,168            151.016093,-34.017782,168            151.016091,-34.017787,168            151.01609,-34.017813,167.8            151.0161,-34.017833,167.4            151.0161,-34.017841,167.4            151.016096,-34.017866,167.2            151.016078,-34.017874,167.2            151.016057,-34.017876,167.2            151.016044,-34.017853,167.2            151.016044,-34.017847,167.2            151.016044,-34.017839,167.2            151.016036,-34.017807,166.8            151.016042,-34.017759,166.2            151.016032,-34.017728,166            151.016029,-34.017706,165.8            151.016022,-34.017684,165.6            151.015997,-34.01764,165.2            151.015994,-34.01759,164.8            151.016009,-34.017535,164.2            151.016019,-34.017493,164            151.016024,-34.017482,164            151.016036,-34.017462,164            151.016072,-34.01734,164.2            151.016061,-34.017282,164.4            151.016038,-34.01719,164.2            151.016033,-34.017023,163.6            151.01599,-34.016835,163.4            151.016005,-34.016671,163.2            151.016008,-34.016657,163.2            151.015963,-34.01649,162.6            151.015956,-34.016476,162.6            151.015902,-34.01639,162.4            151.015895,-34.016352,162.2            151.015895,-34.016344,162.2            151.015897,-34.016336,162.2            151.015897,-34.016312,162.2            151.0159,-34.01631,162.2            151.015899,-34.016289,162.2            151.015898,-34.016283,162.2            151.0159,-34.016281,162            151.015907,-34.016277,161.8            151.015908,-34.016276,161.8            151.015906,-34.016276,161.8            151.015911,-34.016284,161.6            151.015882,-34.016246,161.4            151.015881,-34.016236,161.4            151.015879,-34.016226,161.2            151.015874,-34.016216,161.2            151.015873,-34.016205,161            151.015871,-34.016194,161            151.015882,-34.016122,161            151.015911,-34.016056,161            151.015921,-34.016036,161            151.015934,-34.016005,161            151.015988,-34.015907,161            151.016011,-34.015876,161            151.016053,-34.015778,160.8            151.016082,-34.01571,160.8            151.016096,-34.015673,160.6            151.016095,-34.015605,160.4            151.016055,-34.015575,160            151.01604,-34.015564,160            151.01603,-34.015557,159.8            151.015976,-34.015516,160            151.015948,-34.015503,160            151.015901,-34.015495,160            151.015792,-34.015495,159.2            151.015767,-34.015508,159            151.015729,-34.015523,159            151.015713,-34.015526,159            151.015659,-34.015552,159            151.015575,-34.015597,159            151.015518,-34.015612,159            151.015462,-34.01562,158.8            151.015345,-34.015606,158.2            151.015334,-34.015606,158.2            151.015264,-34.015607,157.8            151.015217,-34.015604,157.8            151.015134,-34.015613,157.8            151.015111,-34.015616,157.6            151.015054,-34.015624,157.6            151.015032,-34.015625,157.6            151.015008,-34.015625,157.6            151.014983,-34.015632,157.4            151.01497,-34.015637,157.4            151.014921,-34.015711,157.2            151.014947,-34.015825,157.4            151.014988,-34.015849,158            151.015052,-34.015874,158            151.0151,-34.015905,158.2            151.015124,-34.015958,158.2            151.015126,-34.015968,158.2            151.015113,-34.016025,158.4            151.015099,-34.016052,158.2            151.015089,-34.016096,158            151.015084,-34.016117,157.8            151.015096,-34.016212,157.8            151.015106,-34.016255,158.4            151.015123,-34.01628,158.6            151.015108,-34.016361,158.4            151.015103,-34.01637,158.4            151.015087,-34.01639,158.4            151.015082,-34.016391,158.4            151.01508,-34.016392,158.4            151.015036,-34.016376,158.2            151.015023,-34.016382,158.4            151.015021,-34.016383,158.4            151.015007,-34.01638,158.4            151.01501,-34.01638,158.6            151.01501,-34.016373,158.6            151.015013,-34.016354,158.2            151.014998,-34.016319,158            151.014995,-34.016294,157.8            151.014994,-34.016283,157.8            151.014992,-34.016269,158            151.014988,-34.01626,158            151.014983,-34.016263,158            151.01496,-34.016199,157.8            151.014964,-34.016191,157.8            151.014963,-34.016182,157.6            151.014954,-34.016154,157.6            151.014949,-34.016088,157.6            151.014923,-34.016043,157.6            151.014917,-34.015969,157            151.014912,-34.015959,157            151.014905,-34.015951,156.8            151.014869,-34.015869,157            151.014863,-34.015838,156.8            151.014862,-34.015783,156.8            151.014864,-34.015703,157            151.014894,-34.015649,156.8            151.014915,-34.01563,156.8            151.014952,-34.015612,157            151.014994,-34.015594,157.4            151.015077,-34.015562,157.2            151.015091,-34.015557,157.2            151.015157,-34.015542,157.4            151.015222,-34.015532,157.4            151.015268,-34.015533,157.6            151.015312,-34.015536,157.4            151.015327,-34.015536,157.4            151.015424,-34.015526,157.4            151.015454,-34.015522,157.6            151.015515,-34.015505,158            151.015531,-34.015501,158            151.015629,-34.015469,158.2            151.015747,-34.01544,158.4            151.015858,-34.01544,158.2            151.015939,-34.015429,158.6            151.015983,-34.015405,158.8            151.016009,-34.015402,158.8            151.016022,-34.015406,158.8            151.016044,-34.015416,158.6            151.016059,-34.015446,158.8            151.016056,-34.015458,159            151.016036,-34.015502,159            151.016024,-34.015537,159            151.016018,-34.015582,159            151.015999,-34.015632,159.2            151.015991,-34.015714,159.6            151.01599,-34.015728,159.6            151.015969,-34.015776,159.4            151.015962,-34.01579,159.4            151.015955,-34.015808,159.6            151.015937,-34.015875,159.8            151.015929,-34.015889,159.8            151.015875,-34.016004,159.8            151.015861,-34.016096,159.6            151.015871,-34.016141,159.6            151.015874,-34.016153,159.8            151.015884,-34.016174,159.8            151.0159,-34.016197,160            151.015903,-34.016207,160            151.01591,-34.016218,160.2            151.015931,-34.016254,160.2            151.015937,-34.016263,160.2            151.01596,-34.016287,160            151.015974,-34.016298,159.8            151.016,-34.016325,159.8            151.016018,-34.016353,160            151.01602,-34.016362,160            151.016021,-34.01645,160.6            151.016022,-34.016495,160.8            151.016014,-34.01652,160.8            151.016012,-34.016549,160.8            151.016006,-34.016568,160.8            151.016001,-34.016581,160.8            151.016002,-34.016591,160.8            151.015998,-34.016617,160.8            151.016009,-34.016701,160.6            151.01602,-34.016748,160.8            151.016027,-34.016767,161            151.01603,-34.016781,161            151.016043,-34.016832,161            151.016045,-34.01686,161.2            151.016052,-34.016893,161.2            151.016054,-34.016932,161            151.016056,-34.016956,161            151.016078,-34.017008,161.4            151.016084,-34.01703,161.4            151.016084,-34.01704,161.4            151.016086,-34.017089,161.6            151.01608,-34.017115,161.6            151.016057,-34.017159,161.6            151.016044,-34.017208,161.6            151.016031,-34.017251,161.4            151.016033,-34.01728,161.4            151.01603,-34.017306,161.2            151.016008,-34.017376,160.8            151.01601,-34.017388,160.8            151.016016,-34.017409,161            151.01603,-34.017436,161            151.016046,-34.017471,161.2            151.016053,-34.017486,161.4            151.016069,-34.01753,161.8            151.016064,-34.017571,162.2            151.016062,-34.017585,162.2            151.01606,-34.017668,162.8            151.016049,-34.017745,163.2            151.016044,-34.017787,163.4            151.016046,-34.017803,163.4            151.01605,-34.017831,163.8            151.016055,-34.017836,164            151.016062,-34.017839,163.8            151.016069,-34.017842,164            151.016075,-34.017831,164            151.016075,-34.017826,164.2            151.016072,-34.017825,164.2            151.016074,-34.017813,164.4            151.016077,-34.017784,164.6            151.01608,-34.017772,164.8            151.016105,-34.017763,165            151.016116,-34.01776,165            151.016104,-34.017765,165            151.016099,-34.017769,165            151.016083,-34.017776,165.2            151.016079,-34.01778,165.4            151.016073,-34.017798,165.4            151.016069,-34.017857,165.8            151.016064,-34.01793,166.4            151.016053,-34.017972,166.6            151.016037,-34.018046,166.8            151.016036,-34.018137,167            151.016029,-34.01817,168            151.016029,-34.018182,168.4            151.016031,-34.018196,168.4            151.016034,-34.018211,168.2            151.016031,-34.018246,168.4            151.016027,-34.018261,168.2            151.016033,-34.018272,168.2            151.016046,-34.018301,168            151.016077,-34.018347,167.6            151.016088,-34.018359,167.4            151.016099,-34.01837,167            151.016134,-34.018437,166.6            151.016152,-34.018464,166.4            151.016165,-34.018491,166            151.016175,-34.018496,165.8            151.016196,-34.018487,165.8            151.016192,-34.018481,165.6            151.016188,-34.018466,165.6            151.016186,-34.018451,165.6            151.016175,-34.018427,165.4            151.016156,-34.018374,165            151.016145,-34.018366,165            151.016125,-34.01832,164.4            151.016096,-34.018301,164.2            151.016079,-34.0183,163.8            151.016053,-34.018304,163.6            151.016021,-34.018306,163.6            151.01599,-34.018309,163.4            151.015946,-34.018291,163            151.015938,-34.018268,163            151.01594,-34.018257,163            151.01594,-34.018243,163            151.015938,-34.018237,163            151.015942,-34.018226,163            151.015943,-34.018222,163            151.015944,-34.018222,163            151.015943,-34.018223,162.8            151.015945,-34.018219,163.4            151.015948,-34.018217,163.4            151.015951,-34.018217,163.4            151.015951,-34.018223,163            151.015946,-34.018222,163            151.015942,-34.018221,163            151.015891,-34.018215,162.8            151.015864,-34.018218,162.4            151.015835,-34.018219,162.4            151.01577,-34.018207,161.8            151.01567,-34.018193,161.2            151.015545,-34.018175,160.8            151.015497,-34.018162,160.8            151.015471,-34.018155,160.6            151.015284,-34.018102,160.4            151.015272,-34.018098,160.2            151.015261,-34.018094,160.2            151.015195,-34.018071,159.8            151.015164,-34.018057,159.6            151.015035,-34.018013,158.8            151.015003,-34.017998,158.6            151.01499,-34.017993,158.4            151.014841,-34.017946,158.2            151.01476,-34.01792,157.8            151.01473,-34.017914,157.8            151.014714,-34.017911,157.6            151.01464,-34.01789,157.6            151.014479,-34.01782,157            151.014465,-34.017813,157            151.014347,-34.017758,156.6            151.014326,-34.017748,156.4            151.01417,-34.017647,155.8            151.014117,-34.017601,155.6            151.014107,-34.017594,155.6            151.014062,-34.017563,155.2            151.013947,-34.017475,154.6            151.013935,-34.017465,154.4            151.013825,-34.017373,154            151.013804,-34.017351,153.8            151.013665,-34.017244,153.4            151.013656,-34.017235,153.4            151.013582,-34.017177,153            151.01354,-34.017134,152.4            151.013534,-34.017125,152.4            151.013519,-34.017111,152.4            151.013508,-34.017103,152.4            151.01348,-34.017065,152.2            151.01345,-34.01704,152            151.013437,-34.017024,152            151.013401,-34.016983,151.8            151.013335,-34.016928,151.4            151.013287,-34.016868,151.2            151.013179,-34.016784,151            151.013146,-34.016749,151            151.013138,-34.016736,150.8            151.013139,-34.016734,150.8            151.013138,-34.016725,150.4            151.013141,-34.016721,150.4            151.013141,-34.01672,150.4            151.013139,-34.016718,150.4            151.013146,-34.016718,150.2            151.013187,-34.016758,150.2            151.013248,-34.016807,150.8            151.013265,-34.01682,150.8            151.013307,-34.016847,151            151.013343,-34.016879,151            151.013371,-34.016916,151.4            151.01339,-34.016934,151.4            151.01344,-34.01701,151.4            151.013484,-34.017065,151.4            151.013492,-34.01707,151.4            151.013516,-34.017077,151.4            151.013528,-34.017081,151.4            151.013546,-34.017084,151.4            151.013578,-34.017097,151.8            151.013598,-34.017104,152            151.013616,-34.017112,152.2            151.013635,-34.017123,152.4            151.013649,-34.017134,152.4            151.01368,-34.017169,152.6            151.013692,-34.017181,152.8            151.013721,-34.017209,153            151.013746,-34.017243,153.2            151.013794,-34.017304,153.6            151.013881,-34.017385,154            151.013919,-34.017427,154.4            151.013993,-34.017495,154.4            151.014027,-34.017524,154.4            151.01405,-34.017541,154.2            151.014103,-34.017575,154.4            151.014143,-34.0176,154.6            151.01418,-34.017623,155            151.014195,-34.01763,155            151.014206,-34.017637,155.2            151.014229,-34.017653,155.2            151.014254,-34.017669,155.4            151.014303,-34.017702,155.8            151.014314,-34.017707,155.8            151.014431,-34.017753,156.4            151.014483,-34.017773,156.8            151.014509,-34.017786,156.8            151.014579,-34.017803,157            151.014695,-34.017853,157.2            151.014709,-34.017859,157.2            151.014811,-34.0179,157.2            151.014865,-34.017927,157            151.01491,-34.017943,157.4            151.014923,-34.017949,157.6            151.014987,-34.017975,157.8            151.015037,-34.01799,158.6            151.015083,-34.018001,158.8            151.015154,-34.018021,159            151.015234,-34.018042,159            151.015249,-34.018044,158.8            151.015289,-34.018056,158.8            151.015365,-34.018082,159.4            151.015415,-34.018093,159.6            151.015435,-34.018101,159.8            151.015536,-34.018126,160.6            151.015635,-34.018151,161            151.015708,-34.018172,161.4            151.01572,-34.018177,161.6            151.015729,-34.018181,161.6            151.01579,-34.018191,161.8            151.015818,-34.018201,162            151.015834,-34.0182,162            151.015871,-34.018208,161.8            151.01596,-34.018209,163.4            151.016001,-34.018209,163            151.016036,-34.018204,163.4            151.016107,-34.018186,163.2            151.016154,-34.018183,163            151.016199,-34.01818,163            151.016214,-34.018179,163            151.016257,-34.018175,163            151.016324,-34.018166,162.8            151.016339,-34.018161,162.8            151.016469,-34.018147,162.8            151.016508,-34.018138,162.6            151.016542,-34.018135,162.6            151.016636,-34.018126,162.4            151.016749,-34.018109,162.4            151.01694,-34.01808,161.6            151.016956,-34.018079,161.6            151.017036,-34.018064,161.6            151.017125,-34.018054,161.2            151.017194,-34.018038,160.8            151.017207,-34.018035,160.8            151.017269,-34.018022,160.6            151.017341,-34.018003,160.4            151.017398,-34.017992,160.2            151.017415,-34.017989,160.2            151.017442,-34.017979,160            151.017467,-34.017972,159.8            151.017505,-34.017958,159.6            151.017605,-34.017932,159.2            151.017696,-34.017912,158.6            151.017731,-34.017905,158.6            151.017803,-34.017891,158            151.017843,-34.017885,157.8            151.017904,-34.017866,157.6            151.017929,-34.01787,157.6            151.018014,-34.017866,157.2            151.018099,-34.017845,157            151.01813,-34.017831,156.8            151.018168,-34.017817,156.4            151.01823,-34.017802,156            151.018256,-34.017798,155.8            151.018341,-34.017778,155.8            151.018426,-34.017763,156            151.01844,-34.01776,155.8            151.018471,-34.017754,155.8            151.018529,-34.017743,155.2            151.01863,-34.017714,155            151.018644,-34.01771,154.8            151.018695,-34.017705,154.2            151.018704,-34.017702,154            151.018716,-34.017698,153.8            151.01876,-34.017683,153.8            151.018792,-34.017666,153.8            151.018841,-34.017647,153.6            151.018919,-34.01763,153.4            151.018995,-34.017622,153            151.019022,-34.017619,152.8            151.019111,-34.017622,152.6            151.019177,-34.017634,152.4            151.019234,-34.017664,152.2            151.01926,-34.017684,152            151.019275,-34.017696,151.8            151.019281,-34.017705,151.6            151.019295,-34.017725,151.6            151.019302,-34.017749,151.4            151.019306,-34.017771,151            151.019313,-34.017776,151            151.019326,-34.017785,151.4            151.019325,-34.017786,151.4            151.019326,-34.017788,151.4            151.019335,-34.017796,151.4            151.019332,-34.017792,151.4            151.019325,-34.017772,151.4            151.019313,-34.017752,151.4            151.019266,-34.017707,151.4            151.019259,-34.017707,151.4            151.019218,-34.017694,151.6            151.019199,-34.017696,151.8            151.019121,-34.0177,152.4            151.019093,-34.017704,152.4            151.018966,-34.017711,152.8            151.01885,-34.017737,153.2            151.018805,-34.017748,153.2            151.018795,-34.01775,153.2            151.018781,-34.017754,153.2            151.018757,-34.017757,153.4            151.018744,-34.017761,153.4            151.018717,-34.017765,153.4            151.018644,-34.017776,153.4            151.018631,-34.01778,153.4            151.018585,-34.017787,153.8            151.018512,-34.017802,154.2            151.018491,-34.017806,154.2            151.018452,-34.017817,154.4            151.018348,-34.017835,154.4            151.018263,-34.017873,154.8            151.018248,-34.017881,154.8            151.018168,-34.017905,155.4            151.018147,-34.017911,155.6            151.018136,-34.017914,155.6            151.018122,-34.017916,155.6            151.018093,-34.017925,155.8            151.018084,-34.017927,156            151.01801,-34.01795,156.2            151.01787,-34.017988,157            151.017809,-34.018005,157            151.017697,-34.018029,157.8            151.01761,-34.018048,158            151.017543,-34.018052,158.4            151.017499,-34.018055,158.6            151.017429,-34.018069,159            151.017347,-34.018078,159.4            151.017327,-34.018082,159.4            151.017212,-34.018105,159.6            151.017191,-34.018109,159.8            151.017141,-34.018122,159.8            151.017099,-34.018126,159.8            151.017086,-34.018129,159.8            151.017058,-34.018139,160            151.017005,-34.018153,160.4            151.016906,-34.018178,160.4            151.016866,-34.018183,160.4            151.016832,-34.018187,160.6            151.016767,-34.018192,160.6            151.016696,-34.018198,160.8            151.016677,-34.018199,160.8            151.016658,-34.018199,161            151.01661,-34.018203,161.2            151.016539,-34.018209,161.4            151.016528,-34.018217,161.4            151.016437,-34.018224,161.4            151.016423,-34.018223,161.4            151.016411,-34.018224,161.6            151.016331,-34.018233,161.4            151.016291,-34.018229,161.4            151.016227,-34.018228,161.6            151.016184,-34.018228,161.8            151.016128,-34.018228,162.2            151.016097,-34.018227,162.4            151.016054,-34.018223,162.6            151.016042,-34.018228,162.8            151.016034,-34.018233,162.8            151.016036,-34.018231,162.8            151.016036,-34.01823,162.6            151.016034,-34.018228,162.8            151.016041,-34.018266,162.8            151.016107,-34.018263,163            151.01615,-34.018263,163            151.016182,-34.018286,163.4            151.016183,-34.018297,163.4            151.016187,-34.018309,163.6            151.016194,-34.01832,163.6            151.016213,-34.018382,164.4            151.016224,-34.0184,164.6            151.016241,-34.018462,165            151.016235,-34.018508,165            151.016226,-34.018518,165            151.016207,-34.018519,165.2            151.016206,-34.018505,165.4            151.016194,-34.01847,165.6            151.016184,-34.018458,165.8            151.016167,-34.018432,166.2            151.016158,-34.018419,166.6            151.016096,-34.018349,167            151.016088,-34.018335,167.2            151.01608,-34.018276,167.6            151.016083,-34.018268,167.6            151.016088,-34.018251,167.6            151.016094,-34.01823,167.6            151.016094,-34.018178,167.4            151.016088,-34.018116,166.8            151.016088,-34.018105,166.8            151.016092,-34.018095,166.8            151.016096,-34.018084,166.8            151.016103,-34.018025,166.8            151.016103,-34.018006,166.6            151.016106,-34.017941,166.4            151.016111,-34.017857,166            151.016124,-34.01779,165.6            151.016136,-34.017772,165.4            151.016142,-34.017766,165.4            151.016147,-34.017768,165.2            151.016136,-34.01777,165.2            151.016127,-34.017786,165            151.016116,-34.017804,164.4            151.016107,-34.017832,164.2            151.016087,-34.017852,164            151.016051,-34.017865,164            151.01604,-34.017864,164            151.016028,-34.017867,164            151.016021,-34.017862,164            151.016027,-34.017836,164            151.016039,-34.017806,163.6            151.016042,-34.017795,163.6            151.016045,-34.017784,163.4            151.016046,-34.017772,163.4            151.016048,-34.017727,163            151.016049,-34.017719,163            151.016047,-34.017711,163            151.016045,-34.017626,162.2            151.016038,-34.017504,161.6            151.01605,-34.017377,161.6            151.016083,-34.017229,161.6            151.016089,-34.017202,161.4            151.01608,-34.017126,161.4            151.016082,-34.017113,161.4            151.016084,-34.017082,161.2            151.016088,-34.017028,161            151.016082,-34.017019,161            151.016072,-34.017011,161            151.016067,-34.01701,160.8            151.016057,-34.016995,161            151.016052,-34.016991,161            151.016052,-34.01699,160.8            151.016058,-34.016988,160.8            151.016059,-34.016988,161            151.016069,-34.016986,161            151.016066,-34.016976,161            151.016061,-34.01697,160.8            151.016062,-34.016966,160.6            151.016059,-34.016921,160.6            151.016058,-34.016917,160.6            151.016052,-34.016901,160.4            151.016051,-34.016875,160.4            151.01605,-34.016854,161.2            151.016048,-34.016846,161.2            151.016047,-34.016788,160.6            151.016046,-34.016736,160.6            151.016044,-34.016725,160.4            151.016044,-34.016716,160.4            151.016052,-34.01662,160.2            151.016053,-34.016611,160.2            151.016054,-34.016463,160.4            151.015979,-34.016319,160            151.015916,-34.016242,159.8            151.01586,-34.01625,159.6            151.015841,-34.016269,159.4            151.015825,-34.016289,159.4            151.015811,-34.016324,159.4            151.015782,-34.016374,159.4            151.015769,-34.016388,159.2            151.015754,-34.016404,159.2            151.015751,-34.016411,159            151.015692,-34.016444,159            151.015637,-34.016484,158.8            151.015591,-34.016505,158.6            151.015577,-34.016507,158.6            151.015539,-34.01652,158.4            151.015486,-34.016525,158.4            151.015459,-34.016527,158.4            151.015448,-34.016533,158.2            151.015447,-34.016534,158.2            151.015443,-34.016533,158.2            151.015439,-34.016527,158.4            151.015442,-34.016528,158.2            151.015443,-34.01653,158.2            151.015444,-34.016531,158            151.015443,-34.016531,158.2            151.01545,-34.016531,158.2            151.015448,-34.01653,158.2          </coordinates></LineString></Placemark></Folder></Document></kml>