<?xml version="1.0" encoding="UTF-8"?><kml xmlns="http://www.opengis.net/kml/2.2"><Document><name>Meningie parkrun</name><description/><Style id="icon-1899-FFEA00-nodesc-normal"><IconStyle><color>ff00eaff</color><scale>1</scale><Icon><href>https://www.gstatic.com/mapspro/images/stock/503-wht-blank_maps.png</href></Icon><hotSpot x="32" xunits="pixels" y="64" yunits="insetPixels"/></IconStyle><LabelStyle><scale>0</scale></LabelStyle><BalloonStyle><text><![CDATA[<h3>$[name]</h3>]]></text></BalloonStyle></Style><Style id="icon-1899-FFEA00-nodesc-highlight"><IconStyle><color>ff00eaff</color><scale>1</scale><Icon><href>https://www.gstatic.com/mapspro/images/stock/503-wht-blank_maps.png</href></Icon><hotSpot x="32" xunits="pixels" y="64" yunits="insetPixels"/></IconStyle><LabelStyle><scale>1</scale></LabelStyle><BalloonStyle><text><![CDATA[<h3>$[name]</h3>]]></text></BalloonStyle></Style><StyleMap id="icon-1899-FFEA00-nodesc"><Pair><key>normal</key><styleUrl>#icon-1899-FFEA00-nodesc-normal</styleUrl></Pair><Pair><key>highlight</key><styleUrl>#icon-1899-FFEA00-nodesc-highlight</styleUrl></Pair></StyleMap><Style id="line-0288D1-4875-nodesc-normal"><LineStyle><color>ffd18802</color><width>4.875</width></LineStyle><BalloonStyle><text><![CDATA[<h3>$[name]</h3>]]></text></BalloonStyle></Style><Style id="line-0288D1-4875-nodesc-highlight"><LineStyle><color>ffd18802</color><width>7.3125</width></LineStyle><BalloonStyle><text><![CDATA[<h3>$[name]</h3>]]></text></BalloonStyle></Style><StyleMap id="line-0288D1-4875-nodesc"><Pair><key>normal</key><styleUrl>#line-0288D1-4875-nodesc-normal</styleUrl></Pair><Pair><key>highlight</key><styleUrl>#line-0288D1-4875-nodesc-highlight</styleUrl></Pair></StyleMap><Folder><name>Untitled layer</name><Placemark><name>Course</name><styleUrl>#line-0288D1-4875-nodesc</styleUrl><LineString><tessellate>1</tessellate><coordinates>            139.33822,-35.686133,0            139.338222,-35.686072,0            139.338265,-35.686024,0            139.338375,-35.685952,0            139.338423,-35.685878,0            139.338523,-35.685767,0            139.338616,-35.685708,0            139.338748,-35.685632,0            139.338893,-35.685558,0            139.33896,-35.68551,0            139.338973,-35.685418,0            139.339075,-35.685355,0            139.339096,-35.685301,0            139.339346,-35.685081,0            139.339351,-35.684974,0            139.339319,-35.684843,0            139.339421,-35.684684,0            139.339494,-35.684612,0            139.339587,-35.684543,0            139.339657,-35.684506,0            139.339735,-35.684399,0            139.339826,-35.684222,0            139.339923,-35.684057,0            139.340196,-35.683612,0            139.340352,-35.683364,0            139.340344,-35.68327,0            139.340472,-35.683102,0            139.340636,-35.682835,0            139.340867,-35.682434,0            139.341098,-35.68207,0            139.341253,-35.681782,0            139.341371,-35.681628,0            139.3411,-35.682022,0            139.340762,-35.682586,0            139.340325,-35.683292,0            139.340333,-35.683377,0            139.339735,-35.684379,0            139.339649,-35.684532,0            139.339451,-35.684625,0            139.339306,-35.684826,0            139.339324,-35.684952,0            139.33933,-35.685055,0            139.339306,-35.685098,0            139.339102,-35.685277,0            139.339067,-35.685342,0            139.338976,-35.685436,0            139.338944,-35.685543,0            139.338662,-35.685688,0            139.338533,-35.685767,0            139.338448,-35.685843,0            139.338343,-35.68598,0            139.338295,-35.68602,0            139.33816,-35.686057,0            139.338016,-35.686153,0            139.337898,-35.686207,0            139.337852,-35.686316,0            139.337616,-35.68646,0            139.337549,-35.686519,0            139.337495,-35.686636,0            139.337409,-35.686745,0            139.337375,-35.686854,0            139.337401,-35.687078,0            139.337415,-35.68717,0            139.337377,-35.687257,0            139.337326,-35.687327,0            139.337297,-35.687442,0            139.33734,-35.687512,0            139.337506,-35.68761,0            139.337715,-35.687749,0            139.337852,-35.687815,0            139.337986,-35.687837,0            139.338061,-35.687719,0            139.338152,-35.687527,0            139.33827,-35.687325,0            139.338332,-35.687205,0            139.338402,-35.687065,0          </coordinates></LineString></Placemark><Placemark><name>Start/Finish</name><styleUrl>#icon-1899-FFEA00-nodesc</styleUrl><Point><coordinates>            139.33822,-35.686133,0          </coordinates></Point></Placemark></Folder></Document></kml>