<?xml version="1.0" encoding="UTF-8"?><kml xmlns="http://www.opengis.net/kml/2.2"><Document><name>Mernda parkrun</name><description/><Style id="icon-1899-0F9D58-nodesc-normal"><IconStyle><color>ff589d0f</color><scale>1</scale><Icon><href>https://www.gstatic.com/mapspro/images/stock/503-wht-blank_maps.png</href></Icon><hotSpot x="32" xunits="pixels" y="64" yunits="insetPixels"/></IconStyle><LabelStyle><scale>0</scale></LabelStyle><BalloonStyle><text><![CDATA[<h3>$[name]</h3>]]></text></BalloonStyle></Style><Style id="icon-1899-0F9D58-nodesc-highlight"><IconStyle><color>ff589d0f</color><scale>1</scale><Icon><href>https://www.gstatic.com/mapspro/images/stock/503-wht-blank_maps.png</href></Icon><hotSpot x="32" xunits="pixels" y="64" yunits="insetPixels"/></IconStyle><LabelStyle><scale>1</scale></LabelStyle><BalloonStyle><text><![CDATA[<h3>$[name]</h3>]]></text></BalloonStyle></Style><StyleMap id="icon-1899-0F9D58-nodesc"><Pair><key>normal</key><styleUrl>#icon-1899-0F9D58-nodesc-normal</styleUrl></Pair><Pair><key>highlight</key><styleUrl>#icon-1899-0F9D58-nodesc-highlight</styleUrl></Pair></StyleMap><Style id="icon-1899-A52714-nodesc-normal"><IconStyle><color>ff1427a5</color><scale>1</scale><Icon><href>https://www.gstatic.com/mapspro/images/stock/503-wht-blank_maps.png</href></Icon><hotSpot x="32" xunits="pixels" y="64" yunits="insetPixels"/></IconStyle><LabelStyle><scale>0</scale></LabelStyle><BalloonStyle><text><![CDATA[<h3>$[name]</h3>]]></text></BalloonStyle></Style><Style id="icon-1899-A52714-nodesc-highlight"><IconStyle><color>ff1427a5</color><scale>1</scale><Icon><href>https://www.gstatic.com/mapspro/images/stock/503-wht-blank_maps.png</href></Icon><hotSpot x="32" xunits="pixels" y="64" yunits="insetPixels"/></IconStyle><LabelStyle><scale>1</scale></LabelStyle><BalloonStyle><text><![CDATA[<h3>$[name]</h3>]]></text></BalloonStyle></Style><StyleMap id="icon-1899-A52714-nodesc"><Pair><key>normal</key><styleUrl>#icon-1899-A52714-nodesc-normal</styleUrl></Pair><Pair><key>highlight</key><styleUrl>#icon-1899-A52714-nodesc-highlight</styleUrl></Pair></StyleMap><Style id="line-0288D1-5069-nodesc-normal"><LineStyle><color>ffd18802</color><width>5.069</width></LineStyle><BalloonStyle><text><![CDATA[<h3>$[name]</h3>]]></text></BalloonStyle></Style><Style id="line-0288D1-5069-nodesc-highlight"><LineStyle><color>ffd18802</color><width>7.6035</width></LineStyle><BalloonStyle><text><![CDATA[<h3>$[name]</h3>]]></text></BalloonStyle></Style><StyleMap id="line-0288D1-5069-nodesc"><Pair><key>normal</key><styleUrl>#line-0288D1-5069-nodesc-normal</styleUrl></Pair><Pair><key>highlight</key><styleUrl>#line-0288D1-5069-nodesc-highlight</styleUrl></Pair></StyleMap><Folder><name>Untitled layer</name><Placemark><name>Course</name><styleUrl>#line-0288D1-5069-nodesc</styleUrl><LineString><tessellate>1</tessellate><coordinates>            145.0962991,-37.5914765,0            145.096312,-37.591379,0            145.096269,-37.59126,0            145.095846,-37.59129,0            145.0958378,-37.5913854,0            145.09613,-37.591485,0            145.0962991,-37.5914765,0            145.0964747,-37.5914703,0            145.0966931,-37.5913833,0            145.096929,-37.591358,0            145.097068,-37.591371,0            145.097589,-37.591485,0            145.0977095,-37.5915531,0            145.097852,-37.592051,0            145.097809,-37.592191,0            145.09783,-37.592442,0            145.097739,-37.592918,0            145.097686,-37.593079,0            145.097551,-37.593368,0            145.098098,-37.593462,0            145.098324,-37.593458,0            145.098485,-37.593577,0            145.0986298,-37.593594,0            145.0987611,-37.5935281,0            145.098859,-37.5935154,0            145.0990186,-37.5935196,0            145.099027,-37.593445,0            145.09908,-37.593356,0            145.0990772,-37.5932583,0            145.099112,-37.593152,0            145.099102,-37.593071,0            145.0991427,-37.5929241,0            145.099102,-37.593071,0            145.099112,-37.593152,0            145.0990772,-37.5932583,0            145.09908,-37.593356,0            145.099364,-37.593181,0            145.099526,-37.59279,0            145.099574,-37.592722,0            145.09967,-37.592654,0            145.09981,-37.592586,0            145.099901,-37.592548,0            145.099922,-37.592488,0            145.100169,-37.592463,0            145.1002685,-37.592493,0            145.1005679,-37.5927111,0            145.100722,-37.592744,0            145.101011,-37.5926283,0            145.101296,-37.59262,0            145.10144,-37.592684,0            145.1015145,-37.5927977,0            145.101542,-37.592922,0            145.1014619,-37.5930221,0            145.101371,-37.59322,0            145.101365,-37.593415,0            145.101317,-37.593594,0            145.101226,-37.593674,0            145.1010772,-37.5936946,0            145.1009911,-37.5936873,0            145.1008031,-37.593663,0            145.10069,-37.593674,0            145.100416,-37.593721,0            145.1001398,-37.5936884,0            145.0999038,-37.5936451,0            145.0997001,-37.5936011,0            145.0993864,-37.5936092,0            145.099188,-37.593594,0            145.0990482,-37.5935518,0            145.0990186,-37.5935196,0            145.0990482,-37.5935518,0            145.099188,-37.593594,0            145.0993864,-37.5936092,0            145.0997001,-37.5936011,0            145.0999038,-37.5936451,0            145.1001398,-37.5936884,0            145.100416,-37.593721,0            145.10069,-37.593674,0            145.1008031,-37.593663,0            145.1009911,-37.5936873,0            145.1010772,-37.5936946,0            145.101226,-37.593674,0            145.101317,-37.593594,0            145.101371,-37.59367,0            145.101457,-37.593734,0            145.1015149,-37.5937715,0            145.101542,-37.593912,0            145.1014888,-37.5940719,0            145.101398,-37.594184,0            145.101344,-37.594486,0            145.1008303,-37.5955314,0            145.1007164,-37.5957529,0            145.100523,-37.595999,0            145.1002912,-37.5962572,0            145.1002189,-37.5964245,0            145.1001104,-37.5965058,0          </coordinates></LineString></Placemark><Placemark><name>Start</name><styleUrl>#icon-1899-0F9D58-nodesc</styleUrl><Point><coordinates>            145.100502,-37.593653,0          </coordinates></Point></Placemark><Placemark><name>Finish</name><styleUrl>#icon-1899-A52714-nodesc</styleUrl><Point><coordinates>            145.099134,-37.592948,0          </coordinates></Point></Placemark></Folder></Document></kml>