<?xml version="1.0" encoding="UTF-8"?><kml xmlns="http://www.opengis.net/kml/2.2"><Document><name>Miles parkrun</name><description/><Style id="icon-1899-FFD600-nodesc-normal"><IconStyle><color>ff00d6ff</color><scale>1</scale><Icon><href>https://www.gstatic.com/mapspro/images/stock/503-wht-blank_maps.png</href></Icon><hotSpot x="32" xunits="pixels" y="64" yunits="insetPixels"/></IconStyle><LabelStyle><scale>0</scale></LabelStyle><BalloonStyle><text><![CDATA[<h3>$[name]</h3>]]></text></BalloonStyle></Style><Style id="icon-1899-FFD600-nodesc-highlight"><IconStyle><color>ff00d6ff</color><scale>1</scale><Icon><href>https://www.gstatic.com/mapspro/images/stock/503-wht-blank_maps.png</href></Icon><hotSpot x="32" xunits="pixels" y="64" yunits="insetPixels"/></IconStyle><LabelStyle><scale>1</scale></LabelStyle><BalloonStyle><text><![CDATA[<h3>$[name]</h3>]]></text></BalloonStyle></Style><StyleMap id="icon-1899-FFD600-nodesc"><Pair><key>normal</key><styleUrl>#icon-1899-FFD600-nodesc-normal</styleUrl></Pair><Pair><key>highlight</key><styleUrl>#icon-1899-FFD600-nodesc-highlight</styleUrl></Pair></StyleMap><Style id="line-0288D1-5263-nodesc-normal"><LineStyle><color>ffd18802</color><width>5.263</width></LineStyle><BalloonStyle><text><![CDATA[<h3>$[name]</h3>]]></text></BalloonStyle></Style><Style id="line-0288D1-5263-nodesc-highlight"><LineStyle><color>ffd18802</color><width>7.8945</width></LineStyle><BalloonStyle><text><![CDATA[<h3>$[name]</h3>]]></text></BalloonStyle></Style><StyleMap id="line-0288D1-5263-nodesc"><Pair><key>normal</key><styleUrl>#line-0288D1-5263-nodesc-normal</styleUrl></Pair><Pair><key>highlight</key><styleUrl>#line-0288D1-5263-nodesc-highlight</styleUrl></Pair></StyleMap><Folder><name>Untitled layer</name><Placemark><name><![CDATA[Start & Finish]]></name><styleUrl>#icon-1899-FFD600-nodesc</styleUrl><Point><coordinates>            150.180284,-26.656671,0          </coordinates></Point></Placemark><Placemark><name>Course</name><styleUrl>#line-0288D1-5263-nodesc</styleUrl><LineString><tessellate>1</tessellate><coordinates>            150.180281,-26.656688,0            150.180327,-26.65664,0            150.180354,-26.656563,0            150.180375,-26.656479,0            150.180354,-26.656405,0            150.180327,-26.656367,0            150.180286,-26.656321,0            150.180265,-26.656288,0            150.180219,-26.65622,0            150.180187,-26.656165,0            150.180123,-26.656089,0            150.18012,-26.655983,0            150.180093,-26.655911,0            150.180069,-26.655823,0            150.180096,-26.655734,0            150.180158,-26.655664,0            150.180252,-26.655573,0            150.180316,-26.655523,0            150.180402,-26.655468,0            150.180574,-26.65543,0            150.180635,-26.655415,0            150.180657,-26.655444,0            150.180646,-26.655509,0            150.180657,-26.655556,0            150.180689,-26.655604,0            150.18071,-26.655667,0            150.180734,-26.655763,0            150.180713,-26.655847,0            150.180657,-26.655897,0            150.180606,-26.655926,0            150.180557,-26.655981,0            150.180539,-26.656038,0            150.180539,-26.656115,0            150.180565,-26.656189,0            150.180555,-26.656228,0            150.18052,-26.656292,0            150.180474,-26.65634,0            150.180426,-26.656391,0            150.180372,-26.65642,0            150.180311,-26.656336,0            150.180268,-26.656285,0            150.180244,-26.656242,0            150.180211,-26.656192,0            150.180155,-26.656127,0            150.180128,-26.656084,0            150.180128,-26.656026,0            150.180128,-26.65599,0            150.180107,-26.655918,0            150.180077,-26.655854,0            150.180072,-26.655815,0            150.180085,-26.655751,0            150.180144,-26.655679,0            150.180228,-26.655602,0            150.180305,-26.655535,0            150.180364,-26.655494,0            150.180407,-26.655461,0            150.180512,-26.655442,0            150.180587,-26.655432,0            150.180646,-26.655418,0            150.180667,-26.655348,0            150.1807,-26.655274,0            150.180732,-26.655247,0            150.181166,-26.655269,0            150.181214,-26.65529,0            150.181214,-26.655334,0            150.181206,-26.655386,0            150.181214,-26.655454,0            150.181236,-26.655513,0            150.181252,-26.655595,0            150.181252,-26.655664,0            150.181228,-26.655729,0            150.181196,-26.655794,0            150.181156,-26.655878,0            150.181137,-26.655928,0            150.181134,-26.655986,0            150.181134,-26.656048,0            150.181115,-26.65612,0            150.181102,-26.65618,0            150.181091,-26.656242,0            150.181064,-26.656283,0            150.181048,-26.656319,0            150.181054,-26.656362,0            150.181064,-26.656398,0            150.181072,-26.656436,0            150.181088,-26.656487,0            150.18108,-26.656566,0            150.18107,-26.656635,0            150.181048,-26.656707,0            150.181024,-26.656765,0            150.180952,-26.656825,0            150.180895,-26.656908,0            150.180839,-26.656944,0            150.180756,-26.656997,0            150.180673,-26.657062,0            150.180533,-26.657143,0            150.180453,-26.657191,0            150.18041,-26.657206,0            150.180348,-26.657232,0            150.180313,-26.657287,0            150.18026,-26.657352,0            150.180236,-26.65741,0            150.180211,-26.657458,0            150.180182,-26.657517,0            150.180131,-26.657548,0            150.180048,-26.657577,0            150.179951,-26.657613,0            150.179892,-26.657664,0            150.179796,-26.657738,0            150.179723,-26.657805,0            150.179672,-26.657863,0            150.179594,-26.657963,0            150.179535,-26.658064,0            150.179466,-26.658165,0            150.179307,-26.658512,0            150.179117,-26.658675,0            150.179028,-26.658769,0            150.178811,-26.65896,0            150.178656,-26.659097,0            150.178514,-26.659238,0            150.178438,-26.659361,0            150.178401,-26.659478,0            150.178385,-26.659639,0            150.178385,-26.659742,0            150.178396,-26.659838,0            150.178457,-26.659962,0            150.178554,-26.66013,0            150.178648,-26.660303,0            150.178792,-26.660526,0            150.178833,-26.660598,0            150.178881,-26.660696,0            150.178905,-26.660806,0            150.178902,-26.660938,0            150.178916,-26.661067,0            150.178913,-26.661221,0            150.178897,-26.661393,0            150.1789,-26.661487,0            150.178932,-26.661568,0            150.178972,-26.661686,0            150.179002,-26.661794,0            150.17901,-26.661909,0            150.178999,-26.662036,0            150.178991,-26.662247,0            150.178988,-26.662359,0            150.179028,-26.662527,0            150.179066,-26.662707,0            150.179088,-26.662817,0            150.179125,-26.662892,0            150.179232,-26.662978,0            150.179407,-26.663059,0            150.179662,-26.663218,0            150.179761,-26.663285,0            150.179865,-26.663328,0            150.179975,-26.663354,0            150.180163,-26.663474,0            150.180313,-26.66358,0            150.180488,-26.663776,0            150.180638,-26.663944,0            150.180753,-26.664085,0            150.180922,-26.664277,0            150.181064,-26.66445,0            150.181367,-26.664696,0            150.181477,-26.664778,0            150.181665,-26.664903,0            150.181748,-26.664953,0            150.181893,-26.665111,0            150.181963,-26.665214,0            150.182043,-26.665312,0            150.182151,-26.665408,0            150.182328,-26.665509,0            150.18258,-26.665605,0            150.182802,-26.665713,0            150.183001,-26.665847,0            150.183234,-26.665993,0            150.183438,-26.66613,0            150.183489,-26.666204,0            150.183553,-26.666326,0            150.183663,-26.666525,0            150.183744,-26.666643,0            150.184044,-26.66687,0            150.184452,-26.667196,0            150.184616,-26.667343,0            150.184771,-26.667496,0            150.184878,-26.667575,0            150.18505,-26.667685,0            150.185149,-26.667791,0            150.185235,-26.66792,0            150.185273,-26.668011,0            150.18531,-26.668098,0            150.185345,-26.66816,0            150.185407,-26.66821,0            150.18545,-26.668225,0            150.185528,-26.668234,0            150.185595,-26.668256,0            150.185667,-26.668299,0            150.185694,-26.668345,0            150.185731,-26.668388,0            150.185801,-26.668428,0            150.185866,-26.668493,0            150.185951,-26.66852,0            150.186005,-26.668529,0            150.186034,-26.668496,0            150.186069,-26.668433,0            150.18611,-26.668364,0            150.186163,-26.668263,0            150.186217,-26.668165,0            150.186249,-26.668071,0            150.186287,-26.667956,0            150.186305,-26.667803,0            150.186305,-26.667657,0            150.186311,-26.66745,0            150.186303,-26.667307,0            150.186289,-26.667136,0            150.186273,-26.666976,0            150.186249,-26.666827,0            150.186212,-26.666614,0            150.186249,-26.666844,0            150.186278,-26.667029,0            150.186297,-26.667201,0            150.186305,-26.667355,0            150.186311,-26.66757,0            150.1863,-26.667709,0            150.1863,-26.667836,0            150.186292,-26.667923,0            150.186276,-26.667992,0            150.186249,-26.668078,0            150.18622,-26.668167,0            150.186179,-26.668232,0            150.186128,-26.668325,0            150.186083,-26.668409,0            150.186042,-26.668481,0            150.186002,-26.668534,0            150.185932,-26.668517,0            150.185866,-26.668496,0            150.185801,-26.668433,0            150.185731,-26.66839,0            150.185688,-26.66834,0            150.185646,-26.66828,0            150.185576,-26.668249,0            150.185506,-26.668232,0            150.185439,-26.668225,0            150.185396,-26.668206,0            150.185334,-26.668143,0            150.185283,-26.668028,0            150.185249,-26.66794,0            150.185211,-26.66788,0            150.185168,-26.667817,0            150.185122,-26.667757,0            150.18505,-26.667688,0            150.184924,-26.667602,0            150.184844,-26.667549,0            150.184779,-26.667501,0            150.184715,-26.667446,0            150.184608,-26.667336,0            150.184508,-26.667249,0            150.184369,-26.667129,0            150.1842,-26.666993,0            150.183983,-26.666823,0            150.183749,-26.66665,0            150.183688,-26.666559,0            150.183578,-26.666372,0            150.183441,-26.666125,0            150.18324,-26.665991,0            150.183006,-26.665842,0            150.182794,-26.66571,0            150.18258,-26.665598,0            150.182328,-26.665507,0            150.182153,-26.665411,0            150.182041,-26.665308,0            150.181966,-26.665209,0            150.181896,-26.665109,0            150.181751,-26.664951,0            150.18166,-26.6649,0            150.181571,-26.664838,0            150.18148,-26.664776,0            150.18137,-26.664696,0            150.181214,-26.664577,0            150.181067,-26.66445,0            150.180917,-26.664282,0            150.180783,-26.664124,0            150.180592,-26.663891,0            150.180367,-26.663635,0            150.180294,-26.663565,0            150.180077,-26.663416,0            150.179978,-26.663357,0            150.179914,-26.663337,0            150.17982,-26.663311,0            150.179718,-26.663256,0            150.179621,-26.663191,0            150.179434,-26.663071,0            150.179289,-26.663002,0            150.179224,-26.662973,0            150.179125,-26.662887,0            150.179088,-26.66282,0            150.179066,-26.662707,0            150.179028,-26.662522,0            150.17898,-26.662362,0            150.178988,-26.662141,0            150.179007,-26.661974,0            150.179004,-26.661856,0            150.178999,-26.661796,0            150.178991,-26.661741,0            150.178972,-26.661684,0            150.178953,-26.661621,0            150.178916,-26.661528,0            150.1789,-26.661487,0            150.178897,-26.661391,0            150.178913,-26.661221,0            150.178918,-26.661065,0            150.1789,-26.660936,0            150.178908,-26.660806,0            150.178886,-26.660694,0            150.178833,-26.660593,0            150.178758,-26.660475,0            150.17868,-26.660353,0            150.178572,-26.660164,0            150.178481,-26.660003,0            150.178446,-26.659946,0            150.178396,-26.659833,0            150.178388,-26.659723,0            150.17839,-26.659579,0            150.178404,-26.659478,0            150.178438,-26.659356,0            150.178516,-26.659236,0            150.178658,-26.659092,0            150.178795,-26.658977,0            150.1789,-26.658884,0            150.179047,-26.65875,0            150.179206,-26.658603,0            150.179316,-26.658488,0            150.179417,-26.658332,0            150.179492,-26.658165,0            150.179568,-26.658014,0            150.179664,-26.657875,0            150.179774,-26.657757,0            150.179882,-26.657671,0            150.179951,-26.657616,0            150.180053,-26.65757,0            150.180179,-26.657529,0            150.180233,-26.657412,0            150.180286,-26.657318,0            150.180354,-26.65723,0            150.180498,-26.657172,0            150.180667,-26.657064,0            150.180793,-26.656973,0            150.180877,-26.65693,0            150.18092,-26.656868,0            150.180954,-26.656825,0            150.181021,-26.656772,0            150.181059,-26.656676,0            150.181083,-26.656582,0            150.181086,-26.65646,0            150.181056,-26.656372,0            150.181051,-26.656319,0            150.181088,-26.656244,0            150.181118,-26.65612,0            150.181137,-26.656038,0            150.181134,-26.65593,0            150.181198,-26.655787,0            150.181249,-26.655698,0            150.181257,-26.65559,0            150.181233,-26.655509,0            150.181206,-26.655413,0            150.181214,-26.655329,0            150.181214,-26.655276,0            150.181169,-26.655266,0            150.180732,-26.655247,0            150.180689,-26.655293,0            150.18067,-26.65535,0            150.180646,-26.655422,0            150.180654,-26.655487,0            150.180651,-26.655537,0            150.180675,-26.65559,0            150.180713,-26.655662,0            150.18074,-26.655753,0            150.180729,-26.655813,0            150.180713,-26.655859,0            150.180654,-26.655899,0            150.180603,-26.655935,0            150.18056,-26.655983,0            150.180544,-26.656046,0            150.180539,-26.656115,0            150.18056,-26.656173,0            150.180563,-26.656209,0            150.180536,-26.656264,0            150.180504,-26.656309,0            150.180469,-26.656348,0            150.180431,-26.656381,0            150.180394,-26.65641,0            150.180364,-26.656432,0            150.180378,-26.656501,0            150.180354,-26.656561,0            150.18034,-26.656611,0            150.180321,-26.656659,0            150.180284,-26.656671,0          </coordinates></LineString></Placemark></Folder></Document></kml>