<?xml version="1.0" encoding="UTF-8"?><kml xmlns="http://www.opengis.net/kml/2.2"><Document><name>Moora parkrun</name><description/><Style id="icon-1899-FFD600-nodesc-normal"><IconStyle><color>ff00d6ff</color><scale>1</scale><Icon><href>https://www.gstatic.com/mapspro/images/stock/503-wht-blank_maps.png</href></Icon><hotSpot x="32" xunits="pixels" y="64" yunits="insetPixels"/></IconStyle><LabelStyle><scale>0</scale></LabelStyle><BalloonStyle><text><![CDATA[<h3>$[name]</h3>]]></text></BalloonStyle></Style><Style id="icon-1899-FFD600-nodesc-highlight"><IconStyle><color>ff00d6ff</color><scale>1</scale><Icon><href>https://www.gstatic.com/mapspro/images/stock/503-wht-blank_maps.png</href></Icon><hotSpot x="32" xunits="pixels" y="64" yunits="insetPixels"/></IconStyle><LabelStyle><scale>1</scale></LabelStyle><BalloonStyle><text><![CDATA[<h3>$[name]</h3>]]></text></BalloonStyle></Style><StyleMap id="icon-1899-FFD600-nodesc"><Pair><key>normal</key><styleUrl>#icon-1899-FFD600-nodesc-normal</styleUrl></Pair><Pair><key>highlight</key><styleUrl>#icon-1899-FFD600-nodesc-highlight</styleUrl></Pair></StyleMap><Style id="line-0288D1-5263-nodesc-normal"><LineStyle><color>ffd18802</color><width>5.263</width></LineStyle><BalloonStyle><text><![CDATA[<h3>$[name]</h3>]]></text></BalloonStyle></Style><Style id="line-0288D1-5263-nodesc-highlight"><LineStyle><color>ffd18802</color><width>7.8945</width></LineStyle><BalloonStyle><text><![CDATA[<h3>$[name]</h3>]]></text></BalloonStyle></Style><StyleMap id="line-0288D1-5263-nodesc"><Pair><key>normal</key><styleUrl>#line-0288D1-5263-nodesc-normal</styleUrl></Pair><Pair><key>highlight</key><styleUrl>#line-0288D1-5263-nodesc-highlight</styleUrl></Pair></StyleMap><Folder><name>Untitled layer</name><Placemark><name>Course</name><styleUrl>#line-0288D1-5263-nodesc</styleUrl><LineString><tessellate>1</tessellate><coordinates>            116.003072,-30.638194,0            116.002783,-30.63829,0            116.002428,-30.638277,0            116.001828,-30.638097,0            116.001484,-30.638069,0            116.001238,-30.638147,0            116.001012,-30.638318,0            116.000782,-30.638475,0            116.000503,-30.638618,0            116.000079,-30.638743,0            115.999907,-30.638766,0            115.999725,-30.638724,0            115.999553,-30.638854,0            115.999124,-30.63919,0            115.998716,-30.63967,0            115.999301,-30.639943,0            115.999687,-30.63968,0            115.999687,-30.639528,0            115.999655,-30.639444,0            115.999687,-30.639366,0            115.999832,-30.639301,0            115.999902,-30.639241,0            116.000047,-30.639181,0            116.000176,-30.639135,0            116.000294,-30.639098,0            116.000503,-30.639057,0            116.000712,-30.63902,0            116.000803,-30.638978,0            116.000932,-30.638904,0            116.001044,-30.638817,0            116.001238,-30.63871,0            116.001425,-30.638609,0            116.001618,-30.638563,0            116.001881,-30.638526,0            116.002428,-30.638757,0            116.002917,-30.639052,0            116.003045,-30.639103,0            116.003228,-30.639098,0            116.00333,-30.638632,0            116.004032,-30.638535,0            116.004306,-30.638914,0            116.004338,-30.639297,0            116.003684,-30.63937,0            116.003271,-30.638927,0            116.003324,-30.638627,0            116.003684,-30.638581,0          </coordinates></LineString></Placemark><Placemark><name>Start / Finish </name><styleUrl>#icon-1899-FFD600-nodesc</styleUrl><Point><coordinates>            116.004301,-30.638877,0          </coordinates></Point></Placemark></Folder></Document></kml>