<?xml version="1.0" encoding="UTF-8"?><kml xmlns="http://www.opengis.net/kml/2.2"><Document><name>Mount Gambier parkrun</name><description/><Style id="icon-157-nodesc-normal"><IconStyle><scale>1.1</scale><Icon><href>https://www.gstatic.com/mapspro/images/stock/157-yellow-dot.png</href></Icon><hotSpot x="16" xunits="pixels" y="32" yunits="insetPixels"/></IconStyle><LabelStyle><scale>0</scale></LabelStyle><BalloonStyle><text><![CDATA[<h3>$[name]</h3>]]></text></BalloonStyle></Style><Style id="icon-157-nodesc-highlight"><IconStyle><scale>1.1</scale><Icon><href>https://www.gstatic.com/mapspro/images/stock/157-yellow-dot.png</href></Icon><hotSpot x="16" xunits="pixels" y="32" yunits="insetPixels"/></IconStyle><LabelStyle><scale>1.1</scale></LabelStyle><BalloonStyle><text><![CDATA[<h3>$[name]</h3>]]></text></BalloonStyle></Style><StyleMap id="icon-157-nodesc"><Pair><key>normal</key><styleUrl>#icon-157-nodesc-normal</styleUrl></Pair><Pair><key>highlight</key><styleUrl>#icon-157-nodesc-highlight</styleUrl></Pair></StyleMap><Style id="line-3333FF-5000-nodesc-normal"><LineStyle><color>ffff3333</color><width>5</width></LineStyle><BalloonStyle><text><![CDATA[<h3>$[name]</h3>]]></text></BalloonStyle></Style><Style id="line-3333FF-5000-nodesc-highlight"><LineStyle><color>ffff3333</color><width>7.5</width></LineStyle><BalloonStyle><text><![CDATA[<h3>$[name]</h3>]]></text></BalloonStyle></Style><StyleMap id="line-3333FF-5000-nodesc"><Pair><key>normal</key><styleUrl>#line-3333FF-5000-nodesc-normal</styleUrl></Pair><Pair><key>highlight</key><styleUrl>#line-3333FF-5000-nodesc-highlight</styleUrl></Pair></StyleMap><Folder><name>Untitled layer</name><Placemark><name>Start / Finish</name><styleUrl>#icon-157-nodesc</styleUrl><Point><coordinates>            140.777907,-37.842766,0          </coordinates></Point></Placemark><Placemark><name>Course</name><styleUrl>#line-3333FF-5000-nodesc</styleUrl><LineString><tessellate>1</tessellate><coordinates>            140.777907,-37.842766,0            140.77868,-37.843038,0            140.779753,-37.843038,0            140.781255,-37.843343,0            140.782113,-37.84358,0            140.783358,-37.84402,0            140.784259,-37.844359,0            140.784817,-37.844969,0            140.785203,-37.845952,0            140.785332,-37.846867,0            140.784988,-37.847545,0            140.784431,-37.848324,0            140.783787,-37.849137,0            140.783143,-37.849747,0            140.781984,-37.850391,0            140.781169,-37.850764,0            140.780311,-37.85134,0            140.779495,-37.851611,0            140.778208,-37.851577,0            140.77662,-37.85134,0            140.775719,-37.851035,0            140.774732,-37.850662,0            140.774002,-37.850222,0            140.773144,-37.849917,0            140.772285,-37.849578,0            140.771513,-37.849171,0            140.771213,-37.848697,0            140.770826,-37.847985,0            140.770698,-37.847477,0          </coordinates></LineString></Placemark></Folder></Document></kml>