<?xml version="1.0" encoding="UTF-8"?><kml xmlns="http://www.opengis.net/kml/2.2"><Document><name>Mt Clarence parkrun</name><description/><Style id="icon-1899-0F9D58-nodesc-normal"><IconStyle><color>ff589d0f</color><scale>1</scale><Icon><href>https://www.gstatic.com/mapspro/images/stock/503-wht-blank_maps.png</href></Icon><hotSpot x="32" xunits="pixels" y="64" yunits="insetPixels"/></IconStyle><LabelStyle><scale>0</scale></LabelStyle><BalloonStyle><text><![CDATA[<h3>$[name]</h3>]]></text></BalloonStyle></Style><Style id="icon-1899-0F9D58-nodesc-highlight"><IconStyle><color>ff589d0f</color><scale>1</scale><Icon><href>https://www.gstatic.com/mapspro/images/stock/503-wht-blank_maps.png</href></Icon><hotSpot x="32" xunits="pixels" y="64" yunits="insetPixels"/></IconStyle><LabelStyle><scale>1</scale></LabelStyle><BalloonStyle><text><![CDATA[<h3>$[name]</h3>]]></text></BalloonStyle></Style><StyleMap id="icon-1899-0F9D58-nodesc"><Pair><key>normal</key><styleUrl>#icon-1899-0F9D58-nodesc-normal</styleUrl></Pair><Pair><key>highlight</key><styleUrl>#icon-1899-0F9D58-nodesc-highlight</styleUrl></Pair></StyleMap><Style id="icon-1899-DB4436-nodesc-normal"><IconStyle><color>ff3644db</color><scale>1</scale><Icon><href>https://www.gstatic.com/mapspro/images/stock/503-wht-blank_maps.png</href></Icon><hotSpot x="32" xunits="pixels" y="64" yunits="insetPixels"/></IconStyle><LabelStyle><scale>0</scale></LabelStyle><BalloonStyle><text><![CDATA[<h3>$[name]</h3>]]></text></BalloonStyle></Style><Style id="icon-1899-DB4436-nodesc-highlight"><IconStyle><color>ff3644db</color><scale>1</scale><Icon><href>https://www.gstatic.com/mapspro/images/stock/503-wht-blank_maps.png</href></Icon><hotSpot x="32" xunits="pixels" y="64" yunits="insetPixels"/></IconStyle><LabelStyle><scale>1</scale></LabelStyle><BalloonStyle><text><![CDATA[<h3>$[name]</h3>]]></text></BalloonStyle></Style><StyleMap id="icon-1899-DB4436-nodesc"><Pair><key>normal</key><styleUrl>#icon-1899-DB4436-nodesc-normal</styleUrl></Pair><Pair><key>highlight</key><styleUrl>#icon-1899-DB4436-nodesc-highlight</styleUrl></Pair></StyleMap><Style id="line-4186F0-5263-nodesc-normal"><LineStyle><color>fff08641</color><width>5.263</width></LineStyle><BalloonStyle><text><![CDATA[<h3>$[name]</h3>]]></text></BalloonStyle></Style><Style id="line-4186F0-5263-nodesc-highlight"><LineStyle><color>fff08641</color><width>7.8945</width></LineStyle><BalloonStyle><text><![CDATA[<h3>$[name]</h3>]]></text></BalloonStyle></Style><StyleMap id="line-4186F0-5263-nodesc"><Pair><key>normal</key><styleUrl>#line-4186F0-5263-nodesc-normal</styleUrl></Pair><Pair><key>highlight</key><styleUrl>#line-4186F0-5263-nodesc-highlight</styleUrl></Pair></StyleMap><Folder><name>Untitled layer</name><Placemark><name>Course</name><styleUrl>#line-4186F0-5263-nodesc</styleUrl><LineString><tessellate>1</tessellate><coordinates>            117.910712,-35.035552,0            117.912146,-35.035341,0            117.912836,-35.035196,0            117.913205,-35.035028,0            117.913497,-35.034818,0            117.913555,-35.034684,0            117.913557,-35.034435,0            117.9137808,-35.0342403,0            117.9140939,-35.0341568,0            117.914482,-35.034205,0            117.9146877,-35.0342472,0            117.9148826,-35.0344211,0            117.91524,-35.034555,0            117.91542,-35.0346359,0            117.915643,-35.034664,0            117.916037,-35.0348657,0            117.9163842,-35.035072,0            117.916887,-35.035309,0            117.9174256,-35.0354491,0            117.918365,-35.035146,0            117.918748,-35.034829,0            117.9189197,-35.034353,0            117.9188565,-35.0340876,0            117.918928,-35.034015,0            117.919076,-35.033906,0            117.919342,-35.033825,0            117.919658,-35.033643,0            117.91973,-35.033395,0            117.919613,-35.033166,0            117.919596,-35.032794,0            117.919575,-35.032462,0            117.91942,-35.032133,0            117.919105,-35.031778,0            117.919093,-35.031549,0            117.919249,-35.031334,0            117.9195244,-35.0311704,0            117.919793,-35.030711,0            117.920127,-35.030517,0            117.920243,-35.030247,0            117.920344,-35.030061,0            117.921019,-35.029602,0            117.921071,-35.029281,0            117.9212158,-35.0291803,0            117.921425,-35.029106,0            117.921778,-35.028593,0            117.922162,-35.028141,0            117.922296,-35.027922,0            117.922233,-35.02763,0            117.922003,-35.027443,0            117.921844,-35.027275,0            117.921793,-35.027105,0            117.921813,-35.026935,0            117.921691,-35.026643,0            117.921266,-35.026192,0            117.9201391,-35.0257929,0            117.9194159,-35.0257191,0            117.9190737,-35.0257637,0            117.9187691,-35.0259093,0            117.918559,-35.025991,0            117.9178507,-35.0260409,0            117.9174,-35.026005,0            117.917027,-35.025933,0            117.9174,-35.026005,0            117.9172105,-35.0258684,0            117.916903,-35.025521,0            117.916611,-35.02509,0            117.916559,-35.024918,0          </coordinates></LineString></Placemark><Placemark><name>Finish</name><styleUrl>#icon-1899-DB4436-nodesc</styleUrl><Point><coordinates>            117.917027,-35.025933,3.4          </coordinates></Point></Placemark><Placemark><name>Start</name><styleUrl>#icon-1899-0F9D58-nodesc</styleUrl><Point><coordinates>            117.916559,-35.024918,4          </coordinates></Point></Placemark></Folder></Document></kml>