<?xml version="1.0" encoding="UTF-8"?><kml xmlns="http://www.opengis.net/kml/2.2"><Document><name>Mundy Regional parkrun</name><description/><Style id="icon-1899-0F9D58-nodesc-normal"><IconStyle><color>ff589d0f</color><scale>1</scale><Icon><href>https://www.gstatic.com/mapspro/images/stock/503-wht-blank_maps.png</href></Icon><hotSpot x="32" xunits="pixels" y="64" yunits="insetPixels"/></IconStyle><LabelStyle><scale>0</scale></LabelStyle><BalloonStyle><text><![CDATA[<h3>$[name]</h3>]]></text></BalloonStyle></Style><Style id="icon-1899-0F9D58-nodesc-highlight"><IconStyle><color>ff589d0f</color><scale>1</scale><Icon><href>https://www.gstatic.com/mapspro/images/stock/503-wht-blank_maps.png</href></Icon><hotSpot x="32" xunits="pixels" y="64" yunits="insetPixels"/></IconStyle><LabelStyle><scale>1</scale></LabelStyle><BalloonStyle><text><![CDATA[<h3>$[name]</h3>]]></text></BalloonStyle></Style><StyleMap id="icon-1899-0F9D58-nodesc"><Pair><key>normal</key><styleUrl>#icon-1899-0F9D58-nodesc-normal</styleUrl></Pair><Pair><key>highlight</key><styleUrl>#icon-1899-0F9D58-nodesc-highlight</styleUrl></Pair></StyleMap><Style id="icon-1899-FF5252-nodesc-normal"><IconStyle><color>ff5252ff</color><scale>1</scale><Icon><href>https://www.gstatic.com/mapspro/images/stock/503-wht-blank_maps.png</href></Icon><hotSpot x="32" xunits="pixels" y="64" yunits="insetPixels"/></IconStyle><LabelStyle><scale>0</scale></LabelStyle><BalloonStyle><text><![CDATA[<h3>$[name]</h3>]]></text></BalloonStyle></Style><Style id="icon-1899-FF5252-nodesc-highlight"><IconStyle><color>ff5252ff</color><scale>1</scale><Icon><href>https://www.gstatic.com/mapspro/images/stock/503-wht-blank_maps.png</href></Icon><hotSpot x="32" xunits="pixels" y="64" yunits="insetPixels"/></IconStyle><LabelStyle><scale>1</scale></LabelStyle><BalloonStyle><text><![CDATA[<h3>$[name]</h3>]]></text></BalloonStyle></Style><StyleMap id="icon-1899-FF5252-nodesc"><Pair><key>normal</key><styleUrl>#icon-1899-FF5252-nodesc-normal</styleUrl></Pair><Pair><key>highlight</key><styleUrl>#icon-1899-FF5252-nodesc-highlight</styleUrl></Pair></StyleMap><Style id="line-0288D1-5263-nodesc-normal"><LineStyle><color>ffd18802</color><width>5.263</width></LineStyle><BalloonStyle><text><![CDATA[<h3>$[name]</h3>]]></text></BalloonStyle></Style><Style id="line-0288D1-5263-nodesc-highlight"><LineStyle><color>ffd18802</color><width>7.8945</width></LineStyle><BalloonStyle><text><![CDATA[<h3>$[name]</h3>]]></text></BalloonStyle></Style><StyleMap id="line-0288D1-5263-nodesc"><Pair><key>normal</key><styleUrl>#line-0288D1-5263-nodesc-normal</styleUrl></Pair><Pair><key>highlight</key><styleUrl>#line-0288D1-5263-nodesc-highlight</styleUrl></Pair></StyleMap><Folder><name>Untitled layer</name><Placemark><name>Course</name><styleUrl>#line-0288D1-5263-nodesc</styleUrl><LineString><tessellate>1</tessellate><coordinates>            116.03598,-31.96618,0            116.03641,-31.96616,0            116.03662,-31.96618,0            116.03678,-31.96614,0            116.03694,-31.96609,0            116.03704,-31.96609,0            116.03713,-31.96613,0            116.0372,-31.96615,0            116.03727,-31.96612,0            116.03736,-31.9661,0            116.03748,-31.96613,0            116.03754,-31.9662,0            116.03766,-31.96641,0            116.03776,-31.9665,0            116.0379,-31.96654,0            116.03803,-31.96659,0            116.03821,-31.96675,0            116.03837,-31.96684,0            116.03895,-31.96704,0            116.03929,-31.96715,0            116.03931,-31.96714,0            116.03924,-31.96705,0            116.03914,-31.96698,0            116.03896,-31.96684,0            116.03891,-31.96676,0            116.03887,-31.96661,0            116.03884,-31.96644,0            116.0388,-31.96619,0            116.03882,-31.96606,0            116.03878,-31.96592,0            116.03876,-31.96579,0            116.03874,-31.96564,0            116.03868,-31.96542,0            116.03868,-31.96525,0            116.03866,-31.96511,0            116.03866,-31.96499,0            116.03871,-31.96487,0            116.03887,-31.9647,0            116.03896,-31.96461,0            116.03902,-31.96459,0            116.03919,-31.96459,0            116.03943,-31.96463,0            116.03959,-31.9647,0            116.03969,-31.9648,0            116.03978,-31.96491,0            116.03984,-31.96495,0            116.04002,-31.96505,0            116.04008,-31.96507,0            116.04016,-31.96515,0            116.04018,-31.96518,0            116.04039,-31.96536,0            116.04085,-31.96555,0            116.04104,-31.96564,0            116.04117,-31.96573,0            116.04125,-31.96575,0            116.0413,-31.96577,0            116.04147,-31.96591,0            116.04158,-31.96599,0            116.04171,-31.96606,0            116.04173,-31.96596,0            116.04171,-31.96582,0            116.04187,-31.96579,0            116.04201,-31.96584,0            116.04215,-31.96589,0            116.0423,-31.96591,0            116.04248,-31.9659,0            116.04258,-31.96591,0            116.04266,-31.96595,0            116.04295,-31.96605,0            116.04312,-31.96607,0            116.04321,-31.96603,0            116.04336,-31.96591,0            116.0435,-31.96587,0            116.04359,-31.96588,0            116.04381,-31.96597,0            116.04401,-31.96605,0            116.04407,-31.96611,0            116.04415,-31.96632,0            116.04426,-31.96666,0            116.04437,-31.96705,0            116.04435,-31.96726,0            116.04437,-31.96736,0            116.04444,-31.96754,0            116.04434,-31.9675,0            116.04413,-31.9675,0            116.04389,-31.96751,0            116.04373,-31.96748,0            116.04359,-31.96739,0            116.04354,-31.96734,0            116.04345,-31.96732,0            116.04321,-31.96732,0            116.04316,-31.9673,0            116.04312,-31.96725,0            116.04309,-31.96722,0            116.04302,-31.9672,0            116.04271,-31.9672,0            116.04245,-31.96719,0            116.04238,-31.96716,0            116.04218,-31.96698,0            116.04214,-31.96695,0            116.04195,-31.96677,0            116.04174,-31.96663,0            116.04143,-31.96644,0            116.04159,-31.9663,0            116.04169,-31.96613,0            116.0417,-31.96612,0            116.04171,-31.96606,0            116.04167,-31.96604,0            116.04153,-31.96596,0            116.0413,-31.96577,0            116.04121,-31.96574,0            116.04114,-31.96572,0            116.04108,-31.96566,0            116.0409,-31.96557,0            116.04049,-31.96541,0            116.04036,-31.96534,0            116.04018,-31.96517,0            116.04005,-31.96506,0            116.03987,-31.96496,0            116.0398,-31.96493,0            116.03976,-31.96488,0            116.0396,-31.96471,0            116.03951,-31.96466,0            116.03924,-31.96459,0            116.03906,-31.96458,0            116.03899,-31.9646,0            116.03891,-31.96465,0            116.03873,-31.96485,0            116.03867,-31.96496,0            116.03865,-31.96509,0            116.03868,-31.96525,0            116.03868,-31.96534,0            116.03868,-31.96542,0            116.03874,-31.96564,0            116.03876,-31.96588,0            116.0388,-31.966,0            116.03882,-31.96606,0            116.0388,-31.96619,0            116.03883,-31.96635,0            116.03887,-31.96659,0            116.03893,-31.9668,0            116.03908,-31.96694,0            116.03919,-31.96701,0            116.03928,-31.9671,0            116.03933,-31.96716,0            116.039544,-31.967194,0            116.039553,-31.967419,0            116.039559,-31.967514,0            116.039009,-31.968175,0            116.03864,-31.968687,0            116.038262,-31.969228,0            116.038069,-31.969676,0            116.038068,-31.970091,0            116.037938,-31.97014,0            116.037795,-31.970542,0            116.037884,-31.970902,0            116.037925,-31.971316,0            116.038988,-31.971356,0            116.039199,-31.971643,0            116.039403,-31.971975,0            116.039427,-31.972443,0            116.039001,-31.972868,0            116.03899,-31.97287,0            116.03913,-31.97332,0            116.0392,-31.97342,0            116.0393,-31.97355,0            116.03934,-31.97364,0            116.03937,-31.97393,0            116.03941,-31.974,0            116.03951,-31.97408,0            116.03959,-31.97415,0            116.03959,-31.97418,0            116.0396,-31.97418,0            116.03959,-31.97418,0            116.03958,-31.97429,0            116.03954,-31.97437,0            116.03949,-31.97442,0            116.03941,-31.97445,0            116.03901,-31.9745,0            116.03874,-31.97454,0            116.03859,-31.9746,0            116.03822,-31.97485,0            116.03808,-31.97496,0            116.03793,-31.97505,0            116.03775,-31.9751,0            116.03756,-31.97519,0            116.03749,-31.97525,0            116.0374,-31.97541,0            116.03738,-31.97554,0            116.03734,-31.97562,0            116.03725,-31.9757,0            116.03722,-31.9757,0            116.03711,-31.97568,0            116.03701,-31.97569,0            116.03685,-31.97573,0            116.0367,-31.97572,0            116.0365,-31.97565,0            116.03639,-31.97542,0            116.03631,-31.97531,0            116.03624,-31.97528,0            116.03612,-31.97522,0            116.03598,-31.97512,0            116.03581,-31.97492,0            116.03573,-31.97476,0            116.03559,-31.97454,0            116.03552,-31.97444,0            116.03543,-31.97418,0            116.03517,-31.97377,0            116.03499,-31.97359,0            116.03492,-31.97355,0            116.0347,-31.9735,0            116.03461,-31.97344,0            116.03443,-31.97312,0            116.03424,-31.97284,0            116.03408,-31.97269,0            116.03401,-31.97265,0            116.034202,-31.972599,0            116.034379,-31.972259,0            116.034447,-31.972131,0            116.034804,-31.971988,0            116.035027,-31.971805,0            116.034967,-31.971618,0            116.034924,-31.971495,0            116.035101,-31.971436,0            116.0351,-31.97144,0            116.03515,-31.97143,0            116.0353,-31.97137,0            116.03543,-31.97134,0            116.03558,-31.97133,0            116.03594,-31.9713,0            116.0359,-31.97124,0            116.03579,-31.9712,0            116.0357,-31.97119,0            116.03562,-31.97115,0            116.03552,-31.97093,0            116.03554,-31.97083,0            116.03565,-31.97051,0            116.03561,-31.97032,0            116.03557,-31.9702,0            116.03547,-31.96995,0            116.03547,-31.96979,0            116.03548,-31.96954,0            116.03544,-31.96937,0            116.03541,-31.96915,0            116.03546,-31.96893,0            116.03549,-31.96885,0            116.0355,-31.9687,0            116.03554,-31.9686,0            116.03554,-31.9685,0            116.0355,-31.96836,0            116.03543,-31.96828,0            116.03529,-31.96819,0            116.0352,-31.96811,0            116.03512,-31.96782,0            116.03492,-31.96762,0            116.03476,-31.96751,0            116.03468,-31.96747,0            116.03464,-31.96743,0            116.03461,-31.96734,0            116.03453,-31.96725,0            116.03451,-31.96724,0          </coordinates></LineString></Placemark><Placemark><name>Finish</name><styleUrl>#icon-1899-FF5252-nodesc</styleUrl><Point><coordinates>            116.03451,-31.96724,0          </coordinates></Point></Placemark><Placemark><name>Start</name><styleUrl>#icon-1899-0F9D58-nodesc</styleUrl><Point><coordinates>            116.03598,-31.96618,0          </coordinates></Point></Placemark></Folder></Document></kml>