<?xml version="1.0" encoding="UTF-8"?><kml xmlns="http://www.opengis.net/kml/2.2"><Document><name>Newcastle Park parkrun (from Apr 2026)</name><description/><Style id="icon-1899-0288D1-nodesc-normal"><IconStyle><color>ffd18802</color><scale>1</scale><Icon><href>https://www.gstatic.com/mapspro/images/stock/503-wht-blank_maps.png</href></Icon><hotSpot x="32" xunits="pixels" y="64" yunits="insetPixels"/></IconStyle><LabelStyle><scale>0</scale></LabelStyle><BalloonStyle><text><![CDATA[<h3>$[name]</h3>]]></text></BalloonStyle></Style><Style id="icon-1899-0288D1-nodesc-highlight"><IconStyle><color>ffd18802</color><scale>1</scale><Icon><href>https://www.gstatic.com/mapspro/images/stock/503-wht-blank_maps.png</href></Icon><hotSpot x="32" xunits="pixels" y="64" yunits="insetPixels"/></IconStyle><LabelStyle><scale>1</scale></LabelStyle><BalloonStyle><text><![CDATA[<h3>$[name]</h3>]]></text></BalloonStyle></Style><StyleMap id="icon-1899-0288D1-nodesc"><Pair><key>normal</key><styleUrl>#icon-1899-0288D1-nodesc-normal</styleUrl></Pair><Pair><key>highlight</key><styleUrl>#icon-1899-0288D1-nodesc-highlight</styleUrl></Pair></StyleMap><Style id="icon-1899-FFEA00-nodesc-normal"><IconStyle><color>ff00eaff</color><scale>1</scale><Icon><href>https://www.gstatic.com/mapspro/images/stock/503-wht-blank_maps.png</href></Icon><hotSpot x="32" xunits="pixels" y="64" yunits="insetPixels"/></IconStyle><LabelStyle><scale>0</scale></LabelStyle><BalloonStyle><text><![CDATA[<h3>$[name]</h3>]]></text></BalloonStyle></Style><Style id="icon-1899-FFEA00-nodesc-highlight"><IconStyle><color>ff00eaff</color><scale>1</scale><Icon><href>https://www.gstatic.com/mapspro/images/stock/503-wht-blank_maps.png</href></Icon><hotSpot x="32" xunits="pixels" y="64" yunits="insetPixels"/></IconStyle><LabelStyle><scale>1</scale></LabelStyle><BalloonStyle><text><![CDATA[<h3>$[name]</h3>]]></text></BalloonStyle></Style><StyleMap id="icon-1899-FFEA00-nodesc"><Pair><key>normal</key><styleUrl>#icon-1899-FFEA00-nodesc-normal</styleUrl></Pair><Pair><key>highlight</key><styleUrl>#icon-1899-FFEA00-nodesc-highlight</styleUrl></Pair></StyleMap><Style id="line-0288D1-4488-nodesc-normal"><LineStyle><color>ffd18802</color><width>4.488</width></LineStyle><BalloonStyle><text><![CDATA[<h3>$[name]</h3>]]></text></BalloonStyle></Style><Style id="line-0288D1-4488-nodesc-highlight"><LineStyle><color>ffd18802</color><width>6.732</width></LineStyle><BalloonStyle><text><![CDATA[<h3>$[name]</h3>]]></text></BalloonStyle></Style><StyleMap id="line-0288D1-4488-nodesc"><Pair><key>normal</key><styleUrl>#line-0288D1-4488-nodesc-normal</styleUrl></Pair><Pair><key>highlight</key><styleUrl>#line-0288D1-4488-nodesc-highlight</styleUrl></Pair></StyleMap><Folder><name>Course 5Km</name><Placemark><name>Course</name><styleUrl>#line-0288D1-4488-nodesc</styleUrl><LineString><tessellate>1</tessellate><coordinates>            116.470418,-31.550608,0            116.470404,-31.550642,0            116.470364,-31.550711,0            116.470395,-31.550773,0            116.470554,-31.550728,0            116.470581,-31.550719,0            116.470749,-31.550781,0            116.470848,-31.550701,0            116.470707,-31.550565,0            116.470754,-31.55037,0            116.470967,-31.550383,0            116.471099,-31.550443,0            116.4711,-31.550429,0            116.470816,-31.550163,0            116.470279,-31.549766,0            116.470215,-31.549619,0            116.470027,-31.549523,0            116.469829,-31.549484,0            116.469646,-31.549491,0            116.469531,-31.549432,0            116.469341,-31.549366,0            116.469038,-31.549343,0            116.468756,-31.549375,0            116.468418,-31.549258,0            116.468198,-31.549194,0            116.467898,-31.549208,0            116.467613,-31.549153,0            116.467391,-31.549146,0            116.467216,-31.54913,0            116.467101,-31.549107,0            116.466843,-31.549192,0            116.466661,-31.54919,0            116.46642,-31.549167,0            116.466243,-31.549212,0            116.466039,-31.549384,0            116.465982,-31.549436,0            116.465899,-31.549473,0            116.465671,-31.549487,0            116.46503,-31.549443,0            116.465349,-31.549443,0            116.465663,-31.549468,0            116.465899,-31.549455,0            116.466004,-31.5494,0            116.466125,-31.549286,0            116.466237,-31.549199,0            116.466425,-31.549148,0            116.466843,-31.54918,0            116.467101,-31.549084,0            116.467235,-31.549114,0            116.467318,-31.549116,0            116.467509,-31.549135,0            116.467621,-31.549142,0            116.467908,-31.549187,0            116.468201,-31.549176,0            116.468437,-31.549249,0            116.468767,-31.549361,0            116.469038,-31.549327,0            116.469196,-31.54934,0            116.469343,-31.549352,0            116.469475,-31.549391,0            116.469628,-31.549457,0            116.46967,-31.549473,0            116.469829,-31.549468,0            116.469952,-31.549489,0            116.470051,-31.549512,0            116.470242,-31.549615,0            116.470304,-31.549766,0            116.470859,-31.55017,0            116.471282,-31.550584,0            116.471457,-31.550618,0            116.471677,-31.550639,0            116.471899,-31.550817,0            116.472103,-31.550934,0            116.472312,-31.551009,0            116.472548,-31.55116,0            116.472991,-31.55121,0            116.473251,-31.551384,0            116.473603,-31.551393,0            116.473855,-31.551487,0            116.474203,-31.551683,0            116.474807,-31.551942,0            116.475185,-31.552259,0            116.475376,-31.552408,0            116.475671,-31.55263,0            116.475821,-31.552748,0            116.475968,-31.552783,0            116.476094,-31.552904,0            116.476231,-31.553078,0            116.476333,-31.5534,0            116.476572,-31.553836,0            116.476714,-31.554364,0            116.4768,-31.554529,0            116.476904,-31.554812,0            116.476896,-31.554952,0            116.477119,-31.555425,0            116.477167,-31.555619,0            116.477098,-31.555763,0            116.476824,-31.558698,0            116.476727,-31.558792,0            116.476695,-31.559002,0            116.476628,-31.559093,0            116.476282,-31.559137,0            116.47636,-31.560481,0            116.476263,-31.560632,0            116.476054,-31.560849,0            116.476097,-31.561408,0            116.476153,-31.561644,0            116.476212,-31.561909,0            116.476355,-31.56257,0            116.476312,-31.562349,0            116.476355,-31.56257,0            116.476312,-31.562349,0            116.476228,-31.5619,0            116.476118,-31.561411,0            116.476097,-31.561134,0            116.476065,-31.560844,0            116.476186,-31.56075,0            116.476282,-31.560636,0            116.476387,-31.560483,0            116.476341,-31.559809,0            116.476298,-31.559144,0            116.47647,-31.559134,0            116.476642,-31.559107,0            116.47669,-31.559052,0            116.476714,-31.558986,0            116.476746,-31.558794,0            116.476845,-31.558702,0            116.477116,-31.55577,0            116.477189,-31.555622,0            116.477167,-31.555512,0            116.477146,-31.555407,0            116.47703,-31.55518,0            116.476918,-31.554943,0            116.476923,-31.554806,0            116.476872,-31.554666,0            116.476824,-31.55452,0            116.47673,-31.554355,0            116.476663,-31.554095,0            116.476588,-31.55382,0            116.476462,-31.553594,0            116.476344,-31.553384,0            116.476293,-31.553215,0            116.47625,-31.553068,0            116.476105,-31.552892,0            116.475971,-31.552767,0            116.475818,-31.552726,0            116.475386,-31.55239,0            116.47482,-31.551923,0            116.474509,-31.551793,0            116.474206,-31.551665,0            116.47386,-31.551471,0            116.473734,-31.551425,0            116.473611,-31.551382,0            116.473246,-31.55137,0            116.472999,-31.551194,0            116.472548,-31.551149,0            116.472328,-31.550993,0            116.472114,-31.55092,0            116.471902,-31.550797,0            116.47169,-31.550627,0            116.471282,-31.550573,0            116.471124,-31.55041,0            116.470977,-31.550369,0            116.470735,-31.550353,0            116.47069,-31.550559,0            116.470845,-31.550723,0            116.470314,-31.551133,0            116.470076,-31.550906,0            116.470244,-31.550797,0            116.470344,-31.550783,0            116.470387,-31.550598,0          </coordinates></LineString></Placemark><Placemark><name>U turn 1</name><styleUrl>#icon-1899-0288D1-nodesc</styleUrl><Point><coordinates>            116.465019,-31.549442,0          </coordinates></Point></Placemark><Placemark><name>U turn 2</name><styleUrl>#icon-1899-0288D1-nodesc</styleUrl><Point><coordinates>            116.476355,-31.56257,0          </coordinates></Point></Placemark><Placemark><name>Start/Finish</name><styleUrl>#icon-1899-FFEA00-nodesc</styleUrl><Point><coordinates>            116.470401,-31.550613,0          </coordinates></Point></Placemark></Folder></Document></kml>