<?xml version="1.0" encoding="UTF-8"?><kml xmlns="http://www.opengis.net/kml/2.2"><Document><name>North Wollongong parkrun - alt course</name><description/><Style id="icon-1899-0288D1-nodesc-normal"><IconStyle><color>ffd18802</color><scale>1</scale><Icon><href>https://www.gstatic.com/mapspro/images/stock/503-wht-blank_maps.png</href></Icon><hotSpot x="32" xunits="pixels" y="64" yunits="insetPixels"/></IconStyle><LabelStyle><scale>0</scale></LabelStyle><BalloonStyle><text><![CDATA[<h3>$[name]</h3>]]></text></BalloonStyle></Style><Style id="icon-1899-0288D1-nodesc-highlight"><IconStyle><color>ffd18802</color><scale>1</scale><Icon><href>https://www.gstatic.com/mapspro/images/stock/503-wht-blank_maps.png</href></Icon><hotSpot x="32" xunits="pixels" y="64" yunits="insetPixels"/></IconStyle><LabelStyle><scale>1</scale></LabelStyle><BalloonStyle><text><![CDATA[<h3>$[name]</h3>]]></text></BalloonStyle></Style><StyleMap id="icon-1899-0288D1-nodesc"><Pair><key>normal</key><styleUrl>#icon-1899-0288D1-nodesc-normal</styleUrl></Pair><Pair><key>highlight</key><styleUrl>#icon-1899-0288D1-nodesc-highlight</styleUrl></Pair></StyleMap><Style id="icon-1899-0F9D58-nodesc-normal"><IconStyle><color>ff589d0f</color><scale>1</scale><Icon><href>https://www.gstatic.com/mapspro/images/stock/503-wht-blank_maps.png</href></Icon><hotSpot x="32" xunits="pixels" y="64" yunits="insetPixels"/></IconStyle><LabelStyle><scale>0</scale></LabelStyle><BalloonStyle><text><![CDATA[<h3>$[name]</h3>]]></text></BalloonStyle></Style><Style id="icon-1899-0F9D58-nodesc-highlight"><IconStyle><color>ff589d0f</color><scale>1</scale><Icon><href>https://www.gstatic.com/mapspro/images/stock/503-wht-blank_maps.png</href></Icon><hotSpot x="32" xunits="pixels" y="64" yunits="insetPixels"/></IconStyle><LabelStyle><scale>1</scale></LabelStyle><BalloonStyle><text><![CDATA[<h3>$[name]</h3>]]></text></BalloonStyle></Style><StyleMap id="icon-1899-0F9D58-nodesc"><Pair><key>normal</key><styleUrl>#icon-1899-0F9D58-nodesc-normal</styleUrl></Pair><Pair><key>highlight</key><styleUrl>#icon-1899-0F9D58-nodesc-highlight</styleUrl></Pair></StyleMap><Style id="icon-1899-FF5252-nodesc-normal"><IconStyle><color>ff5252ff</color><scale>1</scale><Icon><href>https://www.gstatic.com/mapspro/images/stock/503-wht-blank_maps.png</href></Icon><hotSpot x="32" xunits="pixels" y="64" yunits="insetPixels"/></IconStyle><LabelStyle><scale>0</scale></LabelStyle><BalloonStyle><text><![CDATA[<h3>$[name]</h3>]]></text></BalloonStyle></Style><Style id="icon-1899-FF5252-nodesc-highlight"><IconStyle><color>ff5252ff</color><scale>1</scale><Icon><href>https://www.gstatic.com/mapspro/images/stock/503-wht-blank_maps.png</href></Icon><hotSpot x="32" xunits="pixels" y="64" yunits="insetPixels"/></IconStyle><LabelStyle><scale>1</scale></LabelStyle><BalloonStyle><text><![CDATA[<h3>$[name]</h3>]]></text></BalloonStyle></Style><StyleMap id="icon-1899-FF5252-nodesc"><Pair><key>normal</key><styleUrl>#icon-1899-FF5252-nodesc-normal</styleUrl></Pair><Pair><key>highlight</key><styleUrl>#icon-1899-FF5252-nodesc-highlight</styleUrl></Pair></StyleMap><Style id="line-0288D1-5069-nodesc-normal"><LineStyle><color>ffd18802</color><width>5.069</width></LineStyle><BalloonStyle><text><![CDATA[<h3>$[name]</h3>]]></text></BalloonStyle></Style><Style id="line-0288D1-5069-nodesc-highlight"><LineStyle><color>ffd18802</color><width>7.6035</width></LineStyle><BalloonStyle><text><![CDATA[<h3>$[name]</h3>]]></text></BalloonStyle></Style><StyleMap id="line-0288D1-5069-nodesc"><Pair><key>normal</key><styleUrl>#line-0288D1-5069-nodesc-normal</styleUrl></Pair><Pair><key>highlight</key><styleUrl>#line-0288D1-5069-nodesc-highlight</styleUrl></Pair></StyleMap><Folder><name>Untitled layer</name><Placemark><name>Course</name><styleUrl>#line-0288D1-5069-nodesc</styleUrl><LineString><tessellate>1</tessellate><coordinates>            150.904866,-34.395937,0            150.904716,-34.396411,0            150.904636,-34.396676,0            150.904641,-34.396853,0            150.904598,-34.397017,0            150.904464,-34.397203,0            150.904459,-34.397429,0            150.904352,-34.397615,0            150.904137,-34.397947,0            150.903987,-34.398274,0            150.903906,-34.398358,0            150.903477,-34.398606,0            150.903332,-34.398712,0            150.903209,-34.398881,0            150.903123,-34.399106,0            150.903059,-34.399301,0            150.902919,-34.399492,0            150.902748,-34.399677,0            150.902624,-34.399886,0            150.902646,-34.400001,0            150.90271,-34.400111,0            150.902688,-34.400248,0            150.902646,-34.400487,0            150.902608,-34.400771,0            150.902538,-34.400983,0            150.902538,-34.401236,0            150.902394,-34.401497,0            150.902394,-34.401581,0            150.902281,-34.401855,0            150.902259,-34.402147,0            150.902211,-34.402333,0            150.902088,-34.402807,0            150.901702,-34.403094,0            150.901449,-34.40328,0            150.901235,-34.403444,0            150.90102,-34.403661,0            150.90087,-34.403988,0            150.900811,-34.404196,0            150.900822,-34.404396,0            150.900854,-34.404586,0            150.900822,-34.405201,0            150.900897,-34.405374,0            150.900945,-34.405551,0            150.900897,-34.405728,0            150.900784,-34.405839,0            150.900672,-34.406193,0            150.900612,-34.406458,0            150.900575,-34.406684,0            150.900446,-34.40706,0            150.900216,-34.40745,0            150.899625,-34.406945,0            150.899529,-34.406963,0            150.899411,-34.407056,0            150.899014,-34.407396,0            150.898901,-34.407503,0            150.898869,-34.407591,0            150.898794,-34.40764,0            150.898676,-34.407653,0            150.898542,-34.407627,0            150.898402,-34.407591,0            150.898284,-34.407733,0            150.89814,-34.407901,0            150.89792,-34.408237,0            150.898268,-34.408384,0            150.89873,-34.408525,0            150.899073,-34.408547,0            150.8994,-34.408587,0            150.899888,-34.408746,0            150.900173,-34.408976,0            150.900452,-34.409322,0            150.900682,-34.409724,0            150.900902,-34.409879,0            150.901106,-34.40999,0            150.901364,-34.41018,0            150.901524,-34.410459,0            150.901723,-34.410862,0            150.9019,-34.411225,0            150.90197,-34.411406,0            150.901954,-34.411849,0            150.901846,-34.41238,0            150.901718,-34.412862,0          </coordinates></LineString></Placemark><Placemark><name>Finish</name><styleUrl>#icon-1899-FF5252-nodesc</styleUrl><Point><coordinates>            150.904866,-34.395849,0          </coordinates></Point></Placemark><Placemark><name>Start</name><styleUrl>#icon-1899-0F9D58-nodesc</styleUrl><Point><coordinates>            150.904866,-34.395937,0          </coordinates></Point></Placemark><Placemark><name>Turnaround </name><styleUrl>#icon-1899-0288D1-nodesc</styleUrl><Point><coordinates>            150.901718,-34.412862,0          </coordinates></Point></Placemark></Folder></Document></kml>