<?xml version="1.0" encoding="UTF-8"?><kml xmlns="http://www.opengis.net/kml/2.2"><Document><name>Nulkaba parkrun Regular Course (from Aug 2024)</name><description/><Style id="icon-1899-0F9D58-nodesc-normal"><IconStyle><color>ff589d0f</color><scale>1</scale><Icon><href>https://www.gstatic.com/mapspro/images/stock/503-wht-blank_maps.png</href></Icon><hotSpot x="32" xunits="pixels" y="64" yunits="insetPixels"/></IconStyle><LabelStyle><scale>0</scale></LabelStyle><BalloonStyle><text><![CDATA[<h3>$[name]</h3>]]></text></BalloonStyle></Style><Style id="icon-1899-0F9D58-nodesc-highlight"><IconStyle><color>ff589d0f</color><scale>1</scale><Icon><href>https://www.gstatic.com/mapspro/images/stock/503-wht-blank_maps.png</href></Icon><hotSpot x="32" xunits="pixels" y="64" yunits="insetPixels"/></IconStyle><LabelStyle><scale>1</scale></LabelStyle><BalloonStyle><text><![CDATA[<h3>$[name]</h3>]]></text></BalloonStyle></Style><StyleMap id="icon-1899-0F9D58-nodesc"><Pair><key>normal</key><styleUrl>#icon-1899-0F9D58-nodesc-normal</styleUrl></Pair><Pair><key>highlight</key><styleUrl>#icon-1899-0F9D58-nodesc-highlight</styleUrl></Pair></StyleMap><Style id="icon-1899-FF5252-nodesc-normal"><IconStyle><color>ff5252ff</color><scale>1</scale><Icon><href>https://www.gstatic.com/mapspro/images/stock/503-wht-blank_maps.png</href></Icon><hotSpot x="32" xunits="pixels" y="64" yunits="insetPixels"/></IconStyle><LabelStyle><scale>0</scale></LabelStyle><BalloonStyle><text><![CDATA[<h3>$[name]</h3>]]></text></BalloonStyle></Style><Style id="icon-1899-FF5252-nodesc-highlight"><IconStyle><color>ff5252ff</color><scale>1</scale><Icon><href>https://www.gstatic.com/mapspro/images/stock/503-wht-blank_maps.png</href></Icon><hotSpot x="32" xunits="pixels" y="64" yunits="insetPixels"/></IconStyle><LabelStyle><scale>1</scale></LabelStyle><BalloonStyle><text><![CDATA[<h3>$[name]</h3>]]></text></BalloonStyle></Style><StyleMap id="icon-1899-FF5252-nodesc"><Pair><key>normal</key><styleUrl>#icon-1899-FF5252-nodesc-normal</styleUrl></Pair><Pair><key>highlight</key><styleUrl>#icon-1899-FF5252-nodesc-highlight</styleUrl></Pair></StyleMap><Style id="line-0288D1-4294-nodesc-normal"><LineStyle><color>ffd18802</color><width>4.294</width></LineStyle><BalloonStyle><text><![CDATA[<h3>$[name]</h3>]]></text></BalloonStyle></Style><Style id="line-0288D1-4294-nodesc-highlight"><LineStyle><color>ffd18802</color><width>6.441</width></LineStyle><BalloonStyle><text><![CDATA[<h3>$[name]</h3>]]></text></BalloonStyle></Style><StyleMap id="line-0288D1-4294-nodesc"><Pair><key>normal</key><styleUrl>#line-0288D1-4294-nodesc-normal</styleUrl></Pair><Pair><key>highlight</key><styleUrl>#line-0288D1-4294-nodesc-highlight</styleUrl></Pair></StyleMap><Folder><name>Nulkaba_parkrun.gpx</name><Placemark><name>Start</name><styleUrl>#icon-1899-0F9D58-nodesc</styleUrl><Point><coordinates>            151.352268,-32.794163,61.8          </coordinates></Point></Placemark><Placemark><name>Finish</name><styleUrl>#icon-1899-FF5252-nodesc</styleUrl><Point><coordinates>            151.352574,-32.794405,60          </coordinates></Point></Placemark><Placemark><name>Course</name><styleUrl>#line-0288D1-4294-nodesc</styleUrl><LineString><tessellate>1</tessellate><coordinates>            151.352268,-32.794163,61.8            151.352288,-32.794175,61.8            151.352316,-32.794199,61.8            151.352343,-32.79423,61.8            151.352375,-32.79427,61.8            151.352402,-32.794307,61.6            151.352433,-32.794349,61.8            151.352464,-32.794388,61.6            151.35249,-32.79443,61.8            151.352518,-32.794467,61.8            151.35254,-32.794502,61.8            151.352571,-32.794533,61.8            151.352594,-32.794566,61.8            151.352611,-32.794591,61.8            151.352621,-32.794623,61.8            151.35263,-32.794652,61.8            151.352633,-32.794686,61.8            151.352633,-32.794716,61.8            151.352634,-32.794746,62            151.352628,-32.79478,62            151.352622,-32.794808,62            151.352617,-32.794833,61.8            151.35261,-32.794863,61.8            151.352605,-32.79489,62            151.3526,-32.794918,62            151.352589,-32.794949,62            151.352579,-32.794978,62            151.352565,-32.795004,62            151.352553,-32.795034,61.8            151.352545,-32.79506,61.8            151.352533,-32.795089,61.8            151.352527,-32.795117,61.8            151.352521,-32.795142,61.6            151.352511,-32.795174,61.6            151.352504,-32.7952,61.6            151.35249,-32.795228,61.6            151.352478,-32.795257,61.4            151.352466,-32.795285,61.4            151.352449,-32.795317,61.4            151.352441,-32.79534,61.4            151.352427,-32.795362,61.4            151.352415,-32.795388,61.4            151.352407,-32.795418,61.2            151.3524,-32.795449,61.2            151.3524,-32.795475,61.2            151.352402,-32.795506,61.2            151.352404,-32.795539,61            151.352411,-32.79557,61.2            151.352415,-32.795601,61.2            151.35242,-32.795628,61.2            151.352423,-32.795657,61.2            151.352422,-32.795686,61.2            151.352423,-32.795717,61.4            151.352421,-32.795747,61.4            151.35242,-32.795776,61.4            151.352413,-32.795806,61.4            151.352405,-32.795836,61.4            151.352397,-32.795864,61.4            151.352383,-32.795893,61.4            151.352373,-32.795923,61.4            151.35236,-32.795954,61.4            151.352351,-32.795978,61.4            151.352338,-32.796006,61.4            151.352323,-32.796034,61.6            151.352317,-32.796066,61.6            151.352309,-32.796099,61.6            151.352304,-32.796127,61.6            151.352299,-32.796156,61.6            151.352305,-32.796192,61.6            151.352307,-32.796222,61.6            151.352304,-32.796253,61.6            151.352301,-32.796277,61.6            151.35229,-32.796303,61.6            151.352263,-32.796322,61.6            151.352233,-32.796334,61.6            151.352193,-32.796327,61.6            151.352158,-32.796321,61.6            151.352126,-32.796308,61.4            151.352101,-32.796288,61.2            151.35207,-32.796263,61.2            151.35204,-32.796238,61            151.352018,-32.796214,61            151.351996,-32.796186,60.8            151.351977,-32.796158,60.8            151.351957,-32.796132,60.8            151.351941,-32.796102,60.8            151.351927,-32.796077,60.8            151.351915,-32.796053,60.8            151.35191,-32.796022,61            151.351897,-32.795994,61.4            151.351882,-32.795971,61.6            151.351859,-32.795952,61.8            151.351838,-32.795939,62            151.351808,-32.795925,62.4            151.351778,-32.795915,62.6            151.351745,-32.795904,62.8            151.351715,-32.795895,62.8            151.35168,-32.795884,62.8            151.351645,-32.795872,62.8            151.351613,-32.795862,62.8            151.351579,-32.79585,62.8            151.351549,-32.795842,62.6            151.351515,-32.795835,62.6            151.351483,-32.795826,62.6            151.351447,-32.795818,62.6            151.35141,-32.795808,62.8            151.351376,-32.795799,62.8            151.351341,-32.79579,63            151.351304,-32.795782,63            151.351269,-32.795779,63.2            151.35123,-32.795771,63.2            151.351197,-32.79577,63.4            151.351165,-32.79578,63.6            151.35114,-32.795798,63.6            151.351122,-32.79582,63.6            151.351106,-32.79585,63.4            151.351088,-32.795878,63            151.35107,-32.795909,62.8            151.35105,-32.795939,62.6            151.351033,-32.795964,62.4            151.351015,-32.79599,62.2            151.350998,-32.796014,62.2            151.350982,-32.796039,62.2            151.350965,-32.796066,62.2            151.35095,-32.796089,62.2            151.350937,-32.796117,62.2            151.350925,-32.796142,62            151.350917,-32.796165,62            151.350912,-32.796183,62            151.350906,-32.796203,62            151.350898,-32.796232,62            151.35089,-32.796259,62            151.350883,-32.796287,62            151.350874,-32.796317,62            151.350868,-32.796347,61.8            151.350866,-32.796378,61.8            151.350863,-32.79641,61.8            151.350865,-32.796438,61.8            151.350866,-32.796465,61.8            151.350868,-32.796488,61.8            151.350873,-32.796519,61.8            151.350877,-32.796548,62            151.350882,-32.796577,62            151.35089,-32.796608,62            151.350901,-32.796636,62            151.350913,-32.796664,62            151.350927,-32.796692,62            151.350945,-32.796716,62            151.350966,-32.796739,62            151.350988,-32.796764,62.2            151.35101,-32.796788,62.2            151.351032,-32.796813,62.2            151.351056,-32.796832,62.2            151.351079,-32.796852,62.2            151.351102,-32.796874,62.2            151.351125,-32.796893,62.2            151.35115,-32.796912,62.2            151.351172,-32.796932,62.2            151.351194,-32.79695,62.2            151.351219,-32.796973,62.2            151.351239,-32.796993,62.2            151.351265,-32.797013,62.2            151.351293,-32.797032,62.2            151.351322,-32.797047,62.2            151.351354,-32.797061,62.2            151.351382,-32.797073,62.2            151.351418,-32.797081,62            151.351451,-32.797093,62            151.351483,-32.797104,62            151.35152,-32.797117,62.2            151.35155,-32.797127,62.2            151.351583,-32.797136,62.2            151.351614,-32.79715,62.2            151.351646,-32.797164,62.2            151.351678,-32.797184,62.2            151.351704,-32.797203,62.2            151.35172,-32.797231,62.2            151.351716,-32.797262,62.2            151.351699,-32.797294,62.2            151.351669,-32.797324,62.2            151.351646,-32.797346,62.2            151.351616,-32.79737,62.2            151.351584,-32.797393,62.2            151.351544,-32.797406,62            151.351507,-32.797417,62            151.351476,-32.797429,62            151.351444,-32.797441,62            151.351412,-32.797453,62            151.351377,-32.797464,62            151.351339,-32.797473,62            151.351304,-32.797481,62            151.35127,-32.797487,62            151.351238,-32.797494,62            151.351209,-32.7975,62            151.351174,-32.797511,62.2            151.351146,-32.797529,62.4            151.351117,-32.79755,62.4            151.351099,-32.797571,62.6            151.351099,-32.797607,62.6            151.351097,-32.797634,62.6            151.351095,-32.797666,62.4            151.351088,-32.797697,62.4            151.351084,-32.797722,62.2            151.351077,-32.797751,62.2            151.351067,-32.797777,62            151.351058,-32.797804,62            151.351043,-32.797832,62            151.351031,-32.797858,62            151.351018,-32.797888,62            151.351004,-32.797915,62            151.350992,-32.797943,62            151.350975,-32.797969,61.8            151.35096,-32.797993,61.8            151.350942,-32.798018,61.6            151.350923,-32.798041,61.6            151.350904,-32.798067,61.4            151.350881,-32.79809,61.4            151.350863,-32.798112,61.4            151.350841,-32.798138,61.6            151.350817,-32.798161,61.6            151.350797,-32.798183,61.6            151.35077,-32.798208,61.6            151.350746,-32.798229,61.6            151.350722,-32.798251,61.6            151.350698,-32.798272,61.6            151.350675,-32.798292,61.6            151.350651,-32.798313,61.8            151.35063,-32.798334,61.8            151.350606,-32.798357,61.8            151.350587,-32.798381,62            151.350568,-32.798407,62.2            151.350552,-32.798431,62.2            151.35054,-32.798456,62.2            151.350528,-32.798482,62.2            151.350521,-32.798508,62.4            151.350514,-32.798536,62.4            151.35051,-32.798562,62.4            151.350507,-32.798593,62.6            151.350505,-32.798624,62.6            151.350507,-32.798653,62.6            151.350508,-32.798687,62.6            151.350513,-32.798714,62.6            151.35052,-32.798742,62.6            151.350525,-32.79877,62.6            151.35053,-32.7988,62.6            151.350534,-32.798829,62.6            151.35054,-32.798858,62.6            151.350543,-32.798889,62.6            151.350546,-32.798918,62.6            151.350549,-32.798949,62.6            151.350548,-32.798981,62.6            151.350551,-32.799011,62.6            151.350551,-32.799042,62.6            151.350553,-32.799071,62.6            151.350554,-32.7991,62.6            151.350553,-32.79913,62.6            151.350553,-32.79916,62.6            151.350552,-32.79919,62.6            151.350554,-32.799218,62.6            151.350553,-32.799247,62.6            151.350554,-32.799276,62.6            151.350555,-32.799306,62.6            151.350552,-32.799337,62.6            151.350551,-32.799369,62.6            151.350549,-32.799402,62.4            151.35055,-32.799432,62.4            151.350551,-32.799465,62.4            151.350551,-32.799494,62.4            151.350551,-32.799525,62.4            151.350548,-32.799554,62.4            151.350551,-32.79958,62.2            151.350548,-32.799609,62.2            151.350553,-32.799638,62.2            151.350556,-32.799668,62.2            151.350557,-32.799699,62.2            151.350559,-32.799729,62.2            151.350558,-32.79976,62.2            151.350557,-32.799789,62.2            151.350556,-32.79982,62.2            151.350556,-32.79985,62.2            151.350555,-32.799883,62.2            151.35055,-32.799912,62.2            151.350551,-32.799943,62.2            151.350546,-32.799974,62            151.350546,-32.800003,62            151.350542,-32.800035,62            151.350541,-32.800068,62            151.350537,-32.800099,62            151.350534,-32.800129,62.2            151.350528,-32.80016,62.2            151.350523,-32.800187,62.2            151.350517,-32.800217,62.4            151.350515,-32.800243,62.4            151.350511,-32.800275,62.6            151.3505,-32.800304,62.6            151.350496,-32.800334,62.6            151.350488,-32.800361,62.6            151.350481,-32.800391,62.8            151.350471,-32.800419,62.8            151.350465,-32.800445,62.8            151.350456,-32.800474,63            151.350444,-32.800503,63            151.350432,-32.800537,63            151.350429,-32.800566,63            151.350423,-32.800596,63.2            151.350417,-32.800624,63.2            151.350418,-32.800653,63.2            151.350414,-32.800684,63.2            151.350399,-32.800704,63.2            151.350392,-32.80073,63.2            151.350385,-32.80076,63.4            151.350383,-32.80079,63.4            151.350376,-32.800824,63.4            151.350374,-32.800857,63.4            151.35036,-32.800889,63.4            151.350349,-32.800918,63.4            151.35034,-32.800947,63.4            151.350332,-32.800976,63.6            151.350327,-32.801006,63.6            151.35032,-32.801039,63.6            151.350308,-32.801067,63.8            151.350298,-32.801101,63.8            151.35029,-32.80113,63.8            151.350279,-32.801157,63.8            151.350266,-32.801185,64            151.350257,-32.801214,64            151.350244,-32.801242,64            151.350233,-32.801266,64            151.350221,-32.801298,64            151.350217,-32.801324,64            151.350211,-32.80135,64            151.350203,-32.801378,64            151.350196,-32.801407,64.2            151.350188,-32.801435,64.2            151.350183,-32.801461,64.2            151.350172,-32.80149,64.2            151.350165,-32.801514,64.2            151.350158,-32.801541,64.2            151.350152,-32.80157,64.2            151.350147,-32.801602,64.2            151.350138,-32.801638,64.4            151.350136,-32.801666,64.4            151.350128,-32.801696,64.4            151.350124,-32.801724,64.4            151.350122,-32.801752,64.4            151.350119,-32.801782,64.6            151.350119,-32.801809,64.6            151.350114,-32.801836,64.8            151.350116,-32.801862,65            151.350113,-32.801892,65            151.350107,-32.801922,65            151.350099,-32.801952,65            151.350085,-32.801981,65            151.350076,-32.802006,65.2            151.35006,-32.802034,65.2            151.350051,-32.80206,65.2            151.350037,-32.80209,65.4            151.350022,-32.802117,65.4            151.35001,-32.802143,65.4            151.349993,-32.80217,65.4            151.349986,-32.802195,65.2            151.349978,-32.802225,65            151.349972,-32.802254,65            151.349964,-32.802284,65            151.349953,-32.802318,65            151.349942,-32.80235,65            151.349922,-32.802382,65            151.349898,-32.802405,65            151.349863,-32.802418,65            151.349826,-32.80242,65            151.34979,-32.802417,65            151.349755,-32.802408,65            151.349717,-32.802392,65.2            151.349682,-32.802374,65.2            151.349661,-32.802346,65.4            151.349645,-32.802318,65.4            151.349658,-32.8023,65.6            151.349684,-32.802281,66            151.349723,-32.802259,66            151.349754,-32.802242,66            151.349786,-32.80222,66            151.349818,-32.802199,65.8            151.349849,-32.802175,65.6            151.349879,-32.802152,65.4            151.349907,-32.802132,65.2            151.349932,-32.802111,65.2            151.349957,-32.802092,65            151.349982,-32.80207,64.8            151.350008,-32.802046,64.6            151.350028,-32.802021,64.6            151.350048,-32.801994,64.4            151.350065,-32.801967,64.4            151.350076,-32.80194,64.4            151.350083,-32.801911,64.2            151.35009,-32.801883,64            151.350094,-32.801855,64            151.350101,-32.801827,63.8            151.350103,-32.801801,63.6            151.350107,-32.801767,63.4            151.35011,-32.801741,63.2            151.350114,-32.801712,63.2            151.350119,-32.801685,63.2            151.35012,-32.801658,63.6            151.350123,-32.801628,63.6            151.350125,-32.8016,63.6            151.350126,-32.801572,63.6            151.350129,-32.801545,63.6            151.350132,-32.801515,63.6            151.350141,-32.801487,63.6            151.350146,-32.801457,63.4            151.350154,-32.801424,63.4            151.350158,-32.801394,63.6            151.350163,-32.801364,63.6            151.350172,-32.801333,63.8            151.350176,-32.801301,63.8            151.350187,-32.80127,63.8            151.350192,-32.801241,63.8            151.3502,-32.801212,63.8            151.350209,-32.801185,63.6            151.35022,-32.801157,63.6            151.350232,-32.801129,63.6            151.350239,-32.801102,63.6            151.350253,-32.801072,63.6            151.35026,-32.801046,63.6            151.350273,-32.801017,63.6            151.350282,-32.800989,63.6            151.350287,-32.800958,63.6            151.350294,-32.800927,63.6            151.350299,-32.800898,63.4            151.350308,-32.800867,63.4            151.350315,-32.800839,63.4            151.35032,-32.800808,63.4            151.35033,-32.800779,63.2            151.350338,-32.80075,63.2            151.350351,-32.800721,63.2            151.350359,-32.80069,63            151.350369,-32.800658,63            151.350376,-32.800629,62.8            151.350385,-32.800597,62.8            151.350395,-32.800567,62.4            151.350402,-32.800536,62.4            151.350415,-32.800506,62.2            151.35042,-32.800477,62            151.350434,-32.800443,62            151.350442,-32.800415,62            151.350445,-32.800382,62            151.350451,-32.800354,62            151.350454,-32.800327,61.8            151.350464,-32.800298,61.8            151.350471,-32.80027,61.8            151.350482,-32.800239,61.8            151.350482,-32.800213,61.8            151.350487,-32.800183,61.8            151.350493,-32.800154,61.6            151.350497,-32.800126,61.6            151.350503,-32.800094,61.4            151.350506,-32.800066,61.4            151.350512,-32.800035,61            151.350516,-32.800004,60.4            151.350521,-32.799973,60.4            151.350527,-32.799942,60.4            151.350522,-32.799908,60.4            151.350522,-32.799874,60.4            151.350521,-32.799842,60.6            151.350523,-32.799809,60.8            151.350521,-32.79978,61            151.350521,-32.799748,61            151.350521,-32.799715,61            151.350518,-32.799685,61            151.350521,-32.799652,61            151.350523,-32.799622,60.8            151.35053,-32.799589,60.8            151.350529,-32.799558,60.8            151.350535,-32.799526,60.8            151.350533,-32.799496,60.8            151.350535,-32.799462,60.8            151.350533,-32.79943,60.8            151.350532,-32.799397,60.8            151.350529,-32.799368,61            151.350524,-32.799339,60.8            151.350527,-32.799307,60.8            151.350525,-32.799277,60.6            151.350527,-32.799243,60.4            151.350524,-32.799213,60.6            151.350524,-32.799184,60.6            151.350524,-32.799158,60.4            151.350524,-32.799129,60.4            151.350526,-32.799097,60.2            151.350524,-32.799068,60            151.350524,-32.799039,60            151.350522,-32.799009,60            151.350519,-32.798978,60            151.350516,-32.798948,60            151.350512,-32.79892,60            151.350513,-32.798892,60            151.350509,-32.798863,60.2            151.350506,-32.798834,60.4            151.350499,-32.798804,60.8            151.350493,-32.798776,60.8            151.35049,-32.798745,61            151.35048,-32.798718,61.2            151.350476,-32.798687,61.2            151.350471,-32.798659,61.2            151.350466,-32.798628,61.2            151.350466,-32.798595,61.4            151.350466,-32.798563,61.4            151.350474,-32.798531,61.4            151.350478,-32.798501,61.4            151.350489,-32.79847,61.4            151.350496,-32.798443,61.4            151.350505,-32.798415,61.4            151.35052,-32.798388,61.2            151.350535,-32.798363,61.2            151.350558,-32.798337,61            151.35058,-32.798312,60.8            151.350602,-32.798288,60.8            151.350628,-32.798263,60.6            151.350652,-32.798237,60.4            151.350687,-32.798213,60.2            151.350713,-32.79819,60            151.350748,-32.798164,59.6            151.350772,-32.79814,59.6            151.350795,-32.798117,59.6            151.350822,-32.798092,59.6            151.350843,-32.798068,59.6            151.350872,-32.798042,60            151.350895,-32.798016,60.2            151.350915,-32.79799,60.2            151.350937,-32.797965,60.2            151.350955,-32.797936,60.2            151.350976,-32.797911,60.2            151.350989,-32.797884,60.2            151.351008,-32.797856,60            151.35102,-32.797829,59.8            151.351034,-32.7978,59.8            151.351046,-32.797773,59.8            151.351055,-32.797743,59.8            151.351067,-32.797711,59.8            151.351072,-32.797681,59.6            151.351081,-32.797648,59.4            151.351086,-32.797618,59.4            151.351091,-32.797585,59.2            151.3511,-32.797557,59.2            151.351115,-32.79753,59.2            151.35114,-32.797508,59.2            151.351166,-32.797488,59.4            151.351195,-32.797472,59.6            151.351229,-32.797459,59.8            151.351265,-32.797447,59.8            151.351303,-32.797439,60.2            151.351335,-32.797428,60.4            151.351374,-32.797416,60.6            151.351406,-32.797403,60.6            151.351441,-32.797389,60.6            151.351473,-32.797378,60.6            151.351504,-32.797363,60.6            151.35154,-32.79735,60.4            151.351571,-32.797335,60.4            151.351606,-32.79732,60.4            151.351634,-32.797304,60.2            151.351658,-32.797282,60.2            151.351683,-32.797258,60.2            151.351695,-32.797228,60            151.351691,-32.797198,60            151.351675,-32.797176,60.2            151.351643,-32.797157,60.2            151.351606,-32.797137,60.2            151.351565,-32.79712,60.2            151.35153,-32.797107,60.4            151.351495,-32.797095,60.4            151.35146,-32.797081,60.4            151.35143,-32.79707,60.2            151.351394,-32.797061,60.2            151.351362,-32.797052,60.2            151.351325,-32.797041,60.2            151.351291,-32.797028,60.2            151.351258,-32.797014,60            151.351228,-32.796997,60            151.351203,-32.796982,59.8            151.351175,-32.796963,60            151.351151,-32.796945,60            151.351125,-32.796924,60            151.3511,-32.796903,60            151.351075,-32.796885,60            151.351052,-32.796861,60.2            151.351027,-32.796838,60            151.351007,-32.796814,59.8            151.350985,-32.796791,59.6            151.350966,-32.796764,59.6            151.350947,-32.796742,59.6            151.350927,-32.796718,59.6            151.350911,-32.796694,59.6            151.350895,-32.796667,60            151.350882,-32.796637,60.2            151.350867,-32.796608,60.2            151.350856,-32.796577,60.4            151.350846,-32.796549,60.4            151.350836,-32.796517,60.4            151.350835,-32.796492,60.4            151.350834,-32.796462,60.4            151.350838,-32.796435,60.4            151.350837,-32.796404,60.4            151.35084,-32.796372,60.2            151.350844,-32.796342,60.2            151.350849,-32.79631,60.2            151.350855,-32.796282,60            151.350862,-32.796251,60            151.350875,-32.79622,59.8            151.350887,-32.796187,59.6            151.350904,-32.796154,59.6            151.350916,-32.796127,59.6            151.350931,-32.7961,59.4            151.350946,-32.796077,59.4            151.35096,-32.79605,59.4            151.350977,-32.796025,59.6            151.350991,-32.795998,59.6            151.351012,-32.795973,59.6            151.351029,-32.795945,59.8            151.351049,-32.795917,60.2            151.351067,-32.795892,60.2            151.351086,-32.795864,60.6            151.351104,-32.795842,60.6            151.35112,-32.795815,60.8            151.351142,-32.795793,61            151.351163,-32.795771,61            151.351196,-32.795756,61.2            151.351227,-32.795746,61.4            151.351261,-32.795745,61.4            151.351295,-32.79575,62            151.351327,-32.795755,62            151.351363,-32.79576,62            151.351395,-32.795762,62.4            151.351434,-32.795767,63.2            151.351473,-32.795773,63.4            151.35151,-32.795781,63.4            151.351543,-32.795789,63.4            151.351573,-32.795796,63.4            151.351615,-32.795803,63.4            151.351651,-32.795809,63.6            151.351688,-32.795818,63.6            151.351722,-32.795825,63.6            151.351758,-32.795836,63.8            151.351794,-32.795846,63.8            151.351825,-32.795854,63.8            151.351857,-32.795869,63.8            151.35189,-32.795883,63.6            151.351921,-32.795904,63.4            151.351946,-32.795928,63.2            151.351966,-32.79596,63.2            151.351979,-32.795998,63.2            151.351993,-32.796032,63            151.352007,-32.796074,63            151.352025,-32.796115,62.8            151.352042,-32.796155,62.6            151.352059,-32.796185,62            151.352078,-32.796216,61.2            151.352096,-32.796243,60.6            151.352119,-32.796267,60.4            151.352144,-32.796292,60.4            151.352172,-32.796311,60.4            151.352204,-32.796326,60.6            151.352241,-32.796328,60.6            151.352266,-32.79631,60.6            151.352271,-32.796273,60.6            151.352272,-32.796232,60.4            151.352277,-32.796196,59.4            151.352278,-32.796157,59.4            151.352286,-32.796121,59.4            151.352294,-32.796087,59.4            151.352303,-32.79605,59.4            151.35231,-32.796023,59.4            151.352321,-32.795993,59.6            151.352333,-32.795966,59.6            151.352345,-32.795935,59.6            151.352356,-32.795905,59.6            151.352364,-32.795874,59.6            151.352375,-32.795843,59.6            151.352385,-32.795809,59.6            151.352395,-32.795779,59.6            151.352398,-32.79575,59.6            151.352401,-32.795718,59.4            151.352402,-32.795692,59.4            151.352402,-32.795663,59.4            151.352403,-32.795633,59.2            151.352398,-32.795602,59.2            151.352395,-32.795569,59            151.352389,-32.795541,59            151.352383,-32.795505,59            151.352378,-32.795473,59            151.352371,-32.795439,59            151.352364,-32.795408,59            151.352349,-32.795379,59            151.352331,-32.79535,59            151.352311,-32.795328,59            151.352283,-32.795303,59            151.35226,-32.795283,59.2            151.352233,-32.79526,59.2            151.352209,-32.795239,59.4            151.352181,-32.795218,59.6            151.352156,-32.795199,59.6            151.352132,-32.795182,59.6            151.352106,-32.79516,59.8            151.352083,-32.795139,60            151.352059,-32.795117,60            151.352038,-32.795091,60            151.352017,-32.795066,60.2            151.352,-32.795039,60.2            151.351984,-32.795012,60.2            151.351977,-32.794981,60.2            151.351971,-32.794951,60.2            151.351968,-32.79492,60.2            151.351967,-32.794888,60.2            151.351964,-32.794857,60            151.351968,-32.794826,60            151.351968,-32.794798,60            151.351971,-32.794766,60            151.35197,-32.794737,59.8            151.351969,-32.794704,59.6            151.351969,-32.794675,59.6            151.351967,-32.794645,59            151.351968,-32.794617,59            151.351967,-32.794588,59            151.351972,-32.794556,59            151.351975,-32.794525,59            151.351983,-32.794489,59.6            151.351988,-32.794456,59.6            151.351994,-32.794422,59.6            151.352,-32.794389,59.6            151.352004,-32.794354,59.6            151.352013,-32.794322,59.4            151.35202,-32.794291,59.4            151.352035,-32.794261,59.4            151.352046,-32.794234,59.6            151.352066,-32.794206,59.4            151.352087,-32.794181,59.6            151.352118,-32.794156,59.4            151.352151,-32.794141,59.4            151.352191,-32.794134,59.4            151.352233,-32.794139,59.4            151.352276,-32.794152,59.4            151.352311,-32.794175,59.4            151.352342,-32.794202,59.4            151.352371,-32.794232,59.6            151.352396,-32.794262,59.6            151.35242,-32.794291,59.6            151.35244,-32.794318,59.6            151.352462,-32.794345,59.6            151.352482,-32.794375,59.6            151.352502,-32.794403,59.6            151.352521,-32.794434,59.6            151.352536,-32.794464,59.6            151.352548,-32.794494,59.6            151.352561,-32.794522,59.6            151.352569,-32.794553,59.6            151.352576,-32.794581,59.6            151.352581,-32.794612,59.8            151.352583,-32.794642,59.8            151.352583,-32.794674,60.4            151.352581,-32.794708,60.6            151.352581,-32.794739,60.6            151.352577,-32.794771,60.6            151.352576,-32.794801,60.6            151.352572,-32.794835,60.6            151.352565,-32.794867,60.4            151.352557,-32.794903,60.4            151.352545,-32.794935,60.4            151.352536,-32.794965,60.4            151.352526,-32.794998,60.4            151.35252,-32.795026,60.4            151.352507,-32.795057,60.2            151.352498,-32.795086,60.2            151.352489,-32.795119,60            151.35248,-32.795152,59.8            151.352471,-32.795185,59.6            151.352461,-32.795216,59.6            151.352452,-32.795247,59.4            151.352442,-32.795276,59.4            151.352433,-32.795306,59.4            151.352418,-32.795339,59.4            151.352408,-32.795368,59.4            151.352397,-32.795397,59.6            151.352391,-32.795426,59.6            151.352387,-32.795457,59.6            151.352387,-32.795486,59.4            151.352391,-32.795516,59.4            151.352396,-32.795547,59.4            151.352401,-32.795579,59.4            151.35241,-32.795612,59.6            151.352418,-32.795636,59.6            151.352424,-32.79567,59.6            151.352425,-32.795703,59.6            151.352423,-32.795738,59.8            151.352416,-32.795773,59.8            151.352408,-32.795812,59.8            151.352399,-32.795845,59.8            151.352391,-32.795879,59.8            151.352376,-32.795911,59.6            151.352364,-32.795942,59.6            151.352347,-32.795971,59.6            151.352336,-32.795999,59.6            151.352323,-32.79603,59.8            151.352312,-32.79606,59.8            151.352304,-32.796095,59.8            151.352301,-32.796126,59.8            151.352302,-32.796159,60            151.352304,-32.796193,60.2            151.352306,-32.796227,60.2            151.352306,-32.796261,60.4            151.352298,-32.79629,60.4            151.352272,-32.796312,60.4            151.352241,-32.796321,60.4            151.352206,-32.79632,60.2            151.352167,-32.796312,60            151.352126,-32.796295,60            151.352097,-32.796274,59.8            151.35207,-32.796252,59.6            151.35204,-32.796222,59.4            151.352017,-32.796196,59.4            151.351996,-32.796167,59.2            151.351978,-32.796137,59.2            151.351959,-32.796107,59            151.351947,-32.796075,59            151.35193,-32.796046,59            151.351918,-32.796015,59            151.351902,-32.795988,59            151.351878,-32.795964,59.6            151.351852,-32.795947,60.2            151.351823,-32.795934,60.2            151.351797,-32.795921,60.2            151.351767,-32.795913,60.4            151.351732,-32.795901,60.4            151.351699,-32.795892,60.4            151.351662,-32.795879,60.2            151.351629,-32.795868,60            151.351595,-32.795857,60.2            151.351566,-32.795846,60.4            151.351533,-32.795837,60.4            151.351497,-32.795826,60.4            151.351466,-32.795819,60.6            151.351432,-32.795807,60.8            151.3514,-32.795798,61            151.351363,-32.795786,61.2            151.351329,-32.795774,61.2            151.351297,-32.795766,61.6            151.35126,-32.79576,62            151.351221,-32.795771,62.4            151.351186,-32.795777,62.4            151.351155,-32.795786,62.4            151.351131,-32.795806,62.2            151.351104,-32.795835,61.8            151.351085,-32.79586,61.4            151.351067,-32.795893,61.2            151.35105,-32.79592,61            151.351036,-32.795945,60.8            151.351019,-32.795972,60.6            151.351002,-32.795999,60.6            151.350987,-32.796027,60.6            151.350972,-32.796054,60.6            151.350955,-32.796083,60.4            151.350938,-32.796113,60.4            151.350925,-32.796145,60.2            151.350914,-32.796174,60.2            151.350905,-32.796201,60.2            151.350894,-32.796229,60.2            151.350883,-32.796255,60.2            151.350874,-32.796284,60.2            151.350864,-32.796312,60.2            151.350858,-32.796341,60.2            151.350852,-32.796371,60            151.350852,-32.796399,60            151.350854,-32.796429,60.2            151.350857,-32.796455,60            151.350858,-32.796486,60.2            151.350862,-32.796517,60.2            151.35087,-32.796549,60.2            151.350875,-32.796576,60.2            151.350884,-32.796607,60.2            151.350894,-32.796638,60.2            151.350907,-32.796666,60.4            151.350926,-32.796695,60.4            151.350943,-32.79672,60.4            151.35096,-32.796745,60.4            151.350978,-32.796768,60.4            151.350997,-32.796792,60.4            151.351024,-32.796818,60.4            151.351051,-32.796838,60.4            151.35108,-32.796861,60.4            151.351104,-32.796883,60.4            151.351132,-32.796906,60.4            151.351155,-32.796928,60.4            151.351178,-32.79695,60.4            151.351202,-32.796973,60.4            151.351224,-32.796991,60.4            151.35125,-32.797009,60.4            151.351278,-32.797024,60.6            151.35131,-32.797038,60.4            151.351344,-32.797054,60.4            151.351379,-32.797069,60.4            151.35142,-32.797082,60.4            151.351455,-32.797093,60.4            151.351492,-32.797104,60.4            151.351528,-32.797117,60.4            151.351564,-32.797126,60.4            151.351598,-32.79714,60.4            151.351629,-32.797154,60.4            151.35166,-32.797175,60.4            151.35168,-32.797197,60.4            151.351684,-32.797227,60.6            151.351672,-32.797257,60.6            151.351653,-32.797289,60.6            151.351627,-32.797319,60.6            151.351605,-32.797343,60.8            151.351572,-32.79736,60.8            151.351542,-32.797378,60.8            151.35151,-32.797393,60.8            151.351471,-32.797405,61            151.351438,-32.797419,61            151.3514,-32.79743,61            151.35137,-32.79744,61            151.351332,-32.79745,61            151.351298,-32.79746,61            151.351264,-32.797469,61            151.351229,-32.797476,61            151.351195,-32.797486,61            151.351158,-32.797496,61            151.351131,-32.797514,60.8            151.351107,-32.797535,60.8            151.351086,-32.797558,60.8            151.351093,-32.797599,60.8            151.351093,-32.797628,60.8            151.35109,-32.797661,60.8            151.351083,-32.797692,61            151.351077,-32.797724,61            151.351067,-32.797757,60.8            151.351057,-32.797786,60.8            151.351046,-32.797817,60.8            151.351033,-32.797848,60.8            151.35102,-32.797879,60.8            151.351001,-32.797908,60.6            151.350986,-32.797937,60.6            151.350963,-32.797964,60.6            151.350944,-32.797989,60.6            151.350922,-32.798016,60.6            151.350903,-32.798038,60.6            151.350884,-32.798064,60.6            151.35086,-32.79809,60.8            151.350841,-32.798115,60.8            151.350815,-32.798141,60.8            151.350791,-32.798163,60.6            151.350766,-32.798186,60.4            151.350742,-32.798209,60.4            151.35072,-32.798232,60.6            151.350698,-32.798254,60.8            151.350675,-32.798277,61            151.35065,-32.798299,61.4            151.350628,-32.79832,61.6            151.350605,-32.798343,61.6            151.350582,-32.798365,61.6            151.350564,-32.798388,61.6            151.350545,-32.798414,61.6            151.350533,-32.798441,61.6            151.350519,-32.798468,61.8            151.350512,-32.798494,61.8            151.350503,-32.798525,61.8            151.350499,-32.798551,61.8            151.350495,-32.798579,62            151.350491,-32.798607,62            151.350493,-32.798634,62            151.350495,-32.798662,61.8            151.3505,-32.798692,61.8            151.350505,-32.798726,61.8            151.350512,-32.798754,61.8            151.350516,-32.798786,61.6            151.350522,-32.798818,61.6            151.350527,-32.79885,61.6            151.35053,-32.79888,61.6            151.350535,-32.79891,61.8            151.350536,-32.798943,61.6            151.35054,-32.798973,61.6            151.350541,-32.799004,61.6            151.350541,-32.799035,61.6            151.350542,-32.799066,61.4            151.350541,-32.799096,61.4            151.350542,-32.799125,61.4            151.35054,-32.799158,61.4            151.350549,-32.799186,61.4            151.35055,-32.799217,61.4            151.350552,-32.799249,61.4            151.350553,-32.799282,61.4            151.350552,-32.799312,61.4            151.350551,-32.799341,61.4            151.350548,-32.799371,61.4            151.350548,-32.799403,61.4            151.350545,-32.799437,61.4            151.350545,-32.799466,61.4            151.350545,-32.799498,61.4            151.350547,-32.799527,61.4            151.350545,-32.799556,61.4            151.350543,-32.799586,61.4            151.350544,-32.799614,61.4            151.350544,-32.799644,61.4            151.350547,-32.799673,61.4            151.350549,-32.799702,61.2            151.35055,-32.79973,61.2            151.350552,-32.799761,61.2            151.350552,-32.79979,61.2            151.350555,-32.799819,61.2            151.350554,-32.79985,61.2            151.350553,-32.799882,61.2            151.350551,-32.799914,61.2            151.350547,-32.799943,61.2            151.350545,-32.799976,61.2            151.350541,-32.800005,61.2            151.350537,-32.800038,61.2            151.350531,-32.800069,61.2            151.35053,-32.800096,61.2            151.350526,-32.800122,61.4            151.350524,-32.800149,61.4            151.350518,-32.800178,61.6            151.350513,-32.800209,61.6            151.350507,-32.800242,61.6            151.3505,-32.800268,61.8            151.350495,-32.800294,61.8            151.350487,-32.800325,62            151.35048,-32.800351,62            151.350469,-32.800379,62            151.350464,-32.800405,62.2            151.350454,-32.800437,62.2            151.350449,-32.800459,62.2            151.350441,-32.800493,62.2            151.350429,-32.800523,62.2            151.350422,-32.800553,62.2            151.350417,-32.800583,62.2            151.350413,-32.800619,62.2            151.350402,-32.800647,62.4            151.350399,-32.800675,62.6            151.350391,-32.800705,62.6            151.350388,-32.800729,62.8            151.350382,-32.800758,62.8            151.350375,-32.800786,62.8            151.350368,-32.800819,62.8            151.350361,-32.800847,62.8            151.350356,-32.800875,62.8            151.350347,-32.800901,62.8            151.350338,-32.800927,62.8            151.350332,-32.800952,62.8            151.350328,-32.800982,63            151.350322,-32.801012,63            151.350317,-32.801041,63.2            151.350311,-32.801071,63.4            151.350292,-32.801095,63.4            151.35028,-32.801124,63.4            151.350266,-32.801153,63.4            151.350256,-32.801178,63.4            151.350242,-32.801206,63.4            151.350231,-32.801233,63.2            151.350218,-32.801263,63.4            151.350207,-32.801291,63.4            151.3502,-32.801319,63.6            151.350193,-32.801347,63.6            151.350188,-32.801372,63.6            151.350181,-32.801401,63.6            151.350179,-32.801427,63.6            151.350173,-32.801456,63.6            151.350168,-32.801483,63.6            151.35016,-32.801516,63.6            151.350154,-32.801547,63.6            151.350149,-32.801578,63.6            151.350142,-32.801609,63.6            151.350139,-32.801638,63.6            151.350131,-32.801669,63.6            151.350126,-32.801695,63.8            151.350122,-32.801726,63.8            151.350118,-32.801754,63.8            151.350114,-32.801782,63.8            151.350107,-32.801811,64            151.350106,-32.801839,64            151.350099,-32.801868,64            151.350097,-32.801893,64            151.35009,-32.801921,64            151.350079,-32.80195,64            151.35007,-32.801975,64            151.350056,-32.802004,64            151.350044,-32.802029,64.2            151.35003,-32.802057,64.2            151.35002,-32.802082,64.4            151.350008,-32.80211,64.4            151.349998,-32.802134,64.4            151.349985,-32.802163,64.4            151.349976,-32.802194,64.4            151.349968,-32.802224,64.4            151.34996,-32.80226,64.4            151.34995,-32.802295,64.2            151.349937,-32.80233,64.4            151.349926,-32.802361,64.4            151.349905,-32.802394,64.4            151.349884,-32.802415,64.4            151.349855,-32.802428,64.4            151.349815,-32.802404,64.4            151.34978,-32.802391,64.4            151.349749,-32.80238,64.4            151.349715,-32.802368,64.4            151.349684,-32.802351,64.4            151.349659,-32.802333,64.4            151.34965,-32.802308,64.6            151.349663,-32.802289,64.6            151.349692,-32.802265,64.8            151.349723,-32.802247,65.2            151.349755,-32.802227,65.2            151.349791,-32.802209,65.2            151.349821,-32.80219,65.2            151.349851,-32.80217,65.2            151.349881,-32.802149,65            151.349908,-32.802126,65            151.349938,-32.802104,64.8            151.349964,-32.80208,64.6            151.349993,-32.802057,64.4            151.350012,-32.802032,64.4            151.350035,-32.802003,64.4            151.350053,-32.801976,64.2            151.350073,-32.801947,64.2            151.350089,-32.801918,64            151.350095,-32.801886,64            151.350101,-32.801855,63.6            151.350103,-32.801826,63.4            151.350109,-32.801791,63.4            151.35011,-32.80176,63            151.350114,-32.801726,62.8            151.350115,-32.801699,62.4            151.350115,-32.801669,62.2            151.350116,-32.801642,62.2            151.350119,-32.801609,62.2            151.350126,-32.801579,62.4            151.350128,-32.801549,62.4            151.350135,-32.801519,62.6            151.350136,-32.80149,62.8            151.350145,-32.801459,62.8            151.35015,-32.801428,62.6            151.350157,-32.801395,62.6            151.350161,-32.801366,62.6            151.350167,-32.801336,62.6            151.350178,-32.801306,62.6            151.350188,-32.801276,62.6            151.350201,-32.801246,62.4            151.350214,-32.801217,62.4            151.350231,-32.801186,62.4            151.350243,-32.801157,62.4            151.350258,-32.801127,62.4            151.350269,-32.801099,62.4            151.350281,-32.80107,62.4            151.350293,-32.80104,62.4            151.350297,-32.801007,62.4            151.350305,-32.800976,62.2            151.350311,-32.800946,62.2            151.350318,-32.800916,62            151.350322,-32.800887,62            151.35033,-32.800854,62            151.350338,-32.800825,62            151.350348,-32.800796,62            151.350356,-32.800767,62            151.350364,-32.800736,62            151.350375,-32.800708,62            151.350378,-32.800675,62.2            151.350386,-32.800643,62.2            151.350393,-32.800613,62.2            151.350405,-32.80058,62            151.350412,-32.800549,62            151.350422,-32.800518,62            151.350429,-32.800488,61.8            151.350437,-32.80046,61.6            151.350448,-32.800432,61.4            151.350451,-32.800401,61.2            151.35046,-32.80037,61.2            151.350467,-32.800339,61.2            151.350481,-32.800305,61.2            151.35049,-32.800273,61            151.350494,-32.800243,60.8            151.350499,-32.800214,60.8            151.350505,-32.800185,60.8            151.350514,-32.800158,60.8            151.350522,-32.800129,60.8            151.350532,-32.800098,60.8            151.350534,-32.80007,60.8            151.350536,-32.800039,60.8            151.350533,-32.800011,60.8            151.35053,-32.79998,60.4            151.350533,-32.79995,60.2            151.350533,-32.799918,60            151.350538,-32.799884,60            151.350536,-32.799852,60            151.350538,-32.799818,60            151.350538,-32.799789,60            151.350535,-32.799757,60.2            151.350537,-32.799727,60.4            151.350537,-32.799694,60.6            151.350542,-32.799663,60.8            151.350535,-32.799632,60.8            151.350533,-32.799598,60.8            151.35053,-32.799567,60.8            151.350528,-32.799535,60.6            151.350529,-32.799506,60.6            151.350526,-32.799477,60.6            151.350527,-32.799445,60.6            151.350521,-32.799416,60.4            151.350521,-32.799383,60.4            151.350517,-32.799354,60.4            151.350516,-32.799324,60.4            151.350517,-32.799294,60.4            151.350521,-32.799264,60.2            151.350529,-32.799234,60.2            151.350532,-32.799205,60.2            151.350541,-32.799173,60.2            151.350541,-32.799146,60.2            151.350529,-32.79912,60.2            151.350514,-32.799096,60.2            151.350509,-32.79907,60.2            151.350513,-32.79904,60.4            151.350511,-32.799013,60.4            151.350516,-32.79898,60.2            151.350515,-32.798953,60.2            151.350513,-32.798923,60            151.350512,-32.798892,60            151.35051,-32.798863,60            151.350505,-32.798832,60.2            151.3505,-32.798804,60.2            151.350499,-32.798772,60.6            151.350495,-32.798744,60.8            151.350493,-32.798715,60.8            151.350485,-32.798688,60.8            151.350477,-32.798659,60.8            151.350477,-32.798635,60.8            151.350475,-32.798608,60.8            151.350475,-32.798576,60.6            151.350472,-32.798545,60.4            151.350475,-32.798514,60.4            151.350482,-32.798486,60.2            151.350491,-32.798459,60.4            151.350505,-32.798433,60.4            151.350519,-32.798407,60.4            151.350541,-32.798378,60.4            151.350559,-32.798352,60.4            151.350585,-32.798323,60.4            151.35061,-32.798299,60.4            151.350634,-32.798277,60.4            151.350664,-32.798252,60.2            151.350686,-32.798225,60            151.350712,-32.7982,60            151.350739,-32.798176,59.6            151.350767,-32.798152,59.6            151.350789,-32.798129,59.6            151.350809,-32.798105,59.2            151.350834,-32.798081,59            151.350853,-32.798056,59            151.350878,-32.798029,59            151.350897,-32.798004,59            151.350917,-32.797978,59            151.350934,-32.797952,59            151.350948,-32.797927,59            151.350964,-32.797902,59.4            151.350981,-32.797876,59.4            151.350998,-32.797851,59.6            151.351013,-32.797825,59.6            151.351031,-32.797799,59.6            151.351042,-32.797774,59.6            151.351056,-32.797743,59.4            151.351067,-32.797713,59.2            151.351073,-32.797683,59.2            151.35108,-32.797653,59.2            151.351082,-32.797623,59.2            151.351087,-32.797591,59.2            151.351089,-32.797563,59            151.351099,-32.797533,59            151.351114,-32.797508,59.2            151.351137,-32.797485,59.2            151.351165,-32.79747,59.4            151.351193,-32.797456,59.8            151.351229,-32.797447,60.2            151.351264,-32.797435,60.4            151.351302,-32.797424,60.4            151.351342,-32.797414,60.4            151.351379,-32.797401,60.4            151.351415,-32.797391,60.2            151.351446,-32.797378,60.2            151.351479,-32.797367,60.2            151.351507,-32.797353,60.2            151.351537,-32.797337,60.2            151.351564,-32.797323,60.2            151.351595,-32.797307,60.2            151.351626,-32.797291,60.2            151.351652,-32.797273,60.2            151.351673,-32.797249,60.2            151.351686,-32.797224,60.2            151.351683,-32.797204,60.2            151.351669,-32.797179,60.2            151.351651,-32.79716,60.4            151.351623,-32.797141,60.4            151.351596,-32.797126,60.8            151.351554,-32.797124,60.8            151.351517,-32.797114,60.8            151.351486,-32.797108,60.8            151.35145,-32.797098,60.8            151.35142,-32.797086,60.8            151.351389,-32.797075,60.8            151.351359,-32.797063,60.8            151.351333,-32.797052,60.6            151.351305,-32.797039,60.6            151.351276,-32.797026,60.6            151.351249,-32.797014,60.6            151.351222,-32.796997,60.4            151.351197,-32.796982,60.4            151.35117,-32.796963,60.4            151.351145,-32.796945,60.4            151.35112,-32.796926,60.2            151.351096,-32.796903,60.2            151.351074,-32.796886,60.2            151.351055,-32.796864,60            151.351034,-32.796844,60            151.351013,-32.79682,60            151.350994,-32.796798,59.8            151.350969,-32.796772,59.8            151.350949,-32.796748,59.8            151.350929,-32.796723,59.8            151.350913,-32.796696,59.8            151.350897,-32.796672,59.8            151.350888,-32.796641,59.8            151.350879,-32.796613,59.8            151.350873,-32.796583,60            151.350871,-32.796555,60            151.350862,-32.796523,60            151.350857,-32.796494,60            151.350854,-32.796463,60            151.350856,-32.796435,59.8            151.350855,-32.796403,59.8            151.350859,-32.796374,59.8            151.350859,-32.796345,59.8            151.350866,-32.796312,59.8            151.35087,-32.79628,59.8            151.350879,-32.79625,59.8            151.350885,-32.796224,59.6            151.350892,-32.796194,59.6            151.350901,-32.796166,59.6            151.350915,-32.796135,59.6            151.350934,-32.796107,59.4            151.350952,-32.796076,59.4            151.350971,-32.796048,59.4            151.350985,-32.796021,59.4            151.351002,-32.795995,59.8            151.351018,-32.79597,60            151.351037,-32.795942,60            151.351053,-32.795915,60            151.35107,-32.795887,60.2            151.351087,-32.795863,60.2            151.351107,-32.795838,60.2            151.351126,-32.795815,60.4            151.351149,-32.795791,60.4            151.351182,-32.795774,60.4            151.351214,-32.795761,60.6            151.351253,-32.795759,60.6            151.351284,-32.795759,61.2            151.351319,-32.795762,61.6            151.351357,-32.795766,62            151.351401,-32.795773,62.2            151.351445,-32.79578,62.6            151.351485,-32.795789,62.8            151.351524,-32.795796,63.2            151.351561,-32.795803,63.2            151.351605,-32.795814,63.4            151.351638,-32.795819,63.4            151.351672,-32.795831,63.4            151.351708,-32.795841,63.4            151.351742,-32.79585,63.2            151.35178,-32.795863,63.2            151.351811,-32.795873,63            151.351844,-32.795888,63.2            151.351873,-32.7959,63            151.351901,-32.795918,63            151.351931,-32.795941,63.2            151.351959,-32.795966,63.4            151.35198,-32.795997,63.6            151.351998,-32.796026,63.6            151.352008,-32.796058,63.6            151.352019,-32.796097,63.6            151.352034,-32.796136,63.4            151.352048,-32.79617,62.4            151.352066,-32.796198,61.2            151.352087,-32.796226,61.2            151.352114,-32.796249,61            151.352139,-32.796269,60.8            151.352163,-32.79629,61            151.352189,-32.796308,61            151.35222,-32.79632,61            151.352248,-32.796314,60.8            151.352268,-32.796292,60.8            151.352281,-32.796264,60.8            151.352282,-32.796228,60.4            151.352289,-32.796189,59.8            151.352292,-32.796155,59.6            151.352294,-32.796117,59.4            151.352298,-32.796084,59.4            151.352305,-32.796052,59.4            151.352313,-32.796023,59.6            151.352323,-32.79599,59.8            151.352337,-32.79596,59.8            151.352349,-32.795929,60            151.352363,-32.795898,60            151.352372,-32.795868,60            151.352385,-32.795836,60            151.352391,-32.795807,59.8            151.3524,-32.795775,59.8            151.352406,-32.795744,59.6            151.352412,-32.79571,59.6            151.352411,-32.795681,59.4            151.35241,-32.795646,59.4            151.35241,-32.795618,59.6            151.352406,-32.795586,59.4            151.352403,-32.795555,59.4            151.352398,-32.795528,59.6            151.352392,-32.795493,59.6            151.352389,-32.795461,59.6            151.352381,-32.79543,59.4            151.352372,-32.7954,59.2            151.352354,-32.795373,59.2            151.352337,-32.795345,59.2            151.352312,-32.795317,59.2            151.352286,-32.795288,59.2            151.352256,-32.795262,59.2            151.352225,-32.795238,59.4            151.352202,-32.795219,59.6            151.352169,-32.795198,59.8            151.352142,-32.795179,59.8            151.35211,-32.795158,59.8            151.352087,-32.795137,60            151.352065,-32.795117,60            151.352041,-32.795093,60.2            151.352023,-32.795073,60.2            151.352007,-32.795046,60.2            151.351994,-32.79502,60.2            151.351985,-32.79499,60.2            151.351978,-32.794956,60.2            151.351973,-32.794923,60.2            151.351971,-32.794885,60.2            151.351968,-32.794854,60.2            151.351969,-32.794822,60.2            151.351969,-32.794789,60.4            151.351969,-32.794753,60.4            151.35197,-32.79472,60.4            151.351969,-32.794689,60.2            151.351974,-32.794656,60.2            151.351976,-32.794626,59.8            151.351981,-32.794592,59.6            151.351982,-32.794562,59.4            151.351988,-32.79453,59.4            151.351995,-32.7945,59.2            151.352002,-32.794466,59.2            151.35201,-32.794434,59.2            151.352016,-32.794402,59            151.352025,-32.794369,59            151.352031,-32.794337,59            151.352036,-32.794303,59            151.352042,-32.79427,59            151.352057,-32.794236,59            151.352077,-32.794207,59.2            151.352103,-32.79418,59.4            151.352133,-32.79416,59.4            151.352171,-32.794142,59.4            151.352213,-32.794136,59.6            151.352255,-32.794138,59.6            151.35229,-32.794154,59.8            151.352325,-32.794175,59.8            151.352356,-32.794207,59.8            151.352383,-32.794235,59.8            151.352409,-32.794264,60            151.352432,-32.794286,60            151.35246,-32.794312,60            151.352486,-32.794335,60            151.352517,-32.79436,60            151.352546,-32.794386,60            151.352574,-32.794405,60          </coordinates></LineString></Placemark></Folder></Document></kml>