<?xml version="1.0" encoding="UTF-8"?><kml xmlns="http://www.opengis.net/kml/2.2"><Document><name>Ocean View parkrun</name><description/><Style id="icon-1899-FFEA00-nodesc-normal"><IconStyle><color>ff00eaff</color><scale>1</scale><Icon><href>https://www.gstatic.com/mapspro/images/stock/503-wht-blank_maps.png</href></Icon><hotSpot x="32" xunits="pixels" y="64" yunits="insetPixels"/></IconStyle><LabelStyle><scale>0</scale></LabelStyle><BalloonStyle><text><![CDATA[<h3>$[name]</h3>]]></text></BalloonStyle></Style><Style id="icon-1899-FFEA00-nodesc-highlight"><IconStyle><color>ff00eaff</color><scale>1</scale><Icon><href>https://www.gstatic.com/mapspro/images/stock/503-wht-blank_maps.png</href></Icon><hotSpot x="32" xunits="pixels" y="64" yunits="insetPixels"/></IconStyle><LabelStyle><scale>1</scale></LabelStyle><BalloonStyle><text><![CDATA[<h3>$[name]</h3>]]></text></BalloonStyle></Style><StyleMap id="icon-1899-FFEA00-nodesc"><Pair><key>normal</key><styleUrl>#icon-1899-FFEA00-nodesc-normal</styleUrl></Pair><Pair><key>highlight</key><styleUrl>#icon-1899-FFEA00-nodesc-highlight</styleUrl></Pair></StyleMap><Style id="line-0288D1-4875-normal"><LineStyle><color>ffd18802</color><width>4.875</width></LineStyle></Style><Style id="line-0288D1-4875-highlight"><LineStyle><color>ffd18802</color><width>7.3125</width></LineStyle></Style><StyleMap id="line-0288D1-4875"><Pair><key>normal</key><styleUrl>#line-0288D1-4875-normal</styleUrl></Pair><Pair><key>highlight</key><styleUrl>#line-0288D1-4875-highlight</styleUrl></Pair></StyleMap><Folder><name>Untitled layer</name><Placemark><name>Course</name><description>parkrun</description><styleUrl>#line-0288D1-4875</styleUrl><LineString><tessellate>1</tessellate><coordinates>            152.802543,-27.121412,0            152.80244,-27.121351,0            152.802161,-27.121169,0            152.802302,-27.120881,0            152.802363,-27.120759,0            152.802396,-27.120688,0            152.802437,-27.120607,0            152.80247,-27.120577,0            152.80262,-27.120512,0            152.802778,-27.120478,0            152.803151,-27.120651,0            152.803074,-27.120819,0            152.803007,-27.120954,0            152.802922,-27.121108,0            152.802732,-27.121264,0            152.802644,-27.121382,0            152.802666,-27.121504,0            152.8027,-27.121686,0            152.80267,-27.121835,0            152.802675,-27.121924,0            152.802515,-27.122056,0            152.802455,-27.12211,0            152.802386,-27.122168,0            152.802475,-27.122405,0            152.802449,-27.122436,0            152.801892,-27.122614,0            152.802239,-27.123093,0            152.803232,-27.12279,0            152.803296,-27.122772,0            152.803359,-27.122669,0            152.80344,-27.12259,0            152.803491,-27.122535,0            152.803478,-27.122421,0            152.80338,-27.122104,0            152.803323,-27.121977,0            152.803274,-27.12186,0            152.803219,-27.121755,0            152.803172,-27.121658,0            152.803062,-27.1214,0            152.802996,-27.121299,0            152.802968,-27.121204,0            152.803157,-27.121023,0            152.80327,-27.120954,0            152.803525,-27.120689,0            152.803809,-27.120509,0            152.803941,-27.120387,0            152.804,-27.120357,0            152.804,-27.120295,0            152.804053,-27.12022,0            152.804084,-27.120127,0            152.804092,-27.119978,0            152.804171,-27.11993,0            152.804358,-27.119849,0            152.804481,-27.119798,0            152.804599,-27.119747,0            152.804716,-27.119717,0            152.804966,-27.119655,0            152.805202,-27.119568,0            152.805368,-27.119494,0            152.805424,-27.119328,0            152.805478,-27.119204,0            152.805706,-27.119032,0            152.805946,-27.118951,0            152.806058,-27.118829,0            152.806086,-27.118742,0            152.805996,-27.118107,0            152.80618,-27.117922,0            152.806332,-27.117739,0            152.806455,-27.117541,0            152.80654,-27.117404,0            152.806636,-27.117393,0            152.806655,-27.117237,0            152.806824,-27.116276,0            152.806574,-27.116229,0            152.80653,-27.116482,0            152.806483,-27.116743,0            152.806411,-27.117135,0            152.806183,-27.117003,0            152.806234,-27.116743,0            152.806271,-27.116541,0            152.8063,-27.116377,0            152.806333,-27.116184,0            152.806118,-27.116143,0            152.806057,-27.116541,0            152.805992,-27.116888,0            152.805767,-27.116746,0            152.805882,-27.11609,0            152.805766,-27.116002,0            152.805649,-27.115981,0            152.805542,-27.116638,0            152.805306,-27.116532,0            152.805342,-27.116362,0            152.805348,-27.116298,0            152.805368,-27.116201,0            152.805392,-27.116046,0            152.805413,-27.115936,0            152.805252,-27.115914,0            152.805176,-27.116203,0            152.805066,-27.116432,0            152.805019,-27.116276,0            152.804987,-27.116147,0            152.80482,-27.115816,0            152.804748,-27.115782,0            152.804709,-27.115767,0            152.804501,-27.115761,0            152.804346,-27.115771,0            152.804216,-27.115786,0            152.804117,-27.115813,0            152.804044,-27.115827,0            152.803971,-27.11584,0            152.803821,-27.115888,0            152.803711,-27.115913,0            152.803613,-27.116092,0            152.803607,-27.116149,0            152.803608,-27.116257,0            152.803667,-27.11677,0            152.803651,-27.116875,0            152.803574,-27.117028,0            152.803341,-27.117356,0            152.803275,-27.117479,0            152.803204,-27.117601,0            152.803155,-27.117692,0            152.803132,-27.117813,0            152.803184,-27.117964,0            152.803426,-27.118248,0            152.803494,-27.118414,0            152.803464,-27.118596,0            152.803395,-27.118959,0            152.803337,-27.119273,0            152.80329,-27.119539,0            152.803296,-27.119613,0            152.803309,-27.119656,0            152.803373,-27.119746,0            152.803588,-27.119864,0            152.803792,-27.119901,0            152.803936,-27.119932,0            152.804052,-27.119991,0            152.804075,-27.120052,0            152.804075,-27.120106,0            152.804042,-27.120167,0            152.804022,-27.120234,0            152.803982,-27.120297,0            152.80398,-27.120347,0            152.803887,-27.120416,0            152.803771,-27.120509,0            152.803525,-27.120689,0            152.804114,-27.120916,0            152.804305,-27.120814,0            152.804376,-27.120753,0            152.804389,-27.120671,0            152.804802,-27.120271,0            152.804944,-27.120117,0            152.805105,-27.120094,0            152.805206,-27.12011,0            152.805345,-27.120192,0            152.80544,-27.120148,0            152.805582,-27.120021,0            152.805676,-27.119855,0            152.805661,-27.119789,0            152.805679,-27.119704,0            152.80566,-27.119583,0            152.805692,-27.119539,0            152.80577,-27.119551,0            152.805894,-27.119579,0            152.805986,-27.119615,0            152.806062,-27.119682,0            152.806115,-27.119754,0            152.806092,-27.119826,0            152.806038,-27.11996,0            152.80581,-27.120897,0            152.805659,-27.122069,0            152.804926,-27.122245,0            152.804655,-27.122198,0            152.804462,-27.122245,0            152.804279,-27.122271,0            152.803872,-27.122285,0            152.803953,-27.121088,0            152.803635,-27.120922,0            152.803518,-27.120725,0            152.803165,-27.121044,0            152.803083,-27.121143,0            152.80299,-27.121216,0            152.803078,-27.121384,0            152.803193,-27.121648,0            152.80326,-27.12176,0            152.803313,-27.121863,0            152.80341,-27.122105,0            152.80348,-27.122355,0            152.803511,-27.122453,0            152.803517,-27.12256,0            152.803392,-27.122673,0            152.803333,-27.122772,0            152.803252,-27.122801,0            152.803152,-27.122832,0            152.802664,-27.12298,0            152.802292,-27.123095,0            152.802227,-27.123113,0            152.801909,-27.12267,0            152.801892,-27.122614,0            152.802428,-27.122422,0            152.802354,-27.122164,0            152.802413,-27.122119,0            152.80265,-27.121918,0            152.802652,-27.121871,0            152.802646,-27.121835,0            152.802681,-27.121682,0            152.802644,-27.121382,0            152.802732,-27.121264,0            152.802922,-27.121108,0            152.803151,-27.120651,0            152.802987,-27.120585,0            152.802778,-27.120478,0            152.802584,-27.120517,0            152.80247,-27.120577,0            152.802396,-27.120688,0            152.802161,-27.121169,0            152.802543,-27.121412,0          </coordinates></LineString></Placemark><Placemark><name>Start / Finish</name><styleUrl>#icon-1899-FFEA00-nodesc</styleUrl><Point><coordinates>            152.8025443,-27.1214192,0          </coordinates></Point></Placemark></Folder></Document></kml>