<?xml version="1.0" encoding="UTF-8"?><kml xmlns="http://www.opengis.net/kml/2.2"><Document><name>Orange parkrun</name><description/><Style id="icon-503-009D57-nodesc-normal"><IconStyle><color>ff579d00</color><scale>1.1</scale><Icon><href>https://www.gstatic.com/mapspro/images/stock/503-wht-blank_maps.png</href></Icon><hotSpot x="16" xunits="pixels" y="32" yunits="insetPixels"/></IconStyle><LabelStyle><scale>0</scale></LabelStyle><BalloonStyle><text><![CDATA[<h3>$[name]</h3>]]></text></BalloonStyle></Style><Style id="icon-503-009D57-nodesc-highlight"><IconStyle><color>ff579d00</color><scale>1.1</scale><Icon><href>https://www.gstatic.com/mapspro/images/stock/503-wht-blank_maps.png</href></Icon><hotSpot x="16" xunits="pixels" y="32" yunits="insetPixels"/></IconStyle><LabelStyle><scale>1.1</scale></LabelStyle><BalloonStyle><text><![CDATA[<h3>$[name]</h3>]]></text></BalloonStyle></Style><StyleMap id="icon-503-009D57-nodesc"><Pair><key>normal</key><styleUrl>#icon-503-009D57-nodesc-normal</styleUrl></Pair><Pair><key>highlight</key><styleUrl>#icon-503-009D57-nodesc-highlight</styleUrl></Pair></StyleMap><Style id="icon-503-DB4436-nodesc-normal"><IconStyle><color>ff3644db</color><scale>1.1</scale><Icon><href>https://www.gstatic.com/mapspro/images/stock/503-wht-blank_maps.png</href></Icon><hotSpot x="16" xunits="pixels" y="32" yunits="insetPixels"/></IconStyle><LabelStyle><scale>0</scale></LabelStyle><BalloonStyle><text><![CDATA[<h3>$[name]</h3>]]></text></BalloonStyle></Style><Style id="icon-503-DB4436-nodesc-highlight"><IconStyle><color>ff3644db</color><scale>1.1</scale><Icon><href>https://www.gstatic.com/mapspro/images/stock/503-wht-blank_maps.png</href></Icon><hotSpot x="16" xunits="pixels" y="32" yunits="insetPixels"/></IconStyle><LabelStyle><scale>1.1</scale></LabelStyle><BalloonStyle><text><![CDATA[<h3>$[name]</h3>]]></text></BalloonStyle></Style><StyleMap id="icon-503-DB4436-nodesc"><Pair><key>normal</key><styleUrl>#icon-503-DB4436-nodesc-normal</styleUrl></Pair><Pair><key>highlight</key><styleUrl>#icon-503-DB4436-nodesc-highlight</styleUrl></Pair></StyleMap><Style id="line-0288D1-5263-nodesc-normal"><LineStyle><color>ffd18802</color><width>5.263</width></LineStyle><BalloonStyle><text><![CDATA[<h3>$[name]</h3>]]></text></BalloonStyle></Style><Style id="line-0288D1-5263-nodesc-highlight"><LineStyle><color>ffd18802</color><width>7.8945</width></LineStyle><BalloonStyle><text><![CDATA[<h3>$[name]</h3>]]></text></BalloonStyle></Style><StyleMap id="line-0288D1-5263-nodesc"><Pair><key>normal</key><styleUrl>#line-0288D1-5263-nodesc-normal</styleUrl></Pair><Pair><key>highlight</key><styleUrl>#line-0288D1-5263-nodesc-highlight</styleUrl></Pair></StyleMap><Folder><name>Finish token position</name><Placemark><name>Course</name><styleUrl>#line-0288D1-5263-nodesc</styleUrl><LineString><tessellate>1</tessellate><coordinates>            149.08974,-33.325818,0            149.089381,-33.325898,0            149.088984,-33.325974,0            149.088539,-33.326055,0            149.088249,-33.326091,0            149.087884,-33.326086,0            149.087428,-33.326006,0            149.087064,-33.325889,0            149.086822,-33.3258,0            149.086576,-33.325696,0            149.086415,-33.32562,0            149.086372,-33.325566,0            149.086458,-33.325472,0            149.086613,-33.325378,0            149.086817,-33.325414,0            149.087112,-33.325486,0            149.087418,-33.325566,0            149.087691,-33.325638,0            149.088002,-33.325701,0            149.088314,-33.325741,0            149.088689,-33.325732,0            149.089011,-33.32571,0            149.089279,-33.325705,0            149.089488,-33.325513,0            149.08973,-33.32528,0            149.08988,-33.325105,0            149.090036,-33.32489,0            149.090127,-33.324791,0            149.09025,-33.324751,0            149.090599,-33.324746,0            149.090894,-33.324706,0            149.091237,-33.324652,0            149.091479,-33.32463,0            149.091629,-33.32471,0            149.091704,-33.324822,0            149.091784,-33.3251,0            149.091806,-33.32536,0            149.091779,-33.325562,0            149.091677,-33.325665,0            149.09157,-33.32571,0            149.09135,-33.32575,0            149.091538,-33.325826,0            149.091698,-33.325956,0            149.091833,-33.326109,0            149.09194,-33.32631,0            149.092063,-33.326512,0            149.092079,-33.326575,0            149.09202,-33.326606,0            149.091892,-33.326561,0            149.091698,-33.326463,0            149.091586,-33.326387,0            149.091425,-33.326302,0            149.091296,-33.326248,0            149.091119,-33.326158,0            149.090878,-33.326163,0            149.090615,-33.326203,0            149.090298,-33.326207,0            149.090073,-33.326248,0            149.089762,-33.326248,0            149.089392,-33.326346,0            149.089081,-33.326414,0            149.088635,-33.326481,0            149.088222,-33.326566,0            149.0879,-33.326705,0            149.087643,-33.326848,0            149.087364,-33.326942,0            149.087133,-33.327122,0            149.086956,-33.327194,0            149.08679,-33.327427,0            149.086586,-33.327597,0            149.086329,-33.327794,0            149.086093,-33.328068,0            149.0859,-33.32826,0            149.085814,-33.328449,0            149.085728,-33.328726,0            149.085588,-33.328995,0            149.08532,-33.329224,0            149.085095,-33.329332,0            149.084859,-33.329439,0            149.084666,-33.329547,0            149.084478,-33.329641,0            149.084355,-33.329614,0            149.084247,-33.329542,0            149.084102,-33.329645,0            149.08406,-33.329744,0            149.084183,-33.329865,0            149.08428,-33.329954,0            149.084355,-33.33004,0            149.084344,-33.330111,0            149.084371,-33.33021,0            149.084376,-33.330434,0            149.084387,-33.330492,0            149.085293,-33.330631,0            149.085438,-33.330604,0            149.085567,-33.330537,0            149.085717,-33.330439,0            149.085926,-33.330376,0            149.086023,-33.330322,0            149.086146,-33.33038,0            149.086307,-33.33038,0            149.086581,-33.330362,0            149.087069,-33.330268,0            149.087536,-33.330147,0            149.087981,-33.330008,0            149.088351,-33.329928,0            149.088507,-33.329829,0            149.088603,-33.32978,0            149.088743,-33.32982,0            149.088839,-33.329865,0            149.088796,-33.329919,0            149.088598,-33.329914,0            149.088394,-33.329928,0            149.088062,-33.329995,0            149.087638,-33.330125,0            149.087402,-33.330188,0            149.087139,-33.330255,0            149.086914,-33.330295,0            149.086677,-33.330353,0            149.086366,-33.33038,0            149.086178,-33.33038,0            149.086018,-33.330327,0            149.085857,-33.330398,0            149.085664,-33.33047,0            149.085465,-33.330591,0            149.085283,-33.330636,0            149.084591,-33.330533,0            149.084371,-33.330497,0            149.084365,-33.330273,0            149.084344,-33.330147,0            149.084349,-33.330022,0            149.084172,-33.329842,0            149.08407,-33.329739,0            149.084092,-33.329641,0            149.083936,-33.329569,0            149.083808,-33.329533,0            149.08362,-33.329654,0            149.08347,-33.329771,0            149.083394,-33.329816,0            149.083207,-33.329753,0            149.08311,-33.32965,0            149.082997,-33.329497,0            149.082836,-33.329385,0            149.082692,-33.329175,0            149.082493,-33.329314,0            149.082322,-33.329367,0            149.082193,-33.329466,0            149.082155,-33.329623,0            149.082048,-33.329744,0            149.081833,-33.32986,0            149.081613,-33.329874,0            149.08142,-33.329834,0            149.081292,-33.329681,0            149.081308,-33.329457,0            149.081394,-33.329237,0            149.081399,-33.329094,0            149.081318,-33.328924,0            149.081211,-33.328758,0            149.08112,-33.328592,0            149.081018,-33.328489,0            149.080878,-33.328395,0            149.080938,-33.328296,0            149.081098,-33.328345,0            149.081259,-33.328413,0            149.081501,-33.328381,0            149.081737,-33.328292,0            149.081876,-33.328193,0            149.081973,-33.327982,0            149.082171,-33.327897,0            149.08238,-33.327821,0            149.082595,-33.327834,0            149.082826,-33.327803,0            149.083024,-33.327947,0            149.083137,-33.328153,0            149.083223,-33.328444,0            149.083217,-33.328677,0            149.083024,-33.328848,0            149.082874,-33.329036,0            149.082718,-33.329157,0            149.082751,-33.329242,0            149.082863,-33.32943,0            149.082971,-33.329488,0            149.08311,-33.329614,0            149.083185,-33.329739,0            149.083271,-33.32978,0            149.083416,-33.329825,0            149.083593,-33.329686,0            149.083759,-33.329569,0            149.083845,-33.329538,0            149.084001,-33.329592,0            149.084102,-33.329654,0            149.084274,-33.329538,0            149.084322,-33.329453,0            149.084526,-33.3293,0            149.084859,-33.329072,0            149.084757,-33.328848,0            149.084703,-33.328543,0            149.084821,-33.328251,0            149.084929,-33.327991,0            149.085106,-33.327695,0            149.085277,-33.327485,0            149.085524,-33.327265,0            149.085878,-33.327023,0            149.086318,-33.326777,0            149.086661,-33.326615,0            149.087107,-33.326436,0            149.087552,-33.326275,0            149.088002,-33.326154,0            149.088351,-33.326077,0            149.088888,-33.325988,0            149.089317,-33.325916,0            149.089939,-33.325786,0            149.090154,-33.325813,0          </coordinates></LineString></Placemark><Placemark><name>Start</name><styleUrl>#icon-503-009D57-nodesc</styleUrl><Point><coordinates>            149.08974,-33.325818,0          </coordinates></Point></Placemark><Placemark><name>Finish</name><styleUrl>#icon-503-DB4436-nodesc</styleUrl><Point><coordinates>            149.090154,-33.325813,0          </coordinates></Point></Placemark></Folder></Document></kml>