<?xml version="1.0" encoding="UTF-8"?><kml xmlns="http://www.opengis.net/kml/2.2"><Document><name>Parramatta parkrun (from Mar 2026)</name><description/><Style id="icon-503-F4EB37-nodesc-normal"><IconStyle><color>ff37ebf4</color><scale>1.1</scale><Icon><href>https://www.gstatic.com/mapspro/images/stock/503-wht-blank_maps.png</href></Icon><hotSpot x="16" xunits="pixels" y="32" yunits="insetPixels"/></IconStyle><LabelStyle><scale>0</scale></LabelStyle><BalloonStyle><text><![CDATA[<h3>$[name]</h3>]]></text></BalloonStyle></Style><Style id="icon-503-F4EB37-nodesc-highlight"><IconStyle><color>ff37ebf4</color><scale>1.1</scale><Icon><href>https://www.gstatic.com/mapspro/images/stock/503-wht-blank_maps.png</href></Icon><hotSpot x="16" xunits="pixels" y="32" yunits="insetPixels"/></IconStyle><LabelStyle><scale>1.1</scale></LabelStyle><BalloonStyle><text><![CDATA[<h3>$[name]</h3>]]></text></BalloonStyle></Style><StyleMap id="icon-503-F4EB37-nodesc"><Pair><key>normal</key><styleUrl>#icon-503-F4EB37-nodesc-normal</styleUrl></Pair><Pair><key>highlight</key><styleUrl>#icon-503-F4EB37-nodesc-highlight</styleUrl></Pair></StyleMap><Style id="line-0000FF-5000-nodesc-normal"><LineStyle><color>ffff0000</color><width>5</width></LineStyle><BalloonStyle><text><![CDATA[<h3>$[name]</h3>]]></text></BalloonStyle></Style><Style id="line-0000FF-5000-nodesc-highlight"><LineStyle><color>ffff0000</color><width>7.5</width></LineStyle><BalloonStyle><text><![CDATA[<h3>$[name]</h3>]]></text></BalloonStyle></Style><StyleMap id="line-0000FF-5000-nodesc"><Pair><key>normal</key><styleUrl>#line-0000FF-5000-nodesc-normal</styleUrl></Pair><Pair><key>highlight</key><styleUrl>#line-0000FF-5000-nodesc-highlight</styleUrl></Pair></StyleMap><Folder><name>Untitled layer</name><Placemark><name>Course</name><styleUrl>#line-0000FF-5000-nodesc</styleUrl><LineString><tessellate>1</tessellate><coordinates>            151.063514,-33.820822,0            151.0636554,-33.8208204,0            151.064006,-33.820752,0            151.0642152,-33.8207614,0            151.0642721,-33.8208191,0            151.0645541,-33.8209181,0            151.064836,-33.820928,0            151.0650866,-33.8208707,0            151.0654131,-33.8206616,0            151.0656484,-33.8205594,0            151.0659598,-33.8205443,0            151.0662033,-33.820557,0            151.0664403,-33.8205277,0            151.0666098,-33.8204306,0            151.0667482,-33.8203041,0            151.0667718,-33.8201205,0            151.0667904,-33.8200467,0            151.0668359,-33.8199953,0            151.066908,-33.819977,0            151.0670717,-33.8200136,0            151.0671462,-33.8200172,0            151.0671857,-33.8199962,0            151.067281,-33.8200167,0            151.0673268,-33.8200654,0            151.0673566,-33.8201426,0            151.067368,-33.820306,0            151.0671745,-33.8211172,0            151.066904,-33.821656,0            151.0667534,-33.8217594,0            151.0665679,-33.8218627,0            151.066264,-33.8219558,0            151.0657947,-33.8220705,0            151.064801,-33.822369,0            151.063685,-33.822512,0            151.0635764,-33.8225634,0            151.063492,-33.822637,0            151.0633506,-33.823011,0            151.063275,-33.8231066,0            151.06317,-33.823171,0            151.061368,-33.823154,0            151.0611234,-33.8231992,0            151.0609536,-33.8231947,0            151.0607891,-33.8231545,0            151.060703,-33.823136,0            151.060205,-33.8230766,0            151.059823,-33.822886,0            151.0597373,-33.8228806,0            151.059673,-33.822922,0            151.059544,-33.823029,0            151.058943,-33.823118,0            151.058536,-33.823136,0            151.057742,-33.823154,0            151.05727,-33.823207,0            151.05639,-33.823421,0            151.055961,-33.823421,0            151.055381,-33.823421,0            151.054244,-33.823457,0            151.0539287,-33.8235113,0            151.0527057,-33.8234922,0            151.0525889,-33.8234455,0            151.0524037,-33.8234256,0            151.0521325,-33.8234459,0            151.0518717,-33.8234977,0            151.051369,-33.82351,0            151.051149,-33.82344,0            151.0507196,-33.8230961,0            151.050296,-33.823011,0            151.0499741,-33.8229105,0            151.0497058,-33.8227566,0            151.0494671,-33.8224937,0            151.0491962,-33.8223021,0            151.0486703,-33.8221958,0            151.04815,-33.821977,0            151.0480534,-33.8218745,0          </coordinates></LineString></Placemark><Placemark><name>Start / Finish</name><styleUrl>#icon-503-F4EB37-nodesc</styleUrl><Point><coordinates>            151.0635353,-33.8208536,0          </coordinates></Point></Placemark></Folder></Document></kml>