<?xml version="1.0" encoding="UTF-8"?><kml xmlns="http://www.opengis.net/kml/2.2"><Document><name>Patawalonga River parkrun</name><description/><Style id="icon-1733-0288D1-nodesc-normal"><IconStyle><color>ffd18802</color><scale>1</scale><Icon><href>https://www.gstatic.com/mapspro/images/stock/503-wht-blank_maps.png</href></Icon></IconStyle><LabelStyle><scale>0</scale></LabelStyle><BalloonStyle><text><![CDATA[<h3>$[name]</h3>]]></text></BalloonStyle></Style><Style id="icon-1733-0288D1-nodesc-highlight"><IconStyle><color>ffd18802</color><scale>1</scale><Icon><href>https://www.gstatic.com/mapspro/images/stock/503-wht-blank_maps.png</href></Icon></IconStyle><LabelStyle><scale>1</scale></LabelStyle><BalloonStyle><text><![CDATA[<h3>$[name]</h3>]]></text></BalloonStyle></Style><StyleMap id="icon-1733-0288D1-nodesc"><Pair><key>normal</key><styleUrl>#icon-1733-0288D1-nodesc-normal</styleUrl></Pair><Pair><key>highlight</key><styleUrl>#icon-1733-0288D1-nodesc-highlight</styleUrl></Pair></StyleMap><Style id="icon-1899-558B2F-nodesc-normal"><IconStyle><color>ff2f8b55</color><scale>1</scale><Icon><href>https://www.gstatic.com/mapspro/images/stock/503-wht-blank_maps.png</href></Icon><hotSpot x="32" xunits="pixels" y="64" yunits="insetPixels"/></IconStyle><LabelStyle><scale>0</scale></LabelStyle><BalloonStyle><text><![CDATA[<h3>$[name]</h3>]]></text></BalloonStyle></Style><Style id="icon-1899-558B2F-nodesc-highlight"><IconStyle><color>ff2f8b55</color><scale>1</scale><Icon><href>https://www.gstatic.com/mapspro/images/stock/503-wht-blank_maps.png</href></Icon><hotSpot x="32" xunits="pixels" y="64" yunits="insetPixels"/></IconStyle><LabelStyle><scale>1</scale></LabelStyle><BalloonStyle><text><![CDATA[<h3>$[name]</h3>]]></text></BalloonStyle></Style><StyleMap id="icon-1899-558B2F-nodesc"><Pair><key>normal</key><styleUrl>#icon-1899-558B2F-nodesc-normal</styleUrl></Pair><Pair><key>highlight</key><styleUrl>#icon-1899-558B2F-nodesc-highlight</styleUrl></Pair></StyleMap><Style id="icon-1899-A52714-nodesc-normal"><IconStyle><color>ff1427a5</color><scale>1</scale><Icon><href>https://www.gstatic.com/mapspro/images/stock/503-wht-blank_maps.png</href></Icon><hotSpot x="32" xunits="pixels" y="64" yunits="insetPixels"/></IconStyle><LabelStyle><scale>0</scale></LabelStyle><BalloonStyle><text><![CDATA[<h3>$[name]</h3>]]></text></BalloonStyle></Style><Style id="icon-1899-A52714-nodesc-highlight"><IconStyle><color>ff1427a5</color><scale>1</scale><Icon><href>https://www.gstatic.com/mapspro/images/stock/503-wht-blank_maps.png</href></Icon><hotSpot x="32" xunits="pixels" y="64" yunits="insetPixels"/></IconStyle><LabelStyle><scale>1</scale></LabelStyle><BalloonStyle><text><![CDATA[<h3>$[name]</h3>]]></text></BalloonStyle></Style><StyleMap id="icon-1899-A52714-nodesc"><Pair><key>normal</key><styleUrl>#icon-1899-A52714-nodesc-normal</styleUrl></Pair><Pair><key>highlight</key><styleUrl>#icon-1899-A52714-nodesc-highlight</styleUrl></Pair></StyleMap><Style id="icon-1899-F9A825-nodesc-normal"><IconStyle><color>ff25a8f9</color><scale>1</scale><Icon><href>https://www.gstatic.com/mapspro/images/stock/503-wht-blank_maps.png</href></Icon><hotSpot x="32" xunits="pixels" y="64" yunits="insetPixels"/></IconStyle><LabelStyle><scale>0</scale></LabelStyle><BalloonStyle><text><![CDATA[<h3>$[name]</h3>]]></text></BalloonStyle></Style><Style id="icon-1899-F9A825-nodesc-highlight"><IconStyle><color>ff25a8f9</color><scale>1</scale><Icon><href>https://www.gstatic.com/mapspro/images/stock/503-wht-blank_maps.png</href></Icon><hotSpot x="32" xunits="pixels" y="64" yunits="insetPixels"/></IconStyle><LabelStyle><scale>1</scale></LabelStyle><BalloonStyle><text><![CDATA[<h3>$[name]</h3>]]></text></BalloonStyle></Style><StyleMap id="icon-1899-F9A825-nodesc"><Pair><key>normal</key><styleUrl>#icon-1899-F9A825-nodesc-normal</styleUrl></Pair><Pair><key>highlight</key><styleUrl>#icon-1899-F9A825-nodesc-highlight</styleUrl></Pair></StyleMap><Style id="line-0288D1-5263-nodesc-normal"><LineStyle><color>ffd18802</color><width>5.263</width></LineStyle><BalloonStyle><text><![CDATA[<h3>$[name]</h3>]]></text></BalloonStyle></Style><Style id="line-0288D1-5263-nodesc-highlight"><LineStyle><color>ffd18802</color><width>7.8945</width></LineStyle><BalloonStyle><text><![CDATA[<h3>$[name]</h3>]]></text></BalloonStyle></Style><StyleMap id="line-0288D1-5263-nodesc"><Pair><key>normal</key><styleUrl>#line-0288D1-5263-nodesc-normal</styleUrl></Pair><Pair><key>highlight</key><styleUrl>#line-0288D1-5263-nodesc-highlight</styleUrl></Pair></StyleMap><Folder><name>Untitled layer</name><Placemark><name>Course</name><styleUrl>#line-0288D1-5263-nodesc</styleUrl><LineString><tessellate>1</tessellate><coordinates>            138.516243,-34.963529,0            138.516233,-34.96339,0            138.516214,-34.963226,0            138.51619,-34.963094,0            138.51615,-34.962963,0            138.516115,-34.962884,0            138.516075,-34.962812,0            138.516052,-34.962746,0            138.516041,-34.962701,0            138.516037,-34.962656,0            138.516023,-34.962567,0            138.516021,-34.96252,0            138.516021,-34.962472,0            138.51602,-34.962378,0            138.51603,-34.962194,0            138.516045,-34.962055,0            138.516048,-34.961985,0            138.516045,-34.961912,0            138.516037,-34.961849,0            138.516015,-34.961786,0            138.515994,-34.961734,0            138.515962,-34.961688,0            138.515902,-34.961624,0            138.515835,-34.961561,0            138.515787,-34.961523,0            138.515736,-34.961487,0            138.515677,-34.961455,0            138.515615,-34.96143,0            138.515538,-34.961398,0            138.515453,-34.961369,0            138.515386,-34.961346,0            138.515302,-34.961331,0            138.51516,-34.961309,0            138.515049,-34.9613,0            138.514984,-34.9613,0            138.514917,-34.961303,0            138.514879,-34.961307,0            138.514841,-34.961316,0            138.51476,-34.961346,0            138.514645,-34.961413,0            138.514323,-34.961658,0            138.514275,-34.961692,0            138.514222,-34.961722,0            138.514153,-34.961778,0            138.514075,-34.961856,0            138.514037,-34.961899,0            138.51399,-34.961958,0            138.513944,-34.96202,0            138.513883,-34.962088,0            138.51383,-34.962155,0            138.513778,-34.962223,0            138.51373,-34.962288,0            138.513673,-34.962373,0            138.5136,-34.962502,0            138.513482,-34.962771,0            138.513424,-34.962908,0            138.513383,-34.963037,0            138.513334,-34.963209,0            138.513322,-34.96327,0            138.513262,-34.963749,0            138.513253,-34.964012,0            138.513256,-34.964154,0            138.513268,-34.964297,0            138.513265,-34.96446,0            138.513331,-34.96468,0            138.513354,-34.964739,0            138.513366,-34.964768,0            138.513617,-34.965809,0            138.513401,-34.96491,0            138.513412,-34.965002,0            138.513426,-34.96507,0            138.513442,-34.965135,0            138.513499,-34.965339,0            138.513539,-34.965477,0            138.513586,-34.96567,0            138.513601,-34.965745,0            138.513617,-34.965809,0            138.513632,-34.965854,0            138.513646,-34.965928,0            138.513666,-34.96606,0            138.513675,-34.966122,0            138.513686,-34.966162,0            138.513727,-34.966392,0            138.513754,-34.966493,0            138.513784,-34.96664,0            138.513811,-34.966744,0            138.513822,-34.966793,0            138.51383,-34.966848,0            138.513832,-34.966919,0            138.513829,-34.966959,0            138.513831,-34.966995,0            138.513829,-34.967079,0            138.513829,-34.967198,0            138.513831,-34.96736,0            138.51383,-34.967411,0            138.513827,-34.96746,0            138.513824,-34.967505,0            138.513772,-34.967728,0            138.513746,-34.967852,0            138.513732,-34.967914,0            138.513717,-34.967996,0            138.513683,-34.968156,0            138.513693,-34.96853,0            138.513694,-34.968714,0            138.513695,-34.968795,0            138.51372,-34.968848,0            138.513751,-34.968914,0            138.513718,-34.968912,0            138.513691,-34.968872,0            138.513673,-34.968827,0            138.513672,-34.96864,0            138.513673,-34.968405,0            138.513668,-34.968173,0            138.51367,-34.968127,0            138.51371,-34.967944,0            138.513801,-34.967508,0            138.513812,-34.967411,0            138.513814,-34.967197,0            138.513819,-34.966995,0            138.513813,-34.966918,0            138.513813,-34.966883,0            138.513813,-34.966848,0            138.513806,-34.966793,0            138.513797,-34.966745,0            138.513783,-34.966693,0            138.513754,-34.966569,0            138.51374,-34.966494,0            138.513727,-34.966445,0            138.513713,-34.966393,0            138.513693,-34.966278,0            138.513674,-34.966163,0            138.513661,-34.966124,0            138.513658,-34.966092,0            138.513652,-34.96606,0            138.513642,-34.965996,0            138.51363,-34.96593,0            138.513625,-34.965892,0            138.513619,-34.965854,0            138.513603,-34.96581,0            138.513596,-34.965781,0            138.513586,-34.965746,0            138.513578,-34.965709,0            138.513568,-34.965674,0            138.513547,-34.965576,0            138.513525,-34.965479,0            138.513505,-34.96541,0            138.513485,-34.965341,0            138.513456,-34.965239,0            138.513428,-34.965137,0            138.51342,-34.965106,0            138.513412,-34.965073,0            138.513405,-34.965038,0            138.513399,-34.965003,0            138.513393,-34.964957,0            138.513388,-34.96491,0            138.513377,-34.964858,0            138.513366,-34.964806,0            138.513353,-34.96477,0            138.51334,-34.964741,0            138.513328,-34.964711,0            138.513317,-34.964682,0            138.513283,-34.96457,0            138.513252,-34.964461,0            138.513252,-34.964378,0            138.513253,-34.964298,0            138.513249,-34.964224,0            138.51324,-34.964153,0            138.51324,-34.964012,0            138.513244,-34.96388,0            138.513247,-34.963749,0            138.513277,-34.96351,0            138.513306,-34.963271,0            138.513315,-34.963237,0            138.51332,-34.963205,0            138.513342,-34.963119,0            138.513368,-34.963034,0            138.513388,-34.96297,0            138.51341,-34.962904,0            138.513439,-34.962836,0            138.513469,-34.962768,0            138.513528,-34.962632,0            138.513587,-34.962498,0            138.513622,-34.962434,0            138.51366,-34.962368,0            138.513688,-34.962324,0            138.513716,-34.96228,0            138.513764,-34.962217,0            138.513791,-34.962183,0            138.513818,-34.962149,0            138.513843,-34.962114,0            138.513871,-34.96208,0            138.513903,-34.962047,0            138.513933,-34.962012,0            138.513956,-34.961981,0            138.513979,-34.96195,0            138.514002,-34.961921,0            138.514025,-34.961892,0            138.514062,-34.961848,0            138.514101,-34.961808,0            138.514143,-34.961767,0            138.514175,-34.961739,0            138.51421,-34.961711,0            138.514247,-34.961676,0            138.514003,-34.9615,0            138.513749,-34.961315,0            138.513454,-34.961103,0            138.513276,-34.961033,0            138.513206,-34.961067,0            138.513175,-34.961098,0            138.513155,-34.961123,0            138.513137,-34.961192,0            138.513138,-34.961218,0            138.513131,-34.961247,0            138.513031,-34.961439,0            138.512941,-34.961615,0            138.512868,-34.961769,0            138.5128,-34.961898,0            138.512624,-34.96224,0            138.512471,-34.962549,0            138.512454,-34.962582,0            138.512319,-34.962928,0            138.512306,-34.96297,0            138.512215,-34.96326,0            138.512186,-34.963366,0            138.512168,-34.963438,0            138.512167,-34.963471,0            138.512154,-34.963649,0            138.512152,-34.963696,0            138.512152,-34.963728,0            138.512154,-34.963781,0            138.512162,-34.963846,0            138.51217,-34.963906,0            138.512185,-34.964006,0            138.512194,-34.964072,0            138.512215,-34.964187,0            138.512246,-34.964366,0            138.512362,-34.964862,0            138.512406,-34.965015,0            138.512442,-34.96515,0            138.512558,-34.96586,0            138.512606,-34.966027,0            138.512646,-34.966167,0            138.512665,-34.966246,0            138.512671,-34.966291,0            138.512666,-34.96633,0            138.512607,-34.96662,0            138.512608,-34.966659,0            138.512607,-34.966687,0            138.51261,-34.966709,0            138.512632,-34.966743,0            138.512662,-34.966786,0            138.512679,-34.96682,0            138.512685,-34.966839,0            138.512685,-34.966873,0            138.512676,-34.966956,0            138.512681,-34.966992,0            138.512713,-34.967088,0            138.512731,-34.967135,0            138.512735,-34.96717,0            138.512715,-34.96733,0            138.512656,-34.967592,0            138.512629,-34.967704,0            138.512606,-34.967783,0            138.512585,-34.96783,0            138.512568,-34.967883,0            138.512543,-34.967967,0            138.512509,-34.968066,0            138.51246,-34.968189,0            138.512406,-34.968301,0            138.512366,-34.968402,0            138.51235,-34.968438,0            138.512336,-34.968484,0            138.512329,-34.968585,0            138.512325,-34.968684,0            138.512316,-34.968736,0            138.512273,-34.969028,0            138.512255,-34.969214,0            138.51222,-34.969409,0            138.512214,-34.969436,0            138.512206,-34.96949,0            138.5122,-34.969534,0            138.512196,-34.969606,0            138.512193,-34.969679,0            138.512195,-34.969744,0            138.512199,-34.969814,0            138.512208,-34.969914,0            138.512216,-34.969987,0            138.512221,-34.970033,0            138.512268,-34.970192,0            138.512294,-34.970271,0            138.512326,-34.97035,0            138.512388,-34.970508,0            138.51241,-34.970555,0            138.512419,-34.970586,0            138.51246,-34.970721,0            138.512484,-34.97079,0            138.512584,-34.971118,0            138.512471,-34.970793,0            138.512459,-34.970758,0            138.512447,-34.970724,0            138.512428,-34.970654,0            138.512404,-34.970587,0            138.512395,-34.970556,0            138.512376,-34.97051,0            138.512344,-34.970432,0            138.512312,-34.970352,0            138.512297,-34.970312,0            138.512282,-34.970273,0            138.512269,-34.970232,0            138.512255,-34.970192,0            138.512233,-34.970116,0            138.512208,-34.970034,0            138.512201,-34.969987,0            138.512198,-34.96995,0            138.512194,-34.969913,0            138.512189,-34.969864,0            138.512184,-34.969815,0            138.512183,-34.96978,0            138.51218,-34.969744,0            138.51218,-34.969711,0            138.512179,-34.969679,0            138.512179,-34.969641,0            138.512184,-34.969606,0            138.512183,-34.969568,0            138.512186,-34.969532,0            138.512193,-34.969488,0            138.512199,-34.969435,0            138.512205,-34.969407,0            138.512221,-34.969308,0            138.512241,-34.969214,0            138.512258,-34.969025,0            138.51228,-34.968881,0            138.5123,-34.968734,0            138.512309,-34.968683,0            138.512311,-34.968584,0            138.51231,-34.968533,0            138.512311,-34.968486,0            138.512327,-34.968432,0            138.512342,-34.968395,0            138.512384,-34.968293,0            138.512437,-34.968181,0            138.512462,-34.96812,0            138.512487,-34.968061,0            138.512503,-34.96801,0            138.512517,-34.967962,0            138.512529,-34.967918,0            138.512543,-34.967878,0            138.512559,-34.967822,0            138.51258,-34.967775,0            138.512592,-34.967739,0            138.512606,-34.9677,0            138.51262,-34.967644,0            138.512633,-34.967588,0            138.512662,-34.967457,0            138.512693,-34.967327,0            138.512705,-34.967248,0            138.512713,-34.967171,0            138.512712,-34.967138,0            138.512679,-34.967045,0            138.51266,-34.966996,0            138.512654,-34.966954,0            138.512657,-34.966912,0            138.512658,-34.966872,0            138.51266,-34.966838,0            138.512658,-34.966821,0            138.512643,-34.966794,0            138.512613,-34.966752,0            138.512589,-34.96671,0            138.512585,-34.966686,0            138.512587,-34.966659,0            138.512584,-34.966622,0            138.512612,-34.966471,0            138.512646,-34.966328,0            138.512652,-34.96629,0            138.512646,-34.966248,0            138.512637,-34.96621,0            138.512629,-34.96617,0            138.512609,-34.966101,0            138.512588,-34.966031,0            138.512563,-34.965948,0            138.512538,-34.965863,0            138.512479,-34.965507,0            138.512425,-34.965153,0            138.512409,-34.965084,0            138.512391,-34.965017,0            138.512369,-34.964942,0            138.512347,-34.964864,0            138.512286,-34.964617,0            138.512228,-34.964368,0            138.512213,-34.964278,0            138.512195,-34.964188,0            138.512187,-34.964132,0            138.512176,-34.964074,0            138.512172,-34.964041,0            138.512167,-34.964007,0            138.512161,-34.963958,0            138.512151,-34.963908,0            138.512149,-34.963879,0            138.512145,-34.963849,0            138.512142,-34.963817,0            138.512139,-34.963782,0            138.512134,-34.963728,0            138.512134,-34.963697,0            138.512134,-34.963649,0            138.512142,-34.96356,0            138.512147,-34.963472,0            138.51215,-34.963437,0            138.512158,-34.9634,0            138.512167,-34.963362,0            138.512181,-34.963311,0            138.512196,-34.963256,0            138.512241,-34.963111,0            138.51229,-34.962967,0            138.512302,-34.962924,0            138.51237,-34.962752,0            138.512439,-34.962576,0            138.512454,-34.962543,0            138.512529,-34.962387,0            138.51261,-34.962232,0            138.51269,-34.962063,0            138.512784,-34.961893,0            138.512817,-34.961827,0            138.512852,-34.961762,0            138.512889,-34.961685,0            138.512936,-34.961596,0            138.512973,-34.961522,0            138.513019,-34.961434,0            138.513068,-34.961338,0            138.513115,-34.961242,0            138.513124,-34.961215,0            138.51312,-34.96117,0            138.51314,-34.961118,0            138.513163,-34.96109,0            138.513192,-34.961059,0            138.513229,-34.96104,0            138.51328,-34.961021,0            138.51337,-34.961055,0            138.513463,-34.961091,0            138.513612,-34.961199,0            138.513763,-34.961305,0            138.513889,-34.961398,0            138.514014,-34.96149,0            138.514135,-34.961579,0            138.514256,-34.961665,0            138.51431,-34.961639,0            138.514464,-34.961512,0            138.514627,-34.961396,0            138.51468,-34.961362,0            138.514741,-34.961326,0            138.514791,-34.961309,0            138.514832,-34.961296,0            138.514874,-34.961285,0            138.514917,-34.961282,0            138.514983,-34.96128,0            138.51505,-34.961282,0            138.515105,-34.961287,0            138.515162,-34.961293,0            138.515236,-34.961304,0            138.515306,-34.961314,0            138.515348,-34.961323,0            138.515393,-34.961332,0            138.515428,-34.961342,0            138.515463,-34.961353,0            138.515504,-34.961367,0            138.515548,-34.961382,0            138.515586,-34.961398,0            138.515624,-34.961415,0            138.515689,-34.96144,0            138.515746,-34.961474,0            138.515802,-34.961511,0            138.515854,-34.961547,0            138.515886,-34.96158,0            138.51592,-34.961612,0            138.51595,-34.961646,0            138.515979,-34.961678,0            138.516014,-34.961729,0            138.516039,-34.961783,0            138.516049,-34.961815,0            138.516058,-34.961848,0            138.516066,-34.961912,0            138.516066,-34.96195,0            138.516068,-34.961986,0            138.516066,-34.96202,0            138.516063,-34.962058,0            138.516055,-34.962127,0            138.516053,-34.962195,0            138.516046,-34.96229,0            138.516043,-34.96238,0            138.516042,-34.962425,0            138.516041,-34.962472,0            138.516043,-34.962521,0            138.516046,-34.962566,0            138.516048,-34.962612,0            138.516059,-34.962656,0            138.516064,-34.962701,0            138.516076,-34.962743,0            138.516086,-34.962775,0            138.516103,-34.962807,0            138.516117,-34.96284,0            138.516136,-34.962877,0            138.516158,-34.962914,0            138.516254,-34.963529,0          </coordinates></LineString></Placemark><Placemark><name>Finish</name><styleUrl>#icon-1899-A52714-nodesc</styleUrl><Point><coordinates>            138.516255,-34.963531,0          </coordinates></Point></Placemark><Placemark><name>Start</name><styleUrl>#icon-1899-558B2F-nodesc</styleUrl><Point><coordinates>            138.516242,-34.963531,0          </coordinates></Point></Placemark><Placemark><name>Turn Around 1</name><styleUrl>#icon-1899-F9A825-nodesc</styleUrl><Point><coordinates>            138.513741,-34.968916,0          </coordinates></Point></Placemark><Placemark><name>Turn Around 2</name><styleUrl>#icon-1899-F9A825-nodesc</styleUrl><Point><coordinates>            138.512584,-34.971121,0          </coordinates></Point></Placemark><Placemark><name>Public Toilet</name><styleUrl>#icon-1733-0288D1-nodesc</styleUrl><Point><coordinates>            138.51368,-34.960622,0          </coordinates></Point></Placemark></Folder></Document></kml>