<?xml version="1.0" encoding="UTF-8"?><kml xmlns="http://www.opengis.net/kml/2.2"><Document><name>Pembroke parkrun</name><description/><Style id="icon-1899-FFEA00-nodesc-normal"><IconStyle><color>ff00eaff</color><scale>1</scale><Icon><href>https://www.gstatic.com/mapspro/images/stock/503-wht-blank_maps.png</href></Icon><hotSpot x="32" xunits="pixels" y="64" yunits="insetPixels"/></IconStyle><LabelStyle><scale>0</scale></LabelStyle><BalloonStyle><text><![CDATA[<h3>$[name]</h3>]]></text></BalloonStyle></Style><Style id="icon-1899-FFEA00-nodesc-highlight"><IconStyle><color>ff00eaff</color><scale>1</scale><Icon><href>https://www.gstatic.com/mapspro/images/stock/503-wht-blank_maps.png</href></Icon><hotSpot x="32" xunits="pixels" y="64" yunits="insetPixels"/></IconStyle><LabelStyle><scale>1</scale></LabelStyle><BalloonStyle><text><![CDATA[<h3>$[name]</h3>]]></text></BalloonStyle></Style><StyleMap id="icon-1899-FFEA00-nodesc"><Pair><key>normal</key><styleUrl>#icon-1899-FFEA00-nodesc-normal</styleUrl></Pair><Pair><key>highlight</key><styleUrl>#icon-1899-FFEA00-nodesc-highlight</styleUrl></Pair></StyleMap><Style id="line-0288D1-5236-nodesc-normal"><LineStyle><color>ffd18802</color><width>5.236</width></LineStyle><BalloonStyle><text><![CDATA[<h3>$[name]</h3>]]></text></BalloonStyle></Style><Style id="line-0288D1-5236-nodesc-highlight"><LineStyle><color>ffd18802</color><width>7.854</width></LineStyle><BalloonStyle><text><![CDATA[<h3>$[name]</h3>]]></text></BalloonStyle></Style><StyleMap id="line-0288D1-5236-nodesc"><Pair><key>normal</key><styleUrl>#line-0288D1-5236-nodesc-normal</styleUrl></Pair><Pair><key>highlight</key><styleUrl>#line-0288D1-5236-nodesc-highlight</styleUrl></Pair></StyleMap><Folder><name>Untitled layer</name><Placemark><name>Course</name><styleUrl>#line-0288D1-5236-nodesc</styleUrl><LineString><tessellate>1</tessellate><coordinates>            147.551404,-42.787566,0            147.550793,-42.784806,0            147.549377,-42.784165,0            147.5493257,-42.7839166,0            147.549446,-42.783432,0            147.549999,-42.782881,0            147.551265,-42.78333,0            147.551431,-42.783625,0            147.5508788,-42.7840444,0            147.550793,-42.784806,0            147.5508788,-42.7840444,0            147.551431,-42.783625,0            147.551265,-42.78333,0            147.549999,-42.782881,0            147.549344,-42.781838,0            147.552004,-42.780954,0            147.5520848,-42.782229,0            147.552142,-42.78263,0            147.551831,-42.783244,0            147.552142,-42.78263,0            147.5520848,-42.782229,0            147.551988,-42.780742,0            147.5513767,-42.7788272,0            147.551071,-42.777265,0            147.5513767,-42.7788272,0            147.552004,-42.780954,0            147.5545095,-42.7801108,0            147.555996,-42.779635,0            147.556559,-42.779679,0            147.5568055,-42.7798667,0            147.55804,-42.780671,0          </coordinates></LineString></Placemark><Placemark><name>Start/Finish</name><styleUrl>#icon-1899-FFEA00-nodesc</styleUrl><Point><coordinates>            147.55804,-42.780671,0          </coordinates></Point></Placemark></Folder></Document></kml>