<?xml version="1.0" encoding="UTF-8"?><kml xmlns="http://www.opengis.net/kml/2.2"><Document><name>Peppertree parkrun</name><description/><Style id="icon-1899-FFEA00-nodesc-normal"><IconStyle><color>ff00eaff</color><scale>1</scale><Icon><href>https://www.gstatic.com/mapspro/images/stock/503-wht-blank_maps.png</href></Icon><hotSpot x="32" xunits="pixels" y="64" yunits="insetPixels"/></IconStyle><LabelStyle><scale>0</scale></LabelStyle><BalloonStyle><text><![CDATA[<h3>$[name]</h3>]]></text></BalloonStyle></Style><Style id="icon-1899-FFEA00-nodesc-highlight"><IconStyle><color>ff00eaff</color><scale>1</scale><Icon><href>https://www.gstatic.com/mapspro/images/stock/503-wht-blank_maps.png</href></Icon><hotSpot x="32" xunits="pixels" y="64" yunits="insetPixels"/></IconStyle><LabelStyle><scale>1</scale></LabelStyle><BalloonStyle><text><![CDATA[<h3>$[name]</h3>]]></text></BalloonStyle></Style><StyleMap id="icon-1899-FFEA00-nodesc"><Pair><key>normal</key><styleUrl>#icon-1899-FFEA00-nodesc-normal</styleUrl></Pair><Pair><key>highlight</key><styleUrl>#icon-1899-FFEA00-nodesc-highlight</styleUrl></Pair></StyleMap><Style id="line-0288D1-5456-nodesc-normal"><LineStyle><color>ffd18802</color><width>5.456</width></LineStyle><BalloonStyle><text><![CDATA[<h3>$[name]</h3>]]></text></BalloonStyle></Style><Style id="line-0288D1-5456-nodesc-highlight"><LineStyle><color>ffd18802</color><width>8.184</width></LineStyle><BalloonStyle><text><![CDATA[<h3>$[name]</h3>]]></text></BalloonStyle></Style><StyleMap id="line-0288D1-5456-nodesc"><Pair><key>normal</key><styleUrl>#line-0288D1-5456-nodesc-normal</styleUrl></Pair><Pair><key>highlight</key><styleUrl>#line-0288D1-5456-nodesc-highlight</styleUrl></Pair></StyleMap><Folder><name>Untitled layer</name><Placemark><name>Course</name><styleUrl>#line-0288D1-5456-nodesc</styleUrl><LineString><tessellate>1</tessellate><coordinates>            144.432921,-37.682308,0            144.432776,-37.682303,0            144.432349,-37.682201,0            144.43218,-37.682055,0            144.432065,-37.681826,0            144.431926,-37.68141,0            144.4324882,-37.6815631,0            144.433089,-37.6816905,0            144.4324882,-37.6815631,0            144.431926,-37.68141,0            144.431705,-37.681202,0            144.431413,-37.6811,0            144.430064,-37.680882,0            144.429642,-37.680879,0            144.429441,-37.680845,0            144.429283,-37.680765,0            144.4291301,-37.680748,0            144.4282289,-37.6806248,0            144.427787,-37.680475,0            144.427338,-37.680402,0            144.426951,-37.680316,0            144.426523,-37.6801111,0            144.4252355,-37.6793979,0            144.424469,-37.678774,0            144.423878,-37.678486,0            144.4228001,-37.6791601,0            144.422261,-37.679505,0            144.421996,-37.67983,0            144.421958,-37.679976,0            144.421817,-37.679992,0            144.421156,-37.680089,0          </coordinates></LineString></Placemark><Placemark><name>Start/Finish</name><styleUrl>#icon-1899-FFEA00-nodesc</styleUrl><Point><coordinates>            144.433003,-37.681676,0          </coordinates></Point></Placemark></Folder></Document></kml>