<?xml version="1.0" encoding="UTF-8"?><kml xmlns="http://www.opengis.net/kml/2.2"><Document><name>Pirrama parkrun (from Nov 2024)</name><description/><Style id="icon-1899-558B2F-normal"><IconStyle><color>ff2f8b55</color><scale>1</scale><Icon><href>https://www.gstatic.com/mapspro/images/stock/503-wht-blank_maps.png</href></Icon><hotSpot x="32" xunits="pixels" y="64" yunits="insetPixels"/></IconStyle><LabelStyle><scale>0</scale></LabelStyle></Style><Style id="icon-1899-558B2F-highlight"><IconStyle><color>ff2f8b55</color><scale>1</scale><Icon><href>https://www.gstatic.com/mapspro/images/stock/503-wht-blank_maps.png</href></Icon><hotSpot x="32" xunits="pixels" y="64" yunits="insetPixels"/></IconStyle><LabelStyle><scale>1</scale></LabelStyle></Style><StyleMap id="icon-1899-558B2F"><Pair><key>normal</key><styleUrl>#icon-1899-558B2F-normal</styleUrl></Pair><Pair><key>highlight</key><styleUrl>#icon-1899-558B2F-highlight</styleUrl></Pair></StyleMap><Style id="icon-1899-FF5252-nodesc-normal"><IconStyle><color>ff5252ff</color><scale>1</scale><Icon><href>https://www.gstatic.com/mapspro/images/stock/503-wht-blank_maps.png</href></Icon><hotSpot x="32" xunits="pixels" y="64" yunits="insetPixels"/></IconStyle><LabelStyle><scale>0</scale></LabelStyle><BalloonStyle><text><![CDATA[<h3>$[name]</h3>]]></text></BalloonStyle></Style><Style id="icon-1899-FF5252-nodesc-highlight"><IconStyle><color>ff5252ff</color><scale>1</scale><Icon><href>https://www.gstatic.com/mapspro/images/stock/503-wht-blank_maps.png</href></Icon><hotSpot x="32" xunits="pixels" y="64" yunits="insetPixels"/></IconStyle><LabelStyle><scale>1</scale></LabelStyle><BalloonStyle><text><![CDATA[<h3>$[name]</h3>]]></text></BalloonStyle></Style><StyleMap id="icon-1899-FF5252-nodesc"><Pair><key>normal</key><styleUrl>#icon-1899-FF5252-nodesc-normal</styleUrl></Pair><Pair><key>highlight</key><styleUrl>#icon-1899-FF5252-nodesc-highlight</styleUrl></Pair></StyleMap><Style id="line-0288D1-5263-nodesc-normal"><LineStyle><color>ffd18802</color><width>5.263</width></LineStyle><BalloonStyle><text><![CDATA[<h3>$[name]</h3>]]></text></BalloonStyle></Style><Style id="line-0288D1-5263-nodesc-highlight"><LineStyle><color>ffd18802</color><width>7.8945</width></LineStyle><BalloonStyle><text><![CDATA[<h3>$[name]</h3>]]></text></BalloonStyle></Style><StyleMap id="line-0288D1-5263-nodesc"><Pair><key>normal</key><styleUrl>#line-0288D1-5263-nodesc-normal</styleUrl></Pair><Pair><key>highlight</key><styleUrl>#line-0288D1-5263-nodesc-highlight</styleUrl></Pair></StyleMap><Folder><name>Untitled layer</name><Placemark><name>Course</name><styleUrl>#line-0288D1-5263-nodesc</styleUrl><LineString><tessellate>1</tessellate><coordinates>            151.193453,-33.863184,0            151.193206,-33.862952,0            151.192369,-33.863389,0            151.1925089,-33.863532,0            151.193185,-33.863505,0            151.1934209,-33.863398,0            151.193453,-33.863184,0            151.19371,-33.863175,0            151.194064,-33.862685,0            151.193925,-33.862462,0            151.1921306,-33.8633264,0            151.1917954,-33.8636563,0            151.1916051,-33.8636096,0            151.1913827,-33.8636698,0            151.1916051,-33.8636096,0            151.1917954,-33.8636563,0            151.1917471,-33.8637387,0            151.1913031,-33.8639769,0            151.19135,-33.864429,0            151.1913031,-33.8639769,0            151.1917471,-33.8637387,0            151.1915107,-33.8642213,0            151.1919624,-33.86527,0            151.191754,-33.8653691,0            151.1914691,-33.865506,0            151.1908523,-33.8656975,0            151.190009,-33.865468,0            151.1892045,-33.8660809,0            151.189137,-33.866038,0            151.1887701,-33.8664341,0            151.1887613,-33.8668041,0            151.1882881,-33.867313,0            151.1877759,-33.8677885,0          </coordinates></LineString></Placemark><Placemark><name>Finish</name><styleUrl>#icon-1899-FF5252-nodesc</styleUrl><Point><coordinates>            151.19135,-33.864429,0          </coordinates></Point></Placemark><Placemark><name>Start</name><description>On boardwalk</description><styleUrl>#icon-1899-558B2F</styleUrl><Point><coordinates>            151.1913827,-33.8636698,0          </coordinates></Point></Placemark></Folder></Document></kml>