<?xml version="1.0" encoding="UTF-8"?><kml xmlns="http://www.opengis.net/kml/2.2"><Document><name>Point Cook parkrun</name><description>This is the revised 2.5k out and back course</description><Style id="icon-157-nodesc-normal"><IconStyle><scale>1.1</scale><Icon><href>https://www.gstatic.com/mapspro/images/stock/157-yellow-dot.png</href></Icon><hotSpot x="16" xunits="pixels" y="32" yunits="insetPixels"/></IconStyle><LabelStyle><scale>0</scale></LabelStyle><BalloonStyle><text><![CDATA[<h3>$[name]</h3>]]></text></BalloonStyle></Style><Style id="icon-157-nodesc-highlight"><IconStyle><scale>1.1</scale><Icon><href>https://www.gstatic.com/mapspro/images/stock/157-yellow-dot.png</href></Icon><hotSpot x="16" xunits="pixels" y="32" yunits="insetPixels"/></IconStyle><LabelStyle><scale>1.1</scale></LabelStyle><BalloonStyle><text><![CDATA[<h3>$[name]</h3>]]></text></BalloonStyle></Style><StyleMap id="icon-157-nodesc"><Pair><key>normal</key><styleUrl>#icon-157-nodesc-normal</styleUrl></Pair><Pair><key>highlight</key><styleUrl>#icon-157-nodesc-highlight</styleUrl></Pair></StyleMap><Style id="icon-93-nodesc-normal"><IconStyle><scale>1.1</scale><Icon><href>https://www.gstatic.com/mapspro/images/stock/93-parkinglot.png</href></Icon></IconStyle><LabelStyle><scale>0</scale></LabelStyle><BalloonStyle><text><![CDATA[<h3>$[name]</h3>]]></text></BalloonStyle></Style><Style id="icon-93-nodesc-highlight"><IconStyle><scale>1.1</scale><Icon><href>https://www.gstatic.com/mapspro/images/stock/93-parkinglot.png</href></Icon></IconStyle><LabelStyle><scale>1.1</scale></LabelStyle><BalloonStyle><text><![CDATA[<h3>$[name]</h3>]]></text></BalloonStyle></Style><StyleMap id="icon-93-nodesc"><Pair><key>normal</key><styleUrl>#icon-93-nodesc-normal</styleUrl></Pair><Pair><key>highlight</key><styleUrl>#icon-93-nodesc-highlight</styleUrl></Pair></StyleMap><Style id="line-3333FF-5000-nodesc-normal"><LineStyle><color>ffff3333</color><width>5</width></LineStyle><BalloonStyle><text><![CDATA[<h3>$[name]</h3>]]></text></BalloonStyle></Style><Style id="line-3333FF-5000-nodesc-highlight"><LineStyle><color>ffff3333</color><width>7.5</width></LineStyle><BalloonStyle><text><![CDATA[<h3>$[name]</h3>]]></text></BalloonStyle></Style><StyleMap id="line-3333FF-5000-nodesc"><Pair><key>normal</key><styleUrl>#line-3333FF-5000-nodesc-normal</styleUrl></Pair><Pair><key>highlight</key><styleUrl>#line-3333FF-5000-nodesc-highlight</styleUrl></Pair></StyleMap><Folder><name>Untitled layer</name><Placemark><name>Course</name><styleUrl>#line-3333FF-5000-nodesc</styleUrl><LineString><tessellate>1</tessellate><coordinates>            144.729381,-37.862115,0            144.730217,-37.863047,0            144.721184,-37.867841,0            144.720175,-37.867942,0            144.718888,-37.867909,0            144.71818,-37.867824,0            144.717708,-37.867621,0            144.7176,-37.86718,0            144.7176,-37.866757,0            144.717665,-37.866282,0            144.717879,-37.865808,0            144.718244,-37.865334,0            144.718609,-37.864893,0            144.718845,-37.86469,0            144.719403,-37.864487,0            144.720325,-37.864097,0            144.720969,-37.863775,0            144.721506,-37.863437,0            144.72172,-37.863098,0            144.721656,-37.862759,0            144.721484,-37.86242,0            144.721334,-37.861997,0            144.721119,-37.861573,0            144.720755,-37.861133,0            144.720132,-37.860692,0            144.71966,-37.860252,0            144.719296,-37.859642,0            144.71921,-37.859337,0          </coordinates></LineString></Placemark><Placemark><name>Start / Finish</name><styleUrl>#icon-157-nodesc</styleUrl><Point><coordinates>            144.729381,-37.862115,0          </coordinates></Point></Placemark><Placemark><name>Car Park</name><styleUrl>#icon-93-nodesc</styleUrl><Point><coordinates>            144.728694,-37.862132,0          </coordinates></Point></Placemark></Folder></Document></kml>