<?xml version="1.0" encoding="UTF-8"?><kml xmlns="http://www.opengis.net/kml/2.2"><Document><name>Port Broughton parkrun</name><description/><Style id="icon-1899-FFD600-nodesc-normal"><IconStyle><color>ff00d6ff</color><scale>1</scale><Icon><href>https://www.gstatic.com/mapspro/images/stock/503-wht-blank_maps.png</href></Icon><hotSpot x="32" xunits="pixels" y="64" yunits="insetPixels"/></IconStyle><LabelStyle><scale>0</scale></LabelStyle><BalloonStyle><text><![CDATA[<h3>$[name]</h3>]]></text></BalloonStyle></Style><Style id="icon-1899-FFD600-nodesc-highlight"><IconStyle><color>ff00d6ff</color><scale>1</scale><Icon><href>https://www.gstatic.com/mapspro/images/stock/503-wht-blank_maps.png</href></Icon><hotSpot x="32" xunits="pixels" y="64" yunits="insetPixels"/></IconStyle><LabelStyle><scale>1</scale></LabelStyle><BalloonStyle><text><![CDATA[<h3>$[name]</h3>]]></text></BalloonStyle></Style><StyleMap id="icon-1899-FFD600-nodesc"><Pair><key>normal</key><styleUrl>#icon-1899-FFD600-nodesc-normal</styleUrl></Pair><Pair><key>highlight</key><styleUrl>#icon-1899-FFD600-nodesc-highlight</styleUrl></Pair></StyleMap><Style id="line-0288D1-5069-nodesc-normal"><LineStyle><color>ffd18802</color><width>5.069</width></LineStyle><BalloonStyle><text><![CDATA[<h3>$[name]</h3>]]></text></BalloonStyle></Style><Style id="line-0288D1-5069-nodesc-highlight"><LineStyle><color>ffd18802</color><width>7.6035</width></LineStyle><BalloonStyle><text><![CDATA[<h3>$[name]</h3>]]></text></BalloonStyle></Style><StyleMap id="line-0288D1-5069-nodesc"><Pair><key>normal</key><styleUrl>#line-0288D1-5069-nodesc-normal</styleUrl></Pair><Pair><key>highlight</key><styleUrl>#line-0288D1-5069-nodesc-highlight</styleUrl></Pair></StyleMap><Folder><name>Untitled layer</name><Placemark><name>Course</name><styleUrl>#line-0288D1-5069-nodesc</styleUrl><LineString><tessellate>1</tessellate><coordinates>            137.929568,-33.59875,0            137.929235,-33.600774,0            137.92894,-33.60097,0            137.928876,-33.601207,0            137.928838,-33.603834,0            137.928586,-33.60454,0            137.928087,-33.605179,0            137.927738,-33.605434,0            137.927572,-33.606216,0            137.927304,-33.606551,0            137.92666,-33.606975,0            137.926558,-33.607212,0            137.926606,-33.607547,0            137.926816,-33.607954,0            137.927009,-33.608199,0            137.927261,-33.60866,0            137.927465,-33.609401,0            137.92761,-33.610867,0            137.927535,-33.611376,0            137.927079,-33.611809,0            137.926183,-33.612533,0            137.925823,-33.613127,0            137.925754,-33.61369,0            137.925839,-33.614843,0            137.92562,-33.61562,0            137.925394,-33.616053,0            137.925153,-33.61654,0            137.924922,-33.616916,0            137.924198,-33.617635,0            137.923855,-33.618408,0            137.923302,-33.618962,0            137.923002,-33.619609,0            137.922878,-33.619855,0          </coordinates></LineString></Placemark><Placemark><name>Start / Finish</name><styleUrl>#icon-1899-FFD600-nodesc</styleUrl><Point><coordinates>            137.929568,-33.59875,0          </coordinates></Point></Placemark></Folder></Document></kml>