<?xml version="1.0" encoding="UTF-8"?><kml xmlns="http://www.opengis.net/kml/2.2"><Document><name>Port Hedland parkrun</name><description/><Style id="icon-1899-0F9D58-nodesc-normal"><IconStyle><color>ff589d0f</color><scale>1</scale><Icon><href>https://www.gstatic.com/mapspro/images/stock/503-wht-blank_maps.png</href></Icon><hotSpot x="32" xunits="pixels" y="64" yunits="insetPixels"/></IconStyle><LabelStyle><scale>0</scale></LabelStyle><BalloonStyle><text><![CDATA[<h3>$[name]</h3>]]></text></BalloonStyle></Style><Style id="icon-1899-0F9D58-nodesc-highlight"><IconStyle><color>ff589d0f</color><scale>1</scale><Icon><href>https://www.gstatic.com/mapspro/images/stock/503-wht-blank_maps.png</href></Icon><hotSpot x="32" xunits="pixels" y="64" yunits="insetPixels"/></IconStyle><LabelStyle><scale>1</scale></LabelStyle><BalloonStyle><text><![CDATA[<h3>$[name]</h3>]]></text></BalloonStyle></Style><StyleMap id="icon-1899-0F9D58-nodesc"><Pair><key>normal</key><styleUrl>#icon-1899-0F9D58-nodesc-normal</styleUrl></Pair><Pair><key>highlight</key><styleUrl>#icon-1899-0F9D58-nodesc-highlight</styleUrl></Pair></StyleMap><Style id="icon-1899-FF5252-nodesc-normal"><IconStyle><color>ff5252ff</color><scale>1</scale><Icon><href>https://www.gstatic.com/mapspro/images/stock/503-wht-blank_maps.png</href></Icon><hotSpot x="32" xunits="pixels" y="64" yunits="insetPixels"/></IconStyle><LabelStyle><scale>0</scale></LabelStyle><BalloonStyle><text><![CDATA[<h3>$[name]</h3>]]></text></BalloonStyle></Style><Style id="icon-1899-FF5252-nodesc-highlight"><IconStyle><color>ff5252ff</color><scale>1</scale><Icon><href>https://www.gstatic.com/mapspro/images/stock/503-wht-blank_maps.png</href></Icon><hotSpot x="32" xunits="pixels" y="64" yunits="insetPixels"/></IconStyle><LabelStyle><scale>1</scale></LabelStyle><BalloonStyle><text><![CDATA[<h3>$[name]</h3>]]></text></BalloonStyle></Style><StyleMap id="icon-1899-FF5252-nodesc"><Pair><key>normal</key><styleUrl>#icon-1899-FF5252-nodesc-normal</styleUrl></Pair><Pair><key>highlight</key><styleUrl>#icon-1899-FF5252-nodesc-highlight</styleUrl></Pair></StyleMap><Style id="icon-959-0288D1-nodesc-normal"><IconStyle><color>ffd18802</color><scale>1.1</scale><Icon><href>https://www.gstatic.com/mapspro/images/stock/959-wht-circle-blank.png</href></Icon></IconStyle><LabelStyle><scale>0</scale></LabelStyle><BalloonStyle><text><![CDATA[<h3>$[name]</h3>]]></text></BalloonStyle></Style><Style id="icon-959-0288D1-nodesc-highlight"><IconStyle><color>ffd18802</color><scale>1.1</scale><Icon><href>https://www.gstatic.com/mapspro/images/stock/959-wht-circle-blank.png</href></Icon></IconStyle><LabelStyle><scale>1.1</scale></LabelStyle><BalloonStyle><text><![CDATA[<h3>$[name]</h3>]]></text></BalloonStyle></Style><StyleMap id="icon-959-0288D1-nodesc"><Pair><key>normal</key><styleUrl>#icon-959-0288D1-nodesc-normal</styleUrl></Pair><Pair><key>highlight</key><styleUrl>#icon-959-0288D1-nodesc-highlight</styleUrl></Pair></StyleMap><Style id="line-0288D1-5456-nodesc-normal"><LineStyle><color>ffd18802</color><width>5.456</width></LineStyle><BalloonStyle><text><![CDATA[<h3>$[name]</h3>]]></text></BalloonStyle></Style><Style id="line-0288D1-5456-nodesc-highlight"><LineStyle><color>ffd18802</color><width>8.184</width></LineStyle><BalloonStyle><text><![CDATA[<h3>$[name]</h3>]]></text></BalloonStyle></Style><StyleMap id="line-0288D1-5456-nodesc"><Pair><key>normal</key><styleUrl>#line-0288D1-5456-nodesc-normal</styleUrl></Pair><Pair><key>highlight</key><styleUrl>#line-0288D1-5456-nodesc-highlight</styleUrl></Pair></StyleMap><Folder><name>Untitled layer</name><Placemark><name>Course</name><styleUrl>#line-0288D1-5456-nodesc</styleUrl><LineString><tessellate>1</tessellate><coordinates>            118.608942,-20.308806,0            118.609024,-20.308728,0            118.609192,-20.308644,0            118.609448,-20.308541,0            118.60958,-20.3085,0            118.609758,-20.308458,0            118.610567,-20.308177,0            118.61116,-20.307962,0            118.611228,-20.307942,0            118.611294,-20.307951,0            118.611513,-20.308026,0            118.611603,-20.308026,0            118.611677,-20.308015,0            118.61194,-20.307905,0            118.612168,-20.307816,0            118.612268,-20.307754,0            118.612302,-20.307708,0            118.612327,-20.30764,0            118.612346,-20.307557,0            118.612442,-20.30748,0            118.61253,-20.307438,0            118.612662,-20.307402,0            118.612838,-20.307349,0            118.612952,-20.307313,0            118.613237,-20.307177,0            118.613256,-20.307397,0            118.613237,-20.307173,0            118.61363,-20.306994,0            118.614159,-20.306784,0            118.614516,-20.306634,0            118.615796,-20.306076,0            118.61689,-20.305601,0            118.617209,-20.305452,0            118.617346,-20.305386,0            118.617409,-20.305344,0            118.617501,-20.305272,0            118.618198,-20.304661,0            118.618318,-20.304581,0            118.618378,-20.304547,0            118.619112,-20.304195,0            118.619298,-20.304115,0            118.620406,-20.303695,0            118.621988,-20.303103,0            118.623791,-20.302432,0            118.625506,-20.301786,0            118.627934,-20.300875,0            118.628131,-20.300802,0            118.630016,-20.300212,0            118.630627,-20.300003,0          </coordinates></LineString></Placemark><Placemark><name>Finish</name><styleUrl>#icon-1899-FF5252-nodesc</styleUrl><Point><coordinates>            118.613256,-20.307397,0          </coordinates></Point></Placemark><Placemark><name>Start</name><styleUrl>#icon-1899-0F9D58-nodesc</styleUrl><Point><coordinates>            118.613304,-20.307135,0          </coordinates></Point></Placemark><Placemark><name>Turnaround Point 1</name><styleUrl>#icon-959-0288D1-nodesc</styleUrl><Point><coordinates>            118.608942,-20.308806,0          </coordinates></Point></Placemark><Placemark><name>Turnaround Point 2</name><styleUrl>#icon-959-0288D1-nodesc</styleUrl><Point><coordinates>            118.630627,-20.300003,0          </coordinates></Point></Placemark></Folder></Document></kml>