<?xml version="1.0" encoding="UTF-8"?><kml xmlns="http://www.opengis.net/kml/2.2"><Document><name>Robelle Domain parkrun</name><description/><Style id="icon-1899-0F9D58-nodesc-normal"><IconStyle><color>ff589d0f</color><scale>1</scale><Icon><href>https://www.gstatic.com/mapspro/images/stock/503-wht-blank_maps.png</href></Icon><hotSpot x="32" xunits="pixels" y="64" yunits="insetPixels"/></IconStyle><LabelStyle><scale>0</scale></LabelStyle><BalloonStyle><text><![CDATA[<h3>$[name]</h3>]]></text></BalloonStyle></Style><Style id="icon-1899-0F9D58-nodesc-highlight"><IconStyle><color>ff589d0f</color><scale>1</scale><Icon><href>https://www.gstatic.com/mapspro/images/stock/503-wht-blank_maps.png</href></Icon><hotSpot x="32" xunits="pixels" y="64" yunits="insetPixels"/></IconStyle><LabelStyle><scale>1</scale></LabelStyle><BalloonStyle><text><![CDATA[<h3>$[name]</h3>]]></text></BalloonStyle></Style><StyleMap id="icon-1899-0F9D58-nodesc"><Pair><key>normal</key><styleUrl>#icon-1899-0F9D58-nodesc-normal</styleUrl></Pair><Pair><key>highlight</key><styleUrl>#icon-1899-0F9D58-nodesc-highlight</styleUrl></Pair></StyleMap><Style id="icon-1899-FF5252-nodesc-normal"><IconStyle><color>ff5252ff</color><scale>1</scale><Icon><href>https://www.gstatic.com/mapspro/images/stock/503-wht-blank_maps.png</href></Icon><hotSpot x="32" xunits="pixels" y="64" yunits="insetPixels"/></IconStyle><LabelStyle><scale>0</scale></LabelStyle><BalloonStyle><text><![CDATA[<h3>$[name]</h3>]]></text></BalloonStyle></Style><Style id="icon-1899-FF5252-nodesc-highlight"><IconStyle><color>ff5252ff</color><scale>1</scale><Icon><href>https://www.gstatic.com/mapspro/images/stock/503-wht-blank_maps.png</href></Icon><hotSpot x="32" xunits="pixels" y="64" yunits="insetPixels"/></IconStyle><LabelStyle><scale>1</scale></LabelStyle><BalloonStyle><text><![CDATA[<h3>$[name]</h3>]]></text></BalloonStyle></Style><StyleMap id="icon-1899-FF5252-nodesc"><Pair><key>normal</key><styleUrl>#icon-1899-FF5252-nodesc-normal</styleUrl></Pair><Pair><key>highlight</key><styleUrl>#icon-1899-FF5252-nodesc-highlight</styleUrl></Pair></StyleMap><Style id="line-0288D1-5844-nodesc-normal"><LineStyle><color>ffd18802</color><width>5.844</width></LineStyle><BalloonStyle><text><![CDATA[<h3>$[name]</h3>]]></text></BalloonStyle></Style><Style id="line-0288D1-5844-nodesc-highlight"><LineStyle><color>ffd18802</color><width>8.766</width></LineStyle><BalloonStyle><text><![CDATA[<h3>$[name]</h3>]]></text></BalloonStyle></Style><StyleMap id="line-0288D1-5844-nodesc"><Pair><key>normal</key><styleUrl>#line-0288D1-5844-nodesc-normal</styleUrl></Pair><Pair><key>highlight</key><styleUrl>#line-0288D1-5844-nodesc-highlight</styleUrl></Pair></StyleMap><Folder><name>Untitled layer</name><Placemark><name>Course</name><styleUrl>#line-0288D1-5844-nodesc</styleUrl><LineString><tessellate>1</tessellate><coordinates>            152.904353,-27.675376,0            152.904605,-27.675423,0            152.905038,-27.675611,0            152.905157,-27.675727,0            152.9057035,-27.6762772,0            152.905963,-27.676658,0            152.9060405,-27.6768105,0            152.9060644,-27.6770675,0            152.9064335,-27.6775125,0            152.9067605,-27.6778362,0            152.9069696,-27.6782166,0            152.9069884,-27.6784116,0            152.906998,-27.678613,0            152.90683,-27.67882,0            152.9067265,-27.6790935,0            152.90658,-27.679224,0            152.906256,-27.6793991,0            152.90605,-27.6796693,0            152.9056,-27.67981,0            152.905494,-27.679579,0            152.904761,-27.679244,0            152.9043907,-27.6792695,0            152.903847,-27.679407,0            152.9034785,-27.6796253,0            152.90362,-27.6798,0            152.903779,-27.679929,0            152.9043492,-27.6797587,0            152.904402,-27.679761,0            152.9048698,-27.680007,0            152.9052671,-27.6799655,0            152.9056,-27.67981,0            152.9052671,-27.6799655,0            152.9048698,-27.680007,0            152.904402,-27.679761,0            152.903779,-27.679929,0            152.903718,-27.680293,0            152.9034118,-27.6806285,0            152.9032795,-27.6810277,0            152.9033233,-27.6813465,0            152.90353,-27.681607,0            152.9038576,-27.681807,0            152.90411,-27.682083,0            152.904297,-27.682554,0            152.9043007,-27.6830764,0            152.9042384,-27.6833772,0            152.903822,-27.683944,0            152.903334,-27.684862,0            152.9032119,-27.685061,0            152.903079,-27.685146,0          </coordinates></LineString></Placemark><Placemark><name>Finish</name><styleUrl>#icon-1899-FF5252-nodesc</styleUrl><Point><coordinates>            152.905038,-27.679983,53.2          </coordinates></Point></Placemark><Placemark><name>Start</name><styleUrl>#icon-1899-0F9D58-nodesc</styleUrl><Point><coordinates>            152.903909,-27.680014,58.2          </coordinates></Point></Placemark></Folder></Document></kml>