<?xml version="1.0" encoding="UTF-8"?><kml xmlns="http://www.opengis.net/kml/2.2"><Document><name>Ros Gregor Trail parkrun</name><description/><Style id="icon-1899-FFEA00-nodesc-normal"><IconStyle><color>ff00eaff</color><scale>1</scale><Icon><href>https://www.gstatic.com/mapspro/images/stock/503-wht-blank_maps.png</href></Icon><hotSpot x="32" xunits="pixels" y="64" yunits="insetPixels"/></IconStyle><LabelStyle><scale>0</scale></LabelStyle><BalloonStyle><text><![CDATA[<h3>$[name]</h3>]]></text></BalloonStyle></Style><Style id="icon-1899-FFEA00-nodesc-highlight"><IconStyle><color>ff00eaff</color><scale>1</scale><Icon><href>https://www.gstatic.com/mapspro/images/stock/503-wht-blank_maps.png</href></Icon><hotSpot x="32" xunits="pixels" y="64" yunits="insetPixels"/></IconStyle><LabelStyle><scale>1</scale></LabelStyle><BalloonStyle><text><![CDATA[<h3>$[name]</h3>]]></text></BalloonStyle></Style><StyleMap id="icon-1899-FFEA00-nodesc"><Pair><key>normal</key><styleUrl>#icon-1899-FFEA00-nodesc-normal</styleUrl></Pair><Pair><key>highlight</key><styleUrl>#icon-1899-FFEA00-nodesc-highlight</styleUrl></Pair></StyleMap><Style id="line-0288D1-5263-nodesc-normal"><LineStyle><color>ffd18802</color><width>5.263</width></LineStyle><BalloonStyle><text><![CDATA[<h3>$[name]</h3>]]></text></BalloonStyle></Style><Style id="line-0288D1-5263-nodesc-highlight"><LineStyle><color>ffd18802</color><width>7.8945</width></LineStyle><BalloonStyle><text><![CDATA[<h3>$[name]</h3>]]></text></BalloonStyle></Style><StyleMap id="line-0288D1-5263-nodesc"><Pair><key>normal</key><styleUrl>#line-0288D1-5263-nodesc-normal</styleUrl></Pair><Pair><key>highlight</key><styleUrl>#line-0288D1-5263-nodesc-highlight</styleUrl></Pair></StyleMap><Folder><name>Untitled layer</name><Placemark><name>Course</name><styleUrl>#line-0288D1-5263-nodesc</styleUrl><LineString><tessellate>1</tessellate><coordinates>            151.979599,-26.682304,0            151.979597,-26.682532,0            151.979581,-26.682681,0            151.979608,-26.682935,0            151.979645,-26.683362,0            151.979688,-26.683898,0            151.979672,-26.684124,0            151.979667,-26.684378,0            151.979699,-26.684684,0            151.979683,-26.68512,0            151.97971,-26.685629,0            151.97971,-26.686094,0            151.979731,-26.686328,0            151.979747,-26.686606,0            151.979763,-26.686928,0            151.979779,-26.687225,0            151.979801,-26.687445,0            151.97972,-26.687733,0            151.979672,-26.688083,0            151.979661,-26.68825,0            151.979726,-26.688394,0            151.979806,-26.688514,0            151.979801,-26.688682,0            151.97972,-26.688821,0            151.979699,-26.688945,0            151.979796,-26.689022,0            151.979972,-26.689075,0            151.980048,-26.68907,0            151.980235,-26.688984,0            151.980498,-26.68884,0            151.980675,-26.688754,0            151.980836,-26.688706,0            151.980954,-26.68873,0            151.981067,-26.68883,0            151.981206,-26.688964,0            151.981324,-26.68908,0            151.98141,-26.689142,0            151.981748,-26.689017,0            151.982258,-26.688792,0            151.982558,-26.688662,0            151.982918,-26.688476,0            151.983057,-26.688375,0            151.983191,-26.688222,0            151.983352,-26.688126,0            151.983642,-26.688025,0            151.983846,-26.688001,0            151.984135,-26.687948,0            151.98428,-26.68791,0            151.984511,-26.687872,0            151.984742,-26.687852,0            151.984886,-26.687771,0            151.985117,-26.687666,0            151.985391,-26.687565,0            151.986244,-26.687253,0            151.98656,-26.687134,0            151.986726,-26.687004,0            151.986898,-26.686822,0            151.987713,-26.686439,0            151.988159,-26.686208,0            151.988416,-26.686007,0            151.988641,-26.685854,0            151.98891,-26.685566,0            151.989344,-26.685073,0            151.989468,-26.684962,0            151.989677,-26.68478,0            151.989827,-26.684622,0            151.989924,-26.684464,0            151.990042,-26.684219,0            151.990133,-26.683994,0            151.990256,-26.683793,0            151.990396,-26.683649,0            151.990508,-26.683563,0            151.990616,-26.683472,0            151.990803,-26.683342,0            151.990911,-26.683194,0            151.991012,-26.682997,0            151.991093,-26.682834,0            151.991147,-26.682714,0            151.991195,-26.682547,0            151.99127,-26.68246,0            151.991442,-26.682427,0            151.991635,-26.682408,0            151.991764,-26.682408,0            151.991908,-26.682412,0            151.99208,-26.682494,0            151.992311,-26.682638,0            151.992456,-26.68269,0            151.992606,-26.68269,0            151.992751,-26.682642,0            151.992863,-26.682585,0            151.992954,-26.68247,0            151.993035,-26.682369,0            151.993137,-26.682278,0            151.993233,-26.682211,0            151.9934,-26.682149,0            151.993561,-26.682086,0            151.993695,-26.682037,0          </coordinates></LineString></Placemark><Placemark><name>Start/Finish</name><styleUrl>#icon-1899-FFEA00-nodesc</styleUrl><Point><coordinates>            151.993714,-26.682029,0          </coordinates></Point></Placemark></Folder></Document></kml>