<?xml version="1.0" encoding="UTF-8"?><kml xmlns="http://www.opengis.net/kml/2.2"><Document><name>San Remo parkrun</name><description/><Style id="icon-1899-FFD600-nodesc-normal"><IconStyle><color>ff00d6ff</color><scale>1</scale><Icon><href>https://www.gstatic.com/mapspro/images/stock/503-wht-blank_maps.png</href></Icon><hotSpot x="32" xunits="pixels" y="64" yunits="insetPixels"/></IconStyle><LabelStyle><scale>0</scale></LabelStyle><BalloonStyle><text><![CDATA[<h3>$[name]</h3>]]></text></BalloonStyle></Style><Style id="icon-1899-FFD600-nodesc-highlight"><IconStyle><color>ff00d6ff</color><scale>1</scale><Icon><href>https://www.gstatic.com/mapspro/images/stock/503-wht-blank_maps.png</href></Icon><hotSpot x="32" xunits="pixels" y="64" yunits="insetPixels"/></IconStyle><LabelStyle><scale>1</scale></LabelStyle><BalloonStyle><text><![CDATA[<h3>$[name]</h3>]]></text></BalloonStyle></Style><StyleMap id="icon-1899-FFD600-nodesc"><Pair><key>normal</key><styleUrl>#icon-1899-FFD600-nodesc-normal</styleUrl></Pair><Pair><key>highlight</key><styleUrl>#icon-1899-FFD600-nodesc-highlight</styleUrl></Pair></StyleMap><Style id="line-0288D1-5069-nodesc-normal"><LineStyle><color>ffd18802</color><width>5.069</width></LineStyle><BalloonStyle><text><![CDATA[<h3>$[name]</h3>]]></text></BalloonStyle></Style><Style id="line-0288D1-5069-nodesc-highlight"><LineStyle><color>ffd18802</color><width>7.6035</width></LineStyle><BalloonStyle><text><![CDATA[<h3>$[name]</h3>]]></text></BalloonStyle></Style><StyleMap id="line-0288D1-5069-nodesc"><Pair><key>normal</key><styleUrl>#line-0288D1-5069-nodesc-normal</styleUrl></Pair><Pair><key>highlight</key><styleUrl>#line-0288D1-5069-nodesc-highlight</styleUrl></Pair></StyleMap><Folder><name>Untitled layer</name><Placemark><name>Course</name><styleUrl>#line-0288D1-5069-nodesc</styleUrl><LineString><tessellate>1</tessellate><coordinates>            151.530082,-33.229519,0            151.5301,-33.229445,0            151.530123,-33.229381,0            151.53017,-33.229323,0            151.530182,-33.229304,0            151.530199,-33.229281,0            151.530226,-33.22922,0            151.530237,-33.229171,0            151.530237,-33.228992,0            151.530261,-33.228925,0            151.530291,-33.228863,0            151.530311,-33.228721,0            151.530328,-33.22858,0            151.530315,-33.228538,0            151.530292,-33.228507,0            151.530282,-33.228477,0            151.530278,-33.228442,0            151.530282,-33.228388,0            151.53031,-33.228255,0            151.530323,-33.228122,0            151.530328,-33.228055,0            151.530331,-33.227988,0            151.530313,-33.22786,0            151.530304,-33.227794,0            151.530294,-33.227727,0            151.530288,-33.227671,0            151.530269,-33.227549,0            151.530187,-33.227441,0            151.53012,-33.227357,0            151.530055,-33.227274,0            151.529943,-33.227149,0            151.529869,-33.227055,0            151.529816,-33.226935,0            151.529774,-33.226828,0            151.529734,-33.226724,0            151.529598,-33.226592,0            151.529564,-33.226562,0            151.529524,-33.226535,0            151.529441,-33.226488,0            151.529238,-33.226395,0            151.529084,-33.226341,0            151.528992,-33.22632,0            151.528853,-33.226214,0            151.52883,-33.226192,0            151.52879,-33.226177,0            151.528621,-33.226132,0            151.528405,-33.225957,0            151.528326,-33.225906,0            151.528248,-33.225879,0            151.528169,-33.22587,0            151.528058,-33.225834,0            151.527974,-33.225791,0            151.527878,-33.225754,0            151.527769,-33.225725,0            151.527654,-33.225705,0            151.527447,-33.225682,0            151.52735,-33.225663,0            151.527276,-33.225643,0            151.527209,-33.225558,0            151.52716,-33.22545,0            151.527077,-33.225241,0            151.527062,-33.225186,0            151.527066,-33.22513,0            151.527099,-33.225037,0            151.527155,-33.224889,0            151.527156,-33.224757,0            151.527264,-33.224578,0            151.527335,-33.224497,0            151.527397,-33.224405,0            151.527401,-33.224368,0            151.527394,-33.224331,0            151.527384,-33.224258,0            151.527401,-33.224209,0            151.527456,-33.22417,0            151.527537,-33.224164,0            151.527491,-33.224033,0            151.527491,-33.223861,0            151.527533,-33.223744,0            151.527545,-33.223698,0            151.527576,-33.223662,0            151.527633,-33.223606,0            151.527677,-33.223549,0            151.527875,-33.223045,0            151.527907,-33.222744,0            151.527926,-33.222597,0            151.527936,-33.222449,0            151.527932,-33.222302,0            151.527887,-33.222155,0            151.527813,-33.222008,0            151.527715,-33.221837,0            151.527701,-33.221779,0            151.527711,-33.221714,0            151.527788,-33.221616,0            151.527889,-33.221525,0            151.527877,-33.22147,0            151.527852,-33.221414,0            151.527739,-33.221342,0            151.527674,-33.221303,0            151.527631,-33.22124,0            151.527613,-33.221058,0            151.527608,-33.220877,0            151.527642,-33.220703,0            151.527635,-33.220596,0            151.527617,-33.220508,0            151.527294,-33.220183,0            151.527248,-33.220165,0            151.527203,-33.220159,0            151.527052,-33.220136,0            151.526996,-33.22011,0            151.526933,-33.220075,0            151.526809,-33.219986,0            151.526772,-33.219959,0            151.526696,-33.219926,0            151.526614,-33.219896,0            151.526525,-33.219882,0            151.526467,-33.219891,0            151.526396,-33.219908,0            151.526253,-33.219947,0            151.525974,-33.220006,0            151.525711,-33.220043,0            151.525551,-33.220117,0            151.525492,-33.22011,0            151.52543,-33.220092,0            151.525343,-33.220053,0            151.525256,-33.219994,0            151.525129,-33.21994,0            151.52495,-33.219894,0            151.524838,-33.219831,0            151.524717,-33.219789,0            151.524041,-33.219603,0            151.523922,-33.219539,0            151.523385,-33.219326,0            151.52285,-33.219082,0            151.522132,-33.218894,0            151.521763,-33.218846,0            151.521703,-33.218818,0            151.521638,-33.218764,0            151.521574,-33.218724,0            151.521463,-33.21869,0            151.521279,-33.218649,0            151.521076,-33.218591,0            151.52103,-33.218588,0            151.520982,-33.21859,0            151.520895,-33.21861,0            151.520842,-33.218642,0            151.520797,-33.218681,0            151.520724,-33.218723,0            151.520476,-33.218739,0            151.520377,-33.218749,0            151.520211,-33.218772,0            151.520141,-33.218782,0            151.520071,-33.218801,0            151.519951,-33.218879,0            151.519873,-33.218914,0            151.519763,-33.218942,0            151.519564,-33.218936,0            151.519225,-33.218952,0            151.51915,-33.218976,0            151.519072,-33.219001,0            151.519005,-33.219028,0            151.518926,-33.219043,0            151.518636,-33.219064,0            151.518345,-33.219094,0            151.517906,-33.219187,0            151.517795,-33.219224,0            151.517727,-33.219261,0            151.517674,-33.219322,0            151.517523,-33.219508,0            151.517387,-33.219618,0            151.517238,-33.219714,0            151.517139,-33.219811,0            151.516973,-33.219921,0            151.516866,-33.220062,0            151.516765,-33.220124,0            151.516487,-33.220234,0            151.5163,-33.22029,0            151.516188,-33.220315,0            151.515987,-33.220362,0            151.51582,-33.220393,0            151.515701,-33.220422,0            151.515637,-33.220431,0            151.515587,-33.220425,0            151.515527,-33.220395,0            151.515467,-33.220355,0            151.515406,-33.220321,0            151.515343,-33.220307,0            151.51526,-33.220316,0            151.515178,-33.220331,0            151.515061,-33.220367,0            151.514997,-33.220383,0            151.514934,-33.220389,0          </coordinates></LineString></Placemark><Placemark><name>Start / Finish</name><styleUrl>#icon-1899-FFD600-nodesc</styleUrl><Point><coordinates>            151.530082,-33.229519,0          </coordinates></Point></Placemark></Folder></Document></kml>