<?xml version="1.0" encoding="UTF-8"?><kml xmlns="http://www.opengis.net/kml/2.2"><Document><name>St George parkrun (from June 2023)</name><description/><Style id="icon-1899-FFD600-nodesc-normal"><IconStyle><color>ff00d6ff</color><scale>1</scale><Icon><href>https://www.gstatic.com/mapspro/images/stock/503-wht-blank_maps.png</href></Icon><hotSpot x="32" xunits="pixels" y="64" yunits="insetPixels"/></IconStyle><LabelStyle><scale>0</scale></LabelStyle><BalloonStyle><text><![CDATA[<h3>$[name]</h3>]]></text></BalloonStyle></Style><Style id="icon-1899-FFD600-nodesc-highlight"><IconStyle><color>ff00d6ff</color><scale>1</scale><Icon><href>https://www.gstatic.com/mapspro/images/stock/503-wht-blank_maps.png</href></Icon><hotSpot x="32" xunits="pixels" y="64" yunits="insetPixels"/></IconStyle><LabelStyle><scale>1</scale></LabelStyle><BalloonStyle><text><![CDATA[<h3>$[name]</h3>]]></text></BalloonStyle></Style><StyleMap id="icon-1899-FFD600-nodesc"><Pair><key>normal</key><styleUrl>#icon-1899-FFD600-nodesc-normal</styleUrl></Pair><Pair><key>highlight</key><styleUrl>#icon-1899-FFD600-nodesc-highlight</styleUrl></Pair></StyleMap><Style id="line-0288D1-7000-nodesc-normal"><LineStyle><color>ffd18802</color><width>7</width></LineStyle><BalloonStyle><text><![CDATA[<h3>$[name]</h3>]]></text></BalloonStyle></Style><Style id="line-0288D1-7000-nodesc-highlight"><LineStyle><color>ffd18802</color><width>10.5</width></LineStyle><BalloonStyle><text><![CDATA[<h3>$[name]</h3>]]></text></BalloonStyle></Style><StyleMap id="line-0288D1-7000-nodesc"><Pair><key>normal</key><styleUrl>#line-0288D1-7000-nodesc-normal</styleUrl></Pair><Pair><key>highlight</key><styleUrl>#line-0288D1-7000-nodesc-highlight</styleUrl></Pair></StyleMap><Folder><name>Untitled layer</name><Placemark><name>Course</name><styleUrl>#line-0288D1-7000-nodesc</styleUrl><LineString><tessellate>1</tessellate><coordinates>            148.569886,-28.041936,0            148.57039,-28.041349,0            148.570664,-28.04116,0            148.571184,-28.040885,0            148.571554,-28.040596,0            148.571758,-28.040213,0            148.572171,-28.039843,0            148.573174,-28.039034,0            148.573722,-28.038489,0            148.574558,-28.037964,0            148.575272,-28.037376,0            148.575894,-28.036808,0            148.576924,-28.035975,0            148.57951,-28.034564,0            148.580695,-28.033892,0            148.581629,-28.03339,0            148.582476,-28.032741,0            148.583404,-28.032182,0            148.584842,-28.031448,0            148.586548,-28.030757,0            148.58716,-28.030511,0            148.587626,-28.030222,0            148.587825,-28.02989,0            148.588152,-28.029403,0            148.588544,-28.029057,0            148.588801,-28.028868,0            148.58878,-28.028617,0            148.588753,-28.028404,0            148.588865,-28.028233,0          </coordinates></LineString></Placemark><Placemark><name>Start/Finish</name><styleUrl>#icon-1899-FFD600-nodesc</styleUrl><Point><coordinates>            148.569886,-28.041936,0          </coordinates></Point></Placemark></Folder></Document></kml>