<?xml version="1.0" encoding="UTF-8"?><kml xmlns="http://www.opengis.net/kml/2.2"><Document><name>Stanthorpe parkrun</name><description/><Style id="icon-503-F4EB37-nodesc-normal"><IconStyle><color>ff37ebf4</color><scale>1.1</scale><Icon><href>https://www.gstatic.com/mapspro/images/stock/503-wht-blank_maps.png</href></Icon><hotSpot x="16" xunits="pixels" y="32" yunits="insetPixels"/></IconStyle><LabelStyle><scale>0</scale></LabelStyle><BalloonStyle><text><![CDATA[<h3>$[name]</h3>]]></text></BalloonStyle></Style><Style id="icon-503-F4EB37-nodesc-highlight"><IconStyle><color>ff37ebf4</color><scale>1.1</scale><Icon><href>https://www.gstatic.com/mapspro/images/stock/503-wht-blank_maps.png</href></Icon><hotSpot x="16" xunits="pixels" y="32" yunits="insetPixels"/></IconStyle><LabelStyle><scale>1.1</scale></LabelStyle><BalloonStyle><text><![CDATA[<h3>$[name]</h3>]]></text></BalloonStyle></Style><StyleMap id="icon-503-F4EB37-nodesc"><Pair><key>normal</key><styleUrl>#icon-503-F4EB37-nodesc-normal</styleUrl></Pair><Pair><key>highlight</key><styleUrl>#icon-503-F4EB37-nodesc-highlight</styleUrl></Pair></StyleMap><Style id="line-4186F0-4314-nodesc-normal"><LineStyle><color>fff08641</color><width>4.314</width></LineStyle><BalloonStyle><text><![CDATA[<h3>$[name]</h3>]]></text></BalloonStyle></Style><Style id="line-4186F0-4314-nodesc-highlight"><LineStyle><color>fff08641</color><width>6.471</width></LineStyle><BalloonStyle><text><![CDATA[<h3>$[name]</h3>]]></text></BalloonStyle></Style><StyleMap id="line-4186F0-4314-nodesc"><Pair><key>normal</key><styleUrl>#line-4186F0-4314-nodesc-normal</styleUrl></Pair><Pair><key>highlight</key><styleUrl>#line-4186F0-4314-nodesc-highlight</styleUrl></Pair></StyleMap><Folder><name>Untitled layer</name><Placemark><name>Course</name><styleUrl>#line-4186F0-4314-nodesc</styleUrl><LineString><tessellate>1</tessellate><coordinates>            151.9317341,-28.6518894,0            151.931659,-28.6524637,0            151.9316268,-28.6526897,0            151.931659,-28.6534335,0            151.9315517,-28.6538195,0            151.9314444,-28.6538571,0            151.9312781,-28.653843,0            151.9309965,-28.6536641,0            151.9308999,-28.6531181,0            151.930806,-28.652878,0            151.9307899,-28.6527273,0            151.9306344,-28.6525955,0            151.9305271,-28.6524755,0            151.9305083,-28.6523343,0            151.9306317,-28.652113,0            151.9307175,-28.6519341,0            151.9307578,-28.6517741,0            151.9307497,-28.6516117,0            151.9306505,-28.6514492,0            151.9305781,-28.6513857,0            151.930232,-28.6512751,0            151.9300389,-28.6512539,0            151.929819,-28.6513198,0            151.9296715,-28.6514163,0            151.9295615,-28.6514563,0            151.9294086,-28.6514798,0            151.9293228,-28.6515128,0            151.9290841,-28.6515669,0            151.9285181,-28.6516399,0            151.9277376,-28.6517152,0            151.9275391,-28.6517482,0            151.9273031,-28.6517835,0            151.92711,-28.65184,0            151.9269758,-28.6518659,0            151.9268766,-28.6518871,0            151.926721,-28.6519577,0            151.9265333,-28.6520024,0            151.9264072,-28.6520189,0            151.9262677,-28.6520165,0            151.9260719,-28.6520589,0            151.9260076,-28.6520754,0            151.9258198,-28.6520565,0            151.9257447,-28.6520565,0            151.925624,-28.6520801,0            151.9253317,-28.6520565,0            151.9252244,-28.6520612,0            151.9249508,-28.6521083,0            151.924763,-28.6521012,0            151.9242695,-28.652299,0            151.9240817,-28.6522943,0            151.9234756,-28.6524637,0            151.9231564,-28.6526002,0            151.9223034,-28.6526544,0            151.9223034,-28.6524472,0            151.9223598,-28.6523249,0            151.9225448,-28.6522072,0            151.9230437,-28.6520259,0            151.9231832,-28.6519741,0            151.9237116,-28.6518988,0            151.9239262,-28.6518588,0            151.9240764,-28.6518376,0            151.9244653,-28.6516117,0            151.9246799,-28.651541,0            151.9248891,-28.651534,0            151.9253504,-28.6516376,0            151.9255838,-28.6516658,0            151.9258547,-28.6516446,0            151.9262329,-28.6515505,0            151.926367,-28.6515034,0            151.9265896,-28.6514846,0            151.9272012,-28.6513881,0            151.9275767,-28.6513316,0            151.9276357,-28.6513292,0            151.9278046,-28.6512515,0            151.9278717,-28.6512351,0            151.9280541,-28.6512351,0            151.9281936,-28.6511997,0            151.9284484,-28.6510915,0            151.9287676,-28.6510774,0            151.9288641,-28.650689,0            151.9289795,-28.6504771,0            151.9291511,-28.6502747,0            151.9293845,-28.6501146,0            151.9302374,-28.6502206,0            151.9301328,-28.6503194,0            151.9300953,-28.6504348,0            151.9300228,-28.6504818,0            151.9298968,-28.6505148,0            151.9298002,-28.6506301,0            151.92976,-28.6508043,0            151.929878,-28.6509173,0            151.9299665,-28.6509526,0            151.930114,-28.6509432,0            151.9302079,-28.6510091,0            151.9302347,-28.6512798,0          </coordinates></LineString></Placemark><Placemark><name>Start / Finish</name><styleUrl>#icon-503-F4EB37-nodesc</styleUrl><Point><coordinates>            151.9317341,-28.6518894,0          </coordinates></Point></Placemark></Folder></Document></kml>