<?xml version="1.0" encoding="UTF-8"?><kml xmlns="http://www.opengis.net/kml/2.2"><Document><name>Stebonheath parkrun</name><description/><Style id="icon-1899-0F9D58-normal"><IconStyle><color>ff589d0f</color><scale>1</scale><Icon><href>https://www.gstatic.com/mapspro/images/stock/503-wht-blank_maps.png</href></Icon><hotSpot x="32" xunits="pixels" y="64" yunits="insetPixels"/></IconStyle><LabelStyle><scale>0</scale></LabelStyle></Style><Style id="icon-1899-0F9D58-highlight"><IconStyle><color>ff589d0f</color><scale>1</scale><Icon><href>https://www.gstatic.com/mapspro/images/stock/503-wht-blank_maps.png</href></Icon><hotSpot x="32" xunits="pixels" y="64" yunits="insetPixels"/></IconStyle><LabelStyle><scale>1</scale></LabelStyle></Style><StyleMap id="icon-1899-0F9D58"><Pair><key>normal</key><styleUrl>#icon-1899-0F9D58-normal</styleUrl></Pair><Pair><key>highlight</key><styleUrl>#icon-1899-0F9D58-highlight</styleUrl></Pair></StyleMap><Style id="icon-1899-FF5252-nodesc-normal"><IconStyle><color>ff5252ff</color><scale>1</scale><Icon><href>https://www.gstatic.com/mapspro/images/stock/503-wht-blank_maps.png</href></Icon><hotSpot x="32" xunits="pixels" y="64" yunits="insetPixels"/></IconStyle><LabelStyle><scale>0</scale></LabelStyle><BalloonStyle><text><![CDATA[<h3>$[name]</h3>]]></text></BalloonStyle></Style><Style id="icon-1899-FF5252-nodesc-highlight"><IconStyle><color>ff5252ff</color><scale>1</scale><Icon><href>https://www.gstatic.com/mapspro/images/stock/503-wht-blank_maps.png</href></Icon><hotSpot x="32" xunits="pixels" y="64" yunits="insetPixels"/></IconStyle><LabelStyle><scale>1</scale></LabelStyle><BalloonStyle><text><![CDATA[<h3>$[name]</h3>]]></text></BalloonStyle></Style><StyleMap id="icon-1899-FF5252-nodesc"><Pair><key>normal</key><styleUrl>#icon-1899-FF5252-nodesc-normal</styleUrl></Pair><Pair><key>highlight</key><styleUrl>#icon-1899-FF5252-nodesc-highlight</styleUrl></Pair></StyleMap><Style id="line-0288D1-5069-nodesc-normal"><LineStyle><color>ffd18802</color><width>5.069</width></LineStyle><BalloonStyle><text><![CDATA[<h3>$[name]</h3>]]></text></BalloonStyle></Style><Style id="line-0288D1-5069-nodesc-highlight"><LineStyle><color>ffd18802</color><width>7.6035</width></LineStyle><BalloonStyle><text><![CDATA[<h3>$[name]</h3>]]></text></BalloonStyle></Style><StyleMap id="line-0288D1-5069-nodesc"><Pair><key>normal</key><styleUrl>#line-0288D1-5069-nodesc-normal</styleUrl></Pair><Pair><key>highlight</key><styleUrl>#line-0288D1-5069-nodesc-highlight</styleUrl></Pair></StyleMap><Folder><name>Tracks</name><Placemark><name>Course</name><styleUrl>#line-0288D1-5069-nodesc</styleUrl><LineString><tessellate>1</tessellate><coordinates>            138.664055,-34.676213,0            138.664107,-34.676181,0            138.664156,-34.676152,0            138.664236,-34.676104,0            138.664299,-34.676064,0            138.664352,-34.676031,0            138.664414,-34.675988,0            138.664468,-34.675952,0            138.664524,-34.675912,0            138.664584,-34.675868,0            138.664645,-34.675825,0            138.664693,-34.675791,0            138.664749,-34.675753,0            138.664823,-34.675697,0            138.664855,-34.67567,0            138.664916,-34.675621,0            138.664967,-34.675566,0            138.665013,-34.67552,0            138.665055,-34.675477,0            138.665112,-34.675407,0            138.665134,-34.675362,0            138.665156,-34.675333,0            138.665192,-34.675288,0            138.665242,-34.675229,0            138.6653,-34.67517,0            138.66534,-34.675133,0            138.665437,-34.67511,0            138.6655,-34.675106,0            138.66556,-34.675106,0            138.66563,-34.675102,0            138.6657,-34.6751,0            138.66577,-34.6751,0            138.66585,-34.675102,0            138.66591,-34.675102,0            138.666,-34.675106,0            138.66609,-34.67512,0            138.66615,-34.675144,0            138.66623,-34.67518,0            138.66629,-34.6752,0            138.66637,-34.67522,0            138.66644,-34.675236,0            138.66652,-34.67524,0            138.6666,-34.67525,0            138.66666,-34.675262,0            138.666733,-34.675281,0            138.666804,-34.675314,0            138.666845,-34.675338,0            138.666903,-34.675387,0            138.666955,-34.675432,0            138.667,-34.675472,0            138.667057,-34.675502,0            138.667132,-34.675537,0            138.667202,-34.675558,0            138.667288,-34.675571,0            138.667372,-34.675587,0            138.667449,-34.675605,0            138.66751,-34.675621,0            138.667591,-34.675642,0            138.667659,-34.675663,0            138.667715,-34.675676,0            138.667805,-34.675694,0            138.6679,-34.675694,0            138.66795,-34.675686,0            138.66803,-34.67569,0            138.668095,-34.675698,0            138.668149,-34.675721,0            138.668195,-34.675752,0            138.668254,-34.675799,0            138.668313,-34.675835,0            138.668374,-34.675871,0            138.668429,-34.675904,0            138.668492,-34.675943,0            138.668529,-34.675965,0            138.66856,-34.675987,0            138.66862,-34.676018,0            138.668685,-34.676047,0            138.668745,-34.676076,0            138.6688,-34.676105,0            138.66885,-34.67614,0            138.6689,-34.676178,0            138.668953,-34.676225,0            138.668964,-34.67626,0            138.668973,-34.676295,0            138.66898,-34.67637,0            138.668984,-34.676405,0            138.668986,-34.676442,0            138.66899,-34.6765,0            138.668989,-34.676543,0            138.668984,-34.67658,0            138.668975,-34.676635,0            138.668962,-34.676676,0            138.668943,-34.676713,0            138.6689,-34.67676,0            138.66884,-34.676792,0            138.66876,-34.67681,0            138.668701,-34.676818,0            138.668643,-34.676818,0            138.668584,-34.676816,0            138.66852,-34.676807,0            138.66844,-34.676796,0            138.66837,-34.676785,0            138.66829,-34.676765,0            138.66821,-34.676746,0            138.66814,-34.67673,0            138.66806,-34.676716,0            138.668009,-34.676701,0            138.66795,-34.67668,0            138.66788,-34.67665,0            138.66782,-34.676617,0            138.66776,-34.67658,0            138.6677,-34.676548,0            138.66763,-34.676517,0            138.66757,-34.67648,0            138.66751,-34.676445,0            138.66743,-34.676414,0            138.667386,-34.6764,0            138.667334,-34.676379,0            138.6673,-34.67636,0            138.667268,-34.676338,0            138.6672,-34.676292,0            138.66714,-34.676258,0            138.66708,-34.676212,0            138.667006,-34.676166,0            138.666969,-34.676141,0            138.666917,-34.676104,0            138.66687,-34.676075,0            138.6668,-34.676044,0            138.66675,-34.67602,0            138.66669,-34.676003,0            138.66661,-34.676,0            138.66653,-34.676,0            138.666469,-34.675999,0            138.66641,-34.675996,0            138.666342,-34.675995,0            138.66628,-34.675995,0            138.66621,-34.675995,0            138.66614,-34.67599,0            138.66608,-34.675983,0            138.666,-34.675976,0            138.66592,-34.675972,0            138.66586,-34.675964,0            138.665823,-34.675958,0            138.665787,-34.675949,0            138.665727,-34.67593,0            138.66565,-34.675907,0            138.6656,-34.67589,0            138.66551,-34.67586,0            138.66547,-34.67584,0            138.665417,-34.675798,0            138.665378,-34.675773,0            138.665337,-34.675751,0            138.665279,-34.675728,0            138.66519,-34.67572,0            138.66512,-34.67572,0            138.66505,-34.675724,0            138.66501,-34.675724,0            138.664927,-34.675724,0            138.664847,-34.675734,0            138.664766,-34.675769,0            138.664711,-34.675797,0            138.664651,-34.675842,0            138.66461,-34.675873,0            138.664553,-34.675912,0            138.664486,-34.675958,0            138.664438,-34.675994,0            138.664382,-34.676031,0            138.66434,-34.67606,0            138.66428,-34.676105,0            138.66422,-34.67614,0            138.664156,-34.676172,0            138.664104,-34.676207,0            138.66405,-34.676247,0            138.664006,-34.676286,0            138.664061,-34.676295,0            138.664151,-34.676284,0            138.664188,-34.676277,0            138.664255,-34.67626,0            138.66432,-34.676243,0            138.6644,-34.67622,0            138.66447,-34.676197,0            138.66455,-34.67617,0            138.66461,-34.676155,0            138.66469,-34.676136,0            138.664772,-34.676117,0            138.664827,-34.676109,0            138.664865,-34.676102,0            138.664943,-34.676099,0            138.665001,-34.676097,0            138.665077,-34.676095,0            138.665151,-34.676099,0            138.665238,-34.676107,0            138.665303,-34.676122,0            138.66536,-34.676136,0            138.66545,-34.676155,0            138.6655,-34.676174,0            138.66556,-34.676205,0            138.6656,-34.676235,0            138.66566,-34.67628,0            138.66571,-34.67633,0            138.665751,-34.67638,0            138.665787,-34.676415,0            138.66582,-34.67645,0            138.66586,-34.676487,0            138.66592,-34.676506,0            138.66597,-34.676517,0            138.66605,-34.67651,0            138.66612,-34.676495,0            138.666201,-34.676484,0            138.666267,-34.676467,0            138.66634,-34.67645,0            138.6664,-34.676437,0            138.66644,-34.676434,0            138.666521,-34.676428,0            138.6666,-34.676422,0            138.66669,-34.676422,0            138.66676,-34.676434,0            138.66684,-34.676456,0            138.66692,-34.676476,0            138.66699,-34.676502,0            138.667061,-34.676548,0            138.667097,-34.676561,0            138.667167,-34.67658,0            138.66726,-34.676585,0            138.667318,-34.676592,0            138.667375,-34.676598,0            138.667429,-34.676622,0            138.6675,-34.67667,0            138.667565,-34.676728,0            138.667603,-34.676763,0            138.667647,-34.676797,0            138.667692,-34.676842,0            138.667729,-34.676877,0            138.66777,-34.676918,0            138.667837,-34.676965,0            138.667888,-34.676996,0            138.66795,-34.67703,0            138.668011,-34.677052,0            138.66806,-34.677063,0            138.668149,-34.677077,0            138.668208,-34.67709,0            138.668301,-34.677107,0            138.66837,-34.677116,0            138.66843,-34.67712,0            138.6685,-34.677124,0            138.66856,-34.677128,0            138.66862,-34.67713,0            138.66869,-34.677135,0            138.668748,-34.677134,0            138.6688,-34.677135,0            138.668864,-34.67714,0            138.668902,-34.677142,0            138.668997,-34.677146,0            138.669064,-34.677151,0            138.669133,-34.677154,0            138.669191,-34.677156,0            138.66928,-34.677155,0            138.66933,-34.677147,0            138.6694,-34.677143,0            138.669457,-34.677137,0            138.669567,-34.677116,0            138.669635,-34.677093,0            138.669683,-34.677078,0            138.669751,-34.677052,0            138.66982,-34.67703,0            138.66988,-34.67701,0            138.66994,-34.676987,0            138.669976,-34.676975,0            138.670035,-34.676955,0            138.670118,-34.676922,0            138.670157,-34.676908,0            138.670247,-34.676871,0            138.670301,-34.676845,0            138.670336,-34.67683,0            138.67038,-34.676807,0            138.67044,-34.676777,0            138.6705,-34.676743,0            138.670553,-34.676704,0            138.670615,-34.676659,0            138.670653,-34.676622,0            138.670692,-34.676575,0            138.670744,-34.676523,0            138.670779,-34.676481,0            138.670815,-34.676449,0            138.67079,-34.676487,0            138.670747,-34.676536,0            138.670719,-34.676569,0            138.670694,-34.676597,0            138.670643,-34.67665,0            138.670605,-34.676681,0            138.67055,-34.67672,0            138.6705,-34.676754,0            138.670425,-34.676797,0            138.67036,-34.676834,0            138.670317,-34.676854,0            138.670278,-34.676873,0            138.670248,-34.676888,0            138.670188,-34.676913,0            138.670132,-34.676934,0            138.670064,-34.676961,0            138.670025,-34.676974,0            138.669937,-34.677008,0            138.669886,-34.677026,0            138.669813,-34.67705,0            138.669728,-34.67708,0            138.669666,-34.6771,0            138.669592,-34.677125,0            138.669551,-34.677134,0            138.669456,-34.677154,0            138.669396,-34.677159,0            138.669329,-34.677165,0            138.669264,-34.677166,0            138.669217,-34.677167,0            138.669159,-34.677167,0            138.669112,-34.677165,0            138.669031,-34.67716,0            138.668983,-34.677158,0            138.668902,-34.677153,0            138.668843,-34.677149,0            138.668781,-34.677147,0            138.668726,-34.677146,0            138.668661,-34.677145,0            138.668593,-34.677143,0            138.668503,-34.677138,0            138.668429,-34.677134,0            138.668377,-34.67713,0            138.668315,-34.677122,0            138.66825,-34.67711,0            138.6682,-34.677102,0            138.668121,-34.677086,0            138.668059,-34.677075,0            138.66802,-34.677068,0            138.667956,-34.677041,0            138.667876,-34.677002,0            138.667842,-34.676976,0            138.667779,-34.676934,0            138.66773,-34.676889,0            138.667697,-34.676861,0            138.667658,-34.676825,0            138.667622,-34.67679,0            138.667568,-34.676743,0            138.667544,-34.676719,0            138.667519,-34.676697,0            138.667461,-34.676655,0            138.667378,-34.676612,0            138.667325,-34.676606,0            138.66728,-34.6766,0            138.66716,-34.676593,0            138.66712,-34.676583,0            138.667054,-34.676556,0            138.667005,-34.676529,0            138.666953,-34.676502,0            138.6669,-34.676487,0            138.66684,-34.67647,0            138.666784,-34.676453,0            138.666722,-34.676438,0            138.666649,-34.676435,0            138.666583,-34.676437,0            138.666524,-34.676441,0            138.666466,-34.676446,0            138.666394,-34.676453,0            138.66629,-34.676476,0            138.666253,-34.676484,0            138.666175,-34.676506,0            138.666102,-34.676518,0            138.666045,-34.676528,0            138.665973,-34.676532,0            138.665884,-34.676509,0            138.665854,-34.676496,0            138.6658,-34.676457,0            138.665753,-34.676407,0            138.665702,-34.676349,0            138.665665,-34.676309,0            138.665605,-34.676253,0            138.665543,-34.676213,0            138.665488,-34.676187,0            138.665434,-34.676167,0            138.665385,-34.676152,0            138.665338,-34.676141,0            138.665255,-34.676121,0            138.665197,-34.676114,0            138.665123,-34.676109,0            138.665065,-34.676108,0            138.664999,-34.67611,0            138.664937,-34.676113,0            138.664863,-34.676116,0            138.66479,-34.676129,0            138.664705,-34.676149,0            138.664647,-34.676163,0            138.664571,-34.676185,0            138.664506,-34.676201,0            138.664446,-34.676217,0            138.664375,-34.676236,0            138.664317,-34.676252,0            138.664245,-34.676269,0            138.664179,-34.676283,0            138.66411,-34.676292,0            138.66405,-34.6763,0            138.663995,-34.676289,0            138.663994,-34.676273,0            138.66403,-34.67625,0            138.66409,-34.67621,0            138.664137,-34.676175,0            138.6642,-34.676144,0            138.66426,-34.67611,0            138.664309,-34.676074,0            138.66437,-34.676033,0            138.66443,-34.67599,0            138.66449,-34.67595,0            138.664548,-34.67591,0            138.664596,-34.675877,0            138.66464,-34.675846,0            138.664681,-34.675813,0            138.66472,-34.675785,0            138.66476,-34.675755,0            138.664807,-34.675721,0            138.664862,-34.675676,0            138.664919,-34.675628,0            138.664964,-34.67558,0            138.665001,-34.675544,0            138.66505,-34.67549,0            138.665092,-34.675445,0            138.665128,-34.675396,0            138.665141,-34.675365,0            138.665168,-34.675332,0            138.665208,-34.675284,0            138.665226,-34.675262,0            138.665255,-34.675235,0            138.6653,-34.675186,0            138.665346,-34.675145,0            138.665398,-34.67513,0            138.665483,-34.675121,0            138.66554,-34.67512,0            138.6656,-34.67512,0            138.66566,-34.675117,0            138.66576,-34.675114,0            138.665819,-34.675112,0            138.665899,-34.675112,0            138.665969,-34.675114,0            138.66602,-34.675117,0            138.66609,-34.675133,0            138.666161,-34.675163,0            138.666225,-34.675191,0            138.666295,-34.675212,0            138.666374,-34.675233,0            138.666461,-34.675249,0            138.666518,-34.675252,0            138.6666,-34.675262,0            138.666645,-34.675269,0            138.666723,-34.675289,0            138.66678,-34.675316,0            138.666831,-34.675344,0            138.6669,-34.6754,0            138.66695,-34.67544,0            138.66699,-34.675476,0            138.66704,-34.675507,0            138.6671,-34.675537,0            138.66716,-34.675556,0            138.667245,-34.675579,0            138.6673,-34.675588,0            138.667369,-34.6756,0            138.667467,-34.675622,0            138.667527,-34.675636,0            138.667572,-34.675648,0            138.66765,-34.67567,0            138.66771,-34.675686,0            138.66776,-34.6757,0            138.667825,-34.675708,0            138.667905,-34.675702,0            138.667949,-34.675698,0            138.668045,-34.6757,0            138.6681,-34.67571,0            138.66814,-34.675735,0            138.6682,-34.675774,0            138.668252,-34.675814,0            138.66829,-34.675842,0            138.668365,-34.675883,0            138.66842,-34.675914,0            138.668477,-34.675948,0            138.668522,-34.675974,0            138.668561,-34.675997,0            138.668603,-34.676019,0            138.66864,-34.67604,0            138.6687,-34.676067,0            138.66876,-34.676098,0            138.66882,-34.676132,0            138.668877,-34.676173,0            138.668941,-34.676228,0            138.668961,-34.676284,0            138.668966,-34.676325,0            138.66897,-34.676384,0            138.668971,-34.67643,0            138.668976,-34.676467,0            138.668975,-34.676501,0            138.668973,-34.676543,0            138.668962,-34.676613,0            138.668944,-34.676683,0            138.66891,-34.676727,0            138.66885,-34.676773,0            138.66881,-34.676792,0            138.66873,-34.676804,0            138.66867,-34.676807,0            138.6686,-34.676807,0            138.66855,-34.676804,0            138.668473,-34.676793,0            138.668385,-34.676776,0            138.668331,-34.676765,0            138.668285,-34.676754,0            138.668216,-34.676739,0            138.66815,-34.676725,0            138.668066,-34.676706,0            138.667995,-34.676684,0            138.667955,-34.676671,0            138.667895,-34.676646,0            138.667818,-34.676606,0            138.667777,-34.676581,0            138.667727,-34.676552,0            138.667671,-34.676527,0            138.667617,-34.676497,0            138.667577,-34.676472,0            138.667517,-34.676437,0            138.667436,-34.676408,0            138.66739,-34.676395,0            138.66733,-34.67637,0            138.66727,-34.67633,0            138.667201,-34.676283,0            138.66714,-34.67625,0            138.66709,-34.676209,0            138.66705,-34.676178,0            138.66699,-34.67614,0            138.66695,-34.676113,0            138.666875,-34.676069,0            138.666812,-34.67604,0            138.66675,-34.676008,0            138.666698,-34.675995,0            138.666641,-34.675992,0            138.66655,-34.67599,0            138.66647,-34.67599,0            138.66638,-34.67599,0            138.6663,-34.67599,0            138.66623,-34.67599,0            138.666153,-34.675983,0            138.666104,-34.675979,0            138.666033,-34.675974,0            138.665975,-34.675968,0            138.665915,-34.675966,0            138.665852,-34.675956,0            138.66577,-34.675934,0            138.66573,-34.675922,0            138.665653,-34.675899,0            138.665575,-34.675873,0            138.66551,-34.67585,0            138.66547,-34.675823,0            138.6654,-34.67578,0            138.66534,-34.675743,0            138.66528,-34.67572,0            138.665221,-34.675714,0            138.665151,-34.675714,0            138.665107,-34.675715,0            138.66504,-34.675716,0            138.66498,-34.675716,0            138.66492,-34.675716,0            138.66486,-34.675724,0            138.6648,-34.67575,0            138.66473,-34.67578,0            138.664685,-34.675804,0            138.664641,-34.675838,0            138.664583,-34.675881,0            138.66454,-34.67591,0            138.664486,-34.675946,0            138.664422,-34.67599,0            138.66438,-34.676018,0            138.664337,-34.676049,0            138.66429,-34.67608,0            138.66423,-34.676113,0            138.66418,-34.676144,0            138.66412,-34.67618,0            138.66406,-34.67622,0            138.66402,-34.676247,0            138.66397,-34.676277,0            138.66402,-34.676308,0            138.664099,-34.676298,0            138.66417,-34.67629,0            138.664245,-34.676274,0            138.66429,-34.676262,0            138.664369,-34.676242,0            138.664435,-34.676228,0            138.664486,-34.676215,0            138.664561,-34.676196,0            138.66463,-34.676178,0            138.6647,-34.67616,0            138.66476,-34.676147,0            138.66481,-34.676136,0            138.66487,-34.676125,0            138.664935,-34.676121,0            138.66501,-34.676117,0            138.665079,-34.676117,0            138.66513,-34.67612,0            138.665168,-34.676123,0            138.665208,-34.676129,0            138.665255,-34.676133,0            138.6653,-34.676142,0            138.665387,-34.676162,0            138.665457,-34.676184,0            138.665515,-34.676211,0            138.665573,-34.676243,0            138.665606,-34.676273,0            138.66564,-34.676312,0            138.66568,-34.676353,0            138.66571,-34.67639,0            138.665756,-34.676435,0            138.66579,-34.676464,0            138.665845,-34.676505,0            138.665907,-34.676529,0            138.665974,-34.676542,0            138.666035,-34.67654,0            138.6661,-34.67653,0            138.66618,-34.676517,0            138.66626,-34.6765,0            138.66634,-34.676476,0            138.666381,-34.676468,0            138.666465,-34.676458,0            138.66652,-34.676453,0            138.666586,-34.676448,0            138.666666,-34.676446,0            138.666731,-34.676448,0            138.666821,-34.676473,0            138.666855,-34.676485,0            138.666903,-34.676496,0            138.666946,-34.676514,0            138.667013,-34.676545,0            138.667062,-34.676569,0            138.66711,-34.676592,0            138.66715,-34.676605,0            138.667229,-34.676609,0            138.667323,-34.676617,0            138.667374,-34.676621,0            138.667424,-34.676644,0            138.667497,-34.676694,0            138.667528,-34.676717,0            138.667541,-34.676729,0            138.667598,-34.676787,0            138.667655,-34.676832,0            138.667703,-34.676878,0            138.667758,-34.676926,0            138.667787,-34.676948,0            138.667824,-34.676978,0            138.667862,-34.677006,0            138.667893,-34.677024,0            138.66795,-34.677048,0            138.66801,-34.677074,0            138.66806,-34.677082,0            138.66814,-34.677097,0            138.6682,-34.67711,0            138.66824,-34.67712,0            138.66833,-34.677135,0            138.668407,-34.677144,0            138.668469,-34.677148,0            138.668541,-34.677153,0            138.668613,-34.677156,0            138.66867,-34.677159,0            138.66872,-34.677162,0            138.66878,-34.677162,0            138.668847,-34.677164,0            138.668906,-34.677169,0            138.668993,-34.677174,0            138.669069,-34.677174,0            138.669139,-34.677178,0            138.669203,-34.677177,0            138.669287,-34.677175,0            138.66934,-34.677174,0            138.66942,-34.67717,0            138.669509,-34.677161,0            138.669558,-34.677151,0            138.66962,-34.677135,0            138.6697,-34.67711,0            138.66977,-34.677086,0            138.66982,-34.677067,0            138.66989,-34.67704,0            138.669965,-34.677012,0            138.67001,-34.676994,0            138.67007,-34.67697,0            138.67012,-34.676952,0            138.67018,-34.676926,0            138.67027,-34.67689,0            138.67033,-34.676865,0            138.670395,-34.67683,0            138.67044,-34.676804,0            138.67052,-34.67677,0            138.67058,-34.676723,0            138.67062,-34.676678,0            138.670686,-34.67662,0            138.670713,-34.676591,0            138.67076,-34.676544,0            138.6708,-34.676506,0            138.67084,-34.676464,0            138.670801,-34.676521,0            138.670749,-34.676568,0            138.670711,-34.676611,0            138.67067,-34.676651,0            138.67063,-34.676687,0            138.670592,-34.676726,0            138.670542,-34.676768,0            138.670479,-34.676799,0            138.670422,-34.67683,0            138.670344,-34.676864,0            138.670297,-34.676885,0            138.670223,-34.676918,0            138.670157,-34.676947,0            138.670106,-34.676968,0            138.67005,-34.676991,0            138.670005,-34.677009,0            138.669939,-34.677034,0            138.669893,-34.677051,0            138.669838,-34.677074,0            138.669761,-34.677098,0            138.669693,-34.677122,0            138.669634,-34.677141,0            138.669569,-34.67716,0            138.669492,-34.677176,0            138.669423,-34.677181,0            138.669343,-34.677187,0            138.669284,-34.677188,0            138.669223,-34.67719,0            138.66914,-34.677189,0            138.669077,-34.677188,0            138.668991,-34.677187,0            138.668912,-34.677183,0            138.668845,-34.677179,0            138.668765,-34.677175,0            138.668671,-34.677174,0            138.668596,-34.677171,0            138.668497,-34.677162,0            138.668429,-34.677158,0            138.668345,-34.677151,0            138.668267,-34.677136,0            138.668197,-34.677124,0            138.668119,-34.677109,0            138.668041,-34.677094,0            138.667973,-34.677073,0            138.667901,-34.677047,0            138.667847,-34.677011,0            138.667808,-34.676984,0            138.667767,-34.676948,0            138.667724,-34.67691,0            138.667683,-34.676872,0            138.667648,-34.676843,0            138.667591,-34.676798,0            138.66755,-34.67676,0            138.667518,-34.676722,0            138.667472,-34.676692,0            138.667426,-34.676662,0            138.667362,-34.676632,0            138.667303,-34.676627,0            138.66724,-34.676622,0            138.667141,-34.676617,0            138.667102,-34.676602,0            138.66703,-34.676565,0            138.666952,-34.676526,0            138.666892,-34.676502,0            138.666836,-34.676488,0            138.666786,-34.676473,0            138.666728,-34.676459,0            138.666666,-34.67646,0            138.666595,-34.676461,0            138.66653,-34.676465,0            138.666457,-34.676472,0            138.666405,-34.676478,0            138.666349,-34.676488,0            138.666253,-34.67651,0            138.666193,-34.676523,0            138.666135,-34.676534,0            138.666051,-34.676552,0            138.665972,-34.676555,0            138.665897,-34.676539,0            138.665838,-34.67652,0            138.665771,-34.676473,0            138.665737,-34.676438,0            138.66568,-34.676373,0            138.66565,-34.676334,0            138.665612,-34.676295,0            138.665565,-34.676251,0            138.665526,-34.676228,0            138.66549,-34.676209,0            138.665428,-34.676182,0            138.665368,-34.676167,0            138.665298,-34.676153,0            138.665222,-34.67614,0            138.665167,-34.676132,0            138.665098,-34.676128,0            138.665038,-34.676128,0            138.664977,-34.676129,0            138.664912,-34.676134,0            138.664849,-34.676142,0            138.664784,-34.676154,0            138.664745,-34.676161,0            138.664679,-34.676177,0            138.664619,-34.676194,0            138.664555,-34.67621,0            138.664454,-34.676233,0            138.664387,-34.676248,0            138.664317,-34.676262,0            138.664258,-34.676277,0            138.664188,-34.676293,0            138.664116,-34.676302,0            138.664054,-34.67631,0            138.664014,-34.676314,0            138.66397,-34.676313,0            138.663901,-34.676308,0            138.663863,-34.676313,0            138.66382,-34.67632,0            138.663771,-34.676333,0            138.66371,-34.676353,0          </coordinates></LineString></Placemark><Placemark><name>Start</name><description>Start of Stebonheath Parkrun Course</description><styleUrl>#icon-1899-0F9D58</styleUrl><Point><coordinates>            138.664055,-34.676213,0          </coordinates></Point></Placemark><Placemark><name>Finish</name><styleUrl>#icon-1899-FF5252-nodesc</styleUrl><Point><coordinates>            138.66371,-34.676353,0          </coordinates></Point></Placemark></Folder></Document></kml>