<?xml version="1.0" encoding="UTF-8"?><kml xmlns="http://www.opengis.net/kml/2.2"><Document><name>Tamworth Wetlands parkrun</name><description/><Style id="icon-1899-0F9D58-nodesc-normal"><IconStyle><color>ff589d0f</color><scale>1</scale><Icon><href>https://www.gstatic.com/mapspro/images/stock/503-wht-blank_maps.png</href></Icon><hotSpot x="32" xunits="pixels" y="64" yunits="insetPixels"/></IconStyle><LabelStyle><scale>0</scale></LabelStyle><BalloonStyle><text><![CDATA[<h3>$[name]</h3>]]></text></BalloonStyle></Style><Style id="icon-1899-0F9D58-nodesc-highlight"><IconStyle><color>ff589d0f</color><scale>1</scale><Icon><href>https://www.gstatic.com/mapspro/images/stock/503-wht-blank_maps.png</href></Icon><hotSpot x="32" xunits="pixels" y="64" yunits="insetPixels"/></IconStyle><LabelStyle><scale>1</scale></LabelStyle><BalloonStyle><text><![CDATA[<h3>$[name]</h3>]]></text></BalloonStyle></Style><StyleMap id="icon-1899-0F9D58-nodesc"><Pair><key>normal</key><styleUrl>#icon-1899-0F9D58-nodesc-normal</styleUrl></Pair><Pair><key>highlight</key><styleUrl>#icon-1899-0F9D58-nodesc-highlight</styleUrl></Pair></StyleMap><Style id="icon-1899-FF5252-nodesc-normal"><IconStyle><color>ff5252ff</color><scale>1</scale><Icon><href>https://www.gstatic.com/mapspro/images/stock/503-wht-blank_maps.png</href></Icon><hotSpot x="32" xunits="pixels" y="64" yunits="insetPixels"/></IconStyle><LabelStyle><scale>0</scale></LabelStyle><BalloonStyle><text><![CDATA[<h3>$[name]</h3>]]></text></BalloonStyle></Style><Style id="icon-1899-FF5252-nodesc-highlight"><IconStyle><color>ff5252ff</color><scale>1</scale><Icon><href>https://www.gstatic.com/mapspro/images/stock/503-wht-blank_maps.png</href></Icon><hotSpot x="32" xunits="pixels" y="64" yunits="insetPixels"/></IconStyle><LabelStyle><scale>1</scale></LabelStyle><BalloonStyle><text><![CDATA[<h3>$[name]</h3>]]></text></BalloonStyle></Style><StyleMap id="icon-1899-FF5252-nodesc"><Pair><key>normal</key><styleUrl>#icon-1899-FF5252-nodesc-normal</styleUrl></Pair><Pair><key>highlight</key><styleUrl>#icon-1899-FF5252-nodesc-highlight</styleUrl></Pair></StyleMap><Style id="line-0288D1-5000-nodesc-normal"><LineStyle><color>ffd18802</color><width>5</width></LineStyle><BalloonStyle><text><![CDATA[<h3>$[name]</h3>]]></text></BalloonStyle></Style><Style id="line-0288D1-5000-nodesc-highlight"><LineStyle><color>ffd18802</color><width>7.5</width></LineStyle><BalloonStyle><text><![CDATA[<h3>$[name]</h3>]]></text></BalloonStyle></Style><StyleMap id="line-0288D1-5000-nodesc"><Pair><key>normal</key><styleUrl>#line-0288D1-5000-nodesc-normal</styleUrl></Pair><Pair><key>highlight</key><styleUrl>#line-0288D1-5000-nodesc-highlight</styleUrl></Pair></StyleMap><Folder><name>Untitled layer</name><Placemark><name>Course</name><styleUrl>#line-0288D1-5000-nodesc</styleUrl><LineString><tessellate>1</tessellate><coordinates>            115.812115,-32.33239,0.6            115.812114,-32.332383,0.6            115.812112,-32.332356,1            115.812144,-32.332242,0            115.812154,-32.33218,0            115.812151,-32.332138,0            115.812153,-32.332124,0            115.812158,-32.332093,0            115.812163,-32.332061,0            115.81217,-32.332023,0            115.812177,-32.331988,0            115.812183,-32.33197,0            115.812188,-32.331942,0            115.812195,-32.331919,0            115.812203,-32.331897,0            115.812215,-32.331858,0            115.812281,-32.331668,0            115.812294,-32.331628,0            115.812315,-32.33159,0            115.812359,-32.331527,0            115.812371,-32.331513,0            115.812386,-32.331498,0            115.812422,-32.331452,0            115.812433,-32.331413,0            115.812427,-32.331358,0            115.812399,-32.331291,0            115.812357,-32.331284,0            115.812205,-32.331343,0            115.812187,-32.331353,0            115.811989,-32.331426,0            115.811842,-32.3315,0            115.811768,-32.331534,0            115.811621,-32.331607,0            115.811512,-32.331696,0            115.811343,-32.331831,0            115.811153,-32.33193,0            115.810948,-32.332001,0            115.810782,-32.33203,0            115.810667,-32.332179,0            115.810695,-32.332262,0            115.810726,-32.332359,0            115.810728,-32.332372,0            115.810752,-32.332436,0            115.810741,-32.332519,0            115.810734,-32.332534,0            115.810724,-32.332548,0            115.810707,-32.332567,0            115.810689,-32.332585,0            115.810674,-32.332601,0            115.810661,-32.332613,0            115.810638,-32.332635,0            115.810626,-32.332644,0            115.810536,-32.332746,0            115.81054,-32.332755,0            115.810554,-32.33278,0            115.81058,-32.332816,0            115.810602,-32.332838,0            115.81062,-32.332862,0            115.810633,-32.332868,0            115.81066,-32.332887,0            115.810673,-32.33292,0            115.810689,-32.332974,0            115.810701,-32.333073,0            115.810739,-32.333186,0.2            115.810762,-32.33322,0.2            115.810772,-32.333236,0.2            115.810786,-32.333252,0.2            115.810796,-32.33327,0.2            115.81082,-32.333301,0.2            115.810835,-32.333318,0.2            115.810849,-32.333334,0.6            115.810866,-32.33335,0.6            115.810878,-32.333367,0.6            115.810909,-32.333395,1            115.810941,-32.333425,1.6            115.811023,-32.333497,2.6            115.81104,-32.333508,2.8            115.811127,-32.333569,3.6            115.811179,-32.333596,3.8            115.81126,-32.33364,4.2            115.811184,-32.333651,4.2            115.81109,-32.333615,4.2            115.811005,-32.33357,3.4            115.810857,-32.333436,2.8            115.810762,-32.333293,1.8            115.810743,-32.333265,1.6            115.810686,-32.333082,0.6            115.810679,-32.333063,0.4            115.810605,-32.332893,0            115.810597,-32.332863,0            115.810531,-32.332756,0            115.810505,-32.332715,0            115.810454,-32.332694,0            115.810433,-32.332693,0            115.810256,-32.332638,0            115.810092,-32.332512,0            115.809901,-32.332398,0            115.809681,-32.332327,0            115.809467,-32.332275,0            115.809259,-32.332221,0            115.809215,-32.332224,0            115.809154,-32.332222,0            115.808935,-32.332274,0            115.808859,-32.332282,0            115.80879,-32.332295,0            115.808731,-32.332301,0            115.808697,-32.332302,0            115.808634,-32.332313,0            115.808519,-32.33232,0            115.808302,-32.332277,0            115.808248,-32.33226,0            115.808222,-32.332247,0            115.808171,-32.332228,0            115.808084,-32.332174,0            115.80805,-32.332149,0            115.808012,-32.332124,0            115.807975,-32.3321,0            115.807949,-32.332072,0            115.807924,-32.332042,0            115.807895,-32.332013,0            115.807817,-32.331944,0            115.807748,-32.331852,0            115.80773,-32.331829,0            115.807707,-32.331805,0            115.807687,-32.331779,0            115.807571,-32.331624,0            115.807542,-32.33152,0            115.807531,-32.331462,0            115.807525,-32.331408,0            115.807511,-32.331322,0            115.807482,-32.331127,0            115.80747,-32.330993,0            115.807363,-32.33088,0            115.807282,-32.330782,0            115.807238,-32.330745,0            115.807143,-32.330658,0            115.807122,-32.330639,0            115.807103,-32.330621,0            115.806958,-32.330502,0            115.806897,-32.33045,0            115.806828,-32.330397,0            115.806734,-32.330337,0            115.806525,-32.33025,0            115.806402,-32.330204,0            115.806356,-32.330193,0            115.806198,-32.330137,0            115.806105,-32.330095,0            115.806002,-32.330039,0            115.80597,-32.330007,0            115.805957,-32.329994,0            115.805934,-32.329915,0            115.805937,-32.329896,0            115.80594,-32.329878,0            115.805939,-32.329858,0            115.805937,-32.329839,0            115.805938,-32.32982,0            115.80594,-32.329743,0            115.805935,-32.329686,0            115.805866,-32.329511,0            115.805862,-32.329503,0            115.805797,-32.329337,0            115.805759,-32.329262,0            115.805746,-32.329219,0            115.805745,-32.329161,0            115.805728,-32.329119,0            115.805667,-32.329027,0            115.805653,-32.329012,0            115.80562,-32.328997,0            115.805591,-32.328991,0            115.805477,-32.328981,0            115.805451,-32.328984,0            115.805384,-32.328996,0            115.805341,-32.328998,0            115.805297,-32.328971,0            115.805241,-32.328961,0            115.805188,-32.32895,0            115.804982,-32.32886,0            115.804818,-32.328745,0            115.804768,-32.328718,0            115.804737,-32.328676,0            115.804702,-32.328643,0            115.804633,-32.328605,0            115.804603,-32.328536,0            115.804692,-32.32849,0            115.804769,-32.328513,0            115.804783,-32.328527,0            115.804822,-32.328567,0            115.804961,-32.32873,0            115.805153,-32.328829,0            115.805196,-32.328842,0            115.805244,-32.328863,0            115.805271,-32.328868,0            115.805396,-32.328874,0            115.805422,-32.328872,0            115.805445,-32.328874,0            115.805468,-32.328874,0            115.80549,-32.32888,0            115.805512,-32.328884,0            115.805534,-32.32889,0            115.805608,-32.328918,0            115.80563,-32.328927,0            115.805651,-32.328938,0            115.805693,-32.328965,0            115.805787,-32.32908,0            115.805797,-32.329103,0            115.805814,-32.329144,0            115.805822,-32.329229,0            115.805836,-32.329295,0            115.805841,-32.329314,0            115.805843,-32.329334,0            115.805848,-32.329413,0            115.805874,-32.329593,0            115.805907,-32.329675,0            115.805927,-32.329713,0            115.805956,-32.329758,0            115.805973,-32.329777,0            115.80599,-32.329796,0            115.806011,-32.32983,0            115.806033,-32.329867,0            115.806127,-32.329975,0            115.806173,-32.330007,0            115.806186,-32.330012,0            115.806236,-32.330032,0            115.806318,-32.330049,0            115.806393,-32.330072,0            115.806519,-32.330145,0            115.806609,-32.330197,0            115.806632,-32.330204,0            115.806809,-32.330313,0            115.806829,-32.330327,0            115.806848,-32.330342,0            115.806865,-32.330357,0            115.807019,-32.33048,0            115.807075,-32.330515,0            115.807105,-32.330538,0            115.807226,-32.330648,0            115.807303,-32.330729,0            115.807429,-32.330892,0            115.807475,-32.330999,0            115.807493,-32.331114,0            115.807487,-32.331243,0            115.807486,-32.331351,0            115.807487,-32.331368,0            115.807491,-32.331396,0            115.807533,-32.331482,0            115.807559,-32.331508,0            115.807574,-32.331528,0            115.807593,-32.331546,0            115.807601,-32.331551,0            115.807607,-32.331555,0            115.807612,-32.331562,0            115.807619,-32.331571,0            115.807641,-32.331598,0            115.807652,-32.331614,0            115.807669,-32.331642,0            115.807698,-32.331694,0            115.80774,-32.331727,0            115.807776,-32.331771,0            115.807793,-32.331797,0            115.8078,-32.331813,0            115.807804,-32.331828,0            115.807811,-32.331836,0            115.807823,-32.33184,0            115.807856,-32.331868,0            115.807866,-32.331881,0            115.807895,-32.331912,0            115.807904,-32.331922,0            115.80794,-32.331945,0            115.807963,-32.331962,0            115.807976,-32.331972,0            115.807992,-32.33198,0            115.80816,-32.332096,0            115.808329,-32.332166,0            115.808432,-32.332184,0            115.808457,-32.332187,0            115.808485,-32.332191,0            115.808541,-32.332209,0            115.808758,-32.33223,0            115.808867,-32.332206,0            115.808936,-32.332193,0            115.808957,-32.33219,0            115.809024,-32.332177,0            115.80911,-32.33217,0            115.809136,-32.33217,0            115.809158,-32.332171,0            115.809178,-32.332177,0            115.809203,-32.332177,0            115.809261,-32.332188,0            115.809313,-32.332188,0            115.809455,-32.332216,0            115.809503,-32.332216,0            115.809584,-32.332231,0            115.809663,-32.332244,0            115.809772,-32.332278,0            115.809813,-32.33229,0            115.809863,-32.332294,0            115.810001,-32.332367,0            115.810029,-32.332376,0            115.810098,-32.332431,0            115.810156,-32.332468,0            115.810238,-32.332523,0            115.810264,-32.332538,0            115.81034,-32.332579,0            115.810387,-32.332584,0            115.810474,-32.332616,0            115.810572,-32.332782,0            115.81058,-32.3328,0            115.810596,-32.332831,0            115.810606,-32.332846,0            115.810616,-32.332862,0            115.810665,-32.332968,0            115.810668,-32.333025,0            115.810672,-32.333061,0            115.810677,-32.333093,0            115.810694,-32.333143,0            115.810724,-32.333194,0            115.810748,-32.333228,0            115.810757,-32.333241,0.2            115.810768,-32.333255,0.4            115.810857,-32.333355,1            115.810881,-32.333384,1.2            115.811007,-32.333501,2.6            115.811048,-32.333534,3.8            115.811142,-32.333596,4            115.811245,-32.333652,4.6            115.811236,-32.333652,4.6            115.811222,-32.333648,4.8            115.811145,-32.333625,4.8            115.811075,-32.333594,4.4            115.81106,-32.333587,4.4            115.811042,-32.33358,4.2            115.811008,-32.333561,4.2            115.810994,-32.33355,4            115.810953,-32.333522,3.6            115.81082,-32.333379,3.2            115.810785,-32.333323,2.4            115.810671,-32.333165,2            115.810655,-32.333112,1.2            115.810613,-32.332962,0.4            115.810579,-32.332896,0.2            115.810538,-32.332841,0            115.810519,-32.332802,0            115.810512,-32.332773,0            115.810508,-32.332746,0            115.810506,-32.332721,0            115.810512,-32.332695,0            115.810574,-32.332624,0            115.810597,-32.332611,0            115.810611,-32.332593,0            115.810649,-32.332523,0            115.810663,-32.332472,0            115.810677,-32.332393,0            115.810624,-32.332216,0            115.810683,-32.332054,0            115.810751,-32.332026,0            115.810898,-32.331985,0            115.81097,-32.331945,0            115.811067,-32.331922,0            115.811117,-32.331904,0            115.811147,-32.331888,0            115.811163,-32.331876,0            115.811345,-32.331766,0            115.811373,-32.33175,0            115.81144,-32.33171,0            115.811464,-32.331694,0            115.811524,-32.331664,0            115.81156,-32.331647,0            115.811599,-32.331618,0            115.811641,-32.331587,0            115.811702,-32.331555,0            115.811744,-32.331536,0            115.811765,-32.331525,0            115.811788,-32.331512,0            115.81181,-32.3315,0            115.81183,-32.331487,0            115.811852,-32.331478,0            115.811875,-32.331469,0            115.811899,-32.331457,0            115.811923,-32.331447,0            115.811949,-32.331435,0            115.811974,-32.331426,0            115.811995,-32.331417,0            115.812115,-32.331355,0            115.812162,-32.331334,0            115.812232,-32.331307,0            115.812372,-32.331245,0            115.812401,-32.331223,0            115.812495,-32.331044,0            115.81252,-32.330985,0            115.812541,-32.330924,0            115.812546,-32.330905,0            115.812553,-32.330885,0            115.812563,-32.330804,0            115.812569,-32.330718,0            115.812564,-32.330696,0            115.812557,-32.330679,0            115.812512,-32.330606,0            115.812481,-32.33057,0            115.812468,-32.33055,0            115.812452,-32.33053,0            115.812434,-32.330505,0            115.81242,-32.330487,0            115.812369,-32.330429,0            115.812325,-32.330346,0            115.812315,-32.330324,0            115.812298,-32.330299,0            115.812271,-32.330258,0            115.812226,-32.33017,0            115.812192,-32.33009,0            115.812129,-32.329956,0            115.812117,-32.329855,0            115.812112,-32.329793,0            115.812125,-32.329661,0            115.812127,-32.32964,0            115.812121,-32.329615,0            115.812122,-32.329592,0            115.812119,-32.329567,0            115.812123,-32.329462,0            115.81212,-32.329438,0            115.812112,-32.329389,0            115.812096,-32.329318,0            115.812046,-32.329196,0            115.812012,-32.329126,0            115.812,-32.329103,0            115.811989,-32.329078,0            115.811923,-32.328941,0            115.811908,-32.328896,0            115.811877,-32.328801,0            115.811871,-32.328763,0            115.81183,-32.328662,0            115.811817,-32.328624,0            115.811806,-32.328562,0            115.811788,-32.328494,0            115.811781,-32.328454,0            115.811675,-32.328302,0            115.811609,-32.328255,0            115.811593,-32.328255,0            115.811569,-32.328254,0            115.811543,-32.328261,0            115.811474,-32.328282,0            115.811441,-32.32828,0            115.811379,-32.328281,0            115.811278,-32.328301,0            115.811195,-32.328319,0            115.811124,-32.328307,0            115.810994,-32.328284,0            115.810957,-32.328269,0            115.810944,-32.328265,0            115.810914,-32.328241,0            115.810906,-32.328242,0            115.810903,-32.328242,0            115.810893,-32.328222,0            115.810885,-32.328214,0            115.810836,-32.328239,0            115.810812,-32.328248,0            115.81071,-32.328274,0            115.810476,-32.328287,0            115.810449,-32.328297,0            115.810236,-32.328336,0            115.810086,-32.328356,0            115.810046,-32.328365,0            115.809824,-32.328335,0            115.809701,-32.328291,0            115.809681,-32.328277,0            115.809646,-32.328218,0            115.809637,-32.328193,0            115.809632,-32.328167,0            115.809637,-32.328077,0            115.809649,-32.328006,0            115.809649,-32.327982,0            115.80965,-32.327961,0            115.809674,-32.327901,0            115.809696,-32.327863,0            115.809705,-32.327842,0            115.809714,-32.327821,0            115.809749,-32.327758,0            115.809789,-32.327689,0            115.809886,-32.327523,0            115.80991,-32.327482,0            115.809922,-32.327461,0            115.809942,-32.327422,0            115.809948,-32.327404,0            115.80996,-32.327388,0            115.809995,-32.327337,0            115.81006,-32.327218,0            115.810143,-32.327042,0            115.810171,-32.326957,0            115.810171,-32.326943,0            115.810149,-32.326882,0            115.81014,-32.326846,0            115.810129,-32.326803,0            115.810125,-32.326785,0            115.810121,-32.326742,0            115.810119,-32.326731,0            115.810117,-32.326704,0            115.810119,-32.326658,0            115.810119,-32.326582,0            115.810117,-32.326538,0            115.81012,-32.326458,0            115.810104,-32.326377,0            115.810108,-32.326346,0            115.81012,-32.326151,0            115.810126,-32.326067,0            115.810137,-32.325928,0            115.810136,-32.32588,0            115.810132,-32.325857,0            115.810127,-32.325818,0            115.810123,-32.325771,0            115.810124,-32.325586,0            115.810126,-32.325565,0            115.810128,-32.32552,0            115.810131,-32.325498,0            115.810141,-32.325345,0            115.81014,-32.325324,0            115.810139,-32.325306,0            115.81014,-32.325248,0            115.810139,-32.325228,0            115.810137,-32.325205,0            115.810142,-32.325158,0            115.810146,-32.325113,0            115.810148,-32.325089,0            115.810149,-32.325068,0            115.810149,-32.325029,0            115.810155,-32.324996,0            115.810173,-32.324923,0            115.810179,-32.324894,0            115.810222,-32.324805,0            115.810229,-32.324751,0            115.810219,-32.324713,0            115.810176,-32.324644,0            115.810165,-32.324604,0            115.81015,-32.324577,0            115.810144,-32.324558,0            115.810147,-32.324539,0            115.810149,-32.324505,0            115.810149,-32.324478,0            115.810141,-32.324458,0            115.810129,-32.324439,0            115.810111,-32.324383,0            115.810111,-32.324365,0            115.810111,-32.324342,0            115.810111,-32.324319,0            115.810117,-32.324292,0            115.810125,-32.324102,0            115.810132,-32.32408,0            115.810137,-32.324058,0            115.810155,-32.324024,0            115.810175,-32.323991,0            115.810195,-32.323933,0            115.810195,-32.323909,0            115.810191,-32.323881,0            115.810176,-32.323833,0            115.810164,-32.323814,0            115.810155,-32.323794,0            115.810144,-32.323775,0            115.810132,-32.323756,0            115.810125,-32.323739,0            115.810129,-32.323726,0            115.810157,-32.323738,0            115.810171,-32.323833,0            115.810169,-32.323846,0            115.810126,-32.323981,0            115.81012,-32.324015,0            115.810148,-32.324153,0            115.810162,-32.324226,0            115.810226,-32.324415,0            115.810252,-32.324521,0            115.810256,-32.324552,0            115.810264,-32.324571,0            115.810274,-32.324581,0            115.810293,-32.324613,0            115.810306,-32.324629,0            115.810314,-32.324653,0            115.810335,-32.3247,0            115.81031,-32.324786,0            115.810266,-32.324826,0            115.81022,-32.324894,0            115.810191,-32.324964,0            115.810186,-32.325104,0            115.810166,-32.325186,0            115.810155,-32.3253,0            115.810154,-32.325356,0            115.810151,-32.325378,0            115.810149,-32.325399,0            115.81015,-32.325441,0            115.810154,-32.325527,0            115.810156,-32.325549,0            115.810166,-32.325588,0            115.810171,-32.32561,0            115.810177,-32.325699,0            115.810166,-32.325821,0            115.810164,-32.325841,0            115.810165,-32.325885,0            115.810179,-32.326005,0            115.810207,-32.32611,0            115.810202,-32.326298,0            115.8102,-32.326318,0            115.810197,-32.326377,0            115.810181,-32.326513,0            115.810189,-32.326607,0            115.810213,-32.326696,0            115.810218,-32.32675,0            115.810211,-32.326937,0            115.810205,-32.327026,0            115.810175,-32.327088,0            115.810139,-32.327137,0            115.810106,-32.327181,0            115.810064,-32.327256,0            115.809958,-32.327432,0            115.80995,-32.327451,0            115.80988,-32.327555,0            115.809831,-32.327614,0            115.809751,-32.32773,0            115.809708,-32.3278,0            115.809687,-32.327835,0            115.809651,-32.328007,0            115.809633,-32.328134,0            115.809638,-32.328156,0            115.809649,-32.328177,0            115.809678,-32.328213,0            115.809706,-32.328233,0            115.809861,-32.328276,0            115.8101,-32.328254,0            115.810323,-32.328201,0            115.810471,-32.328175,0            115.810684,-32.32814,0            115.810765,-32.32812,0            115.810805,-32.328117,0            115.810842,-32.328121,0            115.810884,-32.328126,0            115.810931,-32.328133,0            115.81096,-32.328141,0            115.811005,-32.328131,0            115.811033,-32.328138,0            115.811089,-32.32817,0            115.81113,-32.328178,0            115.811301,-32.328188,0            115.811387,-32.328191,0            115.811614,-32.328193,0            115.811787,-32.328305,0            115.811789,-32.328498,0            115.811849,-32.328653,0            115.81186,-32.328673,0            115.811869,-32.328695,0            115.811879,-32.328714,0            115.811891,-32.328734,0            115.811899,-32.328756,0            115.811918,-32.328815,0            115.811925,-32.328836,0            115.811929,-32.328854,0            115.811944,-32.328897,0            115.811954,-32.328917,0            115.811962,-32.328937,0            115.811969,-32.328959,0            115.812007,-32.329041,0            115.812016,-32.329061,0            115.812034,-32.329103,0            115.812043,-32.329124,0            115.812094,-32.329314,0            115.8121,-32.329395,0            115.812097,-32.32948,0            115.812092,-32.329539,0            115.812085,-32.329618,0            115.812077,-32.329689,0            115.812082,-32.32979,0            115.812087,-32.329809,0            115.812167,-32.329899,0            115.812179,-32.329931,0            115.812186,-32.329975,0            115.81221,-32.330022,0            115.812234,-32.330098,0            115.812245,-32.330115,0            115.81228,-32.33016,0            115.812312,-32.330225,0            115.812326,-32.33025,0            115.812331,-32.330264,0            115.812366,-32.330357,0            115.812399,-32.330405,0            115.812428,-32.330442,0            115.812446,-32.330461,0            115.812538,-32.330633,0            115.812551,-32.330758,0            115.812552,-32.330824,0            115.812553,-32.330843,0            115.81255,-32.330862,0            115.812548,-32.330888,0            115.812543,-32.330913,0            115.812535,-32.330931,0            115.812518,-32.330975,0            115.812509,-32.330997,0            115.812489,-32.331036,0            115.812467,-32.331079,0            115.812418,-32.331174,0            115.812405,-32.331306,0            115.812416,-32.331348,0            115.812415,-32.331417,0            115.81241,-32.331439,0            115.812361,-32.331517,0            115.812335,-32.331555,0            115.812315,-32.331591,0            115.812276,-32.331654,0            115.812259,-32.331686,0            115.812239,-32.33172,0            115.812184,-32.331842,0            115.812151,-32.33194,0            115.812143,-32.332045,0            115.812125,-32.332145,0            115.812128,-32.332177,0            115.812123,-32.332186,0.2            115.812121,-32.332234,0.6            115.812122,-32.332278,0.8            115.812112,-32.332303,0.8          </coordinates></LineString></Placemark><Placemark><name>Finish</name><styleUrl>#icon-1899-FF5252-nodesc</styleUrl><Point><coordinates>            115.812112,-32.332303,0.8          </coordinates></Point></Placemark><Placemark><name>Start</name><styleUrl>#icon-1899-0F9D58-nodesc</styleUrl><Point><coordinates>            115.812115,-32.33239,0.6          </coordinates></Point></Placemark></Folder></Document></kml>