<?xml version="1.0" encoding="UTF-8"?><kml xmlns="http://www.opengis.net/kml/2.2"><Document><name>The Terrace parkrun Regular Course (from Jan 2024)</name><description/><Style id="icon-1899-0288D1-nodesc-normal"><IconStyle><color>ffd18802</color><scale>1</scale><Icon><href>https://www.gstatic.com/mapspro/images/stock/503-wht-blank_maps.png</href></Icon><hotSpot x="32" xunits="pixels" y="64" yunits="insetPixels"/></IconStyle><LabelStyle><scale>0</scale></LabelStyle><BalloonStyle><text><![CDATA[<h3>$[name]</h3>]]></text></BalloonStyle></Style><Style id="icon-1899-0288D1-nodesc-highlight"><IconStyle><color>ffd18802</color><scale>1</scale><Icon><href>https://www.gstatic.com/mapspro/images/stock/503-wht-blank_maps.png</href></Icon><hotSpot x="32" xunits="pixels" y="64" yunits="insetPixels"/></IconStyle><LabelStyle><scale>1</scale></LabelStyle><BalloonStyle><text><![CDATA[<h3>$[name]</h3>]]></text></BalloonStyle></Style><StyleMap id="icon-1899-0288D1-nodesc"><Pair><key>normal</key><styleUrl>#icon-1899-0288D1-nodesc-normal</styleUrl></Pair><Pair><key>highlight</key><styleUrl>#icon-1899-0288D1-nodesc-highlight</styleUrl></Pair></StyleMap><Style id="icon-1899-0F9D58-nodesc-normal"><IconStyle><color>ff589d0f</color><scale>1</scale><Icon><href>https://www.gstatic.com/mapspro/images/stock/503-wht-blank_maps.png</href></Icon><hotSpot x="32" xunits="pixels" y="64" yunits="insetPixels"/></IconStyle><LabelStyle><scale>0</scale></LabelStyle><BalloonStyle><text><![CDATA[<h3>$[name]</h3>]]></text></BalloonStyle></Style><Style id="icon-1899-0F9D58-nodesc-highlight"><IconStyle><color>ff589d0f</color><scale>1</scale><Icon><href>https://www.gstatic.com/mapspro/images/stock/503-wht-blank_maps.png</href></Icon><hotSpot x="32" xunits="pixels" y="64" yunits="insetPixels"/></IconStyle><LabelStyle><scale>1</scale></LabelStyle><BalloonStyle><text><![CDATA[<h3>$[name]</h3>]]></text></BalloonStyle></Style><StyleMap id="icon-1899-0F9D58-nodesc"><Pair><key>normal</key><styleUrl>#icon-1899-0F9D58-nodesc-normal</styleUrl></Pair><Pair><key>highlight</key><styleUrl>#icon-1899-0F9D58-nodesc-highlight</styleUrl></Pair></StyleMap><Style id="icon-1899-FF5252-nodesc-normal"><IconStyle><color>ff5252ff</color><scale>1</scale><Icon><href>https://www.gstatic.com/mapspro/images/stock/503-wht-blank_maps.png</href></Icon><hotSpot x="32" xunits="pixels" y="64" yunits="insetPixels"/></IconStyle><LabelStyle><scale>0</scale></LabelStyle><BalloonStyle><text><![CDATA[<h3>$[name]</h3>]]></text></BalloonStyle></Style><Style id="icon-1899-FF5252-nodesc-highlight"><IconStyle><color>ff5252ff</color><scale>1</scale><Icon><href>https://www.gstatic.com/mapspro/images/stock/503-wht-blank_maps.png</href></Icon><hotSpot x="32" xunits="pixels" y="64" yunits="insetPixels"/></IconStyle><LabelStyle><scale>1</scale></LabelStyle><BalloonStyle><text><![CDATA[<h3>$[name]</h3>]]></text></BalloonStyle></Style><StyleMap id="icon-1899-FF5252-nodesc"><Pair><key>normal</key><styleUrl>#icon-1899-FF5252-nodesc-normal</styleUrl></Pair><Pair><key>highlight</key><styleUrl>#icon-1899-FF5252-nodesc-highlight</styleUrl></Pair></StyleMap><Style id="line-0288D1-4294-nodesc-normal"><LineStyle><color>ffd18802</color><width>4.294</width></LineStyle><BalloonStyle><text><![CDATA[<h3>$[name]</h3>]]></text></BalloonStyle></Style><Style id="line-0288D1-4294-nodesc-highlight"><LineStyle><color>ffd18802</color><width>6.441</width></LineStyle><BalloonStyle><text><![CDATA[<h3>$[name]</h3>]]></text></BalloonStyle></Style><StyleMap id="line-0288D1-4294-nodesc"><Pair><key>normal</key><styleUrl>#line-0288D1-4294-nodesc-normal</styleUrl></Pair><Pair><key>highlight</key><styleUrl>#line-0288D1-4294-nodesc-highlight</styleUrl></Pair></StyleMap><Folder><name>Untitled layer</name><Placemark><name>Course</name><styleUrl>#line-0288D1-4294-nodesc</styleUrl><LineString><tessellate>1</tessellate><coordinates>            151.738701,-32.761861,0            151.738032,-32.762413,0            151.738131,-32.762471,0            151.738266,-32.762334,0            151.738464,-32.762171,0            151.738805,-32.76191,0            151.73889,-32.761889,0            151.738966,-32.761883,0            151.739153,-32.761763,0            151.73936,-32.761691,0            151.739558,-32.761596,0            151.739628,-32.76154,0            151.739733,-32.761414,0            151.739875,-32.761316,0            151.740103,-32.76119,0            151.74013,-32.761039,0            151.740178,-32.760924,0            151.740264,-32.760811,0            151.740336,-32.760771,0            151.740511,-32.760696,0            151.740712,-32.76064,0            151.74095,-32.760545,0            151.740953,-32.760491,0            151.740996,-32.760408,0            151.741141,-32.760367,0            151.74124,-32.760396,0            151.741326,-32.760378,0            151.741549,-32.76025,0            151.741811,-32.760053,0            151.742088,-32.759848,0            151.742318,-32.759706,0            151.742404,-32.759643,0            151.74245,-32.759566,0            151.742541,-32.759465,0            151.742702,-32.759334,0            151.742908,-32.75918,0            151.743204,-32.758928,0            151.743453,-32.758729,0            151.743684,-32.758481,0            151.743861,-32.75828,0            151.743989,-32.758064,0            151.74411,-32.757829,0            151.744207,-32.757617,0            151.744255,-32.757435,0            151.744325,-32.757146,0            151.74437,-32.756866,0            151.744443,-32.756596,0            151.744512,-32.756336,0            151.744601,-32.756052,0            151.744673,-32.755874,0            151.744824,-32.755587,0            151.744979,-32.755382,0            151.745183,-32.755179,0            151.745352,-32.75501,0            151.745449,-32.754963,0            151.745467,-32.75499,0            151.745223,-32.755184,0            151.745065,-32.755326,0            151.744936,-32.755486,0            151.744724,-32.755835,0            151.744633,-32.756025,0            151.744448,-32.756706,0            151.744236,-32.757608,0            151.744142,-32.75782,0            151.743906,-32.758265,0            151.74363,-32.75859,0            151.743456,-32.758756,0            151.742954,-32.759176,0            151.742766,-32.759307,0            151.742592,-32.75946,0            151.74246,-32.759593,0            151.742431,-32.759663,0            151.742037,-32.759923,0            151.741618,-32.760218,0            151.741404,-32.760344,0            151.74127,-32.760408,0            151.741162,-32.760394,0            151.74106,-32.760408,0            151.740993,-32.760444,0            151.740964,-32.7605,0            151.740956,-32.760572,0            151.740441,-32.760746,0            151.740312,-32.760804,0            151.740245,-32.76087,0            151.740165,-32.761014,0            151.740119,-32.761199,0            151.739827,-32.761373,0            151.739719,-32.761456,0            151.739663,-32.761528,0            151.739582,-32.761596,0            151.739456,-32.761664,0            151.739218,-32.761756,0            151.739151,-32.761781,0            151.73899,-32.761889,0            151.738917,-32.76191,0            151.738815,-32.761925,0            151.738287,-32.762336,0            151.73814,-32.762451,0            151.738072,-32.762408,0            151.738282,-32.762223,0            151.738528,-32.762027,0            151.738751,-32.761853,0            151.738807,-32.761817,0            151.738888,-32.76182,0            151.738869,-32.761865,0            151.73878,-32.761887,0            151.738695,-32.761894,0            151.739176,-32.761559,0          </coordinates></LineString></Placemark><Placemark><name>Turnaround</name><styleUrl>#icon-1899-0288D1-nodesc</styleUrl><Point><coordinates>            151.738838,-32.761838,0          </coordinates></Point></Placemark><Placemark><name>Turnaround</name><styleUrl>#icon-1899-0288D1-nodesc</styleUrl><Point><coordinates>            151.745449,-32.754963,0          </coordinates></Point></Placemark><Placemark><name>Finish</name><styleUrl>#icon-1899-FF5252-nodesc</styleUrl><Point><coordinates>            151.739176,-32.761559,0          </coordinates></Point></Placemark><Placemark><name>Start</name><styleUrl>#icon-1899-0F9D58-nodesc</styleUrl><Point><coordinates>            151.738701,-32.761861,0          </coordinates></Point></Placemark></Folder></Document></kml>