<?xml version="1.0" encoding="UTF-8"?><kml xmlns="http://www.opengis.net/kml/2.2"><Document><name>The Ponds parkrun</name><description/><Style id="icon-1899-FFEA00-nodesc-normal"><IconStyle><color>ff00eaff</color><scale>1</scale><Icon><href>https://www.gstatic.com/mapspro/images/stock/503-wht-blank_maps.png</href></Icon><hotSpot x="32" xunits="pixels" y="64" yunits="insetPixels"/></IconStyle><LabelStyle><scale>0</scale></LabelStyle><BalloonStyle><text><![CDATA[<h3>$[name]</h3>]]></text></BalloonStyle></Style><Style id="icon-1899-FFEA00-nodesc-highlight"><IconStyle><color>ff00eaff</color><scale>1</scale><Icon><href>https://www.gstatic.com/mapspro/images/stock/503-wht-blank_maps.png</href></Icon><hotSpot x="32" xunits="pixels" y="64" yunits="insetPixels"/></IconStyle><LabelStyle><scale>1</scale></LabelStyle><BalloonStyle><text><![CDATA[<h3>$[name]</h3>]]></text></BalloonStyle></Style><StyleMap id="icon-1899-FFEA00-nodesc"><Pair><key>normal</key><styleUrl>#icon-1899-FFEA00-nodesc-normal</styleUrl></Pair><Pair><key>highlight</key><styleUrl>#icon-1899-FFEA00-nodesc-highlight</styleUrl></Pair></StyleMap><Style id="line-4186F0-5069-nodesc-normal"><LineStyle><color>fff08641</color><width>5.069</width></LineStyle><BalloonStyle><text><![CDATA[<h3>$[name]</h3>]]></text></BalloonStyle></Style><Style id="line-4186F0-5069-nodesc-highlight"><LineStyle><color>fff08641</color><width>7.6035</width></LineStyle><BalloonStyle><text><![CDATA[<h3>$[name]</h3>]]></text></BalloonStyle></Style><StyleMap id="line-4186F0-5069-nodesc"><Pair><key>normal</key><styleUrl>#line-4186F0-5069-nodesc-normal</styleUrl></Pair><Pair><key>highlight</key><styleUrl>#line-4186F0-5069-nodesc-highlight</styleUrl></Pair></StyleMap><Folder><name>Untitled layer</name><Placemark><name>Course</name><styleUrl>#line-4186F0-5069-nodesc</styleUrl><LineString><tessellate>1</tessellate><coordinates>            150.909187,-33.705826,0            150.909182,-33.706285,0            150.909144,-33.706486,0            150.9090775,-33.7067698,0            150.909082,-33.706965,0            150.9091819,-33.707357,0            150.909233,-33.707634,0            150.909268,-33.7079446,0            150.909243,-33.708321,0            150.909168,-33.708638,0            150.90904,-33.708924,0            150.90886,-33.7093472,0            150.908653,-33.709852,0            150.9084631,-33.7100612,0            150.908107,-33.710552,0            150.9080554,-33.7109983,0            150.9079588,-33.7114089,0            150.9079266,-33.7118908,0            150.9079406,-33.7120868,0            150.908739,-33.712315,0            150.9084738,-33.7133277,0            150.908288,-33.714064,0            150.907173,-33.713154,0            150.907859,-33.713582,0            150.907516,-33.71401,0            150.907409,-33.714153,0            150.907398,-33.71431,0            150.907758,-33.714818,0            150.907801,-33.715081,0            150.907634,-33.715394,0            150.9074048,-33.7156816,0            150.907368,-33.7158098,0            150.9074277,-33.7159737,0            150.907549,-33.716072,0            150.907919,-33.716161,0            150.908112,-33.716295,0            150.908385,-33.716898,0            150.90817,-33.717058,0            150.908106,-33.717291,0            150.908106,-33.717567,0            150.908149,-33.717871,0            150.908213,-33.718112,0            150.908793,-33.719102,0            150.908342,-33.719432,0            150.907656,-33.723127,0            150.907291,-33.723091,0          </coordinates></LineString></Placemark><Placemark><name>Start/Finish Line</name><styleUrl>#icon-1899-FFEA00-nodesc</styleUrl><Point><coordinates>            150.909284,-33.705777,0          </coordinates></Point></Placemark></Folder></Document></kml>