<?xml version="1.0" encoding="UTF-8"?><kml xmlns="http://www.opengis.net/kml/2.2"><Document><name>Varsity Lakes parkrun (from Apr 2025)</name><description/><Style id="icon-1899-0F9D58-nodesc-normal"><IconStyle><color>ff589d0f</color><scale>1</scale><Icon><href>https://www.gstatic.com/mapspro/images/stock/503-wht-blank_maps.png</href></Icon><hotSpot x="32" xunits="pixels" y="64" yunits="insetPixels"/></IconStyle><LabelStyle><scale>0</scale></LabelStyle><BalloonStyle><text><![CDATA[<h3>$[name]</h3>]]></text></BalloonStyle></Style><Style id="icon-1899-0F9D58-nodesc-highlight"><IconStyle><color>ff589d0f</color><scale>1</scale><Icon><href>https://www.gstatic.com/mapspro/images/stock/503-wht-blank_maps.png</href></Icon><hotSpot x="32" xunits="pixels" y="64" yunits="insetPixels"/></IconStyle><LabelStyle><scale>1</scale></LabelStyle><BalloonStyle><text><![CDATA[<h3>$[name]</h3>]]></text></BalloonStyle></Style><StyleMap id="icon-1899-0F9D58-nodesc"><Pair><key>normal</key><styleUrl>#icon-1899-0F9D58-nodesc-normal</styleUrl></Pair><Pair><key>highlight</key><styleUrl>#icon-1899-0F9D58-nodesc-highlight</styleUrl></Pair></StyleMap><Style id="icon-1899-DB4436-nodesc-normal"><IconStyle><color>ff3644db</color><scale>1</scale><Icon><href>https://www.gstatic.com/mapspro/images/stock/503-wht-blank_maps.png</href></Icon><hotSpot x="32" xunits="pixels" y="64" yunits="insetPixels"/></IconStyle><LabelStyle><scale>0</scale></LabelStyle><BalloonStyle><text><![CDATA[<h3>$[name]</h3>]]></text></BalloonStyle></Style><Style id="icon-1899-DB4436-nodesc-highlight"><IconStyle><color>ff3644db</color><scale>1</scale><Icon><href>https://www.gstatic.com/mapspro/images/stock/503-wht-blank_maps.png</href></Icon><hotSpot x="32" xunits="pixels" y="64" yunits="insetPixels"/></IconStyle><LabelStyle><scale>1</scale></LabelStyle><BalloonStyle><text><![CDATA[<h3>$[name]</h3>]]></text></BalloonStyle></Style><StyleMap id="icon-1899-DB4436-nodesc"><Pair><key>normal</key><styleUrl>#icon-1899-DB4436-nodesc-normal</styleUrl></Pair><Pair><key>highlight</key><styleUrl>#icon-1899-DB4436-nodesc-highlight</styleUrl></Pair></StyleMap><Style id="line-0288D1-5263-nodesc-normal"><LineStyle><color>ffd18802</color><width>5.263</width></LineStyle><BalloonStyle><text><![CDATA[<h3>$[name]</h3>]]></text></BalloonStyle></Style><Style id="line-0288D1-5263-nodesc-highlight"><LineStyle><color>ffd18802</color><width>7.8945</width></LineStyle><BalloonStyle><text><![CDATA[<h3>$[name]</h3>]]></text></BalloonStyle></Style><StyleMap id="line-0288D1-5263-nodesc"><Pair><key>normal</key><styleUrl>#line-0288D1-5263-nodesc-normal</styleUrl></Pair><Pair><key>highlight</key><styleUrl>#line-0288D1-5263-nodesc-highlight</styleUrl></Pair></StyleMap><Folder><name>Untitled layer</name><Placemark><name>Course</name><styleUrl>#line-0288D1-5263-nodesc</styleUrl><LineString><tessellate>1</tessellate><coordinates>            153.410475,-28.084895,0            153.410018,-28.085218,0            153.409901,-28.085073,0            153.409334,-28.084593,0            153.409061,-28.084075,0            153.40903,-28.084086,0            153.40902,-28.08409,0            153.40898,-28.08398,0            153.40889,-28.08383,0            153.40876,-28.08363,0            153.40882,-28.08358,0            153.40884,-28.08355,0            153.40881,-28.08342,0            153.40878,-28.08339,0            153.40873,-28.08326,0            153.40869,-28.08303,0            153.40856,-28.08304,0            153.40851,-28.08308,0            153.40793,-28.08323,0            153.40788,-28.08324,0            153.40782,-28.08321,0            153.40777,-28.08318,0            153.40763,-28.0833,0            153.4076,-28.08332,0            153.40744,-28.08337,0            153.40729,-28.0834,0            153.40713,-28.08342,0            153.40685,-28.08346,0            153.40674,-28.08354,0            153.40669,-28.0836,0            153.40662,-28.08377,0            153.4065,-28.08385,0            153.4061,-28.08392,0            153.40576,-28.08398,0            153.4052,-28.08412,0            153.40452,-28.08437,0            153.40414,-28.08456,0            153.40373,-28.08475,0            153.40355,-28.08478,0            153.40346,-28.08478,0            153.40317,-28.08476,0            153.40292,-28.08471,0            153.40272,-28.08465,0            153.40265,-28.0846,0            153.40239,-28.08446,0            153.40208,-28.08445,0            153.402,-28.08447,0            153.40191,-28.08454,0            153.40183,-28.0845,0            153.40183,-28.08448,0            153.401661,-28.084602,0            153.401027,-28.085102,0            153.400444,-28.085631,0            153.400372,-28.085728,0            153.400338,-28.085823,0            153.400321,-28.0859,0            153.400287,-28.085979,0            153.400281,-28.086086,0            153.400323,-28.086229,0            153.400578,-28.087033,0            153.400654,-28.087264,0            153.400725,-28.087448,0            153.400792,-28.087589,0            153.401,-28.087912,0            153.401247,-28.088204,0            153.401594,-28.0885,0            153.401817,-28.088646,0            153.402143,-28.088818,0            153.402337,-28.088854,0            153.402537,-28.088785,0            153.402816,-28.088554,0            153.402713,-28.088669,0            153.402545,-28.088815,0            153.402447,-28.088862,0            153.402302,-28.088877,0            153.40219,-28.088859,0            153.402095,-28.088817,0            153.401793,-28.088648,0            153.401529,-28.088477,0            153.401216,-28.088199,0            153.400975,-28.087921,0            153.400768,-28.087586,0            153.400694,-28.087427,0            153.400605,-28.087196,0            153.400508,-28.08688,0            153.400258,-28.08612,0            153.400265,-28.086003,0            153.400297,-28.085905,0            153.40032,-28.085791,0            153.400352,-28.085727,0            153.400465,-28.085597,0            153.400998,-28.085097,0            153.401633,-28.084596,0            153.401845,-28.084457,0            153.401851,-28.084489,0            153.40192,-28.084521,0            153.40192,-28.08452,0            153.40206,-28.08446,0            153.4021,-28.08445,0            153.40239,-28.08446,0            153.40258,-28.08456,0            153.40272,-28.08465,0            153.40292,-28.08471,0            153.40295,-28.08472,0            153.40336,-28.08478,0            153.40355,-28.08478,0            153.40373,-28.08475,0            153.40398,-28.08463,0            153.40433,-28.08446,0            153.40449,-28.08439,0            153.40499,-28.08419,0            153.40565,-28.08401,0            153.40585,-28.08397,0            153.40635,-28.08389,0            153.40659,-28.08381,0            153.40662,-28.08377,0            153.40665,-28.08369,0            153.40674,-28.08354,0            153.40685,-28.08346,0            153.40707,-28.08342,0            153.40727,-28.08341,0            153.40744,-28.08337,0            153.4076,-28.08332,0            153.40763,-28.0833,0            153.40777,-28.08318,0            153.40782,-28.08321,0            153.4079,-28.08323,0            153.40801,-28.08321,0            153.40851,-28.08308,0            153.40856,-28.08304,0            153.408741,-28.082958,0            153.40874,-28.08297,0            153.40897,-28.08293,0            153.40916,-28.08287,0            153.40943,-28.08273,0            153.40954,-28.08268,0            153.40958,-28.08267,0            153.40977,-28.08255,0            153.40993,-28.08248,0            153.41034,-28.08225,0            153.41067,-28.08204,0            153.41081,-28.08191,0            153.41095,-28.08176,0            153.41114,-28.08159,0            153.41143,-28.08145,0            153.41157,-28.08144,0            153.41161,-28.0816,0            153.41166,-28.08167,0            153.4117,-28.08167,0            153.41174,-28.08166,0            153.41181,-28.08159,0            153.41185,-28.08155,0            153.41216,-28.08124,0            153.41225,-28.08114,0            153.41236,-28.08104,0            153.41279,-28.08074,0            153.41295,-28.08062,0            153.41304,-28.08054,0            153.41332,-28.08028,0            153.41363,-28.07999,0            153.41369,-28.08004,0            153.41375,-28.08011,0            153.41389,-28.08045,0            153.41401,-28.08071,0            153.41404,-28.08073,0            153.41402,-28.08071,0            153.41393,-28.08054,0            153.41382,-28.08031,0            153.41377,-28.08014,0            153.41375,-28.08011,0            153.413751,-28.080112,0            153.41375,-28.08011,0            153.41363,-28.07999,0            153.41333,-28.08028,0            153.41312,-28.08048,0            153.41297,-28.0806,0            153.41264,-28.08085,0            153.41245,-28.08099,0            153.4123,-28.08108,0            153.4122,-28.08119,0            153.41196,-28.08144,0            153.41172,-28.08167,0            153.41168,-28.08167,0            153.41165,-28.08166,0            153.41159,-28.08155,0            153.41157,-28.08144,0            153.41147,-28.08144,0            153.41139,-28.08146,0            153.41136,-28.08148,0            153.4111,-28.08162,0            153.4109,-28.08181,0            153.41077,-28.08195,0            153.41059,-28.08208,0            153.41031,-28.08227,0            153.41008,-28.0824,0            153.40988,-28.0825,0            153.40954,-28.08268,0            153.40943,-28.08273,0            153.40916,-28.08287,0            153.40897,-28.08293,0            153.40874,-28.08297,0            153.4087,-28.08299,0            153.40869,-28.08303,0            153.40871,-28.08311,0            153.40873,-28.08328,0            153.40878,-28.0834,0            153.40879,-28.08341,0            153.40881,-28.08343,0            153.40883,-28.08356,0            153.40877,-28.08361,0            153.40876,-28.08363,0            153.409,-28.08402,0            153.40923,-28.08441,0            153.40932,-28.08458,0            153.40938,-28.08465,0            153.40994,-28.08512,0            153.41002,-28.0852,0            153.410462,-28.08487,0          </coordinates></LineString></Placemark><Placemark><name>Finish</name><styleUrl>#icon-1899-DB4436-nodesc</styleUrl><Point><coordinates>            153.410462,-28.08487,0          </coordinates></Point></Placemark><Placemark><name>Start</name><styleUrl>#icon-1899-0F9D58-nodesc</styleUrl><Point><coordinates>            153.410475,-28.084895,0          </coordinates></Point></Placemark></Folder></Document></kml>