<?xml version="1.0" encoding="UTF-8"?><kml xmlns="http://www.opengis.net/kml/2.2"><Document><name>Wallaby Track parkrun</name><description/><Style id="icon-1899-FFEA00-nodesc-normal"><IconStyle><color>ff00eaff</color><scale>1</scale><Icon><href>https://www.gstatic.com/mapspro/images/stock/503-wht-blank_maps.png</href></Icon><hotSpot x="32" xunits="pixels" y="64" yunits="insetPixels"/></IconStyle><LabelStyle><scale>0</scale></LabelStyle><BalloonStyle><text><![CDATA[<h3>$[name]</h3>]]></text></BalloonStyle></Style><Style id="icon-1899-FFEA00-nodesc-highlight"><IconStyle><color>ff00eaff</color><scale>1</scale><Icon><href>https://www.gstatic.com/mapspro/images/stock/503-wht-blank_maps.png</href></Icon><hotSpot x="32" xunits="pixels" y="64" yunits="insetPixels"/></IconStyle><LabelStyle><scale>1</scale></LabelStyle><BalloonStyle><text><![CDATA[<h3>$[name]</h3>]]></text></BalloonStyle></Style><StyleMap id="icon-1899-FFEA00-nodesc"><Pair><key>normal</key><styleUrl>#icon-1899-FFEA00-nodesc-normal</styleUrl></Pair><Pair><key>highlight</key><styleUrl>#icon-1899-FFEA00-nodesc-highlight</styleUrl></Pair></StyleMap><Style id="line-0288D1-5456-nodesc-normal"><LineStyle><color>ffd18802</color><width>5.456</width></LineStyle><BalloonStyle><text><![CDATA[<h3>$[name]</h3>]]></text></BalloonStyle></Style><Style id="line-0288D1-5456-nodesc-highlight"><LineStyle><color>ffd18802</color><width>8.184</width></LineStyle><BalloonStyle><text><![CDATA[<h3>$[name]</h3>]]></text></BalloonStyle></Style><StyleMap id="line-0288D1-5456-nodesc"><Pair><key>normal</key><styleUrl>#line-0288D1-5456-nodesc-normal</styleUrl></Pair><Pair><key>highlight</key><styleUrl>#line-0288D1-5456-nodesc-highlight</styleUrl></Pair></StyleMap><Folder><name>Untitled layer</name><Placemark><name>Course</name><styleUrl>#line-0288D1-5456-nodesc</styleUrl><LineString><tessellate>1</tessellate><coordinates>            143.911169,-37.543197,0            143.910713,-37.543499,0            143.910203,-37.544678,0            143.910091,-37.544707,0            143.909956,-37.544703,0            143.909426,-37.544303,0            143.909275,-37.544218,0            143.90897,-37.544091,0            143.908766,-37.544052,0            143.908481,-37.544018,0            143.908379,-37.54401,0            143.908192,-37.544006,0            143.907977,-37.54404,0            143.90773,-37.544082,0            143.907478,-37.544137,0            143.907317,-37.544159,0            143.907012,-37.544252,0            143.906834,-37.544316,0            143.906647,-37.544367,0            143.906582,-37.544393,0            143.906593,-37.544554,0            143.90618,-37.544678,0            143.905928,-37.544894,0            143.905799,-37.545171,0            143.905633,-37.545486,0            143.905365,-37.545664,0            143.905322,-37.545771,0            143.905182,-37.54583,0            143.905118,-37.545915,0            143.905161,-37.546145,0            143.905172,-37.5464,0            143.905225,-37.546613,0            143.905279,-37.546821,0            143.905445,-37.547093,0            143.905091,-37.547268,0            143.904796,-37.547489,0            143.904528,-37.547846,0            143.904726,-37.547893,0            143.904807,-37.547974,0            143.904817,-37.548016,0            143.904656,-37.548199,0            143.904458,-37.548186,0            143.904233,-37.548174,0            143.903927,-37.549105,0            143.902698,-37.549024,0            143.902559,-37.549131,0            143.902452,-37.549331,0            143.902194,-37.549522,0            143.901856,-37.549564,0            143.900998,-37.549552,0            143.900531,-37.549986,0            143.900097,-37.550322,0            143.899796,-37.550615,0            143.899528,-37.551006,0            143.89941,-37.55138,0            143.899426,-37.551593,0            143.899287,-37.551814,0            143.898992,-37.551912,0            143.898525,-37.552044,0            143.898316,-37.552065,0            143.897736,-37.551814,0            143.896953,-37.551521,0            143.896014,-37.551172,0            143.895564,-37.551083,0            143.895097,-37.550985,0            143.893954,-37.550619,0            143.893316,-37.550364,0            143.892538,-37.550075,0            143.892141,-37.550011,0            143.891921,-37.550041,0            143.891685,-37.550224,0          </coordinates></LineString></Placemark><Placemark><name>Start/Finish</name><styleUrl>#icon-1899-FFEA00-nodesc</styleUrl><Point><coordinates>            143.898395,-37.55211,0          </coordinates></Point></Placemark></Folder></Document></kml>