<?xml version="1.0" encoding="UTF-8"?><kml xmlns="http://www.opengis.net/kml/2.2"><Document><name>Wauchope parkrun</name><description/><Style id="icon-1899-F4EB37-nodesc-normal"><IconStyle><color>ff37ebf4</color><scale>1</scale><Icon><href>https://www.gstatic.com/mapspro/images/stock/503-wht-blank_maps.png</href></Icon><hotSpot x="32" xunits="pixels" y="64" yunits="insetPixels"/></IconStyle><LabelStyle><scale>0</scale></LabelStyle><BalloonStyle><text><![CDATA[<h3>$[name]</h3>]]></text></BalloonStyle></Style><Style id="icon-1899-F4EB37-nodesc-highlight"><IconStyle><color>ff37ebf4</color><scale>1</scale><Icon><href>https://www.gstatic.com/mapspro/images/stock/503-wht-blank_maps.png</href></Icon><hotSpot x="32" xunits="pixels" y="64" yunits="insetPixels"/></IconStyle><LabelStyle><scale>1</scale></LabelStyle><BalloonStyle><text><![CDATA[<h3>$[name]</h3>]]></text></BalloonStyle></Style><StyleMap id="icon-1899-F4EB37-nodesc"><Pair><key>normal</key><styleUrl>#icon-1899-F4EB37-nodesc-normal</styleUrl></Pair><Pair><key>highlight</key><styleUrl>#icon-1899-F4EB37-nodesc-highlight</styleUrl></Pair></StyleMap><Style id="icon-503-7C3592-nodesc-normal"><IconStyle><color>ff92357c</color><scale>1.1</scale><Icon><href>https://www.gstatic.com/mapspro/images/stock/503-wht-blank_maps.png</href></Icon><hotSpot x="16" xunits="pixels" y="32" yunits="insetPixels"/></IconStyle><LabelStyle><scale>0</scale></LabelStyle><BalloonStyle><text><![CDATA[<h3>$[name]</h3>]]></text></BalloonStyle></Style><Style id="icon-503-7C3592-nodesc-highlight"><IconStyle><color>ff92357c</color><scale>1.1</scale><Icon><href>https://www.gstatic.com/mapspro/images/stock/503-wht-blank_maps.png</href></Icon><hotSpot x="16" xunits="pixels" y="32" yunits="insetPixels"/></IconStyle><LabelStyle><scale>1.1</scale></LabelStyle><BalloonStyle><text><![CDATA[<h3>$[name]</h3>]]></text></BalloonStyle></Style><StyleMap id="icon-503-7C3592-nodesc"><Pair><key>normal</key><styleUrl>#icon-503-7C3592-nodesc-normal</styleUrl></Pair><Pair><key>highlight</key><styleUrl>#icon-503-7C3592-nodesc-highlight</styleUrl></Pair></StyleMap><Style id="icon-959-4186F0-normal"><IconStyle><color>fff08641</color><scale>1.1</scale><Icon><href>https://www.gstatic.com/mapspro/images/stock/959-wht-circle-blank.png</href></Icon></IconStyle><LabelStyle><scale>0</scale></LabelStyle></Style><Style id="icon-959-4186F0-highlight"><IconStyle><color>fff08641</color><scale>1.1</scale><Icon><href>https://www.gstatic.com/mapspro/images/stock/959-wht-circle-blank.png</href></Icon></IconStyle><LabelStyle><scale>1.1</scale></LabelStyle></Style><StyleMap id="icon-959-4186F0"><Pair><key>normal</key><styleUrl>#icon-959-4186F0-normal</styleUrl></Pair><Pair><key>highlight</key><styleUrl>#icon-959-4186F0-highlight</styleUrl></Pair></StyleMap><Style id="line-4186F0-5000-nodesc-normal"><LineStyle><color>fff08641</color><width>5</width></LineStyle><BalloonStyle><text><![CDATA[<h3>$[name]</h3>]]></text></BalloonStyle></Style><Style id="line-4186F0-5000-nodesc-highlight"><LineStyle><color>fff08641</color><width>7.5</width></LineStyle><BalloonStyle><text><![CDATA[<h3>$[name]</h3>]]></text></BalloonStyle></Style><StyleMap id="line-4186F0-5000-nodesc"><Pair><key>normal</key><styleUrl>#line-4186F0-5000-nodesc-normal</styleUrl></Pair><Pair><key>highlight</key><styleUrl>#line-4186F0-5000-nodesc-highlight</styleUrl></Pair></StyleMap><Folder><name>Untitled layer</name><Placemark><name>Turn Around Point</name><description>Ist turn and 3rd turn</description><styleUrl>#icon-959-4186F0</styleUrl><Point><coordinates>            152.745578,-31.451934,0          </coordinates></Point></Placemark><Placemark><name>Course</name><styleUrl>#line-4186F0-5000-nodesc</styleUrl><LineString><tessellate>1</tessellate><coordinates>            152.733418,-31.451571,0            152.73375,-31.451411,0            152.734254,-31.451727,0            152.734748,-31.452033,0            152.735118,-31.452248,0            152.735187,-31.452354,0            152.735289,-31.452445,0            152.735558,-31.452518,0            152.735981,-31.452683,0            152.736341,-31.452848,0            152.736459,-31.452935,0            152.736512,-31.453077,0            152.736716,-31.452953,0            152.736915,-31.452866,0            152.737108,-31.452884,0            152.737381,-31.452967,0            152.7378,-31.453072,0            152.738492,-31.453127,0            152.738712,-31.45315,0            152.739675,-31.452903,0            152.740185,-31.452747,0            152.740533,-31.452669,0            152.740775,-31.452674,0            152.741134,-31.452637,0            152.741515,-31.452624,0            152.742511,-31.452546,0            152.743085,-31.45245,0            152.744072,-31.452148,0            152.744351,-31.45212,0            152.744496,-31.452084,0            152.744716,-31.451992,0            152.744844,-31.451946,0            152.74515,-31.451978,0            152.745429,-31.452038,0            152.745686,-31.452001,0            152.745578,-31.451934,0          </coordinates></LineString></Placemark><Placemark><name>Lap 1 and 2 Turn</name><styleUrl>#icon-503-7C3592-nodesc</styleUrl><Point><coordinates>            152.733418,-31.451571,0          </coordinates></Point></Placemark><Placemark><name>Start / Finish</name><styleUrl>#icon-1899-F4EB37-nodesc</styleUrl><Point><coordinates>            152.744017,-31.452177,0          </coordinates></Point></Placemark></Folder></Document></kml>