<?xml version="1.0" encoding="UTF-8"?><kml xmlns="http://www.opengis.net/kml/2.2"><Document><name>Whitemark Wharf parkrun</name><description/><Style id="icon-1899-FFEA00-nodesc-normal"><IconStyle><color>ff00eaff</color><scale>1</scale><Icon><href>https://www.gstatic.com/mapspro/images/stock/503-wht-blank_maps.png</href></Icon><hotSpot x="32" xunits="pixels" y="64" yunits="insetPixels"/></IconStyle><LabelStyle><scale>0</scale></LabelStyle><BalloonStyle><text><![CDATA[<h3>$[name]</h3>]]></text></BalloonStyle></Style><Style id="icon-1899-FFEA00-nodesc-highlight"><IconStyle><color>ff00eaff</color><scale>1</scale><Icon><href>https://www.gstatic.com/mapspro/images/stock/503-wht-blank_maps.png</href></Icon><hotSpot x="32" xunits="pixels" y="64" yunits="insetPixels"/></IconStyle><LabelStyle><scale>1</scale></LabelStyle><BalloonStyle><text><![CDATA[<h3>$[name]</h3>]]></text></BalloonStyle></Style><StyleMap id="icon-1899-FFEA00-nodesc"><Pair><key>normal</key><styleUrl>#icon-1899-FFEA00-nodesc-normal</styleUrl></Pair><Pair><key>highlight</key><styleUrl>#icon-1899-FFEA00-nodesc-highlight</styleUrl></Pair></StyleMap><Style id="line-0288D1-5456-nodesc-normal"><LineStyle><color>ffd18802</color><width>5.456</width></LineStyle><BalloonStyle><text><![CDATA[<h3>$[name]</h3>]]></text></BalloonStyle></Style><Style id="line-0288D1-5456-nodesc-highlight"><LineStyle><color>ffd18802</color><width>8.184</width></LineStyle><BalloonStyle><text><![CDATA[<h3>$[name]</h3>]]></text></BalloonStyle></Style><StyleMap id="line-0288D1-5456-nodesc"><Pair><key>normal</key><styleUrl>#line-0288D1-5456-nodesc-normal</styleUrl></Pair><Pair><key>highlight</key><styleUrl>#line-0288D1-5456-nodesc-highlight</styleUrl></Pair></StyleMap><Folder><name>Untitled layer</name><Placemark><name>Course</name><styleUrl>#line-0288D1-5456-nodesc</styleUrl><LineString><tessellate>1</tessellate><coordinates>            148.013772,-40.121741,0            148.013761,-40.120092,0            148.014137,-40.120002,0            148.014244,-40.118936,0            148.013813,-40.118386,0            148.0138805,-40.118132,0            148.0137763,-40.1177796,0            148.0137978,-40.1173366,0            148.013792,-40.116515,0            148.013062,-40.116679,0            148.012526,-40.116187,0            148.0124538,-40.1159331,0            148.0123386,-40.1157284,0            148.012204,-40.11535,0            148.012311,-40.115136,0            148.0117593,-40.1137264,0            148.0112228,-40.113349,0            148.010901,-40.1129716,0            148.0108366,-40.1126434,0            148.0107937,-40.1123644,0            148.0106435,-40.1121346,0            148.0104718,-40.1120034,0            148.0105791,-40.111511,0            148.0101714,-40.1106084,0            148.0096993,-40.1094433,0            148.009264,-40.108389,0            148.0089698,-40.1073262,0            148.0086479,-40.1066861,0            148.0083904,-40.1063415,0            148.007575,-40.1056522,0            148.0068455,-40.1047167,0            148.005273,-40.103432,0            148.003471,-40.102579,0          </coordinates></LineString></Placemark><Placemark><name>Start/Finish</name><styleUrl>#icon-1899-FFEA00-nodesc</styleUrl><Point><coordinates>            148.013783,-40.1217,0          </coordinates></Point></Placemark></Folder></Document></kml>