<?xml version="1.0" encoding="UTF-8"?><kml xmlns="http://www.opengis.net/kml/2.2"><Document><name>White Rock parkrun (from Sept 2023)</name><description/><Style id="icon-1733-0288D1-nodesc-normal"><IconStyle><color>ffd18802</color><scale>1</scale><Icon><href>https://www.gstatic.com/mapspro/images/stock/503-wht-blank_maps.png</href></Icon></IconStyle><LabelStyle><scale>0</scale></LabelStyle><BalloonStyle><text><![CDATA[<h3>$[name]</h3>]]></text></BalloonStyle></Style><Style id="icon-1733-0288D1-nodesc-highlight"><IconStyle><color>ffd18802</color><scale>1</scale><Icon><href>https://www.gstatic.com/mapspro/images/stock/503-wht-blank_maps.png</href></Icon></IconStyle><LabelStyle><scale>1</scale></LabelStyle><BalloonStyle><text><![CDATA[<h3>$[name]</h3>]]></text></BalloonStyle></Style><StyleMap id="icon-1733-0288D1-nodesc"><Pair><key>normal</key><styleUrl>#icon-1733-0288D1-nodesc-normal</styleUrl></Pair><Pair><key>highlight</key><styleUrl>#icon-1733-0288D1-nodesc-highlight</styleUrl></Pair></StyleMap><Style id="icon-1899-0288D1-nodesc-normal"><IconStyle><color>ffd18802</color><scale>1</scale><Icon><href>https://www.gstatic.com/mapspro/images/stock/503-wht-blank_maps.png</href></Icon><hotSpot x="32" xunits="pixels" y="64" yunits="insetPixels"/></IconStyle><LabelStyle><scale>0</scale></LabelStyle><BalloonStyle><text><![CDATA[<h3>$[name]</h3>]]></text></BalloonStyle></Style><Style id="icon-1899-0288D1-nodesc-highlight"><IconStyle><color>ffd18802</color><scale>1</scale><Icon><href>https://www.gstatic.com/mapspro/images/stock/503-wht-blank_maps.png</href></Icon><hotSpot x="32" xunits="pixels" y="64" yunits="insetPixels"/></IconStyle><LabelStyle><scale>1</scale></LabelStyle><BalloonStyle><text><![CDATA[<h3>$[name]</h3>]]></text></BalloonStyle></Style><StyleMap id="icon-1899-0288D1-nodesc"><Pair><key>normal</key><styleUrl>#icon-1899-0288D1-nodesc-normal</styleUrl></Pair><Pair><key>highlight</key><styleUrl>#icon-1899-0288D1-nodesc-highlight</styleUrl></Pair></StyleMap><Style id="icon-1899-FFEA00-nodesc-normal"><IconStyle><color>ff00eaff</color><scale>1</scale><Icon><href>https://www.gstatic.com/mapspro/images/stock/503-wht-blank_maps.png</href></Icon><hotSpot x="32" xunits="pixels" y="64" yunits="insetPixels"/></IconStyle><LabelStyle><scale>0</scale></LabelStyle><BalloonStyle><text><![CDATA[<h3>$[name]</h3>]]></text></BalloonStyle></Style><Style id="icon-1899-FFEA00-nodesc-highlight"><IconStyle><color>ff00eaff</color><scale>1</scale><Icon><href>https://www.gstatic.com/mapspro/images/stock/503-wht-blank_maps.png</href></Icon><hotSpot x="32" xunits="pixels" y="64" yunits="insetPixels"/></IconStyle><LabelStyle><scale>1</scale></LabelStyle><BalloonStyle><text><![CDATA[<h3>$[name]</h3>]]></text></BalloonStyle></Style><StyleMap id="icon-1899-FFEA00-nodesc"><Pair><key>normal</key><styleUrl>#icon-1899-FFEA00-nodesc-normal</styleUrl></Pair><Pair><key>highlight</key><styleUrl>#icon-1899-FFEA00-nodesc-highlight</styleUrl></Pair></StyleMap><Style id="line-0288D1-5456-nodesc-normal"><LineStyle><color>ffd18802</color><width>5.456</width></LineStyle><BalloonStyle><text><![CDATA[<h3>$[name]</h3>]]></text></BalloonStyle></Style><Style id="line-0288D1-5456-nodesc-highlight"><LineStyle><color>ffd18802</color><width>8.184</width></LineStyle><BalloonStyle><text><![CDATA[<h3>$[name]</h3>]]></text></BalloonStyle></Style><StyleMap id="line-0288D1-5456-nodesc"><Pair><key>normal</key><styleUrl>#line-0288D1-5456-nodesc-normal</styleUrl></Pair><Pair><key>highlight</key><styleUrl>#line-0288D1-5456-nodesc-highlight</styleUrl></Pair></StyleMap><Folder><name>Untitled layer</name><Placemark><name>Course</name><styleUrl>#line-0288D1-5456-nodesc</styleUrl><LineString><tessellate>1</tessellate><coordinates>            152.8516569,-27.6757369,0            152.8519333,-27.6757689,0            152.8519642,-27.6760201,0            152.8521996,-27.6761837,0            152.8520702,-27.6766229,0            152.8520298,-27.6768936,0            152.8523142,-27.6770456,0            152.8531183,-27.6774456,0            152.8531717,-27.6775762,0            152.8532591,-27.6777092,0            152.8535478,-27.6779016,0            152.8536118,-27.6780583,0            152.8538465,-27.6781153,0            152.8539687,-27.6783196,0            152.8541298,-27.6784478,0            152.8543983,-27.678462,0            152.8549883,-27.6786615,0            152.8552021,-27.6789275,0            152.8555027,-27.679127,0            152.85575,-27.679317,0            152.8560503,-27.679488,0            152.8566834,-27.6797255,0            152.8569408,-27.679982,0            152.857402,-27.6802576,0            152.8576916,-27.6804571,0            152.8573587,-27.6809226,0            152.8569186,-27.6812931,0            152.8564466,-27.6817681,0            152.8565976,-27.6825851,0            152.8563186,-27.6834021,0            152.8559326,-27.6840481,0            152.8554596,-27.6843711,0            152.8547306,-27.6852831,0            152.8540006,-27.6856821,0            152.8524556,-27.6855491,0            152.8524556,-27.6849031,0            152.8519626,-27.6838581,0            152.8516836,-27.6835731,0            152.8511686,-27.6827751,0            152.8507606,-27.6827371,0            152.8503106,-27.6828131,0            152.8500956,-27.6826801,0            152.8500096,-27.6821861,0          </coordinates></LineString></Placemark><Placemark><name>Start/Finish</name><styleUrl>#icon-1899-FFEA00-nodesc</styleUrl><Point><coordinates>            152.8516516,-27.6757464,0          </coordinates></Point></Placemark><Placemark><name>Turnaround</name><styleUrl>#icon-1899-0288D1-nodesc</styleUrl><Point><coordinates>            152.850015,-27.682179,0          </coordinates></Point></Placemark><Placemark><name>Toilets</name><styleUrl>#icon-1733-0288D1-nodesc</styleUrl><Point><coordinates>            152.848856,-27.678132,0          </coordinates></Point></Placemark></Folder></Document></kml>