<?xml version="1.0" encoding="UTF-8"?><kml xmlns="http://www.opengis.net/kml/2.2"><Document><name>Wilson Botanic parkrun</name><description/><Style id="icon-503-F4EB37-nodesc-normal"><IconStyle><color>ff37ebf4</color><scale>1.1</scale><Icon><href>https://www.gstatic.com/mapspro/images/stock/503-wht-blank_maps.png</href></Icon><hotSpot x="16" xunits="pixels" y="32" yunits="insetPixels"/></IconStyle><LabelStyle><scale>0</scale></LabelStyle><BalloonStyle><text><![CDATA[<h3>$[name]</h3>]]></text></BalloonStyle></Style><Style id="icon-503-F4EB37-nodesc-highlight"><IconStyle><color>ff37ebf4</color><scale>1.1</scale><Icon><href>https://www.gstatic.com/mapspro/images/stock/503-wht-blank_maps.png</href></Icon><hotSpot x="16" xunits="pixels" y="32" yunits="insetPixels"/></IconStyle><LabelStyle><scale>1.1</scale></LabelStyle><BalloonStyle><text><![CDATA[<h3>$[name]</h3>]]></text></BalloonStyle></Style><StyleMap id="icon-503-F4EB37-nodesc"><Pair><key>normal</key><styleUrl>#icon-503-F4EB37-nodesc-normal</styleUrl></Pair><Pair><key>highlight</key><styleUrl>#icon-503-F4EB37-nodesc-highlight</styleUrl></Pair></StyleMap><Style id="line-4186F0-4875-nodesc-normal"><LineStyle><color>fff08641</color><width>4.875</width></LineStyle><BalloonStyle><text><![CDATA[<h3>$[name]</h3>]]></text></BalloonStyle></Style><Style id="line-4186F0-4875-nodesc-highlight"><LineStyle><color>fff08641</color><width>7.3125</width></LineStyle><BalloonStyle><text><![CDATA[<h3>$[name]</h3>]]></text></BalloonStyle></Style><StyleMap id="line-4186F0-4875-nodesc"><Pair><key>normal</key><styleUrl>#line-4186F0-4875-nodesc-normal</styleUrl></Pair><Pair><key>highlight</key><styleUrl>#line-4186F0-4875-nodesc-highlight</styleUrl></Pair></StyleMap><Folder><name>Untitled layer</name><Placemark><name>Course</name><styleUrl>#line-4186F0-4875-nodesc</styleUrl><LineString><tessellate>1</tessellate><coordinates>            145.339792,-38.026519,0            145.339967,-38.026479,0            145.340226,-38.026499,0            145.340588,-38.026397,0            145.340832,-38.026247,0            145.341134,-38.026033,0            145.341146,-38.025803,0            145.341188,-38.025666,0            145.341316,-38.025516,0            145.341431,-38.025277,0            145.341312,-38.024888,0            145.34112,-38.024015,0            145.341136,-38.02384,0            145.341213,-38.023754,0            145.341302,-38.023743,0            145.341569,-38.023934,0            145.34176,-38.024246,0            145.341952,-38.024372,0            145.342127,-38.024512,0            145.342154,-38.024667,0            145.341968,-38.024804,0            145.341884,-38.024904,0            145.341542,-38.025429,0            145.341612,-38.025534,0            145.341628,-38.025607,0            145.341268,-38.026374,0            145.341162,-38.026582,0            145.341202,-38.026677,0            145.341313,-38.026613,0            145.342802,-38.024832,0            145.342998,-38.024318,0            145.342963,-38.023968,0            145.34281,-38.023503,0            145.342558,-38.023279,0            145.341933,-38.023082,0            145.341501,-38.022824,0            145.341313,-38.022761,0            145.341112,-38.022755,0            145.340812,-38.022846,0            145.340415,-38.023017,0            145.339924,-38.023112,0            145.339615,-38.023247,0            145.339484,-38.023325,0            145.339251,-38.023357,0            145.338851,-38.023372,0            145.338658,-38.023408,0            145.338374,-38.023581,0            145.338103,-38.02378,0            145.337655,-38.024132,0            145.337421,-38.024365,0            145.337207,-38.024701,0            145.337006,-38.025098,0            145.336869,-38.025383,0            145.33674,-38.025757,0            145.336464,-38.026133,0            145.336075,-38.026463,0            145.336063,-38.026582,0            145.336188,-38.026664,0            145.336454,-38.026536,0            145.336633,-38.026534,0            145.336888,-38.026709,0            145.337132,-38.026912,0            145.337264,-38.026851,0            145.337377,-38.026743,0            145.337783,-38.026792,0            145.33836,-38.026871,0            145.338906,-38.026812,0            145.339072,-38.026741,0            145.33947,-38.02667,0            145.339792,-38.026519,0          </coordinates></LineString></Placemark><Placemark><name>Start / Finish</name><styleUrl>#icon-503-F4EB37-nodesc</styleUrl><Point><coordinates>            145.339792,-38.026519,0          </coordinates></Point></Placemark></Folder></Document></kml>