<?xml version="1.0" encoding="UTF-8"?><kml xmlns="http://www.opengis.net/kml/2.2"><Document><name>Wishart parkrun</name><description/><Style id="icon-503-F4EB37-nodesc-normal"><IconStyle><color>ff37ebf4</color><scale>1.1</scale><Icon><href>https://www.gstatic.com/mapspro/images/stock/503-wht-blank_maps.png</href></Icon><hotSpot x="16" xunits="pixels" y="32" yunits="insetPixels"/></IconStyle><LabelStyle><scale>0</scale></LabelStyle><BalloonStyle><text><![CDATA[<h3>$[name]</h3>]]></text></BalloonStyle></Style><Style id="icon-503-F4EB37-nodesc-highlight"><IconStyle><color>ff37ebf4</color><scale>1.1</scale><Icon><href>https://www.gstatic.com/mapspro/images/stock/503-wht-blank_maps.png</href></Icon><hotSpot x="16" xunits="pixels" y="32" yunits="insetPixels"/></IconStyle><LabelStyle><scale>1.1</scale></LabelStyle><BalloonStyle><text><![CDATA[<h3>$[name]</h3>]]></text></BalloonStyle></Style><StyleMap id="icon-503-F4EB37-nodesc"><Pair><key>normal</key><styleUrl>#icon-503-F4EB37-nodesc-normal</styleUrl></Pair><Pair><key>highlight</key><styleUrl>#icon-503-F4EB37-nodesc-highlight</styleUrl></Pair></StyleMap><Style id="line-4186F0-4000-nodesc-normal"><LineStyle><color>fff08641</color><width>4</width></LineStyle><BalloonStyle><text><![CDATA[<h3>$[name]</h3>]]></text></BalloonStyle></Style><Style id="line-4186F0-4000-nodesc-highlight"><LineStyle><color>fff08641</color><width>6</width></LineStyle><BalloonStyle><text><![CDATA[<h3>$[name]</h3>]]></text></BalloonStyle></Style><StyleMap id="line-4186F0-4000-nodesc"><Pair><key>normal</key><styleUrl>#line-4186F0-4000-nodesc-normal</styleUrl></Pair><Pair><key>highlight</key><styleUrl>#line-4186F0-4000-nodesc-highlight</styleUrl></Pair></StyleMap><Folder><name>Untitled layer</name><Placemark><name>Start / Finish</name><styleUrl>#icon-503-F4EB37-nodesc</styleUrl><Point><coordinates>            153.103543,-27.560411,0          </coordinates></Point></Placemark><Placemark><name>Wishart course</name><styleUrl>#line-4186F0-4000-nodesc</styleUrl><LineString><tessellate>1</tessellate><coordinates>            153.09754,-27.563354,0            153.097765,-27.563526,0            153.09783,-27.563745,0            153.098044,-27.564686,0            153.098066,-27.566084,0            153.098626,-27.566909,0            153.099943,-27.567497,0            153.100037,-27.567575,0            153.100086,-27.567684,0            153.100094,-27.567839,0            153.099951,-27.568084,0            153.0999,-27.568208,0            153.099933,-27.568324,0            153.10011,-27.568355,0            153.100354,-27.568376,0            153.100619,-27.568286,0            153.10082,-27.568193,0            153.100987,-27.568174,0            153.101467,-27.568155,0            153.10163,-27.568091,0            153.101939,-27.567882,0            153.10236,-27.567406,0            153.102532,-27.567328,0            153.103106,-27.566308,0            153.103237,-27.566087,0            153.103315,-27.56602,0            153.103457,-27.565825,0            153.103572,-27.56572,0            153.103382,-27.56573,0            153.102872,-27.565461,0            153.102631,-27.565143,0            153.1028,-27.563378,0            153.102709,-27.56316,0            153.102722,-27.56306,0            153.102813,-27.56295,0            153.102838,-27.562872,0            153.1028,-27.562639,0            153.102867,-27.562384,0            153.102988,-27.56212,0            153.103014,-27.562035,0            153.103226,-27.561716,0            153.103395,-27.561478,0            153.103739,-27.561091,0            153.10375,-27.560951,0            153.103701,-27.560801,0            153.103621,-27.56062,0            153.103535,-27.560484,0            153.103543,-27.560411,0            153.103602,-27.56033,0            153.103645,-27.560306,0            153.103819,-27.56023,0            153.10402,-27.560233,0            153.104259,-27.560261,0            153.104412,-27.560049,0            153.105007,-27.560073,0            153.105544,-27.559778,0            153.106064,-27.55926,0            153.106434,-27.558699,0            153.106568,-27.558409,0            153.106654,-27.558138,0            153.106665,-27.557676,0            153.106697,-27.557529,0            153.106746,-27.557115,0            153.106737,-27.556949,0            153.106601,-27.556368,0          </coordinates></LineString></Placemark></Folder></Document></kml>