<?xml version="1.0" encoding="UTF-8"?><kml xmlns="http://www.opengis.net/kml/2.2"><Document><name>Woodbridge Riverside parkrun</name><description/><Style id="icon-1899-FFEA00-nodesc-normal"><IconStyle><color>ff00eaff</color><scale>1</scale><Icon><href>https://www.gstatic.com/mapspro/images/stock/503-wht-blank_maps.png</href></Icon><hotSpot x="32" xunits="pixels" y="64" yunits="insetPixels"/></IconStyle><LabelStyle><scale>0</scale></LabelStyle><BalloonStyle><text><![CDATA[<h3>$[name]</h3>]]></text></BalloonStyle></Style><Style id="icon-1899-FFEA00-nodesc-highlight"><IconStyle><color>ff00eaff</color><scale>1</scale><Icon><href>https://www.gstatic.com/mapspro/images/stock/503-wht-blank_maps.png</href></Icon><hotSpot x="32" xunits="pixels" y="64" yunits="insetPixels"/></IconStyle><LabelStyle><scale>1</scale></LabelStyle><BalloonStyle><text><![CDATA[<h3>$[name]</h3>]]></text></BalloonStyle></Style><StyleMap id="icon-1899-FFEA00-nodesc"><Pair><key>normal</key><styleUrl>#icon-1899-FFEA00-nodesc-normal</styleUrl></Pair><Pair><key>highlight</key><styleUrl>#icon-1899-FFEA00-nodesc-highlight</styleUrl></Pair></StyleMap><Style id="line-4186F0-5650-nodesc-normal"><LineStyle><color>fff08641</color><width>5.65</width></LineStyle><BalloonStyle><text><![CDATA[<h3>$[name]</h3>]]></text></BalloonStyle></Style><Style id="line-4186F0-5650-nodesc-highlight"><LineStyle><color>fff08641</color><width>8.475</width></LineStyle><BalloonStyle><text><![CDATA[<h3>$[name]</h3>]]></text></BalloonStyle></Style><StyleMap id="line-4186F0-5650-nodesc"><Pair><key>normal</key><styleUrl>#line-4186F0-5650-nodesc-normal</styleUrl></Pair><Pair><key>highlight</key><styleUrl>#line-4186F0-5650-nodesc-highlight</styleUrl></Pair></StyleMap><Folder><name>Untitled layer</name><Placemark><name>Course</name><styleUrl>#line-4186F0-5650-nodesc</styleUrl><LineString><tessellate>1</tessellate><coordinates>            115.991544,-31.887237,0            115.99148,-31.886938,0            115.991519,-31.886748,0            115.991652,-31.885912,0            115.991646,-31.885688,0            115.9917,-31.885155,0            115.991726,-31.884764,0            115.991718,-31.8843632,0            115.991808,-31.884226,0            115.99203,-31.883991,0            115.992093,-31.883697,0            115.992029,-31.883573,0            115.9918146,-31.8832381,0            115.991777,-31.883006,0            115.991872,-31.882844,0            115.9919058,-31.8826322,0            115.9917877,-31.8820856,0            115.9917824,-31.8818898,0            115.9918414,-31.8816939,0            115.9918521,-31.8810425,0            115.9918897,-31.8806644,0            115.9923939,-31.8799219,0            115.992661,-31.879587,0            115.9928743,-31.8795273,0            115.993403,-31.879488,0            115.9940247,-31.8794527,0            115.994366,-31.879327,0            115.9943895,-31.8785052,0            115.994403,-31.877682,0            115.9941534,-31.8762367,0            115.994594,-31.875274,0            115.995091,-31.873922,0            115.99523,-31.872954,0            115.9951888,-31.872205,0            115.994759,-31.871896,0            115.99425,-31.8717358,0            115.994154,-31.871389,0            115.9944753,-31.8708474,0            115.9950117,-31.8704238,0            115.99556,-31.870114,0            115.9962456,-31.8698406,0            115.9968839,-31.8698406,0            115.998946,-31.869211,0            115.9979115,-31.8695363,0            115.9968413,-31.8699042,0            115.9966747,-31.8704602,0            115.996468,-31.871197,0            115.9961905,-31.8714459,0            115.9957842,-31.8716401,0            115.995355,-31.871879,0            115.995133,-31.872163,0          </coordinates></LineString></Placemark><Placemark><name>Start/Finish</name><styleUrl>#icon-1899-FFEA00-nodesc</styleUrl><Point><coordinates>            115.991502,-31.887148,4.6          </coordinates></Point></Placemark></Folder></Document></kml>