<?xml version="1.0" encoding="UTF-8"?><kml xmlns="http://www.opengis.net/kml/2.2"><Document><name>Wyndham Vale parkrun</name><description/><Style id="icon-503-F4EB37-nodesc-normal"><IconStyle><color>ff37ebf4</color><scale>1.1</scale><Icon><href>https://www.gstatic.com/mapspro/images/stock/503-wht-blank_maps.png</href></Icon><hotSpot x="16" xunits="pixels" y="32" yunits="insetPixels"/></IconStyle><LabelStyle><scale>0</scale></LabelStyle><BalloonStyle><text><![CDATA[<h3>$[name]</h3>]]></text></BalloonStyle></Style><Style id="icon-503-F4EB37-nodesc-highlight"><IconStyle><color>ff37ebf4</color><scale>1.1</scale><Icon><href>https://www.gstatic.com/mapspro/images/stock/503-wht-blank_maps.png</href></Icon><hotSpot x="16" xunits="pixels" y="32" yunits="insetPixels"/></IconStyle><LabelStyle><scale>1.1</scale></LabelStyle><BalloonStyle><text><![CDATA[<h3>$[name]</h3>]]></text></BalloonStyle></Style><StyleMap id="icon-503-F4EB37-nodesc"><Pair><key>normal</key><styleUrl>#icon-503-F4EB37-nodesc-normal</styleUrl></Pair><Pair><key>highlight</key><styleUrl>#icon-503-F4EB37-nodesc-highlight</styleUrl></Pair></StyleMap><Style id="line-4186F0-4509-nodesc-normal"><LineStyle><color>fff08641</color><width>4.509</width></LineStyle><BalloonStyle><text><![CDATA[<h3>$[name]</h3>]]></text></BalloonStyle></Style><Style id="line-4186F0-4509-nodesc-highlight"><LineStyle><color>fff08641</color><width>6.7635</width></LineStyle><BalloonStyle><text><![CDATA[<h3>$[name]</h3>]]></text></BalloonStyle></Style><StyleMap id="line-4186F0-4509-nodesc"><Pair><key>normal</key><styleUrl>#line-4186F0-4509-nodesc-normal</styleUrl></Pair><Pair><key>highlight</key><styleUrl>#line-4186F0-4509-nodesc-highlight</styleUrl></Pair></StyleMap><Folder><name>Untitled layer</name><Placemark><name>Start / Finish</name><styleUrl>#icon-503-F4EB37-nodesc</styleUrl><Point><coordinates>            144.634538,-37.881664,0          </coordinates></Point></Placemark><Placemark><name>Course</name><styleUrl>#line-4186F0-4509-nodesc</styleUrl><LineString><tessellate>1</tessellate><coordinates>            144.634538,-37.881664,0            144.636404,-37.88224,0            144.635224,-37.883161,0            144.634892,-37.883906,0            144.634784,-37.884253,0            144.634902,-37.884448,0            144.635117,-37.884566,0            144.635589,-37.88455,0            144.6359,-37.884558,0            144.63663,-37.884905,0            144.63707,-37.885015,0            144.637767,-37.884727,0            144.638432,-37.884143,0            144.638754,-37.883881,0            144.63913,-37.883136,0            144.639452,-37.88228,0            144.639441,-37.882043,0            144.639612,-37.882026,0            144.639827,-37.882543,0            144.640074,-37.883025,0            144.640074,-37.883804,0            144.640342,-37.884761,0            144.64105,-37.88659,0            144.641507,-37.887317,0            144.641876,-37.887581,0            144.641951,-37.887937,0            144.642037,-37.888123,0            144.642144,-37.888474,0            144.642525,-37.888982,0            144.642767,-37.88944,0            144.642997,-37.889842,0            144.643164,-37.890164,0            144.643207,-37.890303,0            144.643212,-37.890532,0            144.643233,-37.890722,0            144.643384,-37.891006,0            144.643502,-37.891192,0            144.643931,-37.891586,0            144.644344,-37.891853,0            144.644473,-37.891891,0            144.644929,-37.892022,0            144.645165,-37.892005,0            144.645465,-37.891933,0            144.645631,-37.891908,0            144.645894,-37.891903,0            144.646291,-37.891971,0            144.646661,-37.892073,0            144.646844,-37.892102,0            144.64701,-37.892094,0            144.647202,-37.892086,0          </coordinates></LineString></Placemark></Folder></Document></kml>