<?xml version="1.0" encoding="UTF-8"?><kml xmlns="http://www.opengis.net/kml/2.2"><Document><name>Wynyard Foreshore parkrun (from Jun 2025)</name><description/><Style id="icon-1899-0F9D58-nodesc-normal"><IconStyle><color>ff589d0f</color><scale>1</scale><Icon><href>https://www.gstatic.com/mapspro/images/stock/503-wht-blank_maps.png</href></Icon><hotSpot x="32" xunits="pixels" y="64" yunits="insetPixels"/></IconStyle><LabelStyle><scale>0</scale></LabelStyle><BalloonStyle><text><![CDATA[<h3>$[name]</h3>]]></text></BalloonStyle></Style><Style id="icon-1899-0F9D58-nodesc-highlight"><IconStyle><color>ff589d0f</color><scale>1</scale><Icon><href>https://www.gstatic.com/mapspro/images/stock/503-wht-blank_maps.png</href></Icon><hotSpot x="32" xunits="pixels" y="64" yunits="insetPixels"/></IconStyle><LabelStyle><scale>1</scale></LabelStyle><BalloonStyle><text><![CDATA[<h3>$[name]</h3>]]></text></BalloonStyle></Style><StyleMap id="icon-1899-0F9D58-nodesc"><Pair><key>normal</key><styleUrl>#icon-1899-0F9D58-nodesc-normal</styleUrl></Pair><Pair><key>highlight</key><styleUrl>#icon-1899-0F9D58-nodesc-highlight</styleUrl></Pair></StyleMap><Style id="icon-1899-FF5252-nodesc-normal"><IconStyle><color>ff5252ff</color><scale>1</scale><Icon><href>https://www.gstatic.com/mapspro/images/stock/503-wht-blank_maps.png</href></Icon><hotSpot x="32" xunits="pixels" y="64" yunits="insetPixels"/></IconStyle><LabelStyle><scale>0</scale></LabelStyle><BalloonStyle><text><![CDATA[<h3>$[name]</h3>]]></text></BalloonStyle></Style><Style id="icon-1899-FF5252-nodesc-highlight"><IconStyle><color>ff5252ff</color><scale>1</scale><Icon><href>https://www.gstatic.com/mapspro/images/stock/503-wht-blank_maps.png</href></Icon><hotSpot x="32" xunits="pixels" y="64" yunits="insetPixels"/></IconStyle><LabelStyle><scale>1</scale></LabelStyle><BalloonStyle><text><![CDATA[<h3>$[name]</h3>]]></text></BalloonStyle></Style><StyleMap id="icon-1899-FF5252-nodesc"><Pair><key>normal</key><styleUrl>#icon-1899-FF5252-nodesc-normal</styleUrl></Pair><Pair><key>highlight</key><styleUrl>#icon-1899-FF5252-nodesc-highlight</styleUrl></Pair></StyleMap><Style id="line-0288D1-5263-nodesc-normal"><LineStyle><color>ffd18802</color><width>5.263</width></LineStyle><BalloonStyle><text><![CDATA[<h3>$[name]</h3>]]></text></BalloonStyle></Style><Style id="line-0288D1-5263-nodesc-highlight"><LineStyle><color>ffd18802</color><width>7.8945</width></LineStyle><BalloonStyle><text><![CDATA[<h3>$[name]</h3>]]></text></BalloonStyle></Style><StyleMap id="line-0288D1-5263-nodesc"><Pair><key>normal</key><styleUrl>#line-0288D1-5263-nodesc-normal</styleUrl></Pair><Pair><key>highlight</key><styleUrl>#line-0288D1-5263-nodesc-highlight</styleUrl></Pair></StyleMap><Folder><name>Untitled layer</name><Placemark><name>Course</name><styleUrl>#line-0288D1-5263-nodesc</styleUrl><LineString><tessellate>1</tessellate><coordinates>            145.7371857,-40.9879102,0            145.7374596,-40.9878971,0            145.7377041,-40.9878314,0            145.7381178,-40.9876553,0            145.738484,-40.987683,0            145.738618,-40.987633,0            145.738723,-40.987588,0            145.738782,-40.98757,0            145.73883,-40.987562,0            145.738873,-40.987572,0            145.738916,-40.9876,0            145.738978,-40.987651,0            145.739109,-40.98775,0            145.739243,-40.987847,0            145.739382,-40.987945,0            145.73956,-40.988058,0            145.740329,-40.988546,0            145.740804,-40.98885,0            145.741035,-40.989001,0            145.741244,-40.989153,0            145.74129,-40.989196,0            145.74155,-40.989372,0            145.741818,-40.989552,0            145.742218,-40.989801,0            145.742682,-40.990107,0            145.742759,-40.990162,0            145.742792,-40.990192,0            145.742832,-40.990228,0            145.742869,-40.990259,0            145.742961,-40.990309,0            145.743248,-40.990423,0            145.743443,-40.9905,0            145.743827,-40.990625,0            145.744133,-40.990696,0            145.744457,-40.990787,0            145.744674,-40.99087,0            145.744889,-40.990971,0            145.744983,-40.991014,0            145.745031,-40.991016,0            145.745074,-40.990982,0            145.745112,-40.990947,0            145.745168,-40.990931,0            145.745203,-40.990902,0            145.745259,-40.990848,0            145.745283,-40.990822,0            145.745605,-40.990933,0            145.745812,-40.990992,0            145.746021,-40.991034,0            145.746225,-40.991064,0            145.746388,-40.991099,0            145.74663,-40.991113,0            145.746858,-40.991129,0            145.747142,-40.991137,0            145.74733,-40.991133,0            145.747544,-40.991135,0            145.74773,-40.991103,0            145.747874,-40.991095,0            145.748014,-40.991085,0            145.748073,-40.991174,0            145.748092,-40.991234,0            145.748105,-40.991295,0            145.748156,-40.991514,0            145.748194,-40.991524,0            145.748234,-40.991524,0            145.748301,-40.991514,0            145.748446,-40.991492,0            145.748526,-40.991473,0            145.74858,-40.991459,0            145.748636,-40.991459,0            145.748714,-40.991467,0            145.748789,-40.991486,0            145.748931,-40.991522,0            145.7491,-40.991558,0            145.749285,-40.991601,0            145.74972,-40.9917,0            145.749924,-40.991749,0            145.750028,-40.991773,0            145.750125,-40.991789,0            145.750181,-40.991797,0            145.750221,-40.991801,0            145.75031,-40.991806,0            145.750412,-40.991808,0            145.750527,-40.991814,0            145.750629,-40.991818,0            145.750699,-40.991826,0            145.750774,-40.991834,0            145.750878,-40.991854,0            145.75097,-40.99188,0          </coordinates></LineString></Placemark><Placemark><name>Finish</name><styleUrl>#icon-1899-FF5252-nodesc</styleUrl><Point><coordinates>            145.7371803,-40.9879133,0          </coordinates></Point></Placemark><Placemark><name>Start</name><styleUrl>#icon-1899-0F9D58-nodesc</styleUrl><Point><coordinates>            145.7371895,-40.9879133,0          </coordinates></Point></Placemark></Folder></Document></kml>