<?xml version="1.0" encoding="UTF-8"?><kml xmlns="http://www.opengis.net/kml/2.2"><Document><name>Yokine parkrun</name><description/><Style id="icon-1899-0F9D58-nodesc-normal"><IconStyle><color>ff589d0f</color><scale>1</scale><Icon><href>https://www.gstatic.com/mapspro/images/stock/503-wht-blank_maps.png</href></Icon><hotSpot x="32" xunits="pixels" y="64" yunits="insetPixels"/></IconStyle><LabelStyle><scale>0</scale></LabelStyle><BalloonStyle><text><![CDATA[<h3>$[name]</h3>]]></text></BalloonStyle></Style><Style id="icon-1899-0F9D58-nodesc-highlight"><IconStyle><color>ff589d0f</color><scale>1</scale><Icon><href>https://www.gstatic.com/mapspro/images/stock/503-wht-blank_maps.png</href></Icon><hotSpot x="32" xunits="pixels" y="64" yunits="insetPixels"/></IconStyle><LabelStyle><scale>1</scale></LabelStyle><BalloonStyle><text><![CDATA[<h3>$[name]</h3>]]></text></BalloonStyle></Style><StyleMap id="icon-1899-0F9D58-nodesc"><Pair><key>normal</key><styleUrl>#icon-1899-0F9D58-nodesc-normal</styleUrl></Pair><Pair><key>highlight</key><styleUrl>#icon-1899-0F9D58-nodesc-highlight</styleUrl></Pair></StyleMap><Style id="icon-1899-FF5252-nodesc-normal"><IconStyle><color>ff5252ff</color><scale>1</scale><Icon><href>https://www.gstatic.com/mapspro/images/stock/503-wht-blank_maps.png</href></Icon><hotSpot x="32" xunits="pixels" y="64" yunits="insetPixels"/></IconStyle><LabelStyle><scale>0</scale></LabelStyle><BalloonStyle><text><![CDATA[<h3>$[name]</h3>]]></text></BalloonStyle></Style><Style id="icon-1899-FF5252-nodesc-highlight"><IconStyle><color>ff5252ff</color><scale>1</scale><Icon><href>https://www.gstatic.com/mapspro/images/stock/503-wht-blank_maps.png</href></Icon><hotSpot x="32" xunits="pixels" y="64" yunits="insetPixels"/></IconStyle><LabelStyle><scale>1</scale></LabelStyle><BalloonStyle><text><![CDATA[<h3>$[name]</h3>]]></text></BalloonStyle></Style><StyleMap id="icon-1899-FF5252-nodesc"><Pair><key>normal</key><styleUrl>#icon-1899-FF5252-nodesc-normal</styleUrl></Pair><Pair><key>highlight</key><styleUrl>#icon-1899-FF5252-nodesc-highlight</styleUrl></Pair></StyleMap><Style id="line-0288D1-5263-nodesc-normal"><LineStyle><color>ffd18802</color><width>5.263</width></LineStyle><BalloonStyle><text><![CDATA[<h3>$[name]</h3>]]></text></BalloonStyle></Style><Style id="line-0288D1-5263-nodesc-highlight"><LineStyle><color>ffd18802</color><width>7.8945</width></LineStyle><BalloonStyle><text><![CDATA[<h3>$[name]</h3>]]></text></BalloonStyle></Style><StyleMap id="line-0288D1-5263-nodesc"><Pair><key>normal</key><styleUrl>#line-0288D1-5263-nodesc-normal</styleUrl></Pair><Pair><key>highlight</key><styleUrl>#line-0288D1-5263-nodesc-highlight</styleUrl></Pair></StyleMap><Folder><name>Untitled layer</name><Placemark><name>Course</name><styleUrl>#line-0288D1-5263-nodesc</styleUrl><LineString><tessellate>1</tessellate><coordinates>            115.86114,-31.911525,0            115.862476,-31.911794,0            115.863281,-31.911835,0            115.863436,-31.911917,0            115.864525,-31.911953,0            115.864794,-31.912008,0            115.866639,-31.912031,0            115.866848,-31.911867,0            115.867009,-31.911375,0            115.86695,-31.911279,0            115.866902,-31.911206,0            115.866929,-31.911042,0            115.867095,-31.910715,0            115.8671,-31.910514,0            115.867154,-31.910264,0            115.867159,-31.910177,0            115.867267,-31.909858,0            115.867283,-31.909503,0            115.867326,-31.909367,0            115.867315,-31.909084,0            115.867385,-31.908406,0            115.867326,-31.907632,0            115.867111,-31.907627,0            115.865051,-31.907623,0            115.8629,-31.907623,0            115.86731,-31.907636,0            115.867379,-31.908429,0            115.867326,-31.909125,0            115.86732,-31.909449,0            115.867251,-31.909881,0            115.867074,-31.910756,0            115.86688,-31.911193,0            115.867009,-31.911398,0            115.866859,-31.911858,0            115.866644,-31.912044,0            115.864767,-31.912012,0            115.864509,-31.911967,0            115.863436,-31.911908,0            115.863254,-31.911844,0            115.862337,-31.911789,0            115.860931,-31.911817,0            115.860545,-31.911694,0            115.860475,-31.911594,0            115.860502,-31.911402,0            115.860384,-31.911243,0            115.859719,-31.911002,0            115.858657,-31.910678,0            115.858147,-31.910505,0            115.85782,-31.910396,0            115.857648,-31.910255,0            115.857348,-31.909845,0            115.857305,-31.909786,0            115.857369,-31.909189,0            115.857364,-31.908952,0            115.857391,-31.908652,0            115.857423,-31.908269,0            115.857428,-31.9076,0            115.857766,-31.90765,0            115.858072,-31.90765,0            115.858276,-31.90765,0            115.85841,-31.907705,0            115.858485,-31.907746,0            115.858625,-31.907882,0            115.858716,-31.908001,0            115.858786,-31.908174,0            115.858866,-31.908288,0            115.859011,-31.908392,0            115.859247,-31.90846,0            115.859617,-31.908542,0            115.859789,-31.90857,0            115.859483,-31.909153,0            115.859338,-31.908843,0            115.859236,-31.908688,0            115.859032,-31.908415,0            115.858796,-31.908201,0            115.858694,-31.907964,0            115.85856,-31.907814,0            115.85833,-31.907668,0            115.858104,-31.907641,0            115.857745,-31.907641,0            115.857444,-31.907595,0            115.857375,-31.908852,0            115.857359,-31.909376,0            115.857316,-31.909818,0            115.857675,-31.910287,0            115.857884,-31.910428,0            115.860068,-31.911134,0            115.8604,-31.911256,0            115.860524,-31.911416,0            115.86047,-31.911612,0            115.860545,-31.911707,0            115.860958,-31.91183,0            115.861446,-31.911812,0            115.862267,-31.911507,0          </coordinates></LineString></Placemark><Placemark><name>Finish</name><styleUrl>#icon-1899-FF5252-nodesc</styleUrl><Point><coordinates>            115.862337,-31.911516,0          </coordinates></Point></Placemark><Placemark><name>Start</name><styleUrl>#icon-1899-0F9D58-nodesc</styleUrl><Point><coordinates>            115.861103,-31.911543,0          </coordinates></Point></Placemark></Folder></Document></kml>