<?xml version="1.0" encoding="UTF-8"?><kml xmlns="http://www.opengis.net/kml/2.2"><Document><name>Zillmere parkrun</name><description/><Style id="icon-1899-0F9D58-normal"><IconStyle><color>ff589d0f</color><scale>1</scale><Icon><href>https://www.gstatic.com/mapspro/images/stock/503-wht-blank_maps.png</href></Icon><hotSpot x="32" xunits="pixels" y="64" yunits="insetPixels"/></IconStyle><LabelStyle><scale>0</scale></LabelStyle></Style><Style id="icon-1899-0F9D58-highlight"><IconStyle><color>ff589d0f</color><scale>1</scale><Icon><href>https://www.gstatic.com/mapspro/images/stock/503-wht-blank_maps.png</href></Icon><hotSpot x="32" xunits="pixels" y="64" yunits="insetPixels"/></IconStyle><LabelStyle><scale>1</scale></LabelStyle></Style><StyleMap id="icon-1899-0F9D58"><Pair><key>normal</key><styleUrl>#icon-1899-0F9D58-normal</styleUrl></Pair><Pair><key>highlight</key><styleUrl>#icon-1899-0F9D58-highlight</styleUrl></Pair></StyleMap><Style id="icon-1899-FF5252-normal"><IconStyle><color>ff5252ff</color><scale>1</scale><Icon><href>https://www.gstatic.com/mapspro/images/stock/503-wht-blank_maps.png</href></Icon><hotSpot x="32" xunits="pixels" y="64" yunits="insetPixels"/></IconStyle><LabelStyle><scale>0</scale></LabelStyle></Style><Style id="icon-1899-FF5252-highlight"><IconStyle><color>ff5252ff</color><scale>1</scale><Icon><href>https://www.gstatic.com/mapspro/images/stock/503-wht-blank_maps.png</href></Icon><hotSpot x="32" xunits="pixels" y="64" yunits="insetPixels"/></IconStyle><LabelStyle><scale>1</scale></LabelStyle></Style><StyleMap id="icon-1899-FF5252"><Pair><key>normal</key><styleUrl>#icon-1899-FF5252-normal</styleUrl></Pair><Pair><key>highlight</key><styleUrl>#icon-1899-FF5252-highlight</styleUrl></Pair></StyleMap><Style id="line-0288D1-5456-normal"><LineStyle><color>ffd18802</color><width>5.456</width></LineStyle></Style><Style id="line-0288D1-5456-highlight"><LineStyle><color>ffd18802</color><width>8.184</width></LineStyle></Style><StyleMap id="line-0288D1-5456"><Pair><key>normal</key><styleUrl>#line-0288D1-5456-normal</styleUrl></Pair><Pair><key>highlight</key><styleUrl>#line-0288D1-5456-highlight</styleUrl></Pair></StyleMap><Folder><name>Untitled layer</name><Placemark><name>Course</name><description><![CDATA[description: <br>qldglobe_place_name: My Place 1<br>_labelid: places-label-1629616529576-1<br>_measureLabelsIds: <br>Length: 5.18 kilometres]]></description><styleUrl>#line-0288D1-5456</styleUrl><ExtendedData><Data name="description"><value/></Data><Data name="qldglobe_place_name"><value>My Place 1</value></Data><Data name="_labelid"><value>places-label-1629616529576-1</value></Data><Data name="_measureLabelsIds"><value/></Data><Data name="Length"><value>5.18 kilometres</value></Data></ExtendedData><LineString><tessellate>1</tessellate><coordinates>            153.040658,-27.36241,0            153.040635,-27.362677,0            153.040646,-27.363536,0            153.04117,-27.364239,0            153.041231,-27.364298,0            153.041315,-27.364374,0            153.041374,-27.364433,0            153.041576,-27.364642,0            153.041727,-27.364782,0            153.04183,-27.364944,0            153.042142,-27.365225,0            153.04224,-27.365309,0            153.042332,-27.365366,0            153.04273,-27.365668,0            153.042996,-27.36586,0            153.043082,-27.365905,0            153.043205,-27.365992,0            153.043242,-27.365982,0            153.043261,-27.365952,0            153.043289,-27.365859,0            153.04329,-27.365858,0            153.043298,-27.365813,0            153.04332,-27.365626,0            153.043351,-27.365457,0            153.043372,-27.365223,0            153.043369,-27.365046,0            153.043422,-27.364159,0            153.04348,-27.363877,0            153.043487,-27.363862,0            153.04351,-27.363866,0            153.043593,-27.363878,0            153.043736,-27.363895,0            153.044066,-27.364057,0            153.043674,-27.365925,0            153.043712,-27.365931,0            153.044087,-27.364053,0            153.044128,-27.364046,0            153.044975,-27.364178,0            153.046045,-27.364324,0            153.046534,-27.364404,0            153.046563,-27.364215,0            153.046753,-27.363291,0            153.046817,-27.362861,0            153.04605,-27.362819,0            153.045066,-27.362989,0            153.044677,-27.363144,0            153.044359,-27.363176,0            153.044114,-27.363252,0            153.043936,-27.363446,0            153.043879,-27.363545,0            153.043786,-27.363783,0            153.043782,-27.363837,0            153.04377,-27.363881,0            153.04374,-27.363888,0            153.04369,-27.36388,0            153.043489,-27.363843,0            153.04347,-27.363824,0            153.043464,-27.363783,0            153.043492,-27.363657,0            153.043671,-27.363395,0            153.043902,-27.363129,0            153.04403,-27.363046,0            153.044301,-27.362971,0            153.044515,-27.36293,0            153.044545,-27.362927,0            153.044543,-27.362892,0            153.044425,-27.36288,0            153.044249,-27.362873,0            153.04321,-27.362819,0            153.043177,-27.362822,0            153.043011,-27.362802,0            153.041335,-27.362563,0            153.040573,-27.362464,0            153.040559,-27.36247,0            153.040561,-27.362486,0            153.040624,-27.362683,0            153.04064,-27.363528,0            153.041185,-27.364204,0            153.041214,-27.364269,0            153.041528,-27.364602,0            153.041721,-27.364787,0            153.0418,-27.364944,0            153.042251,-27.365302,0            153.043005,-27.365852,0            153.043081,-27.365917,0            153.043202,-27.365995,0            153.04324,-27.365986,0            153.043262,-27.365955,0            153.043291,-27.365862,0            153.043304,-27.365794,0            153.043313,-27.365705,0            153.043354,-27.365458,0            153.043376,-27.365226,0            153.043373,-27.364901,0            153.043375,-27.364803,0            153.043393,-27.36446,0            153.043419,-27.36413,0            153.043471,-27.363874,0            153.04348,-27.36386,0            153.043531,-27.363867,0            153.043751,-27.363897,0            153.044067,-27.364053,0            153.043669,-27.365926,0            153.043708,-27.365933,0            153.04409,-27.364057,0            153.044123,-27.364047,0            153.044294,-27.364075,0            153.045207,-27.364207,0            153.045781,-27.364285,0            153.046531,-27.364399,0            153.04675,-27.363332,0            153.046824,-27.362861,0            153.046049,-27.362821,0            153.045067,-27.362995,0            153.044678,-27.363147,0            153.044361,-27.36318,0            153.044119,-27.363254,0            153.043948,-27.363444,0            153.043789,-27.363767,0            153.043778,-27.363867,0            153.043761,-27.363885,0            153.043591,-27.363864,0            153.043484,-27.363846,0            153.043467,-27.363801,0            153.043481,-27.363662,0            153.043658,-27.363395,0            153.043773,-27.363273,0            153.043907,-27.363114,0            153.044028,-27.363042,0            153.044225,-27.362986,0            153.044515,-27.362926,0            153.044543,-27.362925,0            153.04454,-27.362893,0            153.044431,-27.362882,0            153.043173,-27.362827,0            153.040974,-27.362607,0            153.040906,-27.362626,0            153.040869,-27.36265,0            153.040794,-27.362722,0            153.040729,-27.362848,0          </coordinates></LineString></Placemark><Placemark><name>Finish</name><description><![CDATA[description: <br>qldglobe_place_name: <br>_labelid: <br>_measureLabelsIds: <br>Length: ]]></description><styleUrl>#icon-1899-FF5252</styleUrl><ExtendedData><Data name="description"><value/></Data><Data name="qldglobe_place_name"><value/></Data><Data name="_labelid"><value/></Data><Data name="_measureLabelsIds"><value/></Data><Data name="Length"><value/></Data></ExtendedData><Point><coordinates>            153.040729,-27.362848,0          </coordinates></Point></Placemark><Placemark><name>Start</name><description><![CDATA[description: <br>qldglobe_place_name: <br>_labelid: <br>_measureLabelsIds: <br>Length: ]]></description><styleUrl>#icon-1899-0F9D58</styleUrl><ExtendedData><Data name="description"><value/></Data><Data name="qldglobe_place_name"><value/></Data><Data name="_labelid"><value/></Data><Data name="_measureLabelsIds"><value/></Data><Data name="Length"><value/></Data></ExtendedData><Point><coordinates>            153.040658,-27.36241,0          </coordinates></Point></Placemark></Folder></Document></kml>