<?xml version="1.0" encoding="UTF-8"?><kml xmlns="http://www.opengis.net/kml/2.2"><Document><name>Porin Metsä parkrun</name><description/><Style id="icon-1899-0288D1-nodesc-normal"><IconStyle><color>ffd18802</color><scale>1</scale><Icon><href>https://www.gstatic.com/mapspro/images/stock/503-wht-blank_maps.png</href></Icon><hotSpot x="32" xunits="pixels" y="64" yunits="insetPixels"/></IconStyle><LabelStyle><scale>0</scale></LabelStyle><BalloonStyle><text><![CDATA[<h3>$[name]</h3>]]></text></BalloonStyle></Style><Style id="icon-1899-0288D1-nodesc-highlight"><IconStyle><color>ffd18802</color><scale>1</scale><Icon><href>https://www.gstatic.com/mapspro/images/stock/503-wht-blank_maps.png</href></Icon><hotSpot x="32" xunits="pixels" y="64" yunits="insetPixels"/></IconStyle><LabelStyle><scale>1</scale></LabelStyle><BalloonStyle><text><![CDATA[<h3>$[name]</h3>]]></text></BalloonStyle></Style><StyleMap id="icon-1899-0288D1-nodesc"><Pair><key>normal</key><styleUrl>#icon-1899-0288D1-nodesc-normal</styleUrl></Pair><Pair><key>highlight</key><styleUrl>#icon-1899-0288D1-nodesc-highlight</styleUrl></Pair></StyleMap><Style id="icon-1899-FFEA00-nodesc-normal"><IconStyle><color>ff00eaff</color><scale>1</scale><Icon><href>https://www.gstatic.com/mapspro/images/stock/503-wht-blank_maps.png</href></Icon><hotSpot x="32" xunits="pixels" y="64" yunits="insetPixels"/></IconStyle><LabelStyle><scale>0</scale></LabelStyle><BalloonStyle><text><![CDATA[<h3>$[name]</h3>]]></text></BalloonStyle></Style><Style id="icon-1899-FFEA00-nodesc-highlight"><IconStyle><color>ff00eaff</color><scale>1</scale><Icon><href>https://www.gstatic.com/mapspro/images/stock/503-wht-blank_maps.png</href></Icon><hotSpot x="32" xunits="pixels" y="64" yunits="insetPixels"/></IconStyle><LabelStyle><scale>1</scale></LabelStyle><BalloonStyle><text><![CDATA[<h3>$[name]</h3>]]></text></BalloonStyle></Style><StyleMap id="icon-1899-FFEA00-nodesc"><Pair><key>normal</key><styleUrl>#icon-1899-FFEA00-nodesc-normal</styleUrl></Pair><Pair><key>highlight</key><styleUrl>#icon-1899-FFEA00-nodesc-highlight</styleUrl></Pair></StyleMap><Style id="line-0288D1-5000-nodesc-normal"><LineStyle><color>ffd18802</color><width>5</width></LineStyle><BalloonStyle><text><![CDATA[<h3>$[name]</h3>]]></text></BalloonStyle></Style><Style id="line-0288D1-5000-nodesc-highlight"><LineStyle><color>ffd18802</color><width>7.5</width></LineStyle><BalloonStyle><text><![CDATA[<h3>$[name]</h3>]]></text></BalloonStyle></Style><StyleMap id="line-0288D1-5000-nodesc"><Pair><key>normal</key><styleUrl>#line-0288D1-5000-nodesc-normal</styleUrl></Pair><Pair><key>highlight</key><styleUrl>#line-0288D1-5000-nodesc-highlight</styleUrl></Pair></StyleMap><Folder><name>Untitled layer</name><Placemark><name>Route / Reitti</name><styleUrl>#line-0288D1-5000-nodesc</styleUrl><LineString><tessellate>1</tessellate><coordinates>            21.77291,61.47486,0            21.77294,61.47476,0            21.773,61.47461,0            21.77302,61.47454,0            21.77302,61.47447,0            21.77299,61.47439,0            21.77291,61.47427,0            21.77285,61.47415,0            21.77276,61.47398,0            21.77267,61.4738,0            21.77263,61.47373,0            21.77252,61.47344,0            21.77244,61.4732,0            21.77235,61.47297,0            21.77232,61.47292,0            21.77225,61.47286,0            21.77216,61.47279,0            21.77206,61.47271,0            21.77202,61.47267,0            21.77201,61.47263,0            21.77189,61.47216,0            21.77184,61.472,0            21.7718,61.47189,0            21.77172,61.47177,0            21.77166,61.4717,0            21.77156,61.47161,0            21.77148,61.47156,0            21.77143,61.47153,0            21.77098,61.47135,0            21.77053,61.47121,0            21.76995,61.47105,0            21.7696,61.47098,0            21.76951,61.47096,0            21.7694,61.47094,0            21.76924,61.47093,0            21.76923,61.47093,0            21.7682,61.47094,0            21.76787,61.47093,0            21.76761,61.47091,0            21.7675,61.4709,0            21.7674,61.47088,0            21.76733,61.47087,0            21.76724,61.47085,0            21.76715,61.47082,0            21.76708,61.47079,0            21.76688,61.4707,0            21.76686,61.47057,0            21.76684,61.47043,0            21.7668,61.47031,0            21.76648,61.46988,0            21.76646,61.46983,0            21.76644,61.46978,0            21.76642,61.46971,0            21.76642,61.46965,0            21.76642,61.46961,0            21.76643,61.46952,0            21.76654,61.46937,0            21.76667,61.46926,0            21.76671,61.46923,0            21.76674,61.4692,0            21.76676,61.46918,0            21.76678,61.46915,0            21.7668,61.46905,0            21.76683,61.46879,0            21.76685,61.46867,0            21.76687,61.46861,0            21.76705,61.46802,0            21.76706,61.46798,0            21.76706,61.46794,0            21.76704,61.46781,0            21.76703,61.46766,0            21.767,61.46753,0            21.76697,61.46742,0            21.76695,61.46732,0            21.76689,61.46723,0            21.76685,61.46718,0            21.7668,61.46713,0            21.76666,61.46703,0            21.76655,61.46696,0            21.76647,61.46688,0            21.76636,61.46677,0            21.76626,61.46666,0            21.76623,61.46661,0            21.76622,61.46658,0            21.76608,61.46599,0            21.76595,61.46546,0            21.76595,61.46541,0            21.76596,61.46537,0            21.76599,61.46532,0            21.76616,61.46511,0            21.76628,61.46497,0            21.76632,61.46489,0            21.76634,61.46483,0            21.76635,61.4648,0            21.76636,61.46476,0            21.76639,61.4644,0            21.76641,61.46423,0            21.76643,61.46413,0            21.76647,61.46407,0            21.76651,61.46403,0            21.76654,61.46399,0            21.7666,61.46395,0            21.76672,61.46388,0            21.76688,61.46379,0            21.76705,61.46374,0            21.76725,61.4637,0            21.76729,61.4637,0            21.76756,61.46365,0            21.76764,61.46364,0            21.76801,61.46359,0            21.76859,61.46352,0            21.769,61.46348,0            21.76938,61.46342,0            21.76959,61.46338,0            21.76972,61.46335,0            21.7698,61.46333,0            21.76993,61.46328,0            21.77009,61.46321,0            21.77015,61.46318,0            21.77024,61.46312,0            21.77029,61.46304,0            21.77033,61.46295,0            21.77035,61.46273,0            21.77041,61.46243,0            21.77043,61.46235,0            21.77047,61.46217,0            21.77047,61.46215,0            21.77047,61.46199,0            21.77048,61.46185,0            21.77048,61.46181,0            21.77049,61.46145,0            21.7705,61.46091,0            21.77051,61.46055,0            21.77051,61.46037,0            21.77051,61.46035,0            21.77055,61.46019,0            21.77059,61.46001,0            21.77068,61.45965,0            21.77076,61.4593,0            21.7708,61.45912,0            21.77089,61.45858,0            21.7709,61.45851,0            21.77105,61.45823,0            21.77111,61.45813,0            21.77114,61.45752,0            21.77115,61.45697,0            21.77115,61.45679,0            21.77115,61.45661,0            21.77115,61.4565,0            21.77116,61.45582,0            21.77121,61.45572,0            21.77128,61.45556,0            21.77129,61.45542,0            21.77129,61.45536,0          </coordinates></LineString></Placemark><Placemark><name><![CDATA[Start & Finish / Lähtö ja maali]]></name><styleUrl>#icon-1899-FFEA00-nodesc</styleUrl><Point><coordinates>            21.77291,61.474856,0          </coordinates></Point></Placemark><Placemark><name>U-Turn / U-Käännös</name><styleUrl>#icon-1899-0288D1-nodesc</styleUrl><Point><coordinates>            21.771288,61.455364,0          </coordinates></Point></Placemark></Folder></Document></kml>