<?xml version="1.0" encoding="UTF-8"?><kml xmlns="http://www.opengis.net/kml/2.2"><Document><name>Tokoinranta parkrun (from Nov 2025)</name><description/><Style id="icon-1899-0F9D58-nodesc-normal"><IconStyle><color>ff589d0f</color><scale>1</scale><Icon><href>https://www.gstatic.com/mapspro/images/stock/503-wht-blank_maps.png</href></Icon><hotSpot x="32" xunits="pixels" y="64" yunits="insetPixels"/></IconStyle><LabelStyle><scale>0</scale></LabelStyle><BalloonStyle><text><![CDATA[<h3>$[name]</h3>]]></text></BalloonStyle></Style><Style id="icon-1899-0F9D58-nodesc-highlight"><IconStyle><color>ff589d0f</color><scale>1</scale><Icon><href>https://www.gstatic.com/mapspro/images/stock/503-wht-blank_maps.png</href></Icon><hotSpot x="32" xunits="pixels" y="64" yunits="insetPixels"/></IconStyle><LabelStyle><scale>1</scale></LabelStyle><BalloonStyle><text><![CDATA[<h3>$[name]</h3>]]></text></BalloonStyle></Style><StyleMap id="icon-1899-0F9D58-nodesc"><Pair><key>normal</key><styleUrl>#icon-1899-0F9D58-nodesc-normal</styleUrl></Pair><Pair><key>highlight</key><styleUrl>#icon-1899-0F9D58-nodesc-highlight</styleUrl></Pair></StyleMap><Style id="icon-1899-FF5252-nodesc-normal"><IconStyle><color>ff5252ff</color><scale>1</scale><Icon><href>https://www.gstatic.com/mapspro/images/stock/503-wht-blank_maps.png</href></Icon><hotSpot x="32" xunits="pixels" y="64" yunits="insetPixels"/></IconStyle><LabelStyle><scale>0</scale></LabelStyle><BalloonStyle><text><![CDATA[<h3>$[name]</h3>]]></text></BalloonStyle></Style><Style id="icon-1899-FF5252-nodesc-highlight"><IconStyle><color>ff5252ff</color><scale>1</scale><Icon><href>https://www.gstatic.com/mapspro/images/stock/503-wht-blank_maps.png</href></Icon><hotSpot x="32" xunits="pixels" y="64" yunits="insetPixels"/></IconStyle><LabelStyle><scale>1</scale></LabelStyle><BalloonStyle><text><![CDATA[<h3>$[name]</h3>]]></text></BalloonStyle></Style><StyleMap id="icon-1899-FF5252-nodesc"><Pair><key>normal</key><styleUrl>#icon-1899-FF5252-nodesc-normal</styleUrl></Pair><Pair><key>highlight</key><styleUrl>#icon-1899-FF5252-nodesc-highlight</styleUrl></Pair></StyleMap><Style id="line-0288D1-5650-nodesc-normal"><LineStyle><color>ffd18802</color><width>5.65</width></LineStyle><BalloonStyle><text><![CDATA[<h3>$[name]</h3>]]></text></BalloonStyle></Style><Style id="line-0288D1-5650-nodesc-highlight"><LineStyle><color>ffd18802</color><width>8.475</width></LineStyle><BalloonStyle><text><![CDATA[<h3>$[name]</h3>]]></text></BalloonStyle></Style><StyleMap id="line-0288D1-5650-nodesc"><Pair><key>normal</key><styleUrl>#line-0288D1-5650-nodesc-normal</styleUrl></Pair><Pair><key>highlight</key><styleUrl>#line-0288D1-5650-nodesc-highlight</styleUrl></Pair></StyleMap><Folder><name>Untitled layer</name><Placemark><name>Course</name><styleUrl>#line-0288D1-5650-nodesc</styleUrl><LineString><tessellate>1</tessellate><coordinates>            24.9462917,60.1804283,0            24.9458433,60.1805017,0            24.9425867,60.1801683,0            24.9423067,60.18013,0            24.94168,60.1803583,0            24.941425,60.1805483,0            24.9411505,60.1807063,0            24.941075,60.1806933,0            24.9409283,60.1806617,0            24.940385,60.1806917,0            24.9400067,60.1807617,0            24.9396733,60.180845,0            24.93959,60.1810283,0            24.9396017,60.18121,0            24.939578,60.1813428,0            24.9393183,60.1816117,0            24.93911,60.1817,0            24.938955,60.181725,0            24.9376733,60.1817383,0            24.93753,60.181775,0            24.9373917,60.1818817,0            24.9372567,60.18206,0            24.9371783,60.1821033,0            24.9370433,60.182055,0            24.9369675,60.1819537,0            24.9369809,60.1818129,0            24.9372183,60.1813333,0            24.9373396,60.1811242,0            24.9374811,60.1809871,0            24.9376333,60.18089,0            24.9376791,60.1808471,0            24.9377503,60.1805895,0            24.9379918,60.180302,0            24.9382173,60.179921,0            24.9382898,60.1797298,0            24.9383033,60.17954,0            24.9382995,60.1792773,0            24.9382286,60.1790627,0            24.9376536,60.178659,0            24.9370398,60.1782547,0            24.9360163,60.1775577,0            24.9357555,60.1774172,0            24.9354517,60.1772967,0            24.9348799,60.1771093,0            24.9344587,60.1770354,0            24.9340382,60.1770329,0            24.933615,60.1770517,0            24.9330267,60.1771167,0            24.9327291,60.1771677,0            24.9324516,60.1772353,0            24.93171,60.1775317,0            24.9315183,60.1776167,0            24.9313369,60.1777327,0            24.9311716,60.177989,0            24.9308609,60.1785173,0            24.9308333,60.1787133,0            24.9308991,60.1789041,0            24.9310956,60.1793256,0            24.9311866,60.180862,0            24.9312444,60.1812077,0            24.93138,60.1815533,0            24.9316617,60.1822333,0            24.931761,60.1824803,0            24.931761,60.1826831,0            24.9317127,60.18289,0            24.9320767,60.1837483,0            24.93237,60.184355,0            24.932431,60.1844734,0            24.932535,60.1845317,0            24.9327487,60.1845878,0            24.9345583,60.1848333,0            24.9348156,60.184862,0            24.9350648,60.1848206,0            24.9354617,60.1846367,0            24.9357976,60.1844017,0          </coordinates></LineString></Placemark><Placemark><name>Finish</name><styleUrl>#icon-1899-FF5252-nodesc</styleUrl><Point><coordinates>            24.94629167,60.18042833,0          </coordinates></Point></Placemark><Placemark><name>Start</name><styleUrl>#icon-1899-0F9D58-nodesc</styleUrl><Point><coordinates>            24.94611833,60.18045,-2          </coordinates></Point></Placemark></Folder></Document></kml>