<?xml version="1.0" encoding="UTF-8"?><kml xmlns="http://www.opengis.net/kml/2.2"><Document><name>Tøyen parkrun (from Apr 2025)</name><description/><Style id="icon-1899-0F9D58-nodesc-normal"><IconStyle><color>ff589d0f</color><scale>1</scale><Icon><href>https://www.gstatic.com/mapspro/images/stock/503-wht-blank_maps.png</href></Icon><hotSpot x="32" xunits="pixels" y="64" yunits="insetPixels"/></IconStyle><LabelStyle><scale>0</scale></LabelStyle><BalloonStyle><text><![CDATA[<h3>$[name]</h3>]]></text></BalloonStyle></Style><Style id="icon-1899-0F9D58-nodesc-highlight"><IconStyle><color>ff589d0f</color><scale>1</scale><Icon><href>https://www.gstatic.com/mapspro/images/stock/503-wht-blank_maps.png</href></Icon><hotSpot x="32" xunits="pixels" y="64" yunits="insetPixels"/></IconStyle><LabelStyle><scale>1</scale></LabelStyle><BalloonStyle><text><![CDATA[<h3>$[name]</h3>]]></text></BalloonStyle></Style><StyleMap id="icon-1899-0F9D58-nodesc"><Pair><key>normal</key><styleUrl>#icon-1899-0F9D58-nodesc-normal</styleUrl></Pair><Pair><key>highlight</key><styleUrl>#icon-1899-0F9D58-nodesc-highlight</styleUrl></Pair></StyleMap><Style id="icon-1899-FF5252-nodesc-normal"><IconStyle><color>ff5252ff</color><scale>1</scale><Icon><href>https://www.gstatic.com/mapspro/images/stock/503-wht-blank_maps.png</href></Icon><hotSpot x="32" xunits="pixels" y="64" yunits="insetPixels"/></IconStyle><LabelStyle><scale>0</scale></LabelStyle><BalloonStyle><text><![CDATA[<h3>$[name]</h3>]]></text></BalloonStyle></Style><Style id="icon-1899-FF5252-nodesc-highlight"><IconStyle><color>ff5252ff</color><scale>1</scale><Icon><href>https://www.gstatic.com/mapspro/images/stock/503-wht-blank_maps.png</href></Icon><hotSpot x="32" xunits="pixels" y="64" yunits="insetPixels"/></IconStyle><LabelStyle><scale>1</scale></LabelStyle><BalloonStyle><text><![CDATA[<h3>$[name]</h3>]]></text></BalloonStyle></Style><StyleMap id="icon-1899-FF5252-nodesc"><Pair><key>normal</key><styleUrl>#icon-1899-FF5252-nodesc-normal</styleUrl></Pair><Pair><key>highlight</key><styleUrl>#icon-1899-FF5252-nodesc-highlight</styleUrl></Pair></StyleMap><Style id="line-0288D1-5456-nodesc-normal"><LineStyle><color>ffd18802</color><width>5.456</width></LineStyle><BalloonStyle><text><![CDATA[<h3>$[name]</h3>]]></text></BalloonStyle></Style><Style id="line-0288D1-5456-nodesc-highlight"><LineStyle><color>ffd18802</color><width>8.184</width></LineStyle><BalloonStyle><text><![CDATA[<h3>$[name]</h3>]]></text></BalloonStyle></Style><StyleMap id="line-0288D1-5456-nodesc"><Pair><key>normal</key><styleUrl>#line-0288D1-5456-nodesc-normal</styleUrl></Pair><Pair><key>highlight</key><styleUrl>#line-0288D1-5456-nodesc-highlight</styleUrl></Pair></StyleMap><Folder><name>Untitled layer</name><Placemark><name>Course</name><styleUrl>#line-0288D1-5456-nodesc</styleUrl><LineString><tessellate>1</tessellate><coordinates>            10.7764651,59.9178936,0            10.7770139,59.9175442,0            10.7772695,59.9173213,0            10.7775398,59.9170211,0            10.7776801,59.9168855,0            10.7776974,59.9168073,0            10.7792455,59.9165293,0            10.7793991,59.9163149,0            10.7794155,59.9161771,0            10.7793354,59.916034,0            10.7791254,59.9159352,0            10.778894,59.9158741,0            10.778413,59.9157817,0            10.7777617,59.9157572,0            10.7774166,59.915812,0            10.7770908,59.9159326,0            10.776882,59.9161015,0            10.7766529,59.9164589,0            10.7761555,59.9169831,0            10.7758937,59.9176451,0            10.7761128,59.9177327,0            10.7758937,59.9176451,0            10.7755122,59.9182905,0            10.7753181,59.91892,0            10.7753114,59.9190857,0            10.7753971,59.9192468,0            10.7756959,59.9196395,0            10.7763826,59.9200268,0            10.7769261,59.9202418,0            10.7773285,59.9205775,0            10.7774582,59.9208428,0            10.7775054,59.9213543,0            10.7775422,59.9214074,0            10.7776394,59.921416,0            10.7777668,59.921355,0            10.777938,59.9211788,0            10.7780705,59.9209876,0            10.7781113,59.9205641,0            10.7780406,59.9197532,0            10.7779021,59.9190703,0            10.7778067,59.9183076,0            10.7777753,59.918018,0            10.7778726,59.9177499,0            10.7782602,59.9173751,0            10.7787799,59.9171158,0            10.7791076,59.9170009,0            10.7794674,59.9167999,0            10.7796746,59.9166135,0            10.7797101,59.9164325,0            10.779697,59.9162753,0            10.7795981,59.9161504,0            10.7794795,59.9160226,0            10.7792476,59.9158977,0            10.7788893,59.9158263,0            10.778413,59.9157817,0          </coordinates></LineString></Placemark><Placemark><name>Finish</name><styleUrl>#icon-1899-FF5252-nodesc</styleUrl><Point><coordinates>            10.7761128433049,59.9177327379584,45.5999984741211          </coordinates></Point></Placemark><Placemark><name>Start</name><styleUrl>#icon-1899-0F9D58-nodesc</styleUrl><Point><coordinates>            10.7764651346952,59.9178935866803,45.4000015258789          </coordinates></Point></Placemark></Folder></Document></kml>