<?xml version="1.0" encoding="UTF-8"?><kml xmlns="http://www.opengis.net/kml/2.2"><Document><name>West Coast Park parkrun</name><description/><Style id="icon-1899-097138-nodesc-normal"><IconStyle><color>ff387109</color><scale>1</scale><Icon><href>https://www.gstatic.com/mapspro/images/stock/503-wht-blank_maps.png</href></Icon><hotSpot x="32" xunits="pixels" y="64" yunits="insetPixels"/></IconStyle><LabelStyle><scale>0</scale></LabelStyle><BalloonStyle><text><![CDATA[<h3>$[name]</h3>]]></text></BalloonStyle></Style><Style id="icon-1899-097138-nodesc-highlight"><IconStyle><color>ff387109</color><scale>1</scale><Icon><href>https://www.gstatic.com/mapspro/images/stock/503-wht-blank_maps.png</href></Icon><hotSpot x="32" xunits="pixels" y="64" yunits="insetPixels"/></IconStyle><LabelStyle><scale>1</scale></LabelStyle><BalloonStyle><text><![CDATA[<h3>$[name]</h3>]]></text></BalloonStyle></Style><StyleMap id="icon-1899-097138-nodesc"><Pair><key>normal</key><styleUrl>#icon-1899-097138-nodesc-normal</styleUrl></Pair><Pair><key>highlight</key><styleUrl>#icon-1899-097138-nodesc-highlight</styleUrl></Pair></StyleMap><Style id="icon-1899-FF5252-nodesc-normal"><IconStyle><color>ff5252ff</color><scale>1</scale><Icon><href>https://www.gstatic.com/mapspro/images/stock/503-wht-blank_maps.png</href></Icon><hotSpot x="32" xunits="pixels" y="64" yunits="insetPixels"/></IconStyle><LabelStyle><scale>0</scale></LabelStyle><BalloonStyle><text><![CDATA[<h3>$[name]</h3>]]></text></BalloonStyle></Style><Style id="icon-1899-FF5252-nodesc-highlight"><IconStyle><color>ff5252ff</color><scale>1</scale><Icon><href>https://www.gstatic.com/mapspro/images/stock/503-wht-blank_maps.png</href></Icon><hotSpot x="32" xunits="pixels" y="64" yunits="insetPixels"/></IconStyle><LabelStyle><scale>1</scale></LabelStyle><BalloonStyle><text><![CDATA[<h3>$[name]</h3>]]></text></BalloonStyle></Style><StyleMap id="icon-1899-FF5252-nodesc"><Pair><key>normal</key><styleUrl>#icon-1899-FF5252-nodesc-normal</styleUrl></Pair><Pair><key>highlight</key><styleUrl>#icon-1899-FF5252-nodesc-highlight</styleUrl></Pair></StyleMap><Style id="line-0288D1-5263-nodesc-normal"><LineStyle><color>ffd18802</color><width>5.263</width></LineStyle><BalloonStyle><text><![CDATA[<h3>$[name]</h3>]]></text></BalloonStyle></Style><Style id="line-0288D1-5263-nodesc-highlight"><LineStyle><color>ffd18802</color><width>7.8945</width></LineStyle><BalloonStyle><text><![CDATA[<h3>$[name]</h3>]]></text></BalloonStyle></Style><StyleMap id="line-0288D1-5263-nodesc"><Pair><key>normal</key><styleUrl>#line-0288D1-5263-nodesc-normal</styleUrl></Pair><Pair><key>highlight</key><styleUrl>#line-0288D1-5263-nodesc-highlight</styleUrl></Pair></StyleMap><Folder><name>Course</name><Placemark><name>Course</name><styleUrl>#line-0288D1-5263-nodesc</styleUrl><LineString><tessellate>1</tessellate><coordinates>            103.76064,1.29776,0            103.76097,1.29735,0            103.76132,1.29706,0            103.76164,1.29687,0            103.76197,1.29672,0            103.762,1.29671,0            103.76228,1.29664,0            103.76243,1.29665,0            103.76253,1.29672,0            103.76263,1.29692,0            103.76266,1.29697,0            103.76275,1.29703,0            103.76295,1.29712,0            103.76305,1.29717,0            103.76313,1.2971,0            103.76338,1.29695,0            103.76366,1.29679,0            103.76374,1.29673,0            103.76382,1.29662,0            103.76387,1.29648,0            103.76391,1.2963,0            103.76394,1.29612,0            103.76402,1.29599,0            103.76417,1.29575,0            103.76424,1.29553,0            103.76422,1.29541,0            103.76415,1.2953,0            103.76402,1.29513,0            103.76393,1.29495,0            103.76389,1.29469,0            103.7639,1.29443,0            103.76392,1.29434,0            103.76398,1.29393,0            103.76408,1.29366,0            103.76428,1.29339,0            103.76451,1.29312,0            103.76464,1.293,0            103.76558,1.29218,0            103.76583,1.29195,0            103.76608,1.29175,0            103.76618,1.29173,0            103.76633,1.29175,0            103.7664,1.29174,0            103.76651,1.2917,0            103.76666,1.29157,0            103.76684,1.29136,0            103.76727,1.29097,0            103.76737,1.2909,0            103.76743,1.29088,0            103.76744,1.29089,0            103.76764,1.29076,0            103.76799,1.29058,0            103.76833,1.29043,0            103.76882,1.29026,0            103.76911,1.29018,0            103.76928,1.29014,0            103.76931,1.29012,0            103.76954,1.28996,0            103.76978,1.28985,0            103.76982,1.28984,0            103.76992,1.28981,0            103.76994,1.28986,0            103.76994,1.28989,0            103.76999,1.28987,0            103.77004,1.28985,0            103.77074,1.28957,0            103.77137,1.28935,0            103.77162,1.28919,0            103.77177,1.28914,0            103.77235,1.28903,0            103.77255,1.28898,0            103.7729,1.28884,0            103.77298,1.28879,0            103.77306,1.28876,0            103.77377,1.2887,0            103.77427,1.28864,0            103.77442,1.28856,0            103.77458,1.28842,0            103.77464,1.28829,0            103.77462,1.28821,0            103.77441,1.28791,0            103.77421,1.28765,0            103.77404,1.28749,0            103.77385,1.28738,0            103.77373,1.28737,0            103.77349,1.28748,0            103.7733,1.28761,0            103.77295,1.28782,0            103.7728,1.28789,0            103.77266,1.28791,0            103.77257,1.28791,0            103.7725,1.28792,0            103.77242,1.28796,0            103.77218,1.28806,0            103.77199,1.28811,0            103.77152,1.28818,0            103.77116,1.28832,0            103.77108,1.28838,0            103.77101,1.28851,0            103.77086,1.28859,0            103.77075,1.28872,0            103.77053,1.2889,0            103.77032,1.28896,0            103.77023,1.289,0            103.77016,1.28906,0            103.76999,1.28924,0            103.76985,1.28934,0            103.76975,1.28942,0            103.76974,1.28948,0            103.76987,1.2897,0            103.76992,1.28981,0            103.76981,1.28984,0            103.76972,1.28987,0            103.76958,1.28994,0            103.76942,1.29004,0            103.76929,1.29014,0            103.76906,1.29019,0            103.76866,1.29031,0            103.76833,1.29043,0            103.76799,1.29058,0            103.76764,1.29076,0            103.76744,1.29089,0            103.76743,1.29088,0            103.76737,1.2909,0            103.76722,1.29101,0            103.76686,1.29134,0            103.76677,1.29142,0            103.7666,1.29163,0            103.76651,1.2917,0            103.7664,1.29174,0            103.76633,1.29175,0            103.76618,1.29173,0            103.76608,1.29175,0            103.76583,1.29195,0            103.76517,1.29255,0            103.76497,1.29272,0            103.76458,1.29306,0            103.76441,1.29324,0            103.76415,1.29355,0            103.76408,1.29366,0            103.76402,1.2938,0            103.76394,1.29415,0            103.76391,1.29436,0            103.76388,1.29453,0            103.76391,1.29485,0            103.76395,1.295,0            103.76422,1.29541,0            103.76424,1.29553,0            103.76417,1.29575,0            103.76394,1.29612,0            103.76391,1.2963,0            103.76387,1.29648,0            103.76382,1.29662,0            103.76374,1.29673,0            103.76366,1.29679,0            103.7636,1.29683,0            103.76318,1.29706,0            103.76303,1.29718,0            103.76296,1.29727,0            103.76294,1.29748,0            103.76301,1.2978,0            103.76304,1.29813,0            103.76302,1.29823,0            103.76297,1.29836,0            103.76273,1.29879,0            103.76273,1.29881,0            103.76271,1.29883,0            103.76243,1.29934,0            103.76243,1.29949,0            103.76245,1.29957,0            103.76243,1.29968,0            103.76237,1.2998,0            103.76227,1.29986,0            103.76218,1.29987,0            103.76205,1.29986,0            103.76198,1.29983,0            103.76191,1.29976,0            103.76183,1.29956,0            103.76178,1.29952,0            103.76171,1.29952,0            103.76163,1.29952,0            103.76148,1.29941,0            103.7614,1.29936,0            103.76134,1.29935,0            103.76121,1.29938,0            103.76108,1.2994,0            103.76096,1.29936,0            103.76062,1.29916,0            103.76044,1.29901,0            103.76036,1.29892,0            103.76029,1.29865,0            103.7603,1.29842,0            103.76035,1.29823,0            103.76049,1.29798,0            103.76081,1.29754,0            103.76107,1.29725,0            103.7614,1.29701,0            103.76151,1.29694,0          </coordinates></LineString></Placemark><Placemark><name>Start</name><styleUrl>#icon-1899-097138-nodesc</styleUrl><Point><coordinates>            103.76064,1.29776,0          </coordinates></Point></Placemark><Placemark><name>Finish</name><styleUrl>#icon-1899-FF5252-nodesc</styleUrl><Point><coordinates>            103.76151,1.29694,0          </coordinates></Point></Placemark></Folder></Document></kml>