<?xml version="1.0" encoding="UTF-8"?><kml xmlns="http://www.opengis.net/kml/2.2"><Document><name>Fælledparken parkrun (from Apr 2026)</name><description>Fælledparken parkrun</description><Style id="icon-503-009D57-nodesc-normal"><IconStyle><color>ff579d00</color><scale>1.1</scale><Icon><href>https://www.gstatic.com/mapspro/images/stock/503-wht-blank_maps.png</href></Icon><hotSpot x="16" xunits="pixels" y="32" yunits="insetPixels"/></IconStyle><LabelStyle><scale>0</scale></LabelStyle><BalloonStyle><text><![CDATA[<h3>$[name]</h3>]]></text></BalloonStyle></Style><Style id="icon-503-009D57-nodesc-highlight"><IconStyle><color>ff579d00</color><scale>1.1</scale><Icon><href>https://www.gstatic.com/mapspro/images/stock/503-wht-blank_maps.png</href></Icon><hotSpot x="16" xunits="pixels" y="32" yunits="insetPixels"/></IconStyle><LabelStyle><scale>1.1</scale></LabelStyle><BalloonStyle><text><![CDATA[<h3>$[name]</h3>]]></text></BalloonStyle></Style><StyleMap id="icon-503-009D57-nodesc"><Pair><key>normal</key><styleUrl>#icon-503-009D57-nodesc-normal</styleUrl></Pair><Pair><key>highlight</key><styleUrl>#icon-503-009D57-nodesc-highlight</styleUrl></Pair></StyleMap><Style id="icon-503-DB4436-nodesc-normal"><IconStyle><color>ff3644db</color><scale>1.1</scale><Icon><href>https://www.gstatic.com/mapspro/images/stock/503-wht-blank_maps.png</href></Icon><hotSpot x="16" xunits="pixels" y="32" yunits="insetPixels"/></IconStyle><LabelStyle><scale>0</scale></LabelStyle><BalloonStyle><text><![CDATA[<h3>$[name]</h3>]]></text></BalloonStyle></Style><Style id="icon-503-DB4436-nodesc-highlight"><IconStyle><color>ff3644db</color><scale>1.1</scale><Icon><href>https://www.gstatic.com/mapspro/images/stock/503-wht-blank_maps.png</href></Icon><hotSpot x="16" xunits="pixels" y="32" yunits="insetPixels"/></IconStyle><LabelStyle><scale>1.1</scale></LabelStyle><BalloonStyle><text><![CDATA[<h3>$[name]</h3>]]></text></BalloonStyle></Style><StyleMap id="icon-503-DB4436-nodesc"><Pair><key>normal</key><styleUrl>#icon-503-DB4436-nodesc-normal</styleUrl></Pair><Pair><key>highlight</key><styleUrl>#icon-503-DB4436-nodesc-highlight</styleUrl></Pair></StyleMap><Style id="line-4186F0-5069-nodesc-normal"><LineStyle><color>fff08641</color><width>5.069</width></LineStyle><BalloonStyle><text><![CDATA[<h3>$[name]</h3>]]></text></BalloonStyle></Style><Style id="line-4186F0-5069-nodesc-highlight"><LineStyle><color>fff08641</color><width>7.6035</width></LineStyle><BalloonStyle><text><![CDATA[<h3>$[name]</h3>]]></text></BalloonStyle></Style><StyleMap id="line-4186F0-5069-nodesc"><Pair><key>normal</key><styleUrl>#line-4186F0-5069-nodesc-normal</styleUrl></Pair><Pair><key>highlight</key><styleUrl>#line-4186F0-5069-nodesc-highlight</styleUrl></Pair></StyleMap><Folder><name>Untitled layer</name><Placemark><name>Faelledparken parkrun route</name><styleUrl>#line-4186F0-5069-nodesc</styleUrl><LineString><tessellate>1</tessellate><coordinates>            12.56807,55.70302,13.39            12.56782,55.70308,13.52            12.5675,55.70306,13.7            12.5673,55.70299,13.7            12.56716,55.70288,13.93            12.56708,55.70274,13.93            12.56705,55.70255,14.07            12.56694,55.70239,14.06            12.56679,55.70224,14.06            12.5664,55.70204,14.16            12.56622,55.70187,14.13            12.56611,55.70169,14.13            12.56607,55.70136,14.23            12.56607,55.70135,14.23            12.56601,55.70117,14.3            12.56579,55.70078,14.94            12.56564,55.70059,14.98            12.56549,55.70014,15.04            12.56549,55.69998,14.87            12.56553,55.69983,14.56            12.56559,55.6997,14.56            12.56598,55.69927,13.71            12.56639,55.69901,13.36            12.5668,55.69881,13.05            12.56762,55.69852,12.49            12.56842,55.6981,12.11            12.56877,55.69802,12.05            12.56968,55.69787,11.73            12.57002,55.69775,11.6            12.57025,55.69765,11.46            12.57055,55.69746,11.39            12.57103,55.69743,11.21            12.57123,55.69746,11.2            12.57133,55.69748,11.2            12.57148,55.69754,11.22            12.57164,55.69764,11.33            12.57178,55.69781,11.36            12.57193,55.69791,11.36            12.57229,55.69804,11.28            12.57258,55.69823,11.4            12.57272,55.69838,11.4            12.5728,55.69854,11.37            12.57284,55.69871,11.37            12.5728,55.69887,11.37            12.5727,55.69898,11.58            12.57265,55.69908,11.58            12.57265,55.6992,11.58            12.57273,55.69933,11.58            12.57283,55.69944,11.58            12.57283,55.69958,11.77            12.57277,55.6997,11.77            12.57266,55.69989,11.86            12.57245,55.70011,12.01            12.57209,55.70036,12.05            12.57131500847,55.7007850024167,12.34            12.57054,55.70121,12.42            12.57033,55.70136,12.4            12.57005,55.70163,12.6            12.56939,55.70219,12.71            12.56934,55.7022,12.71            12.56916,55.70233,12.81            12.56903,55.70248,13.09            12.56898,55.70264,13.17            12.56862,55.70273,13.22            12.56839,55.70282,13.22            12.56807,55.70302,13.39            12.56782,55.70308,13.52            12.5675,55.70306,13.7            12.5673,55.70299,13.7            12.56716,55.70288,13.93            12.56708,55.70274,13.93            12.56705,55.70255,14.07            12.56694,55.70239,14.06            12.56679,55.70224,14.06            12.5664,55.70204,14.16            12.56622,55.70187,14.13            12.56611,55.70169,14.13            12.56607,55.70135,14.25            12.56601,55.70117,14.3            12.56579,55.70078,14.76            12.56564,55.70059,14.98            12.56549,55.70014,15.04            12.56549,55.69998,14.87            12.56553,55.69983,14.56            12.56559,55.6997,14.56            12.56598,55.69927,13.71            12.56639,55.69901,13.36            12.5668,55.69881,13.05            12.56762,55.69852,12.49            12.56842,55.6981,12.11            12.56877,55.69802,12.05            12.56968,55.69787,11.73            12.57,55.69777,11.66            12.57025,55.69765,11.39            12.57055,55.69746,11.39            12.57103,55.69743,11.21            12.57133,55.69748,11.22            12.57148,55.69754,11.22            12.57164,55.69764,11.33            12.57178,55.69781,11.36            12.57193,55.69791,11.31            12.57207,55.69796,11.31            12.57206,55.69796,11.31            12.57229,55.69804,11.28            12.57258,55.69823,11.4            12.57272,55.69838,11.4            12.5728,55.69854,11.37            12.57284,55.69871,11.37            12.5728,55.69887,11.37            12.5727,55.69898,11.58            12.57265,55.69908,11.58            12.57265,55.6992,11.58            12.57273,55.69933,11.58            12.57283,55.69944,11.58            12.57283,55.69958,11.58            12.57277,55.6997,11.86            12.57266,55.69989,11.86            12.57245,55.70011,12.01            12.57209,55.70036,12.05            12.57131500847,55.7007850024167,12.34            12.57054,55.70121,12.42            12.57033,55.70136,12.4            12.57005,55.70163,12.6            12.56934,55.7022,12.63            12.56916,55.70233,12.81            12.56903,55.70248,13.09            12.56898,55.70264,13.17            12.56862,55.70273,13.23            12.56852,55.70276,13.23            12.56839,55.70282,13.23            12.56807,55.70302,13.39            12.56782,55.70308,13.52            12.5675,55.70306,13.7            12.5673,55.70299,13.7            12.56716,55.70288,13.93            12.56708,55.70274,13.93            12.56705,55.70255,14.07            12.56694,55.70239,14.06            12.56679,55.70224,14.06            12.5664,55.70204,14.16            12.56622,55.70187,14.13            12.56611,55.70169,14.13            12.56607,55.70135,14.26            12.56604,55.70126,14.26            12.56601,55.70117,14.3            12.56579,55.70078,14.56            12.56564,55.70059,14.98            12.56549,55.70014,15.04            12.56549,55.69998,14.87            12.56553,55.69983,14.56            12.56559,55.6997,14.56            12.56598,55.69927,13.71            12.56639,55.69901,13.36            12.5668,55.69881,13.05            12.56762,55.69852,12.49            12.56784,55.69841,12.34            12.56842,55.6981,12.11            12.56877,55.69802,12.05            12.56968,55.69787,11.73            12.57,55.69777,11.66            12.57025,55.69765,11.39            12.57055,55.69746,11.39            12.57103,55.69743,11.21            12.57123,55.69746,11.2            12.57133,55.69748,11.2            12.57148,55.69754,11.22            12.57164,55.69764,11.33            12.57178,55.69781,11.36            12.57193,55.69791,11.36            12.57229,55.69804,11.28            12.57258,55.69823,11.4            12.57272,55.69838,11.4            12.5728,55.69854,11.37            12.57284,55.69871,11.37            12.5728,55.69887,11.37            12.5727,55.69898,11.58            12.57265,55.69908,11.58            12.57265,55.6992,11.58            12.57273,55.69933,11.58            12.57283,55.69944,11.64            12.57283,55.69958,11.64            12.57266,55.69989,11.86            12.57245,55.70011,12.01            12.57209,55.70036,12.05            12.57131500847,55.7007850024167,12.34            12.57054,55.70121,12.42            12.57033,55.70136,12.4            12.57005,55.70163,12.6            12.56934,55.7022,12.63            12.56916,55.70233,12.81            12.56903,55.70248,13.09            12.56898,55.70264,13.17            12.56862,55.70273,13.22            12.56839,55.70282,13.22            12.56807,55.70302,13.39            12.56782,55.70308,13.52            12.5675,55.70306,13.7          </coordinates></LineString></Placemark><Placemark><name>Finish</name><styleUrl>#icon-503-DB4436-nodesc</styleUrl><Point><coordinates>            12.5675,55.70306,13.7          </coordinates></Point></Placemark><Placemark><name>Start</name><styleUrl>#icon-503-009D57-nodesc</styleUrl><Point><coordinates>            12.56807,55.70302,13.39          </coordinates></Point></Placemark></Folder></Document></kml>