<?xml version="1.0" encoding="UTF-8"?><kml xmlns="http://www.opengis.net/kml/2.2"><Document><name>Holbæk Fælled parkrun</name><description/><Style id="icon-1899-0F9D58-nodesc-normal"><IconStyle><color>ff589d0f</color><scale>1</scale><Icon><href>https://www.gstatic.com/mapspro/images/stock/503-wht-blank_maps.png</href></Icon><hotSpot x="32" xunits="pixels" y="64" yunits="insetPixels"/></IconStyle><LabelStyle><scale>0</scale></LabelStyle><BalloonStyle><text><![CDATA[<h3>$[name]</h3>]]></text></BalloonStyle></Style><Style id="icon-1899-0F9D58-nodesc-highlight"><IconStyle><color>ff589d0f</color><scale>1</scale><Icon><href>https://www.gstatic.com/mapspro/images/stock/503-wht-blank_maps.png</href></Icon><hotSpot x="32" xunits="pixels" y="64" yunits="insetPixels"/></IconStyle><LabelStyle><scale>1</scale></LabelStyle><BalloonStyle><text><![CDATA[<h3>$[name]</h3>]]></text></BalloonStyle></Style><StyleMap id="icon-1899-0F9D58-nodesc"><Pair><key>normal</key><styleUrl>#icon-1899-0F9D58-nodesc-normal</styleUrl></Pair><Pair><key>highlight</key><styleUrl>#icon-1899-0F9D58-nodesc-highlight</styleUrl></Pair></StyleMap><Style id="icon-1899-FF5252-nodesc-normal"><IconStyle><color>ff5252ff</color><scale>1</scale><Icon><href>https://www.gstatic.com/mapspro/images/stock/503-wht-blank_maps.png</href></Icon><hotSpot x="32" xunits="pixels" y="64" yunits="insetPixels"/></IconStyle><LabelStyle><scale>0</scale></LabelStyle><BalloonStyle><text><![CDATA[<h3>$[name]</h3>]]></text></BalloonStyle></Style><Style id="icon-1899-FF5252-nodesc-highlight"><IconStyle><color>ff5252ff</color><scale>1</scale><Icon><href>https://www.gstatic.com/mapspro/images/stock/503-wht-blank_maps.png</href></Icon><hotSpot x="32" xunits="pixels" y="64" yunits="insetPixels"/></IconStyle><LabelStyle><scale>1</scale></LabelStyle><BalloonStyle><text><![CDATA[<h3>$[name]</h3>]]></text></BalloonStyle></Style><StyleMap id="icon-1899-FF5252-nodesc"><Pair><key>normal</key><styleUrl>#icon-1899-FF5252-nodesc-normal</styleUrl></Pair><Pair><key>highlight</key><styleUrl>#icon-1899-FF5252-nodesc-highlight</styleUrl></Pair></StyleMap><Style id="line-0288D1-5650-nodesc-normal"><LineStyle><color>ffd18802</color><width>5.65</width></LineStyle><BalloonStyle><text><![CDATA[<h3>$[name]</h3>]]></text></BalloonStyle></Style><Style id="line-0288D1-5650-nodesc-highlight"><LineStyle><color>ffd18802</color><width>8.475</width></LineStyle><BalloonStyle><text><![CDATA[<h3>$[name]</h3>]]></text></BalloonStyle></Style><StyleMap id="line-0288D1-5650-nodesc"><Pair><key>normal</key><styleUrl>#line-0288D1-5650-nodesc-normal</styleUrl></Pair><Pair><key>highlight</key><styleUrl>#line-0288D1-5650-nodesc-highlight</styleUrl></Pair></StyleMap><Folder><name>Untitled layer</name><Placemark><name>Course</name><styleUrl>#line-0288D1-5650-nodesc</styleUrl><LineString><tessellate>1</tessellate><coordinates>            11.74005,55.70864,0            11.74005,55.70857,0            11.74007,55.70842,0            11.74007,55.7084,0            11.74005,55.70836,0            11.74001,55.70831,0            11.73996,55.70827,0            11.73983,55.70825,0            11.73973,55.70823,0            11.73963,55.70818,0            11.73956,55.70813,0            11.73953,55.70807,0            11.73953,55.70802,0            11.73953,55.70796,0            11.73954,55.70791,0            11.73961,55.70743,0            11.73964,55.70722,0            11.73964,55.70712,0            11.73963,55.70703,0            11.73956,55.70672,0            11.73954,55.70669,0            11.73949,55.70668,0            11.73936,55.70669,0            11.73919,55.70669,0            11.73892,55.70671,0            11.73874,55.70671,0            11.73853,55.70671,0            11.73844,55.70671,0            11.73845,55.70661,0            11.73845,55.70651,0            11.73842,55.70644,0            11.73838,55.70639,0            11.73834,55.70635,0            11.73878,55.70609,0            11.73882,55.70606,0            11.73889,55.70603,0            11.73897,55.70602,0            11.74105,55.70585,0            11.74126,55.70584,0            11.74136,55.70584,0            11.74148,55.70585,0            11.74161,55.70587,0            11.74175,55.70591,0            11.74192,55.706,0            11.74206,55.70609,0            11.74222,55.7062,0            11.7424,55.70633,0            11.74241,55.70634,0            11.74254,55.70642,0            11.74265,55.70648,0            11.74279,55.70654,0            11.74293,55.70658,0            11.7431,55.7066,0            11.74327,55.70661,0            11.74352,55.70662,0            11.74367,55.7066,0            11.74377,55.70659,0            11.74384,55.70656,0            11.74403,55.70653,0            11.74441,55.70653,0            11.74469,55.70655,0            11.74505,55.70659,0            11.74563,55.7067,0            11.74614,55.70679,0            11.74638,55.70682,0            11.74654,55.70682,0            11.74685,55.70682,0            11.74708,55.7068,0            11.74723,55.70678,0            11.74734,55.70677,0            11.74745,55.70674,0            11.74752,55.70671,0            11.74757,55.70666,0            11.74757,55.70661,0            11.74756,55.70657,0            11.74755,55.70656,0            11.74751,55.70653,0            11.74741,55.70648,0            11.74733,55.70643,0            11.74731,55.70642,0            11.74722,55.70635,0            11.74713,55.70626,0            11.74712,55.70621,0            11.7471,55.70613,0            11.7471,55.70605,0            11.74712,55.706,0            11.74645,55.7054,0            11.74643,55.70538,0            11.746,55.705,0            11.74583,55.70484,0            11.7458,55.70478,0            11.74567,55.70477,0            11.74567,55.70474,0            11.74564,55.70459,0            11.74564,55.70455,0            11.74564,55.70441,0            11.74566,55.70408,0            11.74564,55.70283,0            11.74563,55.70262,0            11.74562,55.70246,0            11.74562,55.70244,0            11.74563,55.70228,0            11.74561,55.70093,0            11.7449,55.70094,0            11.74477,55.70094,0            11.74454,55.70091,0            11.74402,55.70085,0            11.74385,55.70084,0            11.74362,55.70083,0            11.74337,55.70085,0            11.74313,55.70085,0            11.74284,55.70082,0            11.74268,55.70081,0            11.74239,55.70078,0            11.74236,55.70078,0            11.74221,55.70078,0            11.74197,55.70079,0            11.74169,55.70082,0            11.74125,55.70091,0            11.74106,55.70094,0            11.74085,55.70096,0            11.74048,55.70098,0            11.73996,55.70102,0            11.73961,55.70106,0            11.73955,55.70106,0            11.73922,55.70108,0            11.73903,55.70111,0            11.73858,55.70122,0            11.73828,55.70129,0            11.73808,55.70133,0            11.73796,55.70135,0            11.73772,55.70135,0            11.73743,55.70133,0            11.73735,55.70149,0            11.73725,55.70163,0            11.73714,55.70174,0            11.73713,55.70175,0            11.737,55.70186,0            11.73681,55.70198,0            11.7366,55.70209,0            11.73637,55.70218,0            11.73611,55.70227,0            11.73592,55.70232,0            11.73582,55.70234,0            11.73552,55.70241,0            11.73526,55.70245,0            11.73508,55.70246,0            11.73487,55.70246,0            11.73469,55.70245,0            11.73454,55.70242,0            11.73439,55.70239,0            11.73416,55.70231,0            11.73397,55.7022,0            11.73385,55.70209,0            11.73377,55.70197,0            11.73368,55.70181,0            11.73365,55.70173,0            11.73364,55.7017,0            11.73363,55.7016,0            11.73367,55.70148,0            11.73372,55.70138,0            11.7338,55.70123,0            11.73392,55.70104,0            11.73413,55.70085,0            11.73424,55.70076,0            11.73445,55.70062,0            11.7348,55.70044,0            11.73515,55.70031,0            11.73532,55.70025,0            11.73544,55.70023,0            11.7356,55.70023,0            11.73572,55.70023,0            11.73585,55.70024,0            11.73607,55.70028,0            11.73639,55.70035,0            11.73659,55.70041,0            11.7368,55.70051,0            11.7371,55.70069,0            11.73724,55.70079,0            11.73734,55.70091,0            11.7374,55.70101,0            11.73744,55.70112,0            11.73745,55.70122,0            11.73743,55.70133,0            11.73772,55.70135,0            11.73796,55.70135,0            11.73808,55.70133,0            11.73828,55.70129,0            11.73858,55.70122,0            11.73903,55.70111,0            11.73922,55.70108,0            11.73955,55.70106,0            11.73961,55.70106,0            11.73996,55.70102,0            11.74048,55.70098,0            11.74085,55.70096,0            11.74106,55.70094,0            11.74125,55.70091,0            11.74169,55.70082,0            11.74197,55.70079,0            11.74221,55.70078,0            11.74236,55.70078,0            11.74239,55.70078,0            11.74268,55.70081,0            11.74284,55.70082,0            11.74313,55.70085,0            11.74337,55.70085,0            11.74362,55.70083,0            11.74385,55.70084,0            11.74402,55.70085,0            11.74454,55.70091,0            11.74477,55.70094,0            11.7449,55.70094,0            11.74561,55.70093,0            11.74563,55.70228,0            11.74562,55.70244,0            11.74562,55.70246,0            11.74563,55.70262,0            11.74564,55.70283,0            11.74566,55.70408,0            11.74564,55.70441,0            11.74564,55.70455,0            11.74564,55.70459,0            11.74567,55.70474,0            11.74567,55.70477,0            11.7458,55.70478,0            11.74583,55.70484,0            11.746,55.705,0            11.74643,55.70538,0            11.74645,55.7054,0            11.74712,55.706,0            11.7471,55.70605,0            11.7471,55.70613,0            11.74712,55.70621,0            11.74713,55.70626,0            11.74722,55.70635,0            11.74731,55.70642,0            11.74733,55.70643,0            11.74741,55.70648,0            11.74751,55.70653,0            11.74755,55.70656,0            11.74756,55.70657,0            11.74757,55.70661,0            11.74757,55.70666,0            11.74752,55.70671,0            11.74745,55.70674,0            11.74734,55.70677,0            11.74723,55.70678,0            11.74708,55.7068,0            11.74685,55.70682,0            11.74654,55.70682,0            11.74638,55.70682,0            11.74614,55.70679,0            11.74563,55.7067,0            11.74505,55.70659,0            11.74469,55.70655,0            11.74441,55.70653,0            11.74403,55.70653,0            11.74384,55.70656,0            11.74377,55.70659,0            11.74367,55.7066,0            11.74352,55.70662,0            11.74327,55.70661,0            11.7431,55.7066,0            11.74293,55.70658,0            11.74279,55.70654,0            11.74265,55.70648,0            11.74254,55.70642,0            11.74241,55.70634,0            11.7424,55.70633,0            11.74222,55.7062,0            11.74206,55.70609,0            11.74192,55.706,0            11.74175,55.70591,0            11.74161,55.70587,0            11.74148,55.70585,0            11.74136,55.70584,0            11.74126,55.70584,0            11.74105,55.70585,0            11.73897,55.70602,0            11.73889,55.70603,0            11.73882,55.70606,0            11.73878,55.70609,0            11.73834,55.70635,0            11.73838,55.70639,0            11.73842,55.70644,0            11.73845,55.70651,0            11.73845,55.70661,0            11.73844,55.70671,0            11.73853,55.70671,0            11.73874,55.70671,0            11.73892,55.70671,0            11.73919,55.70669,0            11.73936,55.70669,0            11.73949,55.70668,0            11.73954,55.70669,0            11.73956,55.70672,0            11.73963,55.70703,0            11.73964,55.70712,0            11.73964,55.70722,0            11.73961,55.70743,0            11.73954,55.70791,0            11.73953,55.70796,0            11.73953,55.70802,0            11.73953,55.70807,0            11.73956,55.70813,0            11.73961,55.70816,0          </coordinates></LineString></Placemark><Placemark><name>Mål</name><styleUrl>#icon-1899-FF5252-nodesc</styleUrl><Point><coordinates>            11.739606,55.708164,0          </coordinates></Point></Placemark><Placemark><name>Start</name><styleUrl>#icon-1899-0F9D58-nodesc</styleUrl><Point><coordinates>            11.740045,55.708637,0          </coordinates></Point></Placemark></Folder></Document></kml>