<?xml version="1.0" encoding="UTF-8"?><kml xmlns="http://www.opengis.net/kml/2.2"><Document><name>Ballinamore Greenway parkrun (from Apr 2025)</name><description/><Style id="icon-1899-FFD600-nodesc-normal"><IconStyle><color>ff00d6ff</color><scale>1</scale><Icon><href>https://www.gstatic.com/mapspro/images/stock/503-wht-blank_maps.png</href></Icon><hotSpot x="32" xunits="pixels" y="64" yunits="insetPixels"/></IconStyle><LabelStyle><scale>0</scale></LabelStyle><BalloonStyle><text><![CDATA[<h3>$[name]</h3>]]></text></BalloonStyle></Style><Style id="icon-1899-FFD600-nodesc-highlight"><IconStyle><color>ff00d6ff</color><scale>1</scale><Icon><href>https://www.gstatic.com/mapspro/images/stock/503-wht-blank_maps.png</href></Icon><hotSpot x="32" xunits="pixels" y="64" yunits="insetPixels"/></IconStyle><LabelStyle><scale>1</scale></LabelStyle><BalloonStyle><text><![CDATA[<h3>$[name]</h3>]]></text></BalloonStyle></Style><StyleMap id="icon-1899-FFD600-nodesc"><Pair><key>normal</key><styleUrl>#icon-1899-FFD600-nodesc-normal</styleUrl></Pair><Pair><key>highlight</key><styleUrl>#icon-1899-FFD600-nodesc-highlight</styleUrl></Pair></StyleMap><Style id="line-0288D1-6425-nodesc-normal"><LineStyle><color>ffd18802</color><width>6.425</width></LineStyle><BalloonStyle><text><![CDATA[<h3>$[name]</h3>]]></text></BalloonStyle></Style><Style id="line-0288D1-6425-nodesc-highlight"><LineStyle><color>ffd18802</color><width>9.6375</width></LineStyle><BalloonStyle><text><![CDATA[<h3>$[name]</h3>]]></text></BalloonStyle></Style><StyleMap id="line-0288D1-6425-nodesc"><Pair><key>normal</key><styleUrl>#line-0288D1-6425-nodesc-normal</styleUrl></Pair><Pair><key>highlight</key><styleUrl>#line-0288D1-6425-nodesc-highlight</styleUrl></Pair></StyleMap><Folder><name>Alternate route</name><Placemark><name>Course</name><styleUrl>#line-0288D1-6425-nodesc</styleUrl><LineString><tessellate>1</tessellate><coordinates>            -7.767678,54.059713,0            -7.767828,54.059579,0            -7.768563,54.059197,0            -7.76886,54.059069,0            -7.769137,54.05896,0            -7.771862,54.058771,0            -7.773251,54.058667,0            -7.774528,54.058378,0            -7.778947,54.056447,0            -7.781436,54.055828,0            -7.78283,54.055883,0            -7.783811,54.055829,0            -7.784578,54.05599,0            -7.785542,54.05642,0            -7.786958,54.056997,0            -7.787948,54.057392,0            -7.788958,54.057623,0            -7.789472,54.057847,0            -7.790072,54.058224,0            -7.790855,54.058223,0            -7.791069,54.05717,0            -7.79146,54.057176,0            -7.79194,54.057376,0            -7.792239,54.057147,0            -7.792904,54.057037,0            -7.793324,54.056911,0            -7.794076,54.056612,0            -7.794192,54.056442,0            -7.7945,54.056096,0            -7.794678,54.056139,0            -7.794938,54.056086,0            -7.795172,54.055924,0            -7.79554,54.055594,0            -7.795922,54.055262,0            -7.796025,54.055016,0            -7.796016,54.054957,0            -7.796464,54.05452,0            -7.79626,54.054434,0            -7.796053,54.054545,0            -7.79585,54.054634,0            -7.795643,54.054723,0            -7.795533,54.054772,0            -7.795788,54.054886,0            -7.795993,54.05495,0            -7.796016,54.054957,0            -7.796025,54.055016,0          </coordinates></LineString></Placemark><Placemark><name>Start / Finish</name><styleUrl>#icon-1899-FFD600-nodesc</styleUrl><Point><coordinates>            -7.7961287,54.0548552,0          </coordinates></Point></Placemark></Folder></Document></kml>