<?xml version="1.0" encoding="UTF-8"?><kml xmlns="http://www.opengis.net/kml/2.2"><Document><name>Ballina parkrun</name><description/><Style id="icon-157-nodesc-normal"><IconStyle><scale>1.1</scale><Icon><href>https://www.gstatic.com/mapspro/images/stock/157-yellow-dot.png</href></Icon><hotSpot x="16" xunits="pixels" y="32" yunits="insetPixels"/></IconStyle><LabelStyle><scale>0</scale></LabelStyle><BalloonStyle><text><![CDATA[<h3>$[name]</h3>]]></text></BalloonStyle></Style><Style id="icon-157-nodesc-highlight"><IconStyle><scale>1.1</scale><Icon><href>https://www.gstatic.com/mapspro/images/stock/157-yellow-dot.png</href></Icon><hotSpot x="16" xunits="pixels" y="32" yunits="insetPixels"/></IconStyle><LabelStyle><scale>1.1</scale></LabelStyle><BalloonStyle><text><![CDATA[<h3>$[name]</h3>]]></text></BalloonStyle></Style><StyleMap id="icon-157-nodesc"><Pair><key>normal</key><styleUrl>#icon-157-nodesc-normal</styleUrl></Pair><Pair><key>highlight</key><styleUrl>#icon-157-nodesc-highlight</styleUrl></Pair></StyleMap><Style id="line-3333FF-5000-nodesc-normal"><LineStyle><color>ffff3333</color><width>5</width></LineStyle><BalloonStyle><text><![CDATA[<h3>$[name]</h3>]]></text></BalloonStyle></Style><Style id="line-3333FF-5000-nodesc-highlight"><LineStyle><color>ffff3333</color><width>7.5</width></LineStyle><BalloonStyle><text><![CDATA[<h3>$[name]</h3>]]></text></BalloonStyle></Style><StyleMap id="line-3333FF-5000-nodesc"><Pair><key>normal</key><styleUrl>#line-3333FF-5000-nodesc-normal</styleUrl></Pair><Pair><key>highlight</key><styleUrl>#line-3333FF-5000-nodesc-highlight</styleUrl></Pair></StyleMap><Folder><name>Untitled layer</name><Placemark><name>Course</name><styleUrl>#line-3333FF-5000-nodesc</styleUrl><LineString><tessellate>1</tessellate><coordinates>            -9.146118,54.120074,0            -9.145389,54.119873,0            -9.144788,54.120124,0            -9.144359,54.120326,0            -9.144187,54.120929,0            -9.143457,54.121684,0            -9.143972,54.123243,0            -9.143586,54.123847,0            -9.143672,54.1244,0            -9.143844,54.124853,0            -9.144144,54.125356,0            -9.144273,54.126035,0            -9.144616,54.126689,0            -9.143887,54.127041,0            -9.142771,54.127846,0            -9.141955,54.128927,0            -9.141483,54.130008,0            -9.141569,54.130612,0            -9.14187,54.131567,0            -9.14187,54.132372,0            -9.142041,54.133403,0            -9.141913,54.134258,0            -9.141827,54.135112,0            -9.141226,54.135766,0            -9.140582,54.135867,0            -9.140067,54.135288,0            -9.140067,54.134836,0            -9.140754,54.134358,0            -9.141827,54.133981,0          </coordinates></LineString></Placemark><Placemark><name>Start / Finish</name><styleUrl>#icon-157-nodesc</styleUrl><Point><coordinates>            -9.1439508,54.1231802,0          </coordinates></Point></Placemark></Folder></Document></kml>