<?xml version="1.0" encoding="UTF-8"?><kml xmlns="http://www.opengis.net/kml/2.2"><Document><name>Carlow Town parkrun</name><description/><Style id="icon-1899-097138-nodesc-normal"><IconStyle><color>ff387109</color><scale>1</scale><Icon><href>https://www.gstatic.com/mapspro/images/stock/503-wht-blank_maps.png</href></Icon><hotSpot x="32" xunits="pixels" y="64" yunits="insetPixels"/></IconStyle><LabelStyle><scale>0</scale></LabelStyle><BalloonStyle><text><![CDATA[<h3>$[name]</h3>]]></text></BalloonStyle></Style><Style id="icon-1899-097138-nodesc-highlight"><IconStyle><color>ff387109</color><scale>1</scale><Icon><href>https://www.gstatic.com/mapspro/images/stock/503-wht-blank_maps.png</href></Icon><hotSpot x="32" xunits="pixels" y="64" yunits="insetPixels"/></IconStyle><LabelStyle><scale>1</scale></LabelStyle><BalloonStyle><text><![CDATA[<h3>$[name]</h3>]]></text></BalloonStyle></Style><StyleMap id="icon-1899-097138-nodesc"><Pair><key>normal</key><styleUrl>#icon-1899-097138-nodesc-normal</styleUrl></Pair><Pair><key>highlight</key><styleUrl>#icon-1899-097138-nodesc-highlight</styleUrl></Pair></StyleMap><Style id="icon-1899-FF5252-nodesc-normal"><IconStyle><color>ff5252ff</color><scale>1</scale><Icon><href>https://www.gstatic.com/mapspro/images/stock/503-wht-blank_maps.png</href></Icon><hotSpot x="32" xunits="pixels" y="64" yunits="insetPixels"/></IconStyle><LabelStyle><scale>0</scale></LabelStyle><BalloonStyle><text><![CDATA[<h3>$[name]</h3>]]></text></BalloonStyle></Style><Style id="icon-1899-FF5252-nodesc-highlight"><IconStyle><color>ff5252ff</color><scale>1</scale><Icon><href>https://www.gstatic.com/mapspro/images/stock/503-wht-blank_maps.png</href></Icon><hotSpot x="32" xunits="pixels" y="64" yunits="insetPixels"/></IconStyle><LabelStyle><scale>1</scale></LabelStyle><BalloonStyle><text><![CDATA[<h3>$[name]</h3>]]></text></BalloonStyle></Style><StyleMap id="icon-1899-FF5252-nodesc"><Pair><key>normal</key><styleUrl>#icon-1899-FF5252-nodesc-normal</styleUrl></Pair><Pair><key>highlight</key><styleUrl>#icon-1899-FF5252-nodesc-highlight</styleUrl></Pair></StyleMap><Style id="line-0288D1-5263-nodesc-normal"><LineStyle><color>ffd18802</color><width>5.263</width></LineStyle><BalloonStyle><text><![CDATA[<h3>$[name]</h3>]]></text></BalloonStyle></Style><Style id="line-0288D1-5263-nodesc-highlight"><LineStyle><color>ffd18802</color><width>7.8945</width></LineStyle><BalloonStyle><text><![CDATA[<h3>$[name]</h3>]]></text></BalloonStyle></Style><StyleMap id="line-0288D1-5263-nodesc"><Pair><key>normal</key><styleUrl>#line-0288D1-5263-nodesc-normal</styleUrl></Pair><Pair><key>highlight</key><styleUrl>#line-0288D1-5263-nodesc-highlight</styleUrl></Pair></StyleMap><Folder><name>Untitled layer</name><Placemark><name>Course</name><styleUrl>#line-0288D1-5263-nodesc</styleUrl><LineString><tessellate>1</tessellate><coordinates>            -6.935763,52.838778,0            -6.936085,52.838972,0            -6.936257,52.839179,0            -6.936665,52.839464,0            -6.936568,52.840009,0            -6.936289,52.840197,0            -6.935066,52.840268,0            -6.934926,52.840145,0            -6.934959,52.839944,0            -6.934787,52.839782,0            -6.934626,52.839406,0            -6.934637,52.839024,0            -6.934766,52.838881,0            -6.93513,52.838875,0            -6.935227,52.838739,0            -6.934111,52.838544,0            -6.933918,52.839199,0            -6.93409,52.840495,0            -6.934004,52.841376,0            -6.933146,52.842672,0            -6.932373,52.843657,0            -6.931901,52.844927,0            -6.931644,52.846327,0            -6.931858,52.847597,0            -6.932287,52.848582,0            -6.933446,52.850189,0            -6.93395,52.851549,0            -6.934803,52.852774,0            -6.934436,52.853464,0            -6.933372,52.854236,0            -6.933377,52.855089,0            -6.935141,52.857834,0          </coordinates></LineString></Placemark><Placemark><name>Start</name><styleUrl>#icon-1899-097138-nodesc</styleUrl><Point><coordinates>            -6.934111,52.838596,0          </coordinates></Point></Placemark><Placemark><name>Finish</name><styleUrl>#icon-1899-FF5252-nodesc</styleUrl><Point><coordinates>            -6.935763,52.838778,0          </coordinates></Point></Placemark></Folder></Document></kml>