<?xml version="1.0" encoding="UTF-8"?><kml xmlns="http://www.opengis.net/kml/2.2"><Document><name>Cootehill parkrun</name><description/><Style id="icon-157-nodesc-normal"><IconStyle><scale>1.1</scale><Icon><href>https://www.gstatic.com/mapspro/images/stock/157-yellow-dot.png</href></Icon><hotSpot x="16" xunits="pixels" y="32" yunits="insetPixels"/></IconStyle><LabelStyle><scale>0</scale></LabelStyle><BalloonStyle><text><![CDATA[<h3>$[name]</h3>]]></text></BalloonStyle></Style><Style id="icon-157-nodesc-highlight"><IconStyle><scale>1.1</scale><Icon><href>https://www.gstatic.com/mapspro/images/stock/157-yellow-dot.png</href></Icon><hotSpot x="16" xunits="pixels" y="32" yunits="insetPixels"/></IconStyle><LabelStyle><scale>1.1</scale></LabelStyle><BalloonStyle><text><![CDATA[<h3>$[name]</h3>]]></text></BalloonStyle></Style><StyleMap id="icon-157-nodesc"><Pair><key>normal</key><styleUrl>#icon-157-nodesc-normal</styleUrl></Pair><Pair><key>highlight</key><styleUrl>#icon-157-nodesc-highlight</styleUrl></Pair></StyleMap><Style id="line-3333FF-5000-nodesc-normal"><LineStyle><color>ffff3333</color><width>5</width></LineStyle><BalloonStyle><text><![CDATA[<h3>$[name]</h3>]]></text></BalloonStyle></Style><Style id="line-3333FF-5000-nodesc-highlight"><LineStyle><color>ffff3333</color><width>7.5</width></LineStyle><BalloonStyle><text><![CDATA[<h3>$[name]</h3>]]></text></BalloonStyle></Style><StyleMap id="line-3333FF-5000-nodesc"><Pair><key>normal</key><styleUrl>#line-3333FF-5000-nodesc-normal</styleUrl></Pair><Pair><key>highlight</key><styleUrl>#line-3333FF-5000-nodesc-highlight</styleUrl></Pair></StyleMap><Folder><name>Untitled layer</name><Placemark><name>Course</name><styleUrl>#line-3333FF-5000-nodesc</styleUrl><LineString><tessellate>1</tessellate><coordinates>            -7.087426,54.081397,0            -7.086461,54.08136,0            -7.085388,54.081599,0            -7.084315,54.082115,0            -7.083542,54.08292,0            -7.082834,54.083575,0            -7.082169,54.083726,0            -7.081525,54.084192,0            -7.080667,54.084318,0            -7.079551,54.084783,0            -7.080066,54.084808,0            -7.080796,54.08462,0            -7.081676,54.084431,0            -7.082298,54.084078,0            -7.083135,54.083877,0            -7.083907,54.083399,0            -7.084529,54.08287,0            -7.08468,54.082304,0            -7.085409,54.081788,0            -7.085967,54.081586,0            -7.08674,54.081574,0            -7.087212,54.081687,0            -7.086976,54.081989,0            -7.086568,54.082152,0            -7.085881,54.082593,0            -7.085409,54.08316,0            -7.085002,54.083713,0            -7.084916,54.084192,0            -7.085023,54.084758,0            -7.085238,54.085274,0            -7.085667,54.085652,0            -7.085152,54.085815,0            -7.084658,54.085438,0            -7.085023,54.085148,0            -7.084916,54.08438,0            -7.085152,54.083512,0            -7.085581,54.082983,0            -7.086332,54.082291,0            -7.086761,54.082102,0            -7.087083,54.081888,0            -7.087426,54.081485,0          </coordinates></LineString></Placemark><Placemark><name>Start / Finish</name><styleUrl>#icon-157-nodesc</styleUrl><Point><coordinates>            -7.087469,54.081435,0          </coordinates></Point></Placemark></Folder></Document></kml>