<?xml version="1.0" encoding="UTF-8"?><kml xmlns="http://www.opengis.net/kml/2.2"><Document><name>Dungloe parkrun</name><description/><Style id="icon-503-009D57-nodesc-normal"><IconStyle><color>ff579d00</color><scale>1.1</scale><Icon><href>https://www.gstatic.com/mapspro/images/stock/503-wht-blank_maps.png</href></Icon><hotSpot x="16" xunits="pixels" y="32" yunits="insetPixels"/></IconStyle><LabelStyle><scale>0</scale></LabelStyle><BalloonStyle><text><![CDATA[<h3>$[name]</h3>]]></text></BalloonStyle></Style><Style id="icon-503-009D57-nodesc-highlight"><IconStyle><color>ff579d00</color><scale>1.1</scale><Icon><href>https://www.gstatic.com/mapspro/images/stock/503-wht-blank_maps.png</href></Icon><hotSpot x="16" xunits="pixels" y="32" yunits="insetPixels"/></IconStyle><LabelStyle><scale>1.1</scale></LabelStyle><BalloonStyle><text><![CDATA[<h3>$[name]</h3>]]></text></BalloonStyle></Style><StyleMap id="icon-503-009D57-nodesc"><Pair><key>normal</key><styleUrl>#icon-503-009D57-nodesc-normal</styleUrl></Pair><Pair><key>highlight</key><styleUrl>#icon-503-009D57-nodesc-highlight</styleUrl></Pair></StyleMap><Style id="icon-503-DB4436-nodesc-normal"><IconStyle><color>ff3644db</color><scale>1.1</scale><Icon><href>https://www.gstatic.com/mapspro/images/stock/503-wht-blank_maps.png</href></Icon><hotSpot x="16" xunits="pixels" y="32" yunits="insetPixels"/></IconStyle><LabelStyle><scale>0</scale></LabelStyle><BalloonStyle><text><![CDATA[<h3>$[name]</h3>]]></text></BalloonStyle></Style><Style id="icon-503-DB4436-nodesc-highlight"><IconStyle><color>ff3644db</color><scale>1.1</scale><Icon><href>https://www.gstatic.com/mapspro/images/stock/503-wht-blank_maps.png</href></Icon><hotSpot x="16" xunits="pixels" y="32" yunits="insetPixels"/></IconStyle><LabelStyle><scale>1.1</scale></LabelStyle><BalloonStyle><text><![CDATA[<h3>$[name]</h3>]]></text></BalloonStyle></Style><StyleMap id="icon-503-DB4436-nodesc"><Pair><key>normal</key><styleUrl>#icon-503-DB4436-nodesc-normal</styleUrl></Pair><Pair><key>highlight</key><styleUrl>#icon-503-DB4436-nodesc-highlight</styleUrl></Pair></StyleMap><Style id="line-4186F0-4509-nodesc-normal"><LineStyle><color>fff08641</color><width>4.509</width></LineStyle><BalloonStyle><text><![CDATA[<h3>$[name]</h3>]]></text></BalloonStyle></Style><Style id="line-4186F0-4509-nodesc-highlight"><LineStyle><color>fff08641</color><width>6.7635</width></LineStyle><BalloonStyle><text><![CDATA[<h3>$[name]</h3>]]></text></BalloonStyle></Style><StyleMap id="line-4186F0-4509-nodesc"><Pair><key>normal</key><styleUrl>#line-4186F0-4509-nodesc-normal</styleUrl></Pair><Pair><key>highlight</key><styleUrl>#line-4186F0-4509-nodesc-highlight</styleUrl></Pair></StyleMap><Folder><name>Course</name><Placemark><name>Course</name><styleUrl>#line-4186F0-4509-nodesc</styleUrl><LineString><tessellate>1</tessellate><coordinates>            -8.348858,54.952749,0            -8.348558,54.953119,0            -8.34785,54.952885,0            -8.347185,54.952762,0            -8.346434,54.952675,0            -8.345168,54.952626,0            -8.344524,54.95262,0            -8.343988,54.952823,0            -8.344138,54.95339,0            -8.344524,54.953864,0            -8.345114,54.95477,0            -8.345071,54.95644,0            -8.345092,54.957105,0            -8.345092,54.957246,0            -8.345286,54.957333,0            -8.34579,54.95737,0            -8.349888,54.957222,0            -8.350006,54.957092,0            -8.350006,54.956951,0            -8.349802,54.956587,0            -8.348612,54.955916,0            -8.34829,54.955626,0            -8.348086,54.955337,0            -8.348107,54.955023,0            -8.348783,54.954474,0            -8.349062,54.954111,0            -8.349041,54.953784,0            -8.34873,54.953433,0            -8.348569,54.953144,0            -8.348976,54.952638,0          </coordinates></LineString></Placemark><Placemark><name>Finish</name><styleUrl>#icon-503-DB4436-nodesc</styleUrl><Point><coordinates>            -8.348933,54.952684,0          </coordinates></Point></Placemark><Placemark><name>Start</name><styleUrl>#icon-503-009D57-nodesc</styleUrl><Point><coordinates>            -8.348858,54.952749,0          </coordinates></Point></Placemark></Folder></Document></kml>