<?xml version="1.0" encoding="UTF-8"?><kml xmlns="http://www.opengis.net/kml/2.2"><Document><name>Gorey parkrun</name><description/><Style id="icon-1899-0F9D58-nodesc-normal"><IconStyle><color>ff589d0f</color><scale>1</scale><Icon><href>https://www.gstatic.com/mapspro/images/stock/503-wht-blank_maps.png</href></Icon><hotSpot x="32" xunits="pixels" y="64" yunits="insetPixels"/></IconStyle><LabelStyle><scale>0</scale></LabelStyle><BalloonStyle><text><![CDATA[<h3>$[name]</h3>]]></text></BalloonStyle></Style><Style id="icon-1899-0F9D58-nodesc-highlight"><IconStyle><color>ff589d0f</color><scale>1</scale><Icon><href>https://www.gstatic.com/mapspro/images/stock/503-wht-blank_maps.png</href></Icon><hotSpot x="32" xunits="pixels" y="64" yunits="insetPixels"/></IconStyle><LabelStyle><scale>1</scale></LabelStyle><BalloonStyle><text><![CDATA[<h3>$[name]</h3>]]></text></BalloonStyle></Style><StyleMap id="icon-1899-0F9D58-nodesc"><Pair><key>normal</key><styleUrl>#icon-1899-0F9D58-nodesc-normal</styleUrl></Pair><Pair><key>highlight</key><styleUrl>#icon-1899-0F9D58-nodesc-highlight</styleUrl></Pair></StyleMap><Style id="icon-1899-FF5252-nodesc-normal"><IconStyle><color>ff5252ff</color><scale>1</scale><Icon><href>https://www.gstatic.com/mapspro/images/stock/503-wht-blank_maps.png</href></Icon><hotSpot x="32" xunits="pixels" y="64" yunits="insetPixels"/></IconStyle><LabelStyle><scale>0</scale></LabelStyle><BalloonStyle><text><![CDATA[<h3>$[name]</h3>]]></text></BalloonStyle></Style><Style id="icon-1899-FF5252-nodesc-highlight"><IconStyle><color>ff5252ff</color><scale>1</scale><Icon><href>https://www.gstatic.com/mapspro/images/stock/503-wht-blank_maps.png</href></Icon><hotSpot x="32" xunits="pixels" y="64" yunits="insetPixels"/></IconStyle><LabelStyle><scale>1</scale></LabelStyle><BalloonStyle><text><![CDATA[<h3>$[name]</h3>]]></text></BalloonStyle></Style><StyleMap id="icon-1899-FF5252-nodesc"><Pair><key>normal</key><styleUrl>#icon-1899-FF5252-nodesc-normal</styleUrl></Pair><Pair><key>highlight</key><styleUrl>#icon-1899-FF5252-nodesc-highlight</styleUrl></Pair></StyleMap><Style id="line-0288D1-5263-nodesc-normal"><LineStyle><color>ffd18802</color><width>5.263</width></LineStyle><BalloonStyle><text><![CDATA[<h3>$[name]</h3>]]></text></BalloonStyle></Style><Style id="line-0288D1-5263-nodesc-highlight"><LineStyle><color>ffd18802</color><width>7.8945</width></LineStyle><BalloonStyle><text><![CDATA[<h3>$[name]</h3>]]></text></BalloonStyle></Style><StyleMap id="line-0288D1-5263-nodesc"><Pair><key>normal</key><styleUrl>#line-0288D1-5263-nodesc-normal</styleUrl></Pair><Pair><key>highlight</key><styleUrl>#line-0288D1-5263-nodesc-highlight</styleUrl></Pair></StyleMap><Folder><name>Untitled layer</name><Placemark><name>Course</name><styleUrl>#line-0288D1-5263-nodesc</styleUrl><LineString><tessellate>1</tessellate><coordinates>            -6.299466,52.67893,0            -6.29967,52.678867,0            -6.299972,52.678886,0            -6.29999,52.678893,0            -6.299274,52.679377,0            -6.299057,52.679546,0            -6.299075,52.679585,0            -6.299711,52.679947,0            -6.301001,52.67911,0            -6.300557,52.678892,0            -6.300139,52.67883,0            -6.300163,52.678764,0            -6.300229,52.678648,0            -6.300461,52.678633,0            -6.300792,52.678461,0            -6.301121,52.678414,0            -6.301557,52.678365,0            -6.301895,52.678474,0            -6.302001,52.678598,0            -6.302083,52.678728,0            -6.301914,52.678983,0            -6.301565,52.679314,0            -6.301322,52.679421,0            -6.301056,52.679452,0            -6.300784,52.679603,0            -6.300273,52.680062,0            -6.299786,52.680189,0            -6.299435,52.680176,0            -6.299215,52.680095,0            -6.299301,52.680134,0            -6.299159,52.67995,0            -6.298946,52.679903,0            -6.298719,52.679822,0            -6.298746,52.679589,0            -6.298407,52.679507,0            -6.298571,52.679267,0            -6.298602,52.679143,0            -6.298294,52.679047,0            -6.298004,52.679029,0            -6.297778,52.678982,0            -6.297646,52.678916,0            -6.297569,52.678746,0            -6.297697,52.678613,0            -6.2981147,52.6784176,0            -6.298866,52.678173,0            -6.299436,52.678068,0            -6.299947,52.678046,0            -6.299962,52.678065,0            -6.300001,52.678423,0            -6.299755,52.678754,0            -6.29967,52.678867,0          </coordinates></LineString></Placemark><Placemark><name>Finish</name><styleUrl>#icon-1899-FF5252-nodesc</styleUrl><Point><coordinates>            -6.299466,52.67893,56.2          </coordinates></Point></Placemark><Placemark><name>Start</name><styleUrl>#icon-1899-0F9D58-nodesc</styleUrl><Point><coordinates>            -6.299215,52.680095,57          </coordinates></Point></Placemark></Folder></Document></kml>