<?xml version="1.0" encoding="UTF-8"?><kml xmlns="http://www.opengis.net/kml/2.2"><Document><name>Hartstown parkrun</name><description/><Style id="icon-1097-normal"><IconStyle><scale>1.1</scale><Icon><href>https://www.gstatic.com/mapspro/images/stock/1097-biz-social.png</href></Icon></IconStyle><LabelStyle><scale>0</scale></LabelStyle></Style><Style id="icon-1097-highlight"><IconStyle><scale>1.1</scale><Icon><href>https://www.gstatic.com/mapspro/images/stock/1097-biz-social.png</href></Icon></IconStyle><LabelStyle><scale>1.1</scale></LabelStyle></Style><StyleMap id="icon-1097"><Pair><key>normal</key><styleUrl>#icon-1097-normal</styleUrl></Pair><Pair><key>highlight</key><styleUrl>#icon-1097-highlight</styleUrl></Pair></StyleMap><Style id="icon-1644-0288D1-nodesc-normal"><IconStyle><color>ffd18802</color><scale>1</scale><Icon><href>https://www.gstatic.com/mapspro/images/stock/503-wht-blank_maps.png</href></Icon></IconStyle><LabelStyle><scale>0</scale></LabelStyle><BalloonStyle><text><![CDATA[<h3>$[name]</h3>]]></text></BalloonStyle></Style><Style id="icon-1644-0288D1-nodesc-highlight"><IconStyle><color>ffd18802</color><scale>1</scale><Icon><href>https://www.gstatic.com/mapspro/images/stock/503-wht-blank_maps.png</href></Icon></IconStyle><LabelStyle><scale>1</scale></LabelStyle><BalloonStyle><text><![CDATA[<h3>$[name]</h3>]]></text></BalloonStyle></Style><StyleMap id="icon-1644-0288D1-nodesc"><Pair><key>normal</key><styleUrl>#icon-1644-0288D1-nodesc-normal</styleUrl></Pair><Pair><key>highlight</key><styleUrl>#icon-1644-0288D1-nodesc-highlight</styleUrl></Pair></StyleMap><Style id="icon-503-62AF44-nodesc-normal"><IconStyle><color>ff44af62</color><scale>1.1</scale><Icon><href>https://www.gstatic.com/mapspro/images/stock/503-wht-blank_maps.png</href></Icon><hotSpot x="16" xunits="pixels" y="32" yunits="insetPixels"/></IconStyle><LabelStyle><scale>0</scale></LabelStyle><BalloonStyle><text><![CDATA[<h3>$[name]</h3>]]></text></BalloonStyle></Style><Style id="icon-503-62AF44-nodesc-highlight"><IconStyle><color>ff44af62</color><scale>1.1</scale><Icon><href>https://www.gstatic.com/mapspro/images/stock/503-wht-blank_maps.png</href></Icon><hotSpot x="16" xunits="pixels" y="32" yunits="insetPixels"/></IconStyle><LabelStyle><scale>1.1</scale></LabelStyle><BalloonStyle><text><![CDATA[<h3>$[name]</h3>]]></text></BalloonStyle></Style><StyleMap id="icon-503-62AF44-nodesc"><Pair><key>normal</key><styleUrl>#icon-503-62AF44-nodesc-normal</styleUrl></Pair><Pair><key>highlight</key><styleUrl>#icon-503-62AF44-nodesc-highlight</styleUrl></Pair></StyleMap><Style id="icon-503-DB4436-nodesc-normal"><IconStyle><color>ff3644db</color><scale>1.1</scale><Icon><href>https://www.gstatic.com/mapspro/images/stock/503-wht-blank_maps.png</href></Icon><hotSpot x="16" xunits="pixels" y="32" yunits="insetPixels"/></IconStyle><LabelStyle><scale>0</scale></LabelStyle><BalloonStyle><text><![CDATA[<h3>$[name]</h3>]]></text></BalloonStyle></Style><Style id="icon-503-DB4436-nodesc-highlight"><IconStyle><color>ff3644db</color><scale>1.1</scale><Icon><href>https://www.gstatic.com/mapspro/images/stock/503-wht-blank_maps.png</href></Icon><hotSpot x="16" xunits="pixels" y="32" yunits="insetPixels"/></IconStyle><LabelStyle><scale>1.1</scale></LabelStyle><BalloonStyle><text><![CDATA[<h3>$[name]</h3>]]></text></BalloonStyle></Style><StyleMap id="icon-503-DB4436-nodesc"><Pair><key>normal</key><styleUrl>#icon-503-DB4436-nodesc-normal</styleUrl></Pair><Pair><key>highlight</key><styleUrl>#icon-503-DB4436-nodesc-highlight</styleUrl></Pair></StyleMap><Style id="line-4186F0-5000-nodesc-normal"><LineStyle><color>fff08641</color><width>5</width></LineStyle><BalloonStyle><text><![CDATA[<h3>$[name]</h3>]]></text></BalloonStyle></Style><Style id="line-4186F0-5000-nodesc-highlight"><LineStyle><color>fff08641</color><width>7.5</width></LineStyle><BalloonStyle><text><![CDATA[<h3>$[name]</h3>]]></text></BalloonStyle></Style><StyleMap id="line-4186F0-5000-nodesc"><Pair><key>normal</key><styleUrl>#line-4186F0-5000-nodesc-normal</styleUrl></Pair><Pair><key>highlight</key><styleUrl>#line-4186F0-5000-nodesc-highlight</styleUrl></Pair></StyleMap><Folder><name>Untitled layer</name><Placemark><name>Course</name><styleUrl>#line-4186F0-5000-nodesc</styleUrl><LineString><tessellate>1</tessellate><coordinates>            -6.41368,53.39636,0            -6.4136,53.39643,0            -6.41348,53.39654,0            -6.41341,53.39658,0            -6.41332,53.39661,0            -6.41324,53.39663,0            -6.41314,53.39663,0            -6.41284,53.39662,0            -6.41247,53.3966,0            -6.41205,53.39658,0            -6.41167,53.39655,0            -6.41132,53.39653,0            -6.4112,53.39653,0            -6.41117,53.39654,0            -6.41114,53.39655,0            -6.41097,53.3969,0            -6.41091,53.397,0            -6.41083,53.39703,0            -6.41079,53.39703,0            -6.41079,53.39709,0            -6.41078,53.39715,0            -6.41074,53.39721,0            -6.41068,53.39726,0            -6.41046,53.39742,0            -6.41005,53.39768,0            -6.40967,53.39793,0            -6.40917,53.39825,0            -6.40873,53.39854,0            -6.40851,53.39868,0            -6.40837,53.39877,0            -6.40817,53.39891,0            -6.40812,53.39897,0            -6.40809,53.39904,0            -6.40809,53.39906,0            -6.40793,53.39917,0            -6.40775,53.3993,0            -6.40765,53.39937,0            -6.40757,53.39943,0            -6.40751,53.39944,0            -6.40746,53.39945,0            -6.40741,53.39945,0            -6.40736,53.39944,0            -6.4073,53.39942,0            -6.40711,53.39935,0            -6.40715,53.39927,0            -6.40723,53.39912,0            -6.40733,53.39887,0            -6.40741,53.39871,0            -6.40761,53.39835,0            -6.40772,53.39817,0            -6.40775,53.39812,0            -6.40801,53.39767,0            -6.40812,53.3975,0            -6.40819,53.39742,0            -6.40784,53.39735,0            -6.40772,53.39732,0            -6.40739,53.39726,0            -6.40671,53.39713,0            -6.40626,53.39703,0            -6.40594,53.39697,0            -6.40573,53.39694,0            -6.40558,53.39693,0            -6.40521,53.39692,0            -6.40489,53.39692,0            -6.40475,53.39692,0            -6.40456,53.39689,0            -6.40445,53.39686,0            -6.40435,53.39681,0            -6.40425,53.39672,0            -6.40423,53.39669,0            -6.40422,53.39665,0            -6.40422,53.39662,0            -6.40424,53.39657,0            -6.40429,53.39653,0            -6.40454,53.39635,0            -6.40484,53.39613,0            -6.40522,53.39586,0            -6.40532,53.39579,0            -6.40539,53.39578,0            -6.40544,53.39578,0            -6.40547,53.39579,0            -6.40555,53.39581,0            -6.40565,53.39584,0            -6.40579,53.3959,0            -6.40601,53.39601,0            -6.40626,53.39613,0            -6.40636,53.39615,0            -6.4065,53.39616,0            -6.40665,53.39617,0            -6.4068,53.39618,0            -6.40696,53.39623,0            -6.40717,53.39638,0            -6.40732,53.3965,0            -6.40741,53.39656,0            -6.40756,53.39663,0            -6.4079,53.39673,0            -6.40825,53.39684,0            -6.40846,53.39689,0            -6.4086,53.39691,0            -6.40874,53.39693,0            -6.40877,53.39691,0            -6.40888,53.39687,0            -6.40914,53.3967,0            -6.4094,53.39649,0            -6.40963,53.39627,0            -6.40981,53.39613,0            -6.4101,53.3959,0            -6.41027,53.39571,0            -6.41044,53.39554,0            -6.41065,53.39534,0            -6.41073,53.39526,0            -6.41081,53.39513,0            -6.41083,53.39505,0            -6.41087,53.39496,0            -6.41089,53.39486,0            -6.41092,53.39479,0            -6.41102,53.39468,0            -6.41117,53.39445,0            -6.41128,53.39427,0            -6.41132,53.39417,0            -6.41136,53.39408,0            -6.41139,53.39396,0            -6.41141,53.39389,0            -6.41144,53.3938,0            -6.41148,53.39372,0            -6.41153,53.39364,0            -6.41155,53.39362,0            -6.41162,53.39355,0            -6.41174,53.39347,0            -6.41186,53.39338,0            -6.41196,53.39328,0            -6.412,53.39324,0            -6.41204,53.39322,0            -6.41209,53.39333,0            -6.4122,53.39348,0            -6.41231,53.39355,0            -6.41257,53.39365,0            -6.41298,53.39381,0            -6.41341,53.39396,0            -6.41372,53.39405,0            -6.41404,53.39413,0            -6.41424,53.39416,0            -6.41435,53.39419,0            -6.41452,53.39428,0            -6.41469,53.3944,0            -6.41492,53.39449,0            -6.4152,53.3946,0            -6.41544,53.39469,0            -6.41559,53.3948,0            -6.41579,53.39494,0            -6.4159,53.39503,0            -6.41582,53.39509,0            -6.41558,53.39531,0            -6.41555,53.39534,0            -6.41543,53.39544,0            -6.41524,53.39557,0            -6.41505,53.39567,0            -6.41486,53.39573,0            -6.41457,53.39581,0            -6.41444,53.39584,0            -6.41428,53.3959,0            -6.41413,53.39598,0            -6.41397,53.39609,0            -6.41381,53.39623,0            -6.41368,53.39635,0          </coordinates></LineString></Placemark><Placemark><name>Start</name><styleUrl>#icon-503-62AF44-nodesc</styleUrl><Point><coordinates>            -6.4136206,53.3964133,0          </coordinates></Point></Placemark><Placemark><name>Finish</name><styleUrl>#icon-503-DB4436-nodesc</styleUrl><Point><coordinates>            -6.414406,53.395687,0          </coordinates></Point></Placemark><Placemark><name>Parking</name><styleUrl>#icon-1644-0288D1-nodesc</styleUrl><Point><coordinates>            -6.417003,53.39552,0          </coordinates></Point></Placemark><Placemark><name>AED</name><description>In case of emergency call Connolly Hospital Blanchardstown on (01) 646 5000</description><styleUrl>#icon-1097</styleUrl><Point><coordinates>            -6.41385,53.395244,0          </coordinates></Point></Placemark></Folder></Document></kml>