<?xml version="1.0" encoding="UTF-8"?><kml xmlns="http://www.opengis.net/kml/2.2"><Document><name>Lough Key parkrun</name><description/><Style id="icon-1899-0F9D58-nodesc-normal"><IconStyle><color>ff589d0f</color><scale>1</scale><Icon><href>https://www.gstatic.com/mapspro/images/stock/503-wht-blank_maps.png</href></Icon><hotSpot x="32" xunits="pixels" y="64" yunits="insetPixels"/></IconStyle><LabelStyle><scale>0</scale></LabelStyle><BalloonStyle><text><![CDATA[<h3>$[name]</h3>]]></text></BalloonStyle></Style><Style id="icon-1899-0F9D58-nodesc-highlight"><IconStyle><color>ff589d0f</color><scale>1</scale><Icon><href>https://www.gstatic.com/mapspro/images/stock/503-wht-blank_maps.png</href></Icon><hotSpot x="32" xunits="pixels" y="64" yunits="insetPixels"/></IconStyle><LabelStyle><scale>1</scale></LabelStyle><BalloonStyle><text><![CDATA[<h3>$[name]</h3>]]></text></BalloonStyle></Style><StyleMap id="icon-1899-0F9D58-nodesc"><Pair><key>normal</key><styleUrl>#icon-1899-0F9D58-nodesc-normal</styleUrl></Pair><Pair><key>highlight</key><styleUrl>#icon-1899-0F9D58-nodesc-highlight</styleUrl></Pair></StyleMap><Style id="icon-1899-FF5252-nodesc-normal"><IconStyle><color>ff5252ff</color><scale>1</scale><Icon><href>https://www.gstatic.com/mapspro/images/stock/503-wht-blank_maps.png</href></Icon><hotSpot x="32" xunits="pixels" y="64" yunits="insetPixels"/></IconStyle><LabelStyle><scale>0</scale></LabelStyle><BalloonStyle><text><![CDATA[<h3>$[name]</h3>]]></text></BalloonStyle></Style><Style id="icon-1899-FF5252-nodesc-highlight"><IconStyle><color>ff5252ff</color><scale>1</scale><Icon><href>https://www.gstatic.com/mapspro/images/stock/503-wht-blank_maps.png</href></Icon><hotSpot x="32" xunits="pixels" y="64" yunits="insetPixels"/></IconStyle><LabelStyle><scale>1</scale></LabelStyle><BalloonStyle><text><![CDATA[<h3>$[name]</h3>]]></text></BalloonStyle></Style><StyleMap id="icon-1899-FF5252-nodesc"><Pair><key>normal</key><styleUrl>#icon-1899-FF5252-nodesc-normal</styleUrl></Pair><Pair><key>highlight</key><styleUrl>#icon-1899-FF5252-nodesc-highlight</styleUrl></Pair></StyleMap><Style id="line-0288D1-5000-nodesc-normal"><LineStyle><color>ffd18802</color><width>5</width></LineStyle><BalloonStyle><text><![CDATA[<h3>$[name]</h3>]]></text></BalloonStyle></Style><Style id="line-0288D1-5000-nodesc-highlight"><LineStyle><color>ffd18802</color><width>7.5</width></LineStyle><BalloonStyle><text><![CDATA[<h3>$[name]</h3>]]></text></BalloonStyle></Style><StyleMap id="line-0288D1-5000-nodesc"><Pair><key>normal</key><styleUrl>#line-0288D1-5000-nodesc-normal</styleUrl></Pair><Pair><key>highlight</key><styleUrl>#line-0288D1-5000-nodesc-highlight</styleUrl></Pair></StyleMap><Folder><name>Untitled layer</name><Placemark><name>Course</name><styleUrl>#line-0288D1-5000-nodesc</styleUrl><LineString><tessellate>1</tessellate><coordinates>            -8.240353,53.98503,50.2            -8.240386,53.98503,50.1            -8.240404,53.985031,50            -8.240421,53.985032,50            -8.240432,53.985034,49.9            -8.240449,53.985035,49.9            -8.240473,53.985038,49.8            -8.240497,53.985043,49.7            -8.240521,53.985048,49.7            -8.240547,53.985052,49.6            -8.240573,53.985052,49.5            -8.240599,53.985048,49.4            -8.240626,53.985041,49.3            -8.240655,53.985034,49.2            -8.240709,53.985023,49.1            -8.240734,53.985018,49            -8.240758,53.985012,48.9            -8.240783,53.985007,48.9            -8.240812,53.985004,48.8            -8.240841,53.985003,48.7            -8.240866,53.985001,48.7            -8.240903,53.984996,48.6            -8.240922,53.98499,48.6            -8.240948,53.984983,48.5            -8.240976,53.984976,48.5            -8.241003,53.98497,48.4            -8.24103,53.984966,48.4            -8.241058,53.984959,48.4            -8.241086,53.984954,48.4            -8.241113,53.984951,48.3            -8.241139,53.984949,48.3            -8.241166,53.984948,48.3            -8.241192,53.984947,48.3            -8.241219,53.984947,48.3            -8.241247,53.984945,48.3            -8.241274,53.984943,48.3            -8.241302,53.984942,48.2            -8.241326,53.98494,48.2            -8.24135,53.984937,48.2            -8.241396,53.984935,48.2            -8.241411,53.984934,48.2            -8.241458,53.98493,48.3            -8.241474,53.984928,48.3            -8.241522,53.984924,48.3            -8.241538,53.984923,48.3            -8.241568,53.984922,48.3            -8.241597,53.984922,48.3            -8.241642,53.984928,48.3            -8.241658,53.984931,48.3            -8.241688,53.984937,48.3            -8.241715,53.984943,48.3            -8.24174,53.98495,48.3            -8.24177,53.984956,48.4            -8.241798,53.98496,48.4            -8.241827,53.984961,48.4            -8.241856,53.984961,48.4            -8.241885,53.984961,48.4            -8.241915,53.984961,48.4            -8.241945,53.984963,48.4            -8.241974,53.984967,48.5            -8.242002,53.984972,48.5            -8.242031,53.984979,48.5            -8.242059,53.984985,48.5            -8.242087,53.984992,48.5            -8.242115,53.984999,48.5            -8.242141,53.985008,48.5            -8.242165,53.985018,48.6            -8.242189,53.985029,48.6            -8.242213,53.985039,48.6            -8.242251,53.98506,48.6            -8.242264,53.985065,48.6            -8.242303,53.985081,48.7            -8.242316,53.985086,48.7            -8.242357,53.9851,48.7            -8.242372,53.985104,48.7            -8.242416,53.985115,48.8            -8.242431,53.98512,48.8            -8.242476,53.985127,48.8            -8.242493,53.985126,48.8            -8.242524,53.98513,48.8            -8.242551,53.985135,48.8            -8.242582,53.98514,48.8            -8.242609,53.985145,48.8            -8.242635,53.985152,48.8            -8.242659,53.985157,48.8            -8.242685,53.98516,48.8            -8.242706,53.985165,48.8            -8.242729,53.985171,48.8            -8.242753,53.985179,48.8            -8.242778,53.985185,48.8            -8.242804,53.985191,48.8            -8.242831,53.985197,48.8            -8.242857,53.985203,48.8            -8.242884,53.98521,48.8            -8.242908,53.985217,48.8            -8.242932,53.985227,48.8            -8.242953,53.98524,48.8            -8.242971,53.985254,48.8            -8.242987,53.98527,48.8            -8.243001,53.985284,48.8            -8.243015,53.9853,48.8            -8.243042,53.985322,48.8            -8.243051,53.98533,48.8            -8.243068,53.985342,48.9            -8.243091,53.985355,48.9            -8.243116,53.985366,48.9            -8.243137,53.985376,49            -8.243167,53.985383,49            -8.243192,53.985391,49            -8.243217,53.985399,49.1            -8.243243,53.985407,49.1            -8.24327,53.985414,49.2            -8.243294,53.985422,49.3            -8.243321,53.985433,49.3            -8.243341,53.985443,49.4            -8.243375,53.985464,49.6            -8.243385,53.98547,49.6            -8.243411,53.985496,49.7            -8.24342,53.985504,49.8            -8.243451,53.98553,49.9            -8.243462,53.985538,50            -8.243495,53.985562,50.1            -8.243507,53.985569,50.2            -8.243538,53.985592,50.3            -8.243548,53.9856,50.3            -8.243575,53.985623,50.4            -8.243584,53.98563,50.4            -8.243613,53.985655,50.4            -8.243622,53.985662,50.4            -8.24364,53.985677,50.4            -8.243656,53.985691,50.4            -8.243672,53.985705,50.4            -8.243689,53.985719,50.4            -8.243705,53.985732,50.4            -8.243717,53.985746,50.3            -8.24373,53.985759,50.3            -8.24374,53.985773,50.3            -8.243747,53.985787,50.3            -8.243753,53.985802,50.2            -8.243759,53.985815,50.2            -8.24377,53.985842,50.1            -8.243773,53.985864,50            -8.24377,53.985894,49.9            -8.243768,53.985902,49.9            -8.243765,53.985917,49.9            -8.243761,53.985933,49.8            -8.243758,53.985949,49.8            -8.243755,53.985964,49.8            -8.243751,53.98598,49.8            -8.243743,53.985995,49.7            -8.24373,53.986025,49.7            -8.243727,53.986034,49.7            -8.243724,53.986051,49.7            -8.243723,53.986069,49.7            -8.243721,53.986086,49.7            -8.243722,53.986104,49.7            -8.24372,53.986133,49.7            -8.243719,53.986143,49.7            -8.243717,53.986171,49.8            -8.243716,53.986181,49.8            -8.243713,53.9862,49.8            -8.243712,53.986217,49.8            -8.243711,53.986232,49.8            -8.243712,53.986248,49.8            -8.243711,53.986264,49.8            -8.243711,53.986281,49.8            -8.24371,53.986308,49.8            -8.243709,53.986317,49.8            -8.243707,53.986335,49.8            -8.243707,53.986352,49.8            -8.243706,53.98638,49.8            -8.243705,53.986389,49.8            -8.243707,53.986418,49.8            -8.243708,53.986427,49.8            -8.243711,53.986454,49.8            -8.243712,53.986463,49.8            -8.243714,53.986479,49.8            -8.243716,53.986495,49.8            -8.243719,53.986512,49.8            -8.243724,53.986527,49.8            -8.243733,53.986543,49.8            -8.243744,53.986559,49.8            -8.243764,53.986584,49.8            -8.243772,53.986592,49.8            -8.243795,53.986619,49.7            -8.243801,53.986627,49.7            -8.243812,53.986643,49.7            -8.243825,53.986658,49.7            -8.243844,53.986684,49.7            -8.243851,53.986692,49.7            -8.243865,53.986707,49.7            -8.24388,53.986723,49.7            -8.243894,53.986739,49.7            -8.243911,53.986754,49.7            -8.24393,53.986768,49.7            -8.24395,53.986781,49.7            -8.243968,53.986794,49.7            -8.24399,53.986803,49.7            -8.244018,53.986813,49.7            -8.244039,53.986822,49.7            -8.244058,53.986831,49.7            -8.244077,53.98684,49.7            -8.244099,53.986848,49.7            -8.244122,53.986855,49.7            -8.244151,53.986869,49.6            -8.244164,53.986875,49.6            -8.244176,53.986881,49.6            -8.244192,53.986891,49.6            -8.244211,53.986903,49.6            -8.24423,53.986912,49.5            -8.244247,53.986921,49.5            -8.244268,53.986931,49.5            -8.244285,53.98694,49.4            -8.244303,53.98695,49.4            -8.244324,53.986961,49.4            -8.244344,53.986971,49.3            -8.244365,53.986981,49.3            -8.244387,53.986992,49.3            -8.24441,53.987002,49.3            -8.244433,53.987014,49.2            -8.244455,53.987027,49.2            -8.244488,53.987047,49.2            -8.244499,53.987053,49.2            -8.244517,53.987065,49.2            -8.244535,53.987077,49.2            -8.244553,53.987088,49.2            -8.244569,53.987101,49.2            -8.244598,53.987121,49.2            -8.24461,53.987129,49.2            -8.244634,53.987139,49.2            -8.24466,53.98715,49.2            -8.244684,53.987161,49.2            -8.244706,53.987172,49.2            -8.244727,53.987185,49.2            -8.244747,53.987198,49.2            -8.244777,53.987219,49.2            -8.244787,53.987227,49.3            -8.244806,53.98724,49.3            -8.244822,53.987256,49.3            -8.244836,53.987272,49.3            -8.244851,53.987287,49.3            -8.244866,53.987302,49.3            -8.244881,53.987316,49.3            -8.244896,53.987331,49.4            -8.244909,53.987348,49.4            -8.244929,53.987372,49.4            -8.244937,53.987381,49.4            -8.244952,53.987397,49.4            -8.244965,53.987411,49.5            -8.244979,53.987426,49.5            -8.244995,53.987443,49.5            -8.245007,53.987457,49.5            -8.24502,53.987473,49.5            -8.245035,53.987489,49.5            -8.245049,53.987504,49.5            -8.245076,53.987528,49.6            -8.245084,53.987536,49.6            -8.245096,53.987549,49.6            -8.245108,53.987564,49.6            -8.245119,53.987578,49.6            -8.245129,53.987595,49.6            -8.245139,53.987611,49.6            -8.245148,53.987627,49.6            -8.245157,53.987643,49.6            -8.245166,53.987659,49.6            -8.245176,53.987674,49.6            -8.245185,53.98769,49.6            -8.245192,53.987705,49.6            -8.245199,53.98772,49.6            -8.245205,53.987739,49.7            -8.245211,53.987754,49.7            -8.24522,53.987771,49.7            -8.24523,53.987786,49.7            -8.245241,53.987801,49.7            -8.24525,53.987817,49.7            -8.245265,53.987833,49.8            -8.245279,53.987848,49.8            -8.245294,53.987862,49.8            -8.245309,53.987877,49.8            -8.245323,53.987891,49.8            -8.245339,53.987906,49.9            -8.245356,53.98792,49.9            -8.245374,53.987934,49.9            -8.245406,53.987956,50            -8.245417,53.987962,50            -8.245457,53.987979,50            -8.24547,53.987984,50            -8.245508,53.988001,50.1            -8.245521,53.988006,50.1            -8.24556,53.988022,50.2            -8.245573,53.988028,50.2            -8.245609,53.988045,50.2            -8.245621,53.98805,50.2            -8.245657,53.988071,50.3            -8.245669,53.988078,50.3            -8.245699,53.988102,50.4            -8.245708,53.988111,50.4            -8.245729,53.988138,50.5            -8.245735,53.988147,50.5            -8.245747,53.988175,50.6            -8.245751,53.988184,50.6            -8.245754,53.988203,50.6            -8.245755,53.988221,50.7            -8.245749,53.98825,50.8            -8.245745,53.988259,50.8            -8.245734,53.988288,50.8            -8.24573,53.9883,50.9            -8.245717,53.988335,51            -8.245702,53.988376,51.1            -8.245688,53.988406,51.2            -8.245672,53.988439,51.2            -8.245667,53.98845,51.2            -8.245664,53.988461,51.2            -8.245658,53.988473,51.2            -8.245652,53.988485,51.1            -8.245646,53.988496,51.1            -8.245641,53.988506,51            -8.245638,53.988515,51            -8.245635,53.988527,50.9            -8.245632,53.988536,50.9            -8.245628,53.988544,50.8            -8.245629,53.988553,50.8            -8.245633,53.988561,50.7            -8.245633,53.98857,50.7            -8.245633,53.988578,50.6            -8.245631,53.988588,50.6            -8.245627,53.988599,50.5            -8.245623,53.988609,50.5            -8.245618,53.98862,50.4            -8.245607,53.988638,50.3            -8.245596,53.988651,50.2            -8.245586,53.988665,50.2            -8.245564,53.988697,50.1            -8.245558,53.988705,50            -8.245546,53.988722,50            -8.245534,53.988738,49.9            -8.245515,53.988772,49.8            -8.245509,53.988782,49.8            -8.245491,53.98881,49.8            -8.245483,53.988818,49.8            -8.245453,53.988845,49.8            -8.24544,53.988852,49.8            -8.245397,53.988863,49.7            -8.245381,53.988865,49.6            -8.245326,53.988855,49.6            -8.24531,53.988851,49.5            -8.245257,53.988835,49.5            -8.24524,53.988829,49.4            -8.245189,53.988812,49.4            -8.245173,53.988807,49.4            -8.245126,53.988793,49.3            -8.24511,53.988788,49.3            -8.245064,53.988776,49.3            -8.245048,53.988771,49.3            -8.245004,53.988759,49.3            -8.24499,53.988756,49.3            -8.244942,53.98875,49.3            -8.244927,53.988748,49.3            -8.24488,53.98875,49.3            -8.244863,53.988751,49.3            -8.244816,53.988756,49.3            -8.244799,53.988759,49.3            -8.244752,53.988767,49.3            -8.244736,53.988769,49.4            -8.244709,53.988772,49.4            -8.24468,53.98878,49.4            -8.244653,53.988784,49.4            -8.244626,53.988789,49.5            -8.244598,53.988792,49.5            -8.244572,53.988795,49.5            -8.244547,53.988799,49.6            -8.24452,53.988802,49.6            -8.244494,53.988804,49.7            -8.244469,53.988808,49.7            -8.244444,53.988814,49.7            -8.244419,53.98882,49.8            -8.244393,53.988825,49.8            -8.24437,53.988829,49.8            -8.244345,53.988834,49.9            -8.244323,53.988838,49.9            -8.244297,53.988842,49.9            -8.244271,53.988847,50            -8.244244,53.988853,50            -8.244216,53.988859,50            -8.244187,53.988866,50.1            -8.24416,53.988872,50.1            -8.244133,53.988876,50.1            -8.244106,53.988884,50.1            -8.24408,53.98889,50.2            -8.244056,53.988895,50.2            -8.24402,53.988901,50.2            -8.244005,53.988903,50.2            -8.243989,53.988904,50.2            -8.243965,53.988905,50.3            -8.243939,53.988907,50.3            -8.243913,53.988908,50.3            -8.243888,53.988911,50.3            -8.24386,53.988913,50.3            -8.243833,53.988914,50.3            -8.243806,53.988916,50.3            -8.243776,53.988918,50.3            -8.243745,53.98892,50.3            -8.243717,53.988923,50.3            -8.243691,53.988926,50.3            -8.243664,53.988928,50.3            -8.243636,53.98893,50.2            -8.243608,53.988932,50.2            -8.243584,53.988935,50.2            -8.243555,53.988941,50.2            -8.243531,53.988945,50.2            -8.243505,53.98895,50.2            -8.243478,53.988956,50.2            -8.243448,53.988961,50.2            -8.243421,53.988969,50.2            -8.243392,53.988969,50.2            -8.243337,53.988969,50.2            -8.24332,53.988969,50.2            -8.243267,53.988975,50.2            -8.243249,53.988977,50.2            -8.243201,53.988985,50.2            -8.243186,53.988986,50.2            -8.243133,53.988995,50.2            -8.243116,53.988997,50.2            -8.243086,53.989,50.2            -8.24306,53.989003,50.2            -8.243034,53.989006,50.2            -8.243007,53.989009,50.2            -8.242979,53.989012,50.2            -8.242954,53.989014,50.2            -8.24293,53.989015,50.3            -8.242906,53.989016,50.3            -8.242882,53.989019,50.3            -8.242857,53.989022,50.3            -8.242829,53.989024,50.3            -8.242803,53.98902,50.3            -8.242775,53.989018,50.4            -8.242748,53.989018,50.4            -8.24272,53.989018,50.4            -8.242691,53.989019,50.4            -8.242666,53.989022,50.5            -8.242642,53.989027,50.5            -8.242618,53.989032,50.5            -8.242596,53.98904,50.5            -8.242574,53.989046,50.5            -8.242549,53.989056,50.6            -8.24253,53.989065,50.6            -8.242506,53.989079,50.6            -8.242484,53.989089,50.6            -8.242461,53.9891,50.6            -8.242437,53.989109,50.7            -8.242412,53.989118,50.7            -8.242387,53.989127,50.7            -8.242361,53.989135,50.7            -8.242337,53.989143,50.7            -8.242312,53.989152,50.7            -8.242268,53.989164,50.7            -8.242251,53.989168,50.7            -8.242225,53.989176,50.7            -8.242198,53.989183,50.7            -8.24217,53.989191,50.7            -8.242143,53.989198,50.7            -8.242117,53.989206,50.7            -8.242092,53.989214,50.7            -8.242069,53.989223,50.8            -8.242045,53.989232,50.8            -8.242025,53.989239,50.8            -8.242007,53.989249,50.9            -8.241986,53.989257,50.9            -8.241967,53.989271,50.9            -8.241948,53.989284,51            -8.241929,53.989294,51            -8.241906,53.989308,51.1            -8.241885,53.989318,51.2            -8.241861,53.989327,51.2            -8.241836,53.989335,51.3            -8.241812,53.989344,51.3            -8.241785,53.989354,51.4            -8.241745,53.98937,51.5            -8.241731,53.989374,51.5            -8.241708,53.989382,51.5            -8.241688,53.989389,51.6            -8.241667,53.989397,51.6            -8.241647,53.989407,51.6            -8.241624,53.989419,51.7            -8.241603,53.989429,51.7            -8.241566,53.989449,51.7            -8.241553,53.989456,51.7            -8.241519,53.989478,51.7            -8.241507,53.989485,51.7            -8.241475,53.98951,51.7            -8.241464,53.989516,51.6            -8.241433,53.989542,51.6            -8.241423,53.989549,51.6            -8.241394,53.989572,51.6            -8.241384,53.989579,51.6            -8.241362,53.989591,51.5            -8.24134,53.989604,51.5            -8.241319,53.989618,51.4            -8.241298,53.989631,51.4            -8.241279,53.989645,51.3            -8.24126,53.989658,51.3            -8.24123,53.989681,51.2            -8.241218,53.989689,51.2            -8.241192,53.989712,51.1            -8.241183,53.989719,51.1            -8.241166,53.989734,51            -8.241151,53.989748,51            -8.241125,53.989773,50.9            -8.241116,53.98978,50.9            -8.241101,53.989794,50.8            -8.241085,53.989809,50.7            -8.241069,53.989824,50.7            -8.241052,53.989839,50.6            -8.241028,53.989864,50.5            -8.241021,53.989871,50.5            -8.241002,53.989897,50.4            -8.240996,53.989905,50.4            -8.240986,53.989922,50.4            -8.240982,53.989937,50.3            -8.240979,53.989954,50.3            -8.240977,53.98997,50.2            -8.240974,53.989987,50.2            -8.240971,53.990003,50.2            -8.240967,53.990019,50.2            -8.240965,53.990036,50.1            -8.240965,53.990053,50.1            -8.240964,53.99007,50.1            -8.240964,53.990088,50.1            -8.240964,53.990106,50.1            -8.240963,53.990133,50.1            -8.240963,53.990142,50.1            -8.240962,53.99016,50.1            -8.240963,53.990177,50.1            -8.240967,53.990204,50.1            -8.240969,53.990214,50.1            -8.240979,53.990244,50.1            -8.240983,53.990253,50.1            -8.240996,53.990281,50.2            -8.241,53.99029,50.2            -8.241015,53.990317,50.2            -8.24102,53.990325,50.2            -8.241028,53.990343,50.2            -8.241034,53.990359,50.2            -8.241041,53.990376,50.3            -8.241048,53.990392,50.3            -8.241054,53.990409,50.3            -8.241059,53.990426,50.3            -8.241065,53.990444,50.3            -8.24107,53.990461,50.3            -8.241076,53.990487,50.4            -8.24108,53.990497,50.4            -8.241089,53.990512,50.4            -8.241099,53.990527,50.4            -8.241109,53.990542,50.4            -8.241119,53.990556,50.5            -8.241128,53.990571,50.5            -8.24114,53.990585,50.5            -8.241148,53.990599,50.5            -8.241162,53.990612,50.6            -8.241176,53.990625,50.6            -8.241197,53.990638,50.6            -8.241217,53.990651,50.7            -8.241242,53.990662,50.8            -8.241267,53.990674,50.8            -8.241287,53.990685,50.9            -8.241312,53.990695,50.9            -8.241334,53.990705,51            -8.241356,53.990716,51.1            -8.241378,53.990725,51.1            -8.241402,53.990734,51.2            -8.241426,53.990743,51.3            -8.241448,53.990753,51.3            -8.241466,53.990766,51.4            -8.241496,53.990772,51.5            -8.241521,53.990778,51.6            -8.241569,53.9908,51.7            -8.241583,53.990806,51.8            -8.241624,53.990824,51.9            -8.241638,53.99083,51.9            -8.241676,53.990846,52            -8.24169,53.990852,52            -8.241715,53.990862,52.1            -8.241737,53.990872,52.1            -8.241763,53.990881,52.2            -8.241788,53.990887,52.2            -8.241813,53.990893,52.3            -8.241838,53.9909,52.3            -8.241863,53.990908,52.3            -8.241887,53.990918,52.3            -8.241905,53.99093,52.4            -8.241926,53.990942,52.4            -8.241941,53.990956,52.4            -8.241959,53.990969,52.4            -8.241977,53.990982,52.4            -8.241995,53.990995,52.4            -8.242015,53.991007,52.4            -8.242034,53.991021,52.4            -8.242054,53.991034,52.4            -8.242076,53.991047,52.4            -8.242098,53.991058,52.4            -8.242121,53.99107,52.4            -8.242144,53.991081,52.4            -8.242166,53.991091,52.4            -8.242206,53.991107,52.4            -8.242219,53.991112,52.4            -8.242257,53.991128,52.4            -8.24227,53.991133,52.4            -8.242313,53.991146,52.5            -8.242328,53.99115,52.5            -8.242357,53.991158,52.5            -8.242384,53.991164,52.5            -8.242426,53.991175,52.6            -8.24244,53.99118,52.6            -8.242465,53.991189,52.6            -8.242489,53.991197,52.7            -8.242512,53.991204,52.7            -8.242537,53.99121,52.8            -8.242563,53.991216,52.8            -8.24259,53.991221,52.8            -8.242615,53.991225,52.9            -8.242644,53.991231,52.9            -8.242671,53.991236,53            -8.242699,53.99124,53            -8.242726,53.991243,53            -8.242752,53.991246,53.1            -8.242779,53.991247,53.1            -8.242808,53.991246,53.2            -8.242837,53.991246,53.2            -8.242864,53.991244,53.2            -8.242892,53.991243,53.2            -8.24292,53.991244,53.3            -8.242948,53.991246,53.3            -8.242976,53.991247,53.3            -8.243003,53.991247,53.4            -8.24303,53.991246,53.4            -8.243056,53.991246,53.4            -8.243084,53.991246,53.4            -8.243112,53.991245,53.4            -8.24314,53.991247,53.5            -8.24317,53.991252,53.5            -8.243199,53.991257,53.5            -8.243229,53.991261,53.5            -8.243258,53.991264,53.5            -8.243304,53.991267,53.6            -8.24332,53.991268,53.6            -8.243349,53.991269,53.6            -8.243374,53.991269,53.6            -8.243401,53.991271,53.6            -8.243427,53.991274,53.7            -8.243454,53.991278,53.7            -8.243482,53.991281,53.7            -8.243508,53.991285,53.7            -8.243535,53.991288,53.7            -8.243563,53.991292,53.8            -8.24359,53.991296,53.8            -8.243617,53.991299,53.8            -8.243647,53.991302,53.8            -8.243693,53.991307,53.8            -8.243708,53.991308,53.8            -8.243737,53.99131,53.9            -8.243767,53.991312,53.9            -8.243794,53.991312,53.9            -8.243822,53.991311,53.9            -8.243849,53.991309,53.9            -8.243883,53.991308,53.9            -8.243911,53.991307,53.9            -8.243937,53.991304,54            -8.243964,53.991298,54            -8.243992,53.991292,54            -8.24402,53.991286,54            -8.244049,53.991282,54            -8.244077,53.991275,54            -8.244106,53.991267,54            -8.244135,53.991263,54            -8.244164,53.991261,54            -8.244194,53.991259,54            -8.244225,53.991256,54            -8.244272,53.991258,54            -8.244287,53.991258,54            -8.244316,53.991258,54            -8.244345,53.991257,54            -8.244394,53.991256,54            -8.244409,53.991255,54            -8.244441,53.991254,54            -8.244471,53.991254,54            -8.244501,53.991254,53.9            -8.244532,53.991253,53.9            -8.244562,53.991251,53.9            -8.24459,53.991249,53.9            -8.244619,53.991248,53.9            -8.244648,53.991247,53.9            -8.244677,53.991247,53.8            -8.244706,53.991249,53.8            -8.244734,53.991251,53.8            -8.244762,53.991252,53.8            -8.24479,53.991253,53.7            -8.244819,53.991256,53.7            -8.244847,53.991257,53.7            -8.244874,53.991258,53.6            -8.244901,53.991257,53.6            -8.24493,53.991257,53.6            -8.244957,53.991255,53.6            -8.244985,53.991253,53.5            -8.245013,53.99125,53.5            -8.24504,53.991246,53.5            -8.245068,53.991243,53.4            -8.245096,53.99124,53.4            -8.245123,53.991235,53.3            -8.245151,53.99123,53.3            -8.24518,53.991224,53.3            -8.245209,53.991221,53.2            -8.245236,53.991215,53.2            -8.245263,53.991209,53.1            -8.245295,53.991206,53.1            -8.245323,53.991206,53.1            -8.245351,53.991209,53            -8.245378,53.991212,53            -8.245404,53.991214,52.9            -8.245431,53.991217,52.9            -8.245457,53.991218,52.8            -8.245483,53.99122,52.8            -8.245511,53.991222,52.8            -8.245536,53.991224,52.7            -8.245565,53.991225,52.7            -8.245595,53.991224,52.6            -8.245643,53.991224,52.5            -8.245663,53.991224,52.5            -8.24571,53.991224,52.4            -8.245726,53.991223,52.4            -8.245773,53.99122,52.3            -8.245788,53.991219,52.3            -8.245818,53.991218,52.2            -8.245847,53.991217,52.2            -8.245875,53.991217,52.1            -8.245902,53.991219,52.1            -8.24593,53.99122,52            -8.245958,53.991222,52            -8.245984,53.991223,52            -8.246011,53.991225,51.9            -8.246039,53.991225,51.9            -8.246065,53.991227,51.9            -8.246091,53.991227,51.9            -8.246119,53.991228,51.9            -8.246145,53.991227,51.9            -8.246173,53.991225,51.9            -8.2462,53.991219,51.9            -8.246228,53.991211,51.9            -8.24627,53.991199,51.9            -8.246284,53.991195,51.9            -8.246312,53.991188,51.9            -8.246339,53.991182,52            -8.246367,53.991177,52            -8.246394,53.991172,52            -8.246421,53.991167,52.1            -8.24645,53.991162,52.1            -8.246478,53.991156,52.1            -8.246504,53.991149,52.2            -8.24653,53.991143,52.2            -8.246558,53.991137,52.2            -8.246586,53.991129,52.3            -8.246613,53.991122,52.3            -8.246655,53.991107,52.4            -8.246669,53.991101,52.4            -8.246711,53.99109,52.4            -8.246725,53.991086,52.4            -8.246768,53.991077,52.5            -8.246784,53.991074,52.5            -8.246813,53.991069,52.5            -8.246843,53.991063,52.5            -8.246868,53.991059,52.5            -8.2469,53.991052,52.6            -8.246942,53.99104,52.6            -8.246956,53.991035,52.6            -8.246983,53.991028,52.6            -8.24701,53.991022,52.6            -8.247038,53.991018,52.6            -8.247066,53.991015,52.6            -8.247094,53.991015,52.6            -8.247122,53.991017,52.6            -8.24717,53.99102,52.6            -8.24719,53.991022,52.6            -8.247235,53.991027,52.6            -8.247251,53.991028,52.6            -8.247279,53.991028,52.6            -8.247307,53.991028,52.6            -8.247336,53.991028,52.5            -8.247361,53.991027,52.5            -8.247391,53.991022,52.5            -8.247419,53.991019,52.5            -8.247447,53.991014,52.5            -8.247473,53.991009,52.4            -8.247501,53.991005,52.4            -8.247526,53.990992,52.4            -8.247551,53.990984,52.4            -8.24758,53.990982,52.3            -8.247612,53.990982,52.3            -8.247641,53.990986,52.3            -8.247669,53.990983,52.3            -8.247698,53.990977,52.2            -8.247748,53.99097,52.2            -8.247764,53.990968,52.2            -8.24781,53.990963,52.1            -8.247825,53.990961,52.1            -8.247855,53.990959,52.1            -8.247884,53.990957,52.1            -8.247915,53.990956,52            -8.247944,53.990954,52            -8.247991,53.990952,52            -8.248006,53.990951,51.9            -8.248035,53.99095,51.9            -8.248064,53.990949,51.9            -8.248091,53.990947,51.8            -8.248117,53.990945,51.8            -8.248147,53.990944,51.8            -8.248176,53.990945,51.8            -8.248204,53.990947,51.7            -8.248232,53.990948,51.7            -8.248258,53.990948,51.7            -8.248284,53.990947,51.6            -8.248308,53.990945,51.6            -8.248335,53.99094,51.6            -8.248362,53.990935,51.6            -8.248388,53.990928,51.6            -8.248416,53.990923,51.5            -8.248446,53.990919,51.5            -8.248474,53.990916,51.5            -8.248502,53.990911,51.5            -8.248531,53.990907,51.4            -8.248557,53.990904,51.4            -8.248585,53.990899,51.4            -8.248614,53.990895,51.4            -8.248641,53.99089,51.3            -8.248669,53.990885,51.3            -8.248726,53.990874,51.3            -8.24874,53.990871,51.2            -8.248768,53.990863,51.2            -8.248796,53.990857,51.2            -8.248825,53.990851,51.1            -8.24885,53.990843,51.1            -8.248892,53.990819,51.1            -8.248904,53.990812,51.1            -8.248931,53.990803,51            -8.248958,53.990795,51            -8.249002,53.990787,51            -8.249016,53.990784,51            -8.249046,53.99078,51            -8.249075,53.990774,50.9            -8.249102,53.99077,50.9            -8.249128,53.990766,50.9            -8.249157,53.990761,50.9            -8.249183,53.990755,50.9            -8.24921,53.99075,50.9            -8.249235,53.990742,50.9            -8.249261,53.990734,50.9            -8.249286,53.990726,50.9            -8.249311,53.990717,50.9            -8.249337,53.990709,50.9            -8.249364,53.990702,50.9            -8.249388,53.990694,50.9            -8.249412,53.990685,50.9            -8.249441,53.990675,50.9            -8.249464,53.990665,50.9            -8.249489,53.990655,50.9            -8.249514,53.990645,50.9            -8.249537,53.990634,50.9            -8.24956,53.990624,50.9            -8.249582,53.990614,50.9            -8.249605,53.990604,50.9            -8.249626,53.990593,50.9            -8.249648,53.990582,50.9            -8.24967,53.990571,50.9            -8.24969,53.990561,50.9            -8.249709,53.990551,50.9            -8.249739,53.990536,50.9            -8.249752,53.99053,50.9            -8.249766,53.990524,50.9            -8.249778,53.990507,50.8            -8.249787,53.990494,50.8            -8.249796,53.990482,50.8            -8.249827,53.990457,50.8            -8.249837,53.990449,50.8            -8.24987,53.990428,50.8            -8.249881,53.990421,50.7            -8.249904,53.990407,50.7            -8.249924,53.990395,50.7            -8.249945,53.990383,50.7            -8.249966,53.990371,50.7            -8.249985,53.990359,50.6            -8.250003,53.990346,50.6            -8.250018,53.990332,50.6            -8.250032,53.990318,50.6            -8.250061,53.99029,50.5            -8.250076,53.990276,50.5            -8.25009,53.990262,50.5            -8.250121,53.990238,50.5            -8.250129,53.990231,50.4            -8.250143,53.990217,50.4            -8.250158,53.990202,50.4            -8.250187,53.990172,50.4            -8.250197,53.990161,50.3            -8.250211,53.990145,50.3            -8.250225,53.990129,50.3            -8.250237,53.990113,50.3            -8.250248,53.990099,50.3            -8.250257,53.990081,50.3            -8.250266,53.990065,50.3            -8.250265,53.990049,50.3            -8.250265,53.990033,50.3            -8.250266,53.990017,50.2            -8.250268,53.990002,50.2            -8.250271,53.989988,50.2            -8.250275,53.989971,50.2            -8.250277,53.989959,50.2            -8.250281,53.989945,50.2            -8.250286,53.989928,50.2            -8.250291,53.989914,50.2            -8.250294,53.9899,50.2            -8.250295,53.989884,50.2            -8.250296,53.989868,50.2            -8.250294,53.989851,50.2            -8.250293,53.989834,50.2            -8.25029,53.989818,50.2            -8.250277,53.989789,50.2            -8.250273,53.98978,50.2            -8.250254,53.989751,50.2            -8.250248,53.989741,50.2            -8.25023,53.989711,50.3            -8.250223,53.989701,50.3            -8.2502,53.989675,50.3            -8.250193,53.989666,50.3            -8.250167,53.989643,50.2            -8.250159,53.989635,50.2            -8.25014,53.989621,50.2            -8.250121,53.989607,50.2            -8.250103,53.989594,50.2            -8.250085,53.989581,50.2            -8.250051,53.989557,50.2            -8.250042,53.98955,50.2            -8.250023,53.989538,50.2            -8.250002,53.989525,50.2            -8.249983,53.989515,50.2            -8.249961,53.989505,50.2            -8.24994,53.989494,50.2            -8.249922,53.989486,50.2            -8.249893,53.989479,50.2            -8.249867,53.989474,50.2            -8.249842,53.98947,50.2            -8.249817,53.989466,50.2            -8.24979,53.989462,50.2            -8.249765,53.989458,50.2            -8.249739,53.989456,50.2            -8.249712,53.989455,50.2            -8.249683,53.989454,50.2            -8.249655,53.989454,50.3            -8.249626,53.989454,50.3            -8.249595,53.989453,50.3            -8.249568,53.989453,50.3            -8.249541,53.989451,50.3            -8.249513,53.989451,50.4            -8.249484,53.989449,50.4            -8.249455,53.989447,50.4            -8.249427,53.989444,50.4            -8.2494,53.989443,50.5            -8.249373,53.989444,50.5            -8.249325,53.989444,50.6            -8.249309,53.989444,50.6            -8.249264,53.989442,50.7            -8.249246,53.989441,50.7            -8.249198,53.98944,50.7            -8.249182,53.98944,50.8            -8.249151,53.989443,50.8            -8.249122,53.989447,50.9            -8.249093,53.989451,50.9            -8.249066,53.989456,51            -8.249016,53.98946,51.1            -8.249,53.989461,51.1            -8.248953,53.98946,51.2            -8.248938,53.989459,51.2            -8.24891,53.98946,51.3            -8.248886,53.989462,51.3            -8.24886,53.989462,51.4            -8.248833,53.989463,51.4            -8.248805,53.989464,51.5            -8.248779,53.989465,51.6            -8.248753,53.989467,51.6            -8.248728,53.989469,51.7            -8.248694,53.989473,51.7            -8.24867,53.989473,51.8            -8.248643,53.989472,51.8            -8.248616,53.989473,51.9            -8.248589,53.989475,52            -8.248563,53.989477,52            -8.248538,53.989479,52.1            -8.248512,53.98948,52.1            -8.248476,53.98948,52.2            -8.24846,53.989481,52.2            -8.248445,53.989481,52.2            -8.248419,53.98948,52.3            -8.248388,53.989477,52.3            -8.24834,53.989468,52.4            -8.248323,53.989464,52.4            -8.248279,53.989453,52.4            -8.248229,53.989441,52.4            -8.248213,53.989436,52.4            -8.248169,53.989426,52.4            -8.248156,53.989422,52.4            -8.248131,53.989416,52.4            -8.248105,53.989409,52.4            -8.248082,53.989403,52.4            -8.248061,53.989396,52.4            -8.248021,53.989383,52.3            -8.248004,53.989377,52.3            -8.24798,53.98937,52.3            -8.247952,53.989361,52.2            -8.247926,53.989354,52.1            -8.247899,53.989346,52.1            -8.247872,53.989339,52            -8.247845,53.989331,51.9            -8.247821,53.989324,51.9            -8.247796,53.989316,51.8            -8.247766,53.989295,51.6            -8.24776,53.989283,51.6            -8.24775,53.989267,51.5            -8.247728,53.989254,51.4            -8.247714,53.989238,51.3            -8.247723,53.989221,51.2            -8.247709,53.989207,51.1            -8.247702,53.989191,51            -8.247645,53.989175,50.8            -8.247627,53.98917,50.8            -8.247579,53.98917,50.6            -8.247525,53.989185,50.5            -8.247505,53.989189,50.5            -8.247458,53.989198,50.4            -8.247441,53.9892,50.3            -8.24741,53.989201,50.3            -8.24738,53.989202,50.3            -8.247334,53.989193,50.2            -8.247317,53.989187,50.2            -8.24727,53.989169,50.1            -8.247255,53.989162,50.1            -8.247211,53.989139,50            -8.247197,53.98913,50            -8.247162,53.989102,49.9            -8.247151,53.989093,49.9            -8.247122,53.98907,49.9            -8.247112,53.989063,49.9            -8.247097,53.989032,49.8            -8.247093,53.989021,49.8            -8.247077,53.988993,49.8            -8.247071,53.988983,49.7            -8.247052,53.988958,49.7            -8.247046,53.98895,49.7            -8.247033,53.988934,49.6            -8.247017,53.98892,49.6            -8.246987,53.988899,49.6            -8.246978,53.988892,49.5            -8.246945,53.988872,49.5            -8.246935,53.988865,49.5            -8.246914,53.988852,49.4            -8.24689,53.98884,49.4            -8.246856,53.98882,49.4            -8.246846,53.988813,49.3            -8.246826,53.988799,49.3            -8.246812,53.988783,49.3            -8.246788,53.988758,49.2            -8.246778,53.988751,49.2            -8.246752,53.988742,49.2            -8.24672,53.988739,49.2            -8.246691,53.988735,49.2            -8.246662,53.988731,49.2            -8.246634,53.988728,49.2            -8.246605,53.988726,49.2            -8.246557,53.98873,49.2            -8.246541,53.988731,49.2            -8.246498,53.988739,49.2            -8.246481,53.988744,49.2            -8.246453,53.988751,49.2            -8.246426,53.988757,49.3            -8.246381,53.988767,49.3            -8.246367,53.98877,49.3            -8.24634,53.988774,49.3            -8.246314,53.98878,49.4            -8.246289,53.988785,49.4            -8.246263,53.988791,49.4            -8.246236,53.988796,49.5            -8.24621,53.988803,49.5            -8.246183,53.988807,49.5            -8.246155,53.988811,49.5            -8.246128,53.988811,49.6            -8.2461,53.988813,49.6            -8.246071,53.988815,49.6            -8.246041,53.988818,49.6            -8.246012,53.988821,49.7            -8.245983,53.988825,49.7            -8.245954,53.988829,49.7            -8.245924,53.988834,49.7            -8.245894,53.988839,49.7            -8.245867,53.988841,49.7            -8.245823,53.988847,49.7            -8.245806,53.988848,49.8            -8.245779,53.98885,49.8            -8.245751,53.988855,49.8            -8.245723,53.988859,49.8            -8.245691,53.988859,49.8            -8.245644,53.988854,49.8            -8.245629,53.988852,49.8            -8.245581,53.988837,49.8            -8.245566,53.988831,49.8            -8.245529,53.988809,49.8            -8.245519,53.988799,49.8            -8.245505,53.988768,49.8            -8.245502,53.988757,49.8            -8.245492,53.988739,49.9            -8.245479,53.988724,49.9            -8.245508,53.988701,50            -8.245551,53.988679,50            -8.245559,53.988671,50.1            -8.24556,53.988641,50.2            -8.24556,53.988631,50.2            -8.245566,53.988614,50.3            -8.245574,53.988597,50.4            -8.245584,53.988581,50.4            -8.245593,53.988564,50.5            -8.245598,53.988547,50.6            -8.245605,53.988529,50.7            -8.245612,53.988512,50.8            -8.245621,53.988495,50.9            -8.24563,53.988478,50.9            -8.245638,53.988463,51            -8.245648,53.988448,51.1            -8.245666,53.988439,51.1            -8.245668,53.988425,51.2            -8.245667,53.988412,51.2            -8.245672,53.988398,51.2            -8.245677,53.988383,51.2            -8.245687,53.988368,51.2            -8.245691,53.988353,51.2            -8.245698,53.988339,51.2            -8.245705,53.988325,51.1            -8.24572,53.9883,51            -8.245726,53.98829,51            -8.245734,53.988274,50.9            -8.245742,53.988258,50.9            -8.245751,53.988241,50.8            -8.245761,53.988226,50.8            -8.245788,53.988204,50.8            -8.245801,53.988196,50.7            -8.245826,53.988187,50.6            -8.245855,53.988181,50.5            -8.245883,53.988178,50.4            -8.245912,53.988178,50.3            -8.245942,53.988181,50.2            -8.245969,53.988186,50.1            -8.245996,53.988192,50.1            -8.246023,53.9882,50            -8.246068,53.988216,49.9            -8.246086,53.988222,49.8            -8.246128,53.988236,49.7            -8.246142,53.988239,49.7            -8.246169,53.988247,49.6            -8.246197,53.988254,49.6            -8.246239,53.988267,49.5            -8.246253,53.988271,49.5            -8.246279,53.988278,49.5            -8.246304,53.988286,49.4            -8.246344,53.988296,49.4            -8.246361,53.9883,49.3            -8.246387,53.988307,49.3            -8.246414,53.988313,49.3            -8.246439,53.988319,49.2            -8.246466,53.988325,49.2            -8.246492,53.98833,49.2            -8.246519,53.988335,49.2            -8.246546,53.98834,49.1            -8.246572,53.988345,49.1            -8.246599,53.988352,49.1            -8.246624,53.988357,49            -8.24665,53.988362,49            -8.246675,53.988367,49            -8.246701,53.988371,49            -8.246727,53.988373,49            -8.246779,53.988375,48.9            -8.246794,53.988376,48.9            -8.246822,53.988378,48.9            -8.246851,53.98838,48.9            -8.246879,53.988382,48.9            -8.246909,53.988383,48.9            -8.246938,53.988385,48.9            -8.246964,53.988385,48.9            -8.246991,53.988383,48.9            -8.247024,53.98838,49            -8.247053,53.988379,49            -8.247082,53.98838,49            -8.24711,53.988381,49            -8.24714,53.988381,49.1            -8.247168,53.988383,49.1            -8.247197,53.988383,49.2            -8.247225,53.988383,49.2            -8.247252,53.988382,49.3            -8.247281,53.98838,49.3            -8.247309,53.988377,49.4            -8.247338,53.988374,49.4            -8.247367,53.988372,49.5            -8.247394,53.98837,49.6            -8.247421,53.988368,49.7            -8.247445,53.988368,49.7            -8.247473,53.988368,49.8            -8.2475,53.988372,49.9            -8.247522,53.988377,50            -8.247547,53.988382,50            -8.247573,53.988387,50.1            -8.247598,53.988394,50.2            -8.247622,53.988401,50.3            -8.247646,53.988408,50.4            -8.247669,53.988415,50.4            -8.247693,53.988422,50.5            -8.247717,53.98843,50.6            -8.247739,53.988438,50.6            -8.247762,53.988445,50.7            -8.247786,53.988452,50.7            -8.247818,53.988459,50.8            -8.247843,53.988462,50.8            -8.247867,53.988465,50.9            -8.247891,53.988468,50.9            -8.247919,53.988471,50.9            -8.247943,53.988474,51            -8.247967,53.988476,51            -8.247995,53.988478,51            -8.248022,53.988479,51.1            -8.248049,53.988481,51.1            -8.248076,53.988483,51.1            -8.248104,53.988484,51.1            -8.248133,53.988484,51.1            -8.248162,53.988485,51.2            -8.248189,53.988486,51.2            -8.248215,53.988486,51.2            -8.248243,53.988486,51.2            -8.248273,53.988486,51.2            -8.248302,53.988486,51.3            -8.248333,53.988486,51.3            -8.248364,53.988486,51.3            -8.248395,53.988486,51.3            -8.248425,53.988481,51.4            -8.248468,53.988471,51.4            -8.248482,53.988467,51.4            -8.24851,53.98846,51.5            -8.248538,53.988455,51.5            -8.248563,53.988448,51.5            -8.248588,53.988441,51.5            -8.248615,53.988436,51.6            -8.248641,53.988436,51.6            -8.248664,53.988425,51.6            -8.248686,53.988415,51.6            -8.248708,53.988402,51.7            -8.248731,53.988391,51.7            -8.248755,53.988381,51.7            -8.248777,53.98837,51.7            -8.248799,53.988361,51.7            -8.248821,53.988352,51.8            -8.248841,53.988342,51.8            -8.24886,53.988331,51.8            -8.248882,53.98832,51.8            -8.248903,53.988309,51.8            -8.248922,53.988299,51.8            -8.248942,53.988288,51.8            -8.248962,53.988277,51.8            -8.248981,53.988266,51.8            -8.248999,53.988253,51.8            -8.249017,53.98824,51.8            -8.249036,53.988227,51.8            -8.249056,53.988215,51.9            -8.249078,53.988203,51.9            -8.249099,53.988191,51.9            -8.249121,53.988179,51.9            -8.249143,53.988168,51.9            -8.249165,53.988157,51.9            -8.249188,53.988148,51.9            -8.249211,53.988139,51.9            -8.249235,53.98813,51.9            -8.249257,53.988123,51.9            -8.24928,53.988116,51.9            -8.249303,53.98811,51.9            -8.249326,53.988103,51.9            -8.249348,53.988095,51.9            -8.24937,53.988087,51.9            -8.249393,53.988079,51.9            -8.249417,53.988073,51.9            -8.249441,53.988068,51.9            -8.249465,53.988064,51.8            -8.249486,53.988054,51.8            -8.249508,53.988044,51.8            -8.249533,53.988036,51.8            -8.24956,53.988029,51.7            -8.249617,53.98803,51.6            -8.249633,53.988034,51.6            -8.249666,53.988037,51.6            -8.249691,53.988034,51.5            -8.249716,53.98803,51.5            -8.249761,53.98801,51.3            -8.249773,53.988002,51.3            -8.249812,53.987981,51.2            -8.249825,53.987976,51.2            -8.249854,53.987966,51.1            -8.249881,53.987961,51            -8.249899,53.987948,51            -8.249891,53.987933,50.9            -8.249901,53.98792,50.9            -8.249937,53.98791,50.8            -8.249962,53.987904,50.8            -8.249989,53.987897,50.7            -8.250015,53.987888,50.7            -8.250041,53.987879,50.6            -8.250065,53.987869,50.6            -8.250088,53.987859,50.6            -8.250127,53.987839,50.5            -8.250137,53.987832,50.5            -8.250159,53.987818,50.5            -8.25018,53.987805,50.5            -8.250215,53.987787,50.4            -8.250227,53.987781,50.4            -8.250251,53.98777,50.4            -8.250274,53.987759,50.4            -8.250298,53.987748,50.4            -8.250319,53.987737,50.4            -8.250342,53.987727,50.4            -8.250364,53.987717,50.4            -8.250386,53.987706,50.4            -8.250408,53.987696,50.4            -8.25043,53.987686,50.4            -8.250452,53.987675,50.4            -8.250476,53.987664,50.4            -8.250501,53.987653,50.4            -8.250535,53.987633,50.4            -8.250546,53.987626,50.4            -8.250575,53.987603,50.4            -8.250584,53.987595,50.4            -8.250608,53.98757,50.4            -8.250617,53.987563,50.4            -8.250637,53.987538,50.4            -8.250643,53.987529,50.4            -8.250659,53.987513,50.4            -8.250672,53.987498,50.4            -8.250688,53.987483,50.4            -8.250706,53.987468,50.4            -8.250724,53.987454,50.4            -8.250738,53.98744,50.3            -8.25075,53.987425,50.3            -8.250758,53.987409,50.3            -8.250765,53.987393,50.3            -8.250769,53.987376,50.3            -8.250775,53.987359,50.3            -8.250782,53.987343,50.3            -8.250787,53.987327,50.3            -8.250791,53.98731,50.3            -8.250793,53.987293,50.3            -8.250797,53.987276,50.3            -8.250799,53.987258,50.3            -8.250799,53.987241,50.3            -8.2508,53.987225,50.3            -8.2508,53.987209,50.3            -8.250799,53.987193,50.3            -8.250797,53.987177,50.3            -8.250794,53.987163,50.3            -8.250788,53.987148,50.3            -8.250782,53.987133,50.3            -8.250777,53.987118,50.3            -8.250769,53.987102,50.3            -8.25076,53.987087,50.4            -8.250752,53.987072,50.4            -8.250743,53.987056,50.4            -8.250732,53.987041,50.4            -8.250719,53.987025,50.4            -8.250704,53.98701,50.4            -8.250689,53.986995,50.4            -8.250674,53.98698,50.4            -8.250659,53.986966,50.3            -8.250643,53.986951,50.3            -8.250624,53.986936,50.3            -8.250607,53.986922,50.3            -8.250589,53.986908,50.3            -8.250572,53.986893,50.3            -8.250555,53.986878,50.3            -8.250538,53.986864,50.3            -8.250522,53.98685,50.3            -8.250506,53.986835,50.3            -8.250487,53.986822,50.3            -8.250469,53.986808,50.3            -8.25045,53.986795,50.3            -8.250431,53.986782,50.3            -8.250411,53.986771,50.3            -8.250392,53.98676,50.3            -8.250367,53.986746,50.3            -8.250346,53.986733,50.2            -8.250328,53.986721,50.2            -8.250313,53.986707,50.2            -8.250295,53.986692,50.2            -8.250284,53.986677,50.2            -8.250271,53.986663,50.2            -8.250259,53.986649,50.2            -8.250246,53.986637,50.2            -8.25023,53.986624,50.2            -8.250214,53.986612,50.1            -8.250191,53.986595,50.1            -8.250182,53.986587,50.1            -8.250173,53.98658,50.1            -8.25016,53.986569,50.1            -8.250141,53.986554,50.1            -8.250125,53.986539,50.1            -8.25011,53.986523,50.1            -8.250102,53.986507,50            -8.250098,53.986488,50            -8.250099,53.986461,50            -8.2501,53.986452,50            -8.250101,53.986424,50            -8.250102,53.986415,50            -8.250106,53.986399,50            -8.250116,53.98638,50            -8.250143,53.986357,49.9            -8.250152,53.986349,49.9            -8.250172,53.986335,49.9            -8.250193,53.986321,49.9            -8.250215,53.986309,49.9            -8.250238,53.986297,49.9            -8.250262,53.986287,49.9            -8.250288,53.986277,49.9            -8.250314,53.986268,49.9            -8.250342,53.986261,49.9            -8.25037,53.986255,49.9            -8.250398,53.98625,50            -8.250426,53.986245,50            -8.250456,53.98624,50            -8.250484,53.986237,50            -8.250511,53.986235,50            -8.250538,53.986235,50            -8.250567,53.986236,50.1            -8.250617,53.986238,50.1            -8.250632,53.986239,50.1            -8.250662,53.986239,50.2            -8.25069,53.986237,50.2            -8.250717,53.986236,50.3            -8.250746,53.986235,50.4            -8.250775,53.986236,50.4            -8.250802,53.986236,50.5            -8.250829,53.986235,50.6            -8.250857,53.986234,50.7            -8.250881,53.986234,50.7            -8.250908,53.986235,50.8            -8.250934,53.986238,50.8            -8.25096,53.986241,50.9            -8.250984,53.986246,50.9            -8.251011,53.986251,50.9            -8.251036,53.986257,51            -8.25106,53.986264,51            -8.251103,53.986281,51            -8.251154,53.986297,51.1            -8.251167,53.9863,51.1            -8.251195,53.986306,51.1            -8.251221,53.986312,51.1            -8.251247,53.986318,51.1            -8.251273,53.986322,51.1            -8.251318,53.98633,51.1            -8.251336,53.986332,51.1            -8.251366,53.986337,51.1            -8.251397,53.986337,51.1            -8.251426,53.986339,51.1            -8.251453,53.986342,51.1            -8.251479,53.986345,51.2            -8.251507,53.986348,51.2            -8.251529,53.986352,51.2            -8.251554,53.986358,51.2            -8.251578,53.986363,51.2            -8.251604,53.986367,51.2            -8.251627,53.986372,51.2            -8.251649,53.986377,51.2            -8.251673,53.986382,51.3            -8.251704,53.986388,51.3            -8.251732,53.986393,51.3            -8.251761,53.986396,51.3            -8.251789,53.986399,51.3            -8.251816,53.986402,51.4            -8.251843,53.986406,51.4            -8.251872,53.98641,51.4            -8.251902,53.986414,51.4            -8.251932,53.986419,51.5            -8.251989,53.986429,51.5            -8.252007,53.986433,51.5            -8.252058,53.986443,51.6            -8.252074,53.986445,51.6            -8.252105,53.986449,51.6            -8.252132,53.986454,51.6            -8.252158,53.98646,51.6            -8.252185,53.986465,51.6            -8.252212,53.986471,51.6            -8.252238,53.986476,51.6            -8.252264,53.98648,51.7            -8.252291,53.986485,51.7            -8.252315,53.98649,51.7            -8.252342,53.986495,51.7            -8.252366,53.986501,51.7            -8.25239,53.986506,51.7            -8.252413,53.986512,51.7            -8.252436,53.986517,51.7            -8.25246,53.986522,51.7            -8.252484,53.986526,51.7            -8.252509,53.986531,51.7            -8.252534,53.986535,51.7            -8.252559,53.986539,51.7            -8.252584,53.986542,51.6            -8.25261,53.986544,51.6            -8.252638,53.986547,51.6            -8.252661,53.986547,51.6            -8.252686,53.986549,51.6            -8.252713,53.986552,51.6            -8.25274,53.986553,51.6            -8.252764,53.986554,51.6            -8.252795,53.986555,51.6            -8.252824,53.986558,51.6            -8.252853,53.986561,51.6            -8.25288,53.986562,51.5            -8.252907,53.986563,51.5            -8.252933,53.986564,51.5            -8.252963,53.986567,51.5            -8.252988,53.986568,51.5            -8.253015,53.98657,51.5            -8.253042,53.986574,51.5            -8.253069,53.986578,51.5            -8.253097,53.986584,51.5            -8.253123,53.98659,51.5            -8.25315,53.986596,51.5            -8.253176,53.986602,51.5            -8.253203,53.986609,51.5            -8.253229,53.986618,51.5            -8.253254,53.986626,51.5            -8.253281,53.986631,51.5            -8.253308,53.986635,51.5            -8.253335,53.986639,51.5            -8.253361,53.986641,51.5            -8.253387,53.986644,51.5            -8.253414,53.986648,51.5            -8.253438,53.98665,51.5            -8.253463,53.986654,51.5            -8.253491,53.986659,51.5            -8.253516,53.986662,51.6            -8.25354,53.986665,51.6            -8.253566,53.986667,51.6            -8.253591,53.986668,51.6            -8.253618,53.986669,51.6            -8.253645,53.986667,51.6            -8.253672,53.986665,51.6            -8.253701,53.986661,51.6            -8.253753,53.986656,51.6            -8.253776,53.986654,51.7            -8.253824,53.986649,51.7            -8.253839,53.986648,51.7            -8.253869,53.986645,51.7            -8.253899,53.986643,51.7            -8.253929,53.986641,51.7            -8.253956,53.98664,51.6            -8.253986,53.986639,51.6            -8.254015,53.986638,51.6            -8.254045,53.986637,51.6            -8.254073,53.986634,51.6            -8.254099,53.98663,51.6            -8.254126,53.986626,51.6            -8.254153,53.986621,51.5            -8.254179,53.986614,51.5            -8.254206,53.986608,51.5            -8.25423,53.986601,51.5            -8.254254,53.986594,51.5            -8.254277,53.986586,51.5            -8.2543,53.986578,51.4            -8.25432,53.98657,51.4            -8.254345,53.986561,51.4            -8.254366,53.986555,51.4            -8.254388,53.986546,51.4            -8.254408,53.986537,51.4            -8.254426,53.986527,51.4            -8.254445,53.986517,51.4            -8.254463,53.986506,51.4            -8.254482,53.986494,51.4            -8.254496,53.986482,51.4            -8.254514,53.986469,51.4            -8.254531,53.986458,51.4            -8.254549,53.986445,51.4            -8.254566,53.986434,51.4            -8.254584,53.986421,51.4            -8.2546,53.98641,51.4            -8.254619,53.986399,51.4            -8.254638,53.98639,51.5            -8.254648,53.986375,51.5            -8.254664,53.986363,51.5            -8.254674,53.986349,51.5            -8.254688,53.986334,51.5            -8.254704,53.98632,51.5            -8.254736,53.986297,51.6            -8.254746,53.98629,51.6            -8.254768,53.986276,51.6            -8.254784,53.986265,51.6            -8.254799,53.986252,51.6            -8.254815,53.986239,51.6            -8.254839,53.986217,51.6            -8.254848,53.986207,51.6            -8.254864,53.986192,51.6            -8.25488,53.986178,51.6            -8.254895,53.986162,51.6            -8.254911,53.986148,51.6            -8.254929,53.986135,51.6            -8.254945,53.986122,51.6            -8.25496,53.986108,51.6            -8.254976,53.986093,51.6            -8.254995,53.986081,51.6            -8.255013,53.986069,51.6            -8.25503,53.986056,51.6            -8.255049,53.986044,51.6            -8.255083,53.986022,51.6            -8.255092,53.986016,51.6            -8.255111,53.986003,51.7            -8.255132,53.985991,51.7            -8.25515,53.985979,51.7            -8.255167,53.985966,51.7            -8.255184,53.985954,51.7            -8.255201,53.985943,51.7            -8.255218,53.985932,51.7            -8.255234,53.985921,51.7            -8.25525,53.985909,51.7            -8.255272,53.985893,51.7            -8.255301,53.985873,51.7            -8.255312,53.985865,51.7            -8.25533,53.98585,51.7            -8.255347,53.985836,51.7            -8.255365,53.985823,51.7            -8.255383,53.985811,51.7            -8.255401,53.985797,51.7            -8.25542,53.985785,51.7            -8.255441,53.985773,51.7            -8.255461,53.985763,51.7            -8.255485,53.985753,51.7            -8.255508,53.985742,51.7            -8.25553,53.985735,51.7            -8.255551,53.985726,51.6            -8.255572,53.985716,51.6            -8.255592,53.985705,51.6            -8.255612,53.985695,51.6            -8.255633,53.985684,51.6            -8.255652,53.985674,51.6            -8.25567,53.985664,51.6            -8.255689,53.985655,51.6            -8.255709,53.985646,51.6            -8.255727,53.985637,51.6            -8.255745,53.985627,51.6            -8.255764,53.985618,51.6            -8.255783,53.985608,51.6            -8.2558,53.985598,51.6            -8.255821,53.985587,51.6            -8.255835,53.985576,51.6            -8.255851,53.985564,51.6            -8.255869,53.985553,51.5            -8.255887,53.98554,51.5            -8.255905,53.985526,51.5            -8.255924,53.985513,51.5            -8.255943,53.985499,51.5            -8.255961,53.985486,51.5            -8.255978,53.985475,51.4            -8.255997,53.985463,51.4            -8.256016,53.985454,51.4            -8.256038,53.985445,51.4            -8.256057,53.985437,51.4            -8.256076,53.985429,51.4            -8.256099,53.985417,51.4            -8.256122,53.985406,51.3            -8.256142,53.985397,51.3            -8.256163,53.985388,51.3            -8.256202,53.98537,51.3            -8.256217,53.985362,51.3            -8.256256,53.985343,51.3            -8.256269,53.985336,51.3            -8.25631,53.985319,51.3            -8.256323,53.985313,51.3            -8.256361,53.985296,51.3            -8.256374,53.98529,51.3            -8.256415,53.985274,51.3            -8.256429,53.985269,51.3            -8.256452,53.98526,51.3            -8.256477,53.985249,51.3            -8.256518,53.985233,51.4            -8.256533,53.985226,51.4            -8.256557,53.985215,51.4            -8.256579,53.985204,51.4            -8.256601,53.985192,51.4            -8.256622,53.985181,51.4            -8.256642,53.985169,51.5            -8.256662,53.985157,51.5            -8.256683,53.985146,51.5            -8.256702,53.985136,51.5            -8.256726,53.985125,51.5            -8.256747,53.985115,51.5            -8.256767,53.985103,51.5            -8.256784,53.985094,51.5            -8.2568,53.985083,51.6            -8.256817,53.985066,51.6            -8.256833,53.985052,51.6            -8.256848,53.985035,51.6            -8.256863,53.985021,51.6            -8.256879,53.985008,51.6            -8.256894,53.984995,51.6            -8.256907,53.984982,51.6            -8.256919,53.984969,51.7            -8.256929,53.984955,51.7            -8.256941,53.98494,51.7            -8.25695,53.984925,51.7            -8.256959,53.984909,51.7            -8.256967,53.984892,51.7            -8.256973,53.984875,51.7            -8.256976,53.984858,51.7            -8.256975,53.98484,51.7            -8.256974,53.984823,51.7            -8.256975,53.984807,51.7            -8.256975,53.984792,51.7            -8.256978,53.984776,51.7            -8.25698,53.984762,51.7            -8.256981,53.984748,51.7            -8.256984,53.984733,51.7            -8.256986,53.984718,51.7            -8.256989,53.984703,51.7            -8.256993,53.984689,51.6            -8.256997,53.984674,51.6            -8.257,53.984658,51.6            -8.257003,53.98464,51.6            -8.25701,53.984608,51.6            -8.257012,53.984596,51.5            -8.257015,53.984579,51.5            -8.257018,53.984562,51.5            -8.25702,53.984545,51.4            -8.257022,53.984528,51.4            -8.257024,53.984512,51.4            -8.257027,53.984494,51.3            -8.257032,53.984477,51.3            -8.257036,53.98446,51.2            -8.25704,53.984443,51.2            -8.257046,53.984427,51.2            -8.25705,53.98441,51.1            -8.257056,53.984392,51.1            -8.257061,53.984376,51            -8.257067,53.984358,51            -8.257072,53.98434,51            -8.25708,53.984323,51            -8.257086,53.984306,50.9            -8.257091,53.98429,50.9            -8.257094,53.984273,50.9            -8.257098,53.984256,50.9            -8.257101,53.984238,50.9            -8.257104,53.984221,50.9            -8.257108,53.984205,50.9            -8.257112,53.984189,50.9            -8.257117,53.984174,50.9            -8.257122,53.984159,50.8            -8.257131,53.984131,50.8            -8.257133,53.984123,50.8            -8.257136,53.984107,50.8            -8.25714,53.98409,50.8            -8.25714,53.984064,50.8            -8.25714,53.984053,50.8            -8.257143,53.984032,50.8            -8.257144,53.984023,50.8            -8.257145,53.984013,50.8            -8.257144,53.983997,50.8            -8.257144,53.983982,50.8            -8.257142,53.983954,50.7            -8.257142,53.983944,50.7            -8.257131,53.983912,50.7            -8.257129,53.983903,50.7            -8.257125,53.983885,50.6            -8.25712,53.983867,50.6            -8.257116,53.983849,50.6            -8.25711,53.983832,50.6            -8.257104,53.983814,50.5            -8.257097,53.983797,50.5            -8.257088,53.983782,50.5            -8.257073,53.983766,50.4            -8.257053,53.98374,50.4            -8.257047,53.983732,50.4            -8.257036,53.983717,50.3            -8.257026,53.983702,50.3            -8.257013,53.983687,50.3            -8.257001,53.983674,50.3            -8.256989,53.98366,50.2            -8.256974,53.983646,50.2            -8.25696,53.983633,50.2            -8.256947,53.983622,50.2            -8.256932,53.98361,50.2            -8.256918,53.983601,50.1            -8.256898,53.983592,50.1            -8.256876,53.983581,50.1            -8.256852,53.983571,50.1            -8.256827,53.983559,50.1            -8.256806,53.983549,50.1            -8.256785,53.983539,50.1            -8.256764,53.983529,50            -8.256744,53.983522,50            -8.256721,53.983515,50            -8.256698,53.983509,50            -8.256668,53.983503,50            -8.256641,53.983497,50            -8.256615,53.983494,50            -8.256588,53.983491,50            -8.256561,53.983488,50            -8.256534,53.983484,50            -8.256509,53.983481,50            -8.256481,53.983479,50            -8.256453,53.983479,50            -8.256424,53.98348,50            -8.256395,53.983483,50.1            -8.256367,53.983486,50.1            -8.256339,53.983488,50.1            -8.256311,53.983489,50.1            -8.256283,53.98349,50.1            -8.256255,53.983491,50.1            -8.256228,53.983493,50.2            -8.2562,53.983497,50.2            -8.256172,53.983504,50.2            -8.256146,53.98351,50.2            -8.256119,53.983515,50.2            -8.256092,53.983521,50.3            -8.256065,53.983527,50.3            -8.256039,53.983534,50.3            -8.256015,53.98354,50.4            -8.255988,53.983545,50.4            -8.255962,53.983551,50.4            -8.255936,53.983557,50.5            -8.25591,53.983562,50.5            -8.255884,53.983568,50.6            -8.255857,53.983574,50.6            -8.25583,53.983579,50.7            -8.255802,53.983583,50.7            -8.255772,53.983586,50.8            -8.255743,53.983586,50.8            -8.255713,53.983589,50.8            -8.255688,53.98359,50.9            -8.255663,53.98359,50.9            -8.255638,53.983592,51            -8.255613,53.983593,51            -8.255588,53.983597,51            -8.255556,53.983603,51.1            -8.255531,53.983607,51.1            -8.255504,53.983608,51.1            -8.255458,53.983607,51.1            -8.255442,53.983606,51.1            -8.255394,53.983605,51.2            -8.255378,53.983604,51.2            -8.255349,53.983604,51.2            -8.255319,53.983602,51.2            -8.25529,53.983601,51.2            -8.255263,53.983601,51.1            -8.255236,53.983602,51.1            -8.255208,53.983602,51.1            -8.25518,53.983606,51.1            -8.255152,53.983612,51.1            -8.255108,53.983621,51            -8.255092,53.983625,51            -8.255064,53.983629,51            -8.255037,53.983631,50.9            -8.255013,53.983631,50.9            -8.254988,53.983632,50.8            -8.254963,53.983632,50.8            -8.254935,53.983629,50.7            -8.254908,53.983627,50.7            -8.254879,53.983619,50.6            -8.254853,53.98361,50.5            -8.254835,53.983598,50.4            -8.25482,53.983584,50.3            -8.254804,53.98357,50.2            -8.254796,53.983556,50.1            -8.254789,53.98354,50            -8.254781,53.983524,49.9            -8.25477,53.983508,49.8            -8.254745,53.983479,49.6            -8.254738,53.98347,49.6            -8.254714,53.983444,49.4            -8.254707,53.983436,49.4            -8.254683,53.983412,49.3            -8.254677,53.983404,49.2            -8.254665,53.98339,49.2            -8.254652,53.983378,49.1            -8.254637,53.983367,49.1            -8.254623,53.983355,49            -8.254607,53.98334,49            -8.254591,53.983326,48.9            -8.254576,53.983311,48.9            -8.254562,53.983294,48.8            -8.254538,53.983265,48.7            -8.254533,53.983257,48.7            -8.254512,53.983233,48.6            -8.254503,53.983222,48.6            -8.254489,53.983207,48.6            -8.254471,53.983192,48.5            -8.254453,53.983178,48.5            -8.254435,53.983166,48.4            -8.254415,53.983154,48.4            -8.254395,53.983142,48.3            -8.254373,53.98313,48.3            -8.25435,53.983118,48.3            -8.254328,53.983106,48.2            -8.254306,53.983094,48.2            -8.254287,53.983081,48.1            -8.254267,53.983069,48.1            -8.254248,53.983058,48.1            -8.254229,53.983046,48.1            -8.254209,53.983033,48            -8.254191,53.983021,48            -8.254173,53.98301,48            -8.254154,53.982999,48            -8.254138,53.982988,48            -8.254119,53.982972,48            -8.254094,53.982946,48            -8.254086,53.982937,48            -8.254072,53.982922,48            -8.254058,53.982907,48            -8.254043,53.982894,48            -8.25403,53.982881,48            -8.254019,53.982867,48            -8.254012,53.982853,48            -8.254003,53.982838,48            -8.253993,53.982823,48            -8.253985,53.982808,48            -8.253975,53.982794,48            -8.253967,53.982776,48            -8.25396,53.98276,48            -8.253952,53.982746,48            -8.253943,53.982729,48            -8.253936,53.982714,48            -8.253925,53.982698,48            -8.253913,53.982683,48            -8.253898,53.982668,48            -8.253882,53.982655,48            -8.253862,53.982643,48            -8.25384,53.982633,48            -8.253814,53.982624,48            -8.253789,53.982619,48            -8.25376,53.982617,48            -8.25373,53.982618,48            -8.253699,53.982621,48            -8.253671,53.982623,48            -8.253641,53.982629,48.1            -8.253612,53.982633,48.1            -8.253584,53.982637,48.1            -8.253554,53.982642,48.1            -8.253526,53.982648,48.2            -8.253499,53.982654,48.2            -8.253471,53.98266,48.2            -8.253443,53.982666,48.3            -8.253417,53.982673,48.3            -8.25339,53.982679,48.3            -8.253362,53.982685,48.3            -8.253334,53.98269,48.4            -8.253306,53.982694,48.4            -8.253277,53.982696,48.4            -8.253248,53.9827,48.4            -8.253219,53.982702,48.5            -8.25319,53.982704,48.5            -8.253161,53.982707,48.5            -8.25313,53.982708,48.5            -8.253102,53.98271,48.5            -8.253073,53.982713,48.6            -8.253045,53.982716,48.6            -8.253017,53.982719,48.6            -8.252991,53.982721,48.6            -8.252963,53.982725,48.6            -8.252934,53.982729,48.6            -8.252908,53.982734,48.6            -8.25288,53.982738,48.6            -8.252851,53.982742,48.6            -8.252819,53.982744,48.6            -8.252789,53.982746,48.6            -8.25276,53.982749,48.5            -8.252731,53.982752,48.5            -8.252703,53.982753,48.5            -8.252674,53.982755,48.5            -8.252645,53.982756,48.5            -8.252617,53.982756,48.5            -8.252589,53.982756,48.5            -8.25256,53.982757,48.5            -8.25253,53.982758,48.4            -8.252503,53.982758,48.4            -8.252475,53.982758,48.4            -8.252448,53.982758,48.4            -8.252398,53.982758,48.4            -8.252384,53.982757,48.4            -8.252357,53.982755,48.4            -8.252329,53.982753,48.3            -8.252303,53.982751,48.3            -8.252278,53.982748,48.3            -8.25225,53.982747,48.3            -8.252222,53.982745,48.3            -8.252194,53.982743,48.3            -8.252165,53.982739,48.3            -8.252136,53.982735,48.3            -8.252109,53.982731,48.3            -8.25208,53.982726,48.3            -8.252052,53.982723,48.3            -8.252026,53.982719,48.2            -8.251998,53.982716,48.2            -8.251968,53.982713,48.2            -8.25194,53.98271,48.2            -8.251914,53.982707,48.2            -8.251887,53.982704,48.2            -8.251861,53.9827,48.2            -8.251834,53.982696,48.2            -8.251805,53.982691,48.2            -8.251779,53.982686,48.2            -8.251751,53.982682,48.2            -8.251726,53.982677,48.2            -8.251698,53.982673,48.2            -8.251673,53.982669,48.3            -8.251642,53.982664,48.3            -8.251614,53.98266,48.3            -8.251586,53.982657,48.3            -8.251558,53.982654,48.3            -8.25153,53.982651,48.3            -8.251504,53.982647,48.3            -8.251476,53.982645,48.3            -8.251449,53.982642,48.3            -8.251422,53.98264,48.3            -8.251394,53.982637,48.3            -8.251369,53.982635,48.3            -8.251343,53.982633,48.3            -8.251318,53.982629,48.4            -8.251284,53.982625,48.4            -8.251253,53.982621,48.4            -8.251225,53.982621,48.4            -8.251197,53.98262,48.4            -8.251166,53.982618,48.4            -8.251139,53.98262,48.4            -8.251112,53.982621,48.4            -8.251083,53.98262,48.4            -8.251053,53.982619,48.4            -8.251027,53.982615,48.4            -8.251,53.982612,48.4            -8.250972,53.982609,48.4            -8.250945,53.982606,48.4            -8.250918,53.982604,48.4            -8.250892,53.982601,48.4            -8.250864,53.982598,48.4            -8.250836,53.982596,48.4            -8.250805,53.982593,48.4            -8.250776,53.982589,48.4            -8.250748,53.982586,48.4            -8.25072,53.982585,48.4            -8.250694,53.982584,48.4            -8.250666,53.982581,48.4            -8.250637,53.982579,48.4            -8.25061,53.982578,48.4            -8.250581,53.982577,48.4            -8.250553,53.982574,48.4            -8.250524,53.98257,48.4            -8.250496,53.982567,48.4            -8.250466,53.982564,48.4            -8.250437,53.982561,48.5            -8.250408,53.982557,48.5            -8.250379,53.982555,48.5            -8.25035,53.982554,48.5            -8.250324,53.982553,48.5            -8.250297,53.982551,48.5            -8.25027,53.982549,48.5            -8.250242,53.982549,48.6            -8.250217,53.982548,48.6            -8.250192,53.982546,48.6            -8.250166,53.982545,48.6            -8.25012,53.982541,48.6            -8.250104,53.982539,48.6            -8.250056,53.982534,48.6            -8.250041,53.982532,48.6            -8.250011,53.982529,48.6            -8.249982,53.982524,48.7            -8.249958,53.982518,48.7            -8.249932,53.982513,48.7            -8.249905,53.982509,48.7            -8.249878,53.982506,48.7            -8.24985,53.982502,48.7            -8.249825,53.982497,48.7            -8.249799,53.982492,48.7            -8.249773,53.982486,48.7            -8.249747,53.982479,48.7            -8.249721,53.982473,48.7            -8.249694,53.982469,48.7            -8.249666,53.982464,48.7            -8.249621,53.982457,48.8            -8.249604,53.982454,48.8            -8.249576,53.982448,48.8            -8.249549,53.982443,48.8            -8.249523,53.982438,48.8            -8.249497,53.982433,48.9            -8.249468,53.982428,48.9            -8.249442,53.982425,48.9            -8.249418,53.982421,48.9            -8.249393,53.982416,49            -8.249361,53.98241,49            -8.249337,53.982405,49            -8.24931,53.982399,49.1            -8.249284,53.982394,49.1            -8.249258,53.98239,49.1            -8.24923,53.982385,49.1            -8.249204,53.982379,49.2            -8.249179,53.982372,49.2            -8.249156,53.982365,49.2            -8.249132,53.982358,49.3            -8.249107,53.982352,49.3            -8.24908,53.982346,49.3            -8.249057,53.98234,49.3            -8.249032,53.982334,49.4            -8.249003,53.982328,49.4            -8.248977,53.982321,49.4            -8.248951,53.982314,49.4            -8.248925,53.982308,49.5            -8.2489,53.982301,49.5            -8.248876,53.982294,49.5            -8.248834,53.982279,49.6            -8.248822,53.982275,49.6            -8.248796,53.982266,49.6            -8.248772,53.982257,49.6            -8.24875,53.982247,49.6            -8.248728,53.982238,49.7            -8.248705,53.98223,49.7            -8.24868,53.982221,49.7            -8.248657,53.982212,49.7            -8.248634,53.982206,49.7            -8.248591,53.982197,49.8            -8.248575,53.982193,49.8            -8.24855,53.982186,49.8            -8.248527,53.98218,49.8            -8.248501,53.982174,49.8            -8.248472,53.982166,49.9            -8.248446,53.982159,49.9            -8.24842,53.982152,49.9            -8.248396,53.982147,50            -8.248371,53.982141,50            -8.248345,53.982135,50            -8.248324,53.982128,50.1            -8.248302,53.982122,50.1            -8.248278,53.982114,50.1            -8.248254,53.982108,50.2            -8.248229,53.982102,50.3            -8.248205,53.982098,50.3            -8.248177,53.982092,50.4            -8.248154,53.982087,50.4            -8.24813,53.982081,50.5            -8.248106,53.982072,50.5            -8.248082,53.98207,50.6            -8.248056,53.982071,50.7            -8.248031,53.982069,50.7            -8.248003,53.982065,50.8            -8.247976,53.98206,50.9            -8.24795,53.982056,51            -8.247921,53.982052,51.1            -8.247894,53.98205,51.2            -8.247867,53.982049,51.2            -8.247842,53.982048,51.3            -8.247811,53.982045,51.4            -8.247785,53.982042,51.5            -8.247761,53.982039,51.6            -8.247736,53.982037,51.7            -8.247708,53.982032,51.8            -8.247682,53.982029,51.9            -8.247656,53.982026,52            -8.247629,53.982022,52.2            -8.247604,53.982017,52.3            -8.247581,53.982013,52.4            -8.247554,53.98201,52.5            -8.247527,53.982008,52.6            -8.2475,53.982005,52.7            -8.247475,53.982004,52.8            -8.247449,53.982001,52.9            -8.247421,53.981998,53            -8.247398,53.981994,53.1            -8.247361,53.981988,53.3            -8.247347,53.981985,53.3            -8.247333,53.981982,53.4            -8.247312,53.981978,53.5            -8.247285,53.981972,53.6            -8.247259,53.981968,53.7            -8.247232,53.981965,53.8            -8.247206,53.981963,53.9            -8.247179,53.981961,54            -8.247152,53.981962,54.1            -8.247125,53.981964,54.2            -8.247099,53.981967,54.2            -8.247076,53.981972,54.3            -8.247057,53.981979,54.2            -8.247042,53.98199,54.2            -8.247027,53.982004,54.2            -8.247016,53.982019,54.2            -8.247004,53.982035,54.1            -8.247,53.982053,54.1            -8.247005,53.98208,54            -8.24701,53.982089,54            -8.247009,53.982107,54            -8.246992,53.98212,53.9            -8.246987,53.982135,53.9            -8.246978,53.982151,53.9            -8.246964,53.982166,53.8            -8.246949,53.982183,53.8            -8.246929,53.982209,53.7            -8.246923,53.982217,53.7            -8.246915,53.982235,53.7            -8.246922,53.982251,53.7            -8.246921,53.98228,53.6            -8.246918,53.98229,53.6            -8.246907,53.98232,53.5            -8.246903,53.982329,53.5            -8.246898,53.982347,53.5            -8.246891,53.982363,53.5            -8.246882,53.982378,53.4            -8.246874,53.98239,53.4            -8.246856,53.982408,53.4            -8.246849,53.982416,53.4            -8.246841,53.982423,53.4            -8.24683,53.982435,53.4            -8.246818,53.982447,53.4            -8.246804,53.982461,53.3            -8.246791,53.982475,53.3            -8.246778,53.982488,53.3            -8.246759,53.982501,53.3            -8.246741,53.982512,53.3            -8.246724,53.982523,53.3            -8.246707,53.982535,53.2            -8.246691,53.982547,53.2            -8.246668,53.982562,53.2            -8.246657,53.982569,53.2            -8.246647,53.982575,53.2            -8.246624,53.982593,53.2            -8.246613,53.982599,53.2            -8.246603,53.982606,53.2            -8.246587,53.982618,53.2            -8.246569,53.98263,53.2            -8.246555,53.982641,53.1            -8.246538,53.982653,53.1            -8.246519,53.982666,53.1            -8.246501,53.98268,53.1            -8.246475,53.982704,53.1            -8.246466,53.982711,53.1            -8.246449,53.982727,53.1            -8.246431,53.982741,53.1            -8.246412,53.982756,53.1            -8.246395,53.98277,53.1            -8.246376,53.982783,53.1            -8.246357,53.982796,53            -8.246324,53.982818,53            -8.246313,53.982826,53            -8.246282,53.982848,53            -8.246272,53.982855,53            -8.246243,53.982878,52.9            -8.246233,53.982885,52.9            -8.246214,53.982899,52.9            -8.246196,53.982912,52.9            -8.246177,53.982923,52.9            -8.246157,53.982934,52.9            -8.246136,53.982944,52.9            -8.246115,53.982955,52.9            -8.246094,53.982966,52.8            -8.246073,53.982977,52.8            -8.246052,53.982988,52.8            -8.246029,53.982998,52.8            -8.246006,53.983008,52.8            -8.245982,53.98302,52.8            -8.245946,53.983038,52.8            -8.245934,53.983043,52.8            -8.245912,53.983054,52.8            -8.245892,53.983067,52.8            -8.245872,53.983079,52.8            -8.24585,53.98309,52.8            -8.245813,53.983106,52.8            -8.245798,53.983112,52.8            -8.245773,53.983122,52.8            -8.24575,53.983132,52.8            -8.245728,53.983141,52.8            -8.245707,53.983149,52.8            -8.245684,53.983159,52.8            -8.245661,53.983168,52.8            -8.245638,53.983178,52.8            -8.245613,53.983186,52.8            -8.245588,53.983194,52.8            -8.245564,53.983201,52.8            -8.24554,53.983209,52.8            -8.245517,53.983216,52.8            -8.245493,53.983224,52.8            -8.245472,53.983233,52.8            -8.245451,53.983243,52.8            -8.245432,53.983254,52.8            -8.245412,53.983265,52.8            -8.245394,53.98328,52.8            -8.245374,53.983293,52.8            -8.245353,53.983306,52.8            -8.245331,53.983317,52.8            -8.245307,53.983326,52.8            -8.245282,53.983333,52.8            -8.245258,53.98334,52.8            -8.245234,53.983348,52.9            -8.245209,53.983356,52.9            -8.245183,53.983362,52.9            -8.24516,53.983368,52.9            -8.24512,53.98338,52.9            -8.245103,53.983385,52.9            -8.245062,53.983398,52.9            -8.245048,53.983402,52.9            -8.245023,53.98341,52.9            -8.244997,53.983419,52.9            -8.244972,53.983427,52.9            -8.244946,53.983434,52.9            -8.244901,53.983443,52.9            -8.244887,53.983446,52.9            -8.244858,53.98345,52.9            -8.24483,53.983452,52.9            -8.244803,53.983456,52.9            -8.244779,53.983461,52.8            -8.244756,53.983467,52.8            -8.244735,53.983475,52.8            -8.24471,53.983483,52.8            -8.24469,53.983491,52.8            -8.24467,53.983501,52.8            -8.244647,53.983509,52.8            -8.244627,53.98352,52.8            -8.244605,53.983527,52.7            -8.24458,53.983533,52.7            -8.244554,53.983537,52.7            -8.244526,53.983539,52.7            -8.2445,53.983541,52.7            -8.24447,53.983541,52.7            -8.244444,53.983543,52.7            -8.244417,53.983545,52.7            -8.244386,53.983551,52.7            -8.244342,53.98356,52.7            -8.244327,53.983563,52.7            -8.244299,53.983569,52.7            -8.244272,53.983575,52.7            -8.244244,53.983581,52.7            -8.244217,53.983585,52.8            -8.24419,53.983592,52.8            -8.244165,53.983599,52.8            -8.24414,53.983605,52.8            -8.244115,53.983611,52.8            -8.244086,53.983618,52.9            -8.244058,53.983623,52.9            -8.244034,53.983627,52.9            -8.244006,53.983633,52.9            -8.243981,53.983638,53            -8.243955,53.983641,53            -8.243926,53.983645,53            -8.243896,53.983648,53.1            -8.243844,53.983651,53.1            -8.243829,53.983652,53.2            -8.243802,53.983655,53.2            -8.243773,53.983657,53.2            -8.243742,53.983658,53.3            -8.243712,53.983659,53.3            -8.243683,53.983659,53.4            -8.243656,53.98366,53.4            -8.243625,53.98366,53.4            -8.243597,53.983661,53.4            -8.243569,53.983661,53.4            -8.243541,53.98366,53.4            -8.243515,53.983661,53.4            -8.243487,53.983663,53.4            -8.243462,53.983665,53.3            -8.243436,53.983666,53.3            -8.243409,53.983669,53.3            -8.243384,53.983671,53.3            -8.243359,53.983673,53.2            -8.243334,53.983676,53.2            -8.243308,53.983679,53.1            -8.243282,53.983682,53.1            -8.243253,53.983687,53.1            -8.243224,53.983693,53            -8.243196,53.983699,52.9            -8.24317,53.983705,52.9            -8.243144,53.983714,52.8            -8.243117,53.983723,52.8            -8.243095,53.98373,52.7            -8.243071,53.983736,52.7            -8.243047,53.983741,52.6            -8.243019,53.983743,52.6            -8.242992,53.983745,52.6            -8.242964,53.983747,52.5            -8.242937,53.983751,52.5            -8.242909,53.983754,52.4            -8.242881,53.983759,52.4            -8.24285,53.983762,52.4            -8.242823,53.983765,52.3            -8.242794,53.983766,52.3            -8.242746,53.983769,52.2            -8.242727,53.983771,52.2            -8.242697,53.983774,52.2            -8.242668,53.983776,52.2            -8.242639,53.983778,52.2            -8.242612,53.983777,52.1            -8.242584,53.983775,52.1            -8.242556,53.983772,52.1            -8.24253,53.983769,52.1            -8.242505,53.983767,52.1            -8.242478,53.983764,52.1            -8.24245,53.983762,52.1            -8.242422,53.98376,52.1            -8.242394,53.983758,52.1            -8.242366,53.983756,52            -8.242336,53.983754,52            -8.24229,53.983752,52            -8.242275,53.983751,52            -8.242247,53.983749,52            -8.242219,53.983746,52            -8.242192,53.983743,52            -8.242164,53.98374,52            -8.242137,53.983737,52            -8.242108,53.983735,52            -8.242083,53.983733,52            -8.242053,53.98373,52.1            -8.242025,53.983727,52.1            -8.241996,53.983724,52.1            -8.241972,53.983722,52.1            -8.241949,53.98372,52.1            -8.241912,53.983718,52.1            -8.241894,53.983717,52.1            -8.241877,53.983716,52.1            -8.241854,53.983716,52.1            -8.241828,53.983716,52.1            -8.241801,53.983717,52.2            -8.241772,53.983719,52.2            -8.241743,53.983721,52.2            -8.241714,53.983724,52.2            -8.241668,53.983728,52.2            -8.241652,53.983729,52.2            -8.241621,53.983731,52.2            -8.241594,53.983734,52.2            -8.241568,53.983733,52.2            -8.241544,53.983731,52.2            -8.24152,53.983726,52.2            -8.241498,53.983722,52.2            -8.241474,53.983719,52.2            -8.241444,53.98372,52.1            -8.241416,53.983722,52.1            -8.24139,53.983725,52.1            -8.241362,53.983731,52.1            -8.241335,53.983735,52.1            -8.241307,53.983745,52.1            -8.241281,53.983754,52.1            -8.241256,53.983762,52.1            -8.24123,53.983771,52.1            -8.241204,53.98378,52.1            -8.241177,53.983787,52.1            -8.241152,53.983796,52.1            -8.241126,53.983806,52.1            -8.241085,53.983822,52.1            -8.241071,53.983827,52.1            -8.241029,53.983843,52.1            -8.241015,53.983848,52.1            -8.240973,53.983864,52.1            -8.240959,53.983869,52.1            -8.240933,53.983878,52.1            -8.240906,53.983886,52.1            -8.240867,53.983901,52            -8.240854,53.983906,52            -8.240831,53.983917,52            -8.240807,53.983928,52            -8.24076,53.983952,52            -8.240745,53.983962,51.9            -8.240724,53.983973,51.9            -8.240703,53.983985,51.9            -8.240681,53.983995,51.8            -8.240659,53.984006,51.8            -8.240636,53.984016,51.8            -8.240616,53.984025,51.8            -8.240596,53.984036,51.7            -8.240575,53.984046,51.7            -8.240554,53.984058,51.7            -8.240534,53.984071,51.7            -8.240515,53.984083,51.7            -8.240498,53.984098,51.6            -8.24047,53.984122,51.6            -8.240461,53.984129,51.6            -8.240444,53.984144,51.6            -8.240426,53.984157,51.6            -8.24041,53.98417,51.6            -8.240395,53.984183,51.6            -8.240376,53.984197,51.6            -8.240356,53.984209,51.6            -8.240337,53.984223,51.6            -8.240318,53.984234,51.6            -8.240302,53.984246,51.6            -8.240286,53.984258,51.6            -8.240271,53.98427,51.6            -8.240251,53.984286,51.6            -8.240234,53.984298,51.7            -8.240216,53.984309,51.7            -8.240197,53.984319,51.7            -8.240173,53.984332,51.7            -8.240133,53.984353,51.8            -8.24012,53.984359,51.8            -8.240086,53.98438,51.8            -8.240075,53.984385,51.8            -8.240051,53.984395,51.8            -8.240027,53.984404,51.8            -8.240003,53.984411,51.9            -8.239977,53.984418,51.9            -8.239953,53.984424,51.9            -8.239925,53.984428,51.9            -8.239897,53.98443,51.9            -8.239866,53.984431,51.9            -8.23982,53.984426,52            -8.239805,53.984423,52            -8.239766,53.984411,52            -8.239751,53.984404,52            -8.239713,53.984383,52            -8.239702,53.984375,52.1            -8.23967,53.984353,52.1            -8.23966,53.984345,52.1            -8.239627,53.984323,52.1            -8.239616,53.984316,52.2            -8.239595,53.984304,52.2            -8.239572,53.984293,52.2            -8.239548,53.984282,52.2            -8.239523,53.984271,52.3            -8.239499,53.984261,52.3            -8.239475,53.984251,52.4            -8.23945,53.984242,52.4            -8.239425,53.984234,52.4            -8.239398,53.984226,52.5            -8.239375,53.984218,52.5            -8.239353,53.98421,52.6            -8.239332,53.984199,52.6            -8.239311,53.984185,52.7            -8.239292,53.984173,52.7            -8.239271,53.984163,52.8            -8.239248,53.984153,52.8            -8.239225,53.984144,52.9            -8.239202,53.984137,52.9            -8.239179,53.984131,52.9            -8.239154,53.984127,53            -8.239129,53.984122,53            -8.239105,53.984119,53            -8.239083,53.984116,53.1            -8.239059,53.984116,53.1            -8.239035,53.984117,53.1            -8.239011,53.98412,53.1            -8.238985,53.984122,53.2            -8.238962,53.984125,53.2            -8.238937,53.984129,53.2            -8.238912,53.984133,53.2            -8.238861,53.984139,53.2            -8.238844,53.98414,53.2            -8.238816,53.984141,53.1            -8.238789,53.984143,53.1            -8.238761,53.984145,53.1            -8.238736,53.984146,53.1            -8.238711,53.984148,53            -8.238686,53.98415,53            -8.23866,53.984152,52.9            -8.238633,53.984154,52.9            -8.238606,53.984156,52.8            -8.238581,53.984157,52.8            -8.238555,53.984158,52.7            -8.238529,53.98416,52.7            -8.238505,53.984164,52.7            -8.238473,53.98417,52.6            -8.238447,53.984175,52.5            -8.238422,53.984182,52.5            -8.238398,53.98419,52.4            -8.238375,53.984198,52.4            -8.238349,53.984203,52.3            -8.238324,53.984209,52.2            -8.238298,53.984215,52.2            -8.238272,53.984222,52.1            -8.238246,53.984229,52            -8.23822,53.984235,52            -8.238195,53.984242,51.9            -8.238168,53.984249,51.8            -8.238146,53.984256,51.8            -8.238121,53.984264,51.7            -8.238099,53.984273,51.6            -8.238075,53.984282,51.5            -8.238036,53.984298,51.4            -8.238024,53.984302,51.4            -8.238002,53.984311,51.3            -8.237977,53.984322,51.2            -8.237956,53.984335,51.1            -8.237936,53.984348,51.1            -8.237917,53.984362,51            -8.2379,53.984376,50.9            -8.237885,53.984391,50.9            -8.237871,53.984405,50.8            -8.237858,53.984419,50.8            -8.237845,53.984434,50.8            -8.237829,53.984448,50.7            -8.237813,53.984463,50.7            -8.237797,53.984477,50.7            -8.237781,53.984492,50.7            -8.237762,53.984506,50.6            -8.237745,53.984517,50.6            -8.237726,53.984528,50.6            -8.237705,53.984538,50.6            -8.237682,53.984547,50.6            -8.237653,53.984555,50.6            -8.237609,53.984566,50.6            -8.237596,53.984569,50.6            -8.237569,53.984575,50.6            -8.237543,53.98458,50.6            -8.237517,53.984585,50.7            -8.23749,53.984589,50.7            -8.237463,53.984592,50.7            -8.237436,53.984595,50.7            -8.237408,53.984598,50.7            -8.237378,53.9846,50.7            -8.237349,53.984603,50.7            -8.237319,53.984607,50.7            -8.237289,53.984611,50.7            -8.237261,53.984615,50.7            -8.237216,53.984621,50.7            -8.237202,53.984623,50.7            -8.237155,53.984628,50.7            -8.237137,53.984629,50.7            -8.237108,53.984632,50.7            -8.237079,53.984635,50.7            -8.237051,53.984639,50.7            -8.237024,53.984643,50.7            -8.236998,53.984647,50.7            -8.236971,53.984652,50.7            -8.236943,53.984656,50.7            -8.236917,53.984662,50.7            -8.23689,53.984667,50.7            -8.236862,53.98467,50.7            -8.236833,53.984673,50.7            -8.236803,53.984676,50.6            -8.236775,53.984679,50.6            -8.236745,53.984683,50.6            -8.236718,53.984685,50.6            -8.236688,53.984687,50.6            -8.236659,53.98469,50.6            -8.23663,53.984693,50.6            -8.236603,53.984696,50.6            -8.236576,53.984701,50.6            -8.236551,53.984705,50.6            -8.236524,53.98471,50.6            -8.236499,53.984714,50.6            -8.236474,53.984718,50.6            -8.236446,53.984722,50.6            -8.236419,53.984725,50.6            -8.236392,53.984728,50.6            -8.236363,53.984731,50.6            -8.236334,53.984735,50.6            -8.236306,53.98474,50.6            -8.236279,53.984745,50.6            -8.236248,53.984749,50.6            -8.236218,53.984755,50.6            -8.23619,53.984761,50.7            -8.236168,53.984778,50.7            -8.23615,53.984779,50.7            -8.236132,53.98478,50.7            -8.236081,53.984776,50.7            -8.236065,53.984775,50.7            -8.236036,53.984773,50.7            -8.23601,53.984772,50.7            -8.235982,53.984774,50.7            -8.235957,53.984774,50.7            -8.235932,53.984777,50.7            -8.235904,53.984781,50.8            -8.235875,53.984786,50.8            -8.235848,53.984794,50.8            -8.235821,53.984801,50.8            -8.235794,53.984809,50.8            -8.235767,53.984815,50.8            -8.23574,53.984817,50.8            -8.235715,53.984815,50.8            -8.235692,53.984814,50.8            -8.235665,53.98482,50.8            -8.235636,53.984828,50.8            -8.235609,53.984834,50.8            -8.235584,53.984844,50.8            -8.235558,53.984852,50.8            -8.235532,53.984857,50.8            -8.235507,53.984863,50.7            -8.235488,53.984873,50.7            -8.23547,53.984882,50.7            -8.235438,53.984885,50.7            -8.235392,53.984887,50.6            -8.235376,53.984886,50.6            -8.235344,53.984886,50.5            -8.235316,53.984882,50.5            -8.235289,53.98488,50.5            -8.235262,53.984881,50.4            -8.235231,53.984885,50.4            -8.235203,53.984891,50.3            -8.235175,53.984895,50.2            -8.235149,53.984899,50.2            -8.235122,53.984902,50.1            -8.235096,53.984902,50.1            -8.235071,53.984903,50.1            -8.235044,53.984902,50            -8.235017,53.984899,50            -8.234989,53.984897,49.9            -8.234963,53.984894,49.8            -8.234933,53.984891,49.8          </coordinates></LineString></Placemark><Placemark><name>Finish</name><styleUrl>#icon-1899-FF5252-nodesc</styleUrl><Point><coordinates>            -8.234933,53.984891,49.8          </coordinates></Point></Placemark><Placemark><name>Start</name><styleUrl>#icon-1899-0F9D58-nodesc</styleUrl><Point><coordinates>            -8.240353,53.98503,50.2          </coordinates></Point></Placemark></Folder></Document></kml>