<?xml version="1.0" encoding="UTF-8"?><kml xmlns="http://www.opengis.net/kml/2.2"><Document><name>Mallow Castle junior parkrun</name><description/><Style id="icon-1899-FFEA00-nodesc-normal"><IconStyle><color>ff00eaff</color><scale>1</scale><Icon><href>https://www.gstatic.com/mapspro/images/stock/503-wht-blank_maps.png</href></Icon><hotSpot x="32" xunits="pixels" y="64" yunits="insetPixels"/></IconStyle><LabelStyle><scale>0</scale></LabelStyle><BalloonStyle><text><![CDATA[<h3>$[name]</h3>]]></text></BalloonStyle></Style><Style id="icon-1899-FFEA00-nodesc-highlight"><IconStyle><color>ff00eaff</color><scale>1</scale><Icon><href>https://www.gstatic.com/mapspro/images/stock/503-wht-blank_maps.png</href></Icon><hotSpot x="32" xunits="pixels" y="64" yunits="insetPixels"/></IconStyle><LabelStyle><scale>1</scale></LabelStyle><BalloonStyle><text><![CDATA[<h3>$[name]</h3>]]></text></BalloonStyle></Style><StyleMap id="icon-1899-FFEA00-nodesc"><Pair><key>normal</key><styleUrl>#icon-1899-FFEA00-nodesc-normal</styleUrl></Pair><Pair><key>highlight</key><styleUrl>#icon-1899-FFEA00-nodesc-highlight</styleUrl></Pair></StyleMap><Style id="line-0288D1-5263-nodesc-normal"><LineStyle><color>ffd18802</color><width>5.263</width></LineStyle><BalloonStyle><text><![CDATA[<h3>$[name]</h3>]]></text></BalloonStyle></Style><Style id="line-0288D1-5263-nodesc-highlight"><LineStyle><color>ffd18802</color><width>7.8945</width></LineStyle><BalloonStyle><text><![CDATA[<h3>$[name]</h3>]]></text></BalloonStyle></Style><StyleMap id="line-0288D1-5263-nodesc"><Pair><key>normal</key><styleUrl>#line-0288D1-5263-nodesc-normal</styleUrl></Pair><Pair><key>highlight</key><styleUrl>#line-0288D1-5263-nodesc-highlight</styleUrl></Pair></StyleMap><Folder><name>Untitled layer</name><Placemark><name>Course</name><styleUrl>#line-0288D1-5263-nodesc</styleUrl><LineString><tessellate>1</tessellate><coordinates>            -8.638103,52.132336,0            -8.637255,52.132171,0            -8.635796,52.131992,0            -8.635429,52.132098,0            -8.6352626,52.1323093,0            -8.635182,52.132356,0            -8.6346298,52.1323986,0            -8.6340082,52.1324364,0            -8.633704,52.13243,0            -8.6329514,52.1325385,0            -8.6323935,52.1326406,0            -8.631226,52.132631,0            -8.6310823,52.1326802,0            -8.630842,52.132736,0            -8.630512,52.1327,0            -8.6303806,52.1325839,0            -8.630378,52.132402,0            -8.630335,52.132305,0            -8.630233,52.132231,0            -8.6300063,52.132206,0            -8.6298749,52.1322142,0            -8.6297434,52.1322356,0            -8.629831,52.132046,0            -8.630638,52.1317602,0            -8.6312604,52.1317038,0            -8.631754,52.131766,0            -8.632567,52.131875,0            -8.633554,52.132007,0            -8.6341066,52.1321287,0            -8.6342783,52.1321219,0            -8.63488,52.132065,0            -8.6353374,52.1321993,0          </coordinates></LineString></Placemark><Placemark><name>Start/Finish</name><styleUrl>#icon-1899-FFEA00-nodesc</styleUrl><Point><coordinates>            -8.637805,52.132277,0          </coordinates></Point></Placemark></Folder></Document></kml>