<?xml version="1.0" encoding="UTF-8"?><kml xmlns="http://www.opengis.net/kml/2.2"><Document><name>Marlay junior parkrun (from Jun 2025)</name><description/><Style id="icon-1899-0F9D58-nodesc-normal"><IconStyle><color>ff589d0f</color><scale>1</scale><Icon><href>https://www.gstatic.com/mapspro/images/stock/503-wht-blank_maps.png</href></Icon><hotSpot x="32" xunits="pixels" y="64" yunits="insetPixels"/></IconStyle><LabelStyle><scale>0</scale></LabelStyle><BalloonStyle><text><![CDATA[<h3>$[name]</h3>]]></text></BalloonStyle></Style><Style id="icon-1899-0F9D58-nodesc-highlight"><IconStyle><color>ff589d0f</color><scale>1</scale><Icon><href>https://www.gstatic.com/mapspro/images/stock/503-wht-blank_maps.png</href></Icon><hotSpot x="32" xunits="pixels" y="64" yunits="insetPixels"/></IconStyle><LabelStyle><scale>1</scale></LabelStyle><BalloonStyle><text><![CDATA[<h3>$[name]</h3>]]></text></BalloonStyle></Style><StyleMap id="icon-1899-0F9D58-nodesc"><Pair><key>normal</key><styleUrl>#icon-1899-0F9D58-nodesc-normal</styleUrl></Pair><Pair><key>highlight</key><styleUrl>#icon-1899-0F9D58-nodesc-highlight</styleUrl></Pair></StyleMap><Style id="icon-1899-FF5252-nodesc-normal"><IconStyle><color>ff5252ff</color><scale>1</scale><Icon><href>https://www.gstatic.com/mapspro/images/stock/503-wht-blank_maps.png</href></Icon><hotSpot x="32" xunits="pixels" y="64" yunits="insetPixels"/></IconStyle><LabelStyle><scale>0</scale></LabelStyle><BalloonStyle><text><![CDATA[<h3>$[name]</h3>]]></text></BalloonStyle></Style><Style id="icon-1899-FF5252-nodesc-highlight"><IconStyle><color>ff5252ff</color><scale>1</scale><Icon><href>https://www.gstatic.com/mapspro/images/stock/503-wht-blank_maps.png</href></Icon><hotSpot x="32" xunits="pixels" y="64" yunits="insetPixels"/></IconStyle><LabelStyle><scale>1</scale></LabelStyle><BalloonStyle><text><![CDATA[<h3>$[name]</h3>]]></text></BalloonStyle></Style><StyleMap id="icon-1899-FF5252-nodesc"><Pair><key>normal</key><styleUrl>#icon-1899-FF5252-nodesc-normal</styleUrl></Pair><Pair><key>highlight</key><styleUrl>#icon-1899-FF5252-nodesc-highlight</styleUrl></Pair></StyleMap><Style id="line-1267FF-5000-nodesc-normal"><LineStyle><color>ffff6712</color><width>5</width></LineStyle><BalloonStyle><text><![CDATA[<h3>$[name]</h3>]]></text></BalloonStyle></Style><Style id="line-1267FF-5000-nodesc-highlight"><LineStyle><color>ffff6712</color><width>7.5</width></LineStyle><BalloonStyle><text><![CDATA[<h3>$[name]</h3>]]></text></BalloonStyle></Style><StyleMap id="line-1267FF-5000-nodesc"><Pair><key>normal</key><styleUrl>#line-1267FF-5000-nodesc-normal</styleUrl></Pair><Pair><key>highlight</key><styleUrl>#line-1267FF-5000-nodesc-highlight</styleUrl></Pair></StyleMap><Folder><name>Untitled layer</name><Placemark><name>Course</name><styleUrl>#line-1267FF-5000-nodesc</styleUrl><LineString><tessellate>1</tessellate><coordinates>            -6.27166,53.27486,0            -6.27168,53.27489,0            -6.27183,53.27522,0            -6.27198,53.27571,0            -6.27203,53.27602,0            -6.27197,53.27626,0            -6.27184,53.27661,0            -6.27178,53.27688,0            -6.27108,53.27685,0            -6.26988,53.27683,0            -6.26972,53.27684,0            -6.26945,53.27688,0            -6.26939,53.2769,0            -6.26929,53.27694,0            -6.269,53.27708,0            -6.26888,53.27718,0            -6.26872,53.27736,0            -6.26868,53.27743,0            -6.2686,53.27736,0            -6.2685,53.27713,0            -6.26841,53.2769,0            -6.26841,53.27686,0            -6.26841,53.27681,0            -6.26843,53.27677,0            -6.26852,53.27663,0            -6.26866,53.27641,0            -6.26878,53.27625,0            -6.26893,53.27603,0            -6.26907,53.27575,0            -6.2692,53.27541,0            -6.26929,53.27517,0            -6.26938,53.27492,0            -6.2695,53.27467,0            -6.26958,53.27455,0            -6.26977,53.27436,0            -6.26992,53.27431,0            -6.27014,53.27428,0            -6.27031,53.27427,0            -6.27048,53.27428,0            -6.27054,53.2743,0            -6.27075,53.27438,0            -6.2709,53.27445,0            -6.271,53.27448,0            -6.27118,53.27452,0            -6.27133,53.27456,0            -6.27143,53.2746,0            -6.27155,53.27472,0            -6.27166,53.27487,0          </coordinates></LineString></Placemark><Placemark><name>Start</name><styleUrl>#icon-1899-0F9D58-nodesc</styleUrl><Point><coordinates>            -6.2714287,53.2746034,0          </coordinates></Point></Placemark><Placemark><name>Finish</name><styleUrl>#icon-1899-FF5252-nodesc</styleUrl><Point><coordinates>            -6.2705138,53.2743005,0          </coordinates></Point></Placemark></Folder></Document></kml>