<?xml version="1.0" encoding="UTF-8"?><kml xmlns="http://www.opengis.net/kml/2.2"><Document><name>New Ross parkrun (from Aug 2024)</name><description/><Style id="icon-1899-0F9D58-nodesc-normal"><IconStyle><color>ff589d0f</color><scale>1</scale><Icon><href>https://www.gstatic.com/mapspro/images/stock/503-wht-blank_maps.png</href></Icon><hotSpot x="32" xunits="pixels" y="64" yunits="insetPixels"/></IconStyle><LabelStyle><scale>0</scale></LabelStyle><BalloonStyle><text><![CDATA[<h3>$[name]</h3>]]></text></BalloonStyle></Style><Style id="icon-1899-0F9D58-nodesc-highlight"><IconStyle><color>ff589d0f</color><scale>1</scale><Icon><href>https://www.gstatic.com/mapspro/images/stock/503-wht-blank_maps.png</href></Icon><hotSpot x="32" xunits="pixels" y="64" yunits="insetPixels"/></IconStyle><LabelStyle><scale>1</scale></LabelStyle><BalloonStyle><text><![CDATA[<h3>$[name]</h3>]]></text></BalloonStyle></Style><StyleMap id="icon-1899-0F9D58-nodesc"><Pair><key>normal</key><styleUrl>#icon-1899-0F9D58-nodesc-normal</styleUrl></Pair><Pair><key>highlight</key><styleUrl>#icon-1899-0F9D58-nodesc-highlight</styleUrl></Pair></StyleMap><Style id="icon-1899-FF5252-nodesc-normal"><IconStyle><color>ff5252ff</color><scale>1</scale><Icon><href>https://www.gstatic.com/mapspro/images/stock/503-wht-blank_maps.png</href></Icon><hotSpot x="32" xunits="pixels" y="64" yunits="insetPixels"/></IconStyle><LabelStyle><scale>0</scale></LabelStyle><BalloonStyle><text><![CDATA[<h3>$[name]</h3>]]></text></BalloonStyle></Style><Style id="icon-1899-FF5252-nodesc-highlight"><IconStyle><color>ff5252ff</color><scale>1</scale><Icon><href>https://www.gstatic.com/mapspro/images/stock/503-wht-blank_maps.png</href></Icon><hotSpot x="32" xunits="pixels" y="64" yunits="insetPixels"/></IconStyle><LabelStyle><scale>1</scale></LabelStyle><BalloonStyle><text><![CDATA[<h3>$[name]</h3>]]></text></BalloonStyle></Style><StyleMap id="icon-1899-FF5252-nodesc"><Pair><key>normal</key><styleUrl>#icon-1899-FF5252-nodesc-normal</styleUrl></Pair><Pair><key>highlight</key><styleUrl>#icon-1899-FF5252-nodesc-highlight</styleUrl></Pair></StyleMap><Style id="poly-0288D1-4982-0-nodesc-normal"><LineStyle><color>ffd18802</color><width>4.982</width></LineStyle><PolyStyle><color>00d18802</color><fill>1</fill><outline>1</outline></PolyStyle><BalloonStyle><text><![CDATA[<h3>$[name]</h3>]]></text></BalloonStyle></Style><Style id="poly-0288D1-4982-0-nodesc-highlight"><LineStyle><color>ffd18802</color><width>7.473</width></LineStyle><PolyStyle><color>00d18802</color><fill>1</fill><outline>1</outline></PolyStyle><BalloonStyle><text><![CDATA[<h3>$[name]</h3>]]></text></BalloonStyle></Style><StyleMap id="poly-0288D1-4982-0-nodesc"><Pair><key>normal</key><styleUrl>#poly-0288D1-4982-0-nodesc-normal</styleUrl></Pair><Pair><key>highlight</key><styleUrl>#poly-0288D1-4982-0-nodesc-highlight</styleUrl></Pair></StyleMap><Folder><name>New Ross Parkrun</name><Placemark><name>Course</name><styleUrl>#poly-0288D1-4982-0-nodesc</styleUrl><Polygon><outerBoundaryIs><LinearRing><tessellate>1</tessellate><coordinates>                -6.936261,52.319786,0                -6.937291,52.319249,0                -6.937001,52.319072,0                -6.936926,52.318803,0                -6.937194,52.318212,0                -6.937376,52.317911,0                -6.937366,52.317602,0                -6.937216,52.317248,0                -6.936743,52.31696,0                -6.936325,52.316698,0                -6.936089,52.316324,0                -6.935896,52.31593,0                -6.935644,52.315428,0                -6.935552,52.315156,0                -6.935558,52.314989,0                -6.935601,52.314684,0                -6.935794,52.314294,0                -6.935923,52.314061,0                -6.935896,52.313871,0                -6.935815,52.313703,0                -6.93552,52.313398,0                -6.935295,52.313162,0                -6.935284,52.312966,0                -6.935365,52.312824,0                -6.935461,52.31269,0                -6.935746,52.312556,0                -6.936035,52.312372,0                -6.936153,52.312208,0                -6.93618,52.312005,0                -6.936041,52.311841,0                -6.935826,52.311686,0                -6.935552,52.311677,0                -6.935193,52.311673,0                -6.934587,52.31167,0                -6.934099,52.311677,0                -6.933696,52.311709,0                -6.933412,52.311821,0                -6.932602,52.312234,0                -6.931105,52.312959,0                -6.93095,52.31312,0                -6.930907,52.313274,0                -6.930896,52.313462,0                -6.930998,52.313666,0                -6.931164,52.31399,0                -6.931363,52.314351,0                -6.931524,52.31465,0                -6.931578,52.314872,0                -6.931497,52.315082,0                -6.931331,52.315299,0                -6.931014,52.31546,0                -6.93073,52.315578,0                -6.929673,52.315699,0                -6.929233,52.315781,0                -6.928879,52.315912,0                -6.928536,52.316174,0                -6.928504,52.31641,0                -6.928236,52.316742,0                -6.928053,52.317018,0                -6.927763,52.317247,0                -6.92729,52.31744,0                -6.926743,52.317597,0                -6.92611,52.317679,0                -6.925589,52.317699,0                -6.924838,52.317761,0                -6.924441,52.317823,0                -6.924205,52.317918,0                -6.923953,52.318096,0                -6.923782,52.318312,0                -6.923717,52.318581,0                -6.923733,52.318732,0                -6.923873,52.318955,0                -6.924157,52.319204,0                -6.924463,52.31942,0                -6.924683,52.31962,0                -6.924838,52.319856,0                -6.92494,52.320148,0                -6.924983,52.320317,0                -6.925093,52.320519,0                -6.925249,52.320694,0                -6.925554,52.32087,0                -6.925906,52.320989,0                -6.926284,52.32105,0                -6.926625,52.321065,0                -6.926936,52.321032,0                -6.927172,52.32097,0                -6.927588,52.320834,0                -6.92877,52.320399,0                -6.929052,52.32031,0                -6.929508,52.320238,0                -6.930098,52.320215,0                -6.930822,52.320281,0                -6.93123,52.320379,0                -6.931525,52.320497,0                -6.931868,52.320671,0                -6.932164,52.320901,0                -6.9324,52.321032,0                -6.932646,52.321111,0                -6.932941,52.321147,0                -6.933381,52.321186,0                -6.933515,52.321186,0                -6.933698,52.321209,0                -6.933934,52.321265,0                -6.934175,52.321209,0                -6.935114,52.321019,0                -6.935243,52.320661,0                -6.935516,52.320255,0                -6.935827,52.320025,0                -6.936261,52.319786,0              </coordinates></LinearRing></outerBoundaryIs></Polygon></Placemark><Placemark><name>Start</name><styleUrl>#icon-1899-0F9D58-nodesc</styleUrl><Point><coordinates>            -6.9361885,52.319824,0          </coordinates></Point></Placemark><Placemark><name>Finish</name><styleUrl>#icon-1899-FF5252-nodesc</styleUrl><Point><coordinates>            -6.9314609,52.3145323,0          </coordinates></Point></Placemark></Folder></Document></kml>