<?xml version="1.0" encoding="UTF-8"?><kml xmlns="http://www.opengis.net/kml/2.2"><Document><name>Sligo parkrun</name><description/><Style id="icon-503-F4EB37-nodesc-normal"><IconStyle><color>ff37ebf4</color><scale>1.1</scale><Icon><href>https://www.gstatic.com/mapspro/images/stock/503-wht-blank_maps.png</href></Icon><hotSpot x="16" xunits="pixels" y="32" yunits="insetPixels"/></IconStyle><LabelStyle><scale>0</scale></LabelStyle><BalloonStyle><text><![CDATA[<h3>$[name]</h3>]]></text></BalloonStyle></Style><Style id="icon-503-F4EB37-nodesc-highlight"><IconStyle><color>ff37ebf4</color><scale>1.1</scale><Icon><href>https://www.gstatic.com/mapspro/images/stock/503-wht-blank_maps.png</href></Icon><hotSpot x="16" xunits="pixels" y="32" yunits="insetPixels"/></IconStyle><LabelStyle><scale>1.1</scale></LabelStyle><BalloonStyle><text><![CDATA[<h3>$[name]</h3>]]></text></BalloonStyle></Style><StyleMap id="icon-503-F4EB37-nodesc"><Pair><key>normal</key><styleUrl>#icon-503-F4EB37-nodesc-normal</styleUrl></Pair><Pair><key>highlight</key><styleUrl>#icon-503-F4EB37-nodesc-highlight</styleUrl></Pair></StyleMap><Style id="line-4186F0-4000-nodesc-normal"><LineStyle><color>fff08641</color><width>4</width></LineStyle><BalloonStyle><text><![CDATA[<h3>$[name]</h3>]]></text></BalloonStyle></Style><Style id="line-4186F0-4000-nodesc-highlight"><LineStyle><color>fff08641</color><width>6</width></LineStyle><BalloonStyle><text><![CDATA[<h3>$[name]</h3>]]></text></BalloonStyle></Style><StyleMap id="line-4186F0-4000-nodesc"><Pair><key>normal</key><styleUrl>#line-4186F0-4000-nodesc-normal</styleUrl></Pair><Pair><key>highlight</key><styleUrl>#line-4186F0-4000-nodesc-highlight</styleUrl></Pair></StyleMap><Folder><name>Untitled layer</name><Placemark><name>Start / Finish</name><styleUrl>#icon-503-F4EB37-nodesc</styleUrl><Point><coordinates>            -8.452756,54.266001,0          </coordinates></Point></Placemark><Placemark><name>Course</name><styleUrl>#line-4186F0-4000-nodesc</styleUrl><LineString><tessellate>1</tessellate><coordinates>            -8.44765,54.262292,0            -8.445997,54.261276,0            -8.446662,54.26001,0            -8.446126,54.259308,0            -8.444731,54.258582,0            -8.443294,54.258055,0            -8.443358,54.257579,0            -8.444023,54.257291,0            -8.44559,54.257153,0            -8.447006,54.257867,0            -8.448293,54.258406,0            -8.450418,54.258857,0            -8.452907,54.258908,0            -8.453722,54.259421,0            -8.453786,54.260274,0            -8.453422,54.260762,0            -8.452392,54.261214,0            -8.451212,54.261452,0            -8.449624,54.261728,0            -8.448164,54.262003,0            -8.44765,54.262292,0            -8.447328,54.262619,0            -8.446834,54.263197,0            -8.446319,54.264178,0            -8.446405,54.264616,0            -8.446845,54.264942,0            -8.447671,54.26523,0            -8.44913,54.265412,0            -8.449712,54.265616,0            -8.450852,54.265707,0            -8.451501,54.265625,0            -8.452767,54.265945,0          </coordinates></LineString></Placemark></Folder></Document></kml>