<?xml version="1.0" encoding="UTF-8"?><kml xmlns="http://www.opengis.net/kml/2.2"><Document><name>Tramore parkrun, Waterford</name><description/><Style id="icon-503-009D57-nodesc-normal"><IconStyle><color>ff579d00</color><scale>1.1</scale><Icon><href>https://www.gstatic.com/mapspro/images/stock/503-wht-blank_maps.png</href></Icon><hotSpot x="16" xunits="pixels" y="32" yunits="insetPixels"/></IconStyle><LabelStyle><scale>0</scale></LabelStyle><BalloonStyle><text><![CDATA[<h3>$[name]</h3>]]></text></BalloonStyle></Style><Style id="icon-503-009D57-nodesc-highlight"><IconStyle><color>ff579d00</color><scale>1.1</scale><Icon><href>https://www.gstatic.com/mapspro/images/stock/503-wht-blank_maps.png</href></Icon><hotSpot x="16" xunits="pixels" y="32" yunits="insetPixels"/></IconStyle><LabelStyle><scale>1.1</scale></LabelStyle><BalloonStyle><text><![CDATA[<h3>$[name]</h3>]]></text></BalloonStyle></Style><StyleMap id="icon-503-009D57-nodesc"><Pair><key>normal</key><styleUrl>#icon-503-009D57-nodesc-normal</styleUrl></Pair><Pair><key>highlight</key><styleUrl>#icon-503-009D57-nodesc-highlight</styleUrl></Pair></StyleMap><Style id="icon-503-DB4436-nodesc-normal"><IconStyle><color>ff3644db</color><scale>1.1</scale><Icon><href>https://www.gstatic.com/mapspro/images/stock/503-wht-blank_maps.png</href></Icon><hotSpot x="16" xunits="pixels" y="32" yunits="insetPixels"/></IconStyle><LabelStyle><scale>0</scale></LabelStyle><BalloonStyle><text><![CDATA[<h3>$[name]</h3>]]></text></BalloonStyle></Style><Style id="icon-503-DB4436-nodesc-highlight"><IconStyle><color>ff3644db</color><scale>1.1</scale><Icon><href>https://www.gstatic.com/mapspro/images/stock/503-wht-blank_maps.png</href></Icon><hotSpot x="16" xunits="pixels" y="32" yunits="insetPixels"/></IconStyle><LabelStyle><scale>1.1</scale></LabelStyle><BalloonStyle><text><![CDATA[<h3>$[name]</h3>]]></text></BalloonStyle></Style><StyleMap id="icon-503-DB4436-nodesc"><Pair><key>normal</key><styleUrl>#icon-503-DB4436-nodesc-normal</styleUrl></Pair><Pair><key>highlight</key><styleUrl>#icon-503-DB4436-nodesc-highlight</styleUrl></Pair></StyleMap><Style id="line-4186F0-5000-nodesc-normal"><LineStyle><color>fff08641</color><width>5</width></LineStyle><BalloonStyle><text><![CDATA[<h3>$[name]</h3>]]></text></BalloonStyle></Style><Style id="line-4186F0-5000-nodesc-highlight"><LineStyle><color>fff08641</color><width>7.5</width></LineStyle><BalloonStyle><text><![CDATA[<h3>$[name]</h3>]]></text></BalloonStyle></Style><StyleMap id="line-4186F0-5000-nodesc"><Pair><key>normal</key><styleUrl>#line-4186F0-5000-nodesc-normal</styleUrl></Pair><Pair><key>highlight</key><styleUrl>#line-4186F0-5000-nodesc-highlight</styleUrl></Pair></StyleMap><Folder><name>Untitled layer</name><Placemark><name>Course</name><styleUrl>#line-4186F0-5000-nodesc</styleUrl><LineString><tessellate>1</tessellate><coordinates>            -7.138258,52.159293,3.9            -7.13831,52.159305,3.9            -7.138364,52.159311,3.9            -7.138431,52.159316,3.9            -7.138501,52.159322,3.9            -7.138575,52.15933,3.9            -7.138654,52.159339,3.8            -7.138738,52.159345,3.8            -7.138784,52.159348,3.8            -7.138861,52.159356,3.8            -7.138917,52.15937,3.8            -7.138985,52.159381,3.8            -7.13903,52.159383,3.8            -7.139079,52.159385,3.8            -7.139127,52.159387,3.8            -7.13917,52.159391,3.7            -7.139235,52.159405,3.7            -7.139298,52.159421,3.7            -7.139379,52.159423,3.7            -7.139451,52.159423,3.6            -7.139531,52.159424,3.6            -7.139614,52.15943,3.6            -7.139694,52.159438,3.6            -7.139783,52.159446,3.6            -7.139829,52.159449,3.6            -7.139878,52.159452,3.7            -7.13994,52.159456,3.7            -7.139995,52.15946,3.7            -7.140077,52.159463,3.8            -7.140124,52.159464,3.8            -7.140204,52.159466,3.8            -7.140289,52.15947,3.9            -7.140334,52.159472,4            -7.140413,52.159474,4            -7.140496,52.159477,4            -7.140578,52.15948,4            -7.140658,52.159482,4            -7.140735,52.159481,4.1            -7.14081,52.159477,4.2            -7.140886,52.159467,4.4            -7.140961,52.159453,4.5            -7.141028,52.159435,4.6            -7.141091,52.159414,4.7            -7.141153,52.159391,4.9            -7.141216,52.159367,5            -7.141279,52.159341,4.9            -7.141347,52.159314,4.8            -7.141416,52.15929,4.7            -7.141479,52.159268,4.6            -7.141539,52.159246,4.5            -7.141602,52.159229,4.3            -7.14167,52.159223,4.2            -7.141742,52.159224,4.1            -7.14181,52.159227,4            -7.141884,52.159231,4            -7.141962,52.159236,4.1            -7.142039,52.159243,4.1            -7.142114,52.159249,4.2            -7.142192,52.159255,4.2            -7.142273,52.15926,4.3            -7.142348,52.159269,4.3            -7.142424,52.159277,4.4            -7.1425,52.159281,4.4            -7.142575,52.15928,4.5            -7.142648,52.15928,4.5            -7.142725,52.159281,4.5            -7.142801,52.159284,4.6            -7.142876,52.159287,4.6            -7.142956,52.159291,4.7            -7.143037,52.159295,4.7            -7.143117,52.159299,4.8            -7.143192,52.159304,4.9            -7.143272,52.15931,5            -7.143352,52.159314,5            -7.143426,52.159319,5.1            -7.143497,52.159323,5.1            -7.143567,52.159325,5.2            -7.143642,52.159328,5.2            -7.143714,52.159332,5.3            -7.143785,52.159335,5.3            -7.143856,52.15934,5.4            -7.143931,52.159345,5.4            -7.144013,52.15935,5.5            -7.144088,52.159354,5.5            -7.144151,52.159358,5.6            -7.144207,52.159365,5.6            -7.144272,52.159372,5.7            -7.144339,52.159371,5.7            -7.144403,52.159367,5.7            -7.144475,52.159367,5.8            -7.14455,52.159369,5.8            -7.144619,52.159372,5.9            -7.144687,52.159375,5.9            -7.14476,52.159378,6            -7.144826,52.159381,6            -7.144894,52.159384,6            -7.144963,52.159387,6.1            -7.145033,52.15939,6.1            -7.145104,52.159393,6.1            -7.145174,52.159397,6.2            -7.145249,52.159401,6.2            -7.145326,52.159405,6.2            -7.145408,52.15941,6.3            -7.145485,52.159415,6.3            -7.145563,52.159421,6.3            -7.145635,52.159426,6.4            -7.14571,52.15943,6.4            -7.145787,52.159434,6.4            -7.145867,52.159439,6.5            -7.145941,52.159444,6.5            -7.146015,52.159449,6.5            -7.146098,52.159454,6.5            -7.146176,52.159459,6.6            -7.146249,52.159463,6.6            -7.146319,52.159463,6.6            -7.146392,52.159462,6.7            -7.146469,52.159465,6.7            -7.146546,52.159467,6.8            -7.146624,52.15947,6.8            -7.146698,52.159473,6.8            -7.146772,52.159478,6.9            -7.146842,52.159484,6.9            -7.146897,52.159495,7            -7.146859,52.159518,6.9            -7.146816,52.159514,6.9            -7.146734,52.159509,6.9            -7.146649,52.159511,6.8            -7.146565,52.159513,6.8            -7.14648,52.159511,6.7            -7.146396,52.159505,6.7            -7.146314,52.159501,6.6            -7.14623,52.159499,6.6            -7.14615,52.159492,6.6            -7.146072,52.159485,6.5            -7.145994,52.15948,6.5            -7.145921,52.159476,6.5            -7.145843,52.159468,6.4            -7.145765,52.159463,6.4            -7.145685,52.159456,6.4            -7.145602,52.159449,6.4            -7.145523,52.159445,6.3            -7.145442,52.159442,6.3            -7.145366,52.159441,6.3            -7.145288,52.159437,6.2            -7.145211,52.159433,6.2            -7.14513,52.15943,6.1            -7.145051,52.159427,6.1            -7.144973,52.159425,6.1            -7.144895,52.159425,6            -7.144812,52.159423,6            -7.144735,52.159421,6            -7.144659,52.159416,5.9            -7.144578,52.159408,5.9            -7.144534,52.159402,5.8            -7.144453,52.159396,5.8            -7.144374,52.159392,5.7            -7.144294,52.159389,5.7            -7.144216,52.159386,5.6            -7.144137,52.159381,5.6            -7.144065,52.159375,5.5            -7.143994,52.159369,5.5            -7.14392,52.159363,5.4            -7.14384,52.159355,5.4            -7.143764,52.159354,5.3            -7.143692,52.159357,5.3            -7.143617,52.159356,5.2            -7.143535,52.159352,5.2            -7.143455,52.159343,5.1            -7.143378,52.159335,5            -7.14331,52.159333,5            -7.14324,52.159329,4.9            -7.143168,52.159327,4.8            -7.143091,52.159325,4.7            -7.143012,52.159325,4.7            -7.142934,52.159322,4.7            -7.142861,52.159317,4.6            -7.142789,52.159309,4.6            -7.142715,52.159303,4.5            -7.142635,52.159302,4.5            -7.14256,52.1593,4.5            -7.142482,52.1593,4.4            -7.1424,52.159302,4.4            -7.142356,52.159303,4.4            -7.142312,52.159304,4.3            -7.142229,52.159304,4.3            -7.142157,52.159295,4.2            -7.142084,52.159283,4.2            -7.142011,52.159273,4.1            -7.141935,52.159266,4.1            -7.141859,52.159259,4            -7.141786,52.159252,4.1            -7.141707,52.159249,4.2            -7.141628,52.15925,4.3            -7.14155,52.159254,4.4            -7.141479,52.159263,4.5            -7.141404,52.159275,4.7            -7.141335,52.15929,4.8            -7.141269,52.159313,4.9            -7.141203,52.159342,5            -7.141141,52.15937,4.9            -7.141073,52.159395,4.7            -7.141012,52.15942,4.6            -7.140956,52.15944,4.5            -7.140889,52.159452,4.4            -7.140814,52.159463,4.2            -7.140737,52.159471,4.1            -7.140659,52.159474,4            -7.14058,52.159472,4            -7.140507,52.159468,4            -7.140434,52.159462,4            -7.14036,52.159456,4            -7.140284,52.159452,3.9            -7.140212,52.159448,3.8            -7.140138,52.159443,3.8            -7.140067,52.159441,3.8            -7.139997,52.159435,3.8            -7.139922,52.159427,3.7            -7.139846,52.159422,3.7            -7.139766,52.159416,3.6            -7.139689,52.159414,3.6            -7.139604,52.159414,3.6            -7.139523,52.159411,3.6            -7.139441,52.159405,3.6            -7.139361,52.159398,3.7            -7.139284,52.159393,3.7            -7.139219,52.159394,3.7            -7.139139,52.159395,3.7            -7.139056,52.159395,3.8            -7.138975,52.159395,3.8            -7.138903,52.159391,3.8            -7.138839,52.159382,3.8            -7.138775,52.159367,3.8            -7.138707,52.159356,3.8            -7.138634,52.159351,3.8            -7.138557,52.159346,3.8            -7.138483,52.159339,3.9            -7.138412,52.159327,3.9            -7.138347,52.159317,3.9            -7.138276,52.159313,3.9            -7.1382,52.159317,3.9            -7.138126,52.159322,3.9            -7.138057,52.159325,3.9            -7.137984,52.15933,4            -7.137925,52.159332,4            -7.137855,52.159341,4            -7.13779,52.159357,4            -7.137717,52.159371,4            -7.137646,52.159373,4            -7.137574,52.159368,4            -7.137503,52.15936,4            -7.137436,52.159354,4            -7.137369,52.159347,4            -7.137307,52.159343,4            -7.137244,52.159348,4            -7.137176,52.159357,4            -7.137117,52.159367,4            -7.13705,52.159379,4            -7.136979,52.159393,4.1            -7.136914,52.159407,4.1            -7.136851,52.159421,4.1            -7.136787,52.159435,4.1            -7.136723,52.159447,4.2            -7.136653,52.159461,4.2            -7.136589,52.159478,4.2            -7.136526,52.159492,4.3            -7.136457,52.15951,4.3            -7.136391,52.15953,4.4            -7.136327,52.159549,4.4            -7.136266,52.159569,4.4            -7.136204,52.159588,4.5            -7.136146,52.159608,4.5            -7.136086,52.159628,4.5            -7.13602,52.159642,4.6            -7.135956,52.159657,4.6            -7.135892,52.159679,4.6            -7.135833,52.159702,4.7            -7.135772,52.159725,4.7            -7.13571,52.159745,4.7            -7.135645,52.159764,4.8            -7.135574,52.15978,4.8            -7.135498,52.159797,4.8            -7.135425,52.159811,4.9            -7.135357,52.159825,4.9            -7.135289,52.159837,4.9            -7.135222,52.159842,5            -7.135153,52.159834,5            -7.135085,52.159819,5            -7.135021,52.159802,5            -7.134961,52.159781,5.1            -7.134906,52.159755,5.1            -7.134854,52.159726,5.1            -7.134797,52.159703,5.4            -7.134739,52.159688,5.4            -7.134691,52.159666,5.4            -7.134639,52.159637,5.4            -7.134577,52.15962,5.4            -7.134513,52.159632,5.4            -7.134478,52.159674,5.4            -7.134462,52.159723,5.3            -7.134456,52.159773,5.2            -7.134444,52.159818,5.2            -7.134433,52.159858,5.1            -7.134427,52.1599,5.1            -7.134428,52.159943,5.1            -7.134439,52.159986,5.1            -7.134448,52.160033,5            -7.134457,52.160076,5            -7.134461,52.160119,5            -7.134456,52.160161,5            -7.134452,52.160203,4.9            -7.134444,52.160242,4.9            -7.134434,52.160275,4.8            -7.134428,52.160311,4.8            -7.134428,52.16035,4.7            -7.134403,52.160389,4.7            -7.134362,52.16042,4.6            -7.134316,52.160457,4.6            -7.134285,52.16049,4.5            -7.134257,52.160525,4.5            -7.134231,52.160553,4.5            -7.134192,52.160582,4.4            -7.134142,52.160608,4.4            -7.13408,52.160624,4.3            -7.134012,52.160626,4.3            -7.133944,52.160623,4.2            -7.133867,52.160622,4.2            -7.133797,52.160621,4.1            -7.133722,52.16062,4            -7.133653,52.160623,4            -7.133585,52.160627,3.9            -7.133525,52.160632,3.9            -7.133463,52.160635,3.8            -7.133396,52.160638,3.8            -7.13333,52.160642,3.7            -7.133262,52.160645,3.7            -7.133193,52.160648,3.6            -7.133118,52.160654,3.6            -7.133046,52.160662,3.6            -7.132973,52.16067,3.6            -7.132897,52.160677,3.6            -7.132821,52.160682,3.6            -7.132751,52.160684,3.6            -7.132676,52.160689,3.6            -7.1326,52.160698,3.6            -7.132528,52.160706,3.6            -7.132458,52.160711,3.7            -7.132392,52.160717,3.7            -7.132328,52.160723,3.7            -7.132259,52.160732,3.7            -7.132183,52.160741,3.7            -7.132109,52.16075,3.8            -7.132036,52.16076,3.8            -7.131967,52.160771,3.9            -7.131892,52.160784,3.9            -7.131824,52.160797,3.9            -7.131756,52.160809,3.9            -7.131689,52.160821,3.9            -7.131616,52.160835,4            -7.131547,52.160852,4            -7.131484,52.160873,4            -7.13142,52.160896,4            -7.13135,52.160918,4            -7.131282,52.16094,4            -7.131214,52.160963,4            -7.13115,52.160987,4            -7.131086,52.161011,4            -7.131026,52.161035,3.9            -7.130962,52.161063,3.9            -7.130904,52.161092,3.8            -7.130846,52.16112,3.8            -7.130784,52.161149,3.7            -7.130723,52.161174,3.7            -7.130657,52.161198,3.6            -7.130592,52.161222,3.5            -7.130529,52.161246,3.5            -7.130465,52.161265,3.4            -7.130396,52.161279,3.3            -7.130324,52.161291,3.2            -7.130249,52.161303,3.2            -7.130182,52.161311,3.1            -7.130113,52.161316,3            -7.130046,52.161319,3            -7.129974,52.161326,3            -7.129904,52.161336,3            -7.129824,52.161349,2.9            -7.129747,52.161363,2.9            -7.12968,52.161374,2.9            -7.129608,52.161385,2.9            -7.129536,52.161394,2.9            -7.129462,52.161406,2.9            -7.129393,52.161415,3            -7.129328,52.161425,3            -7.129262,52.161436,3            -7.129197,52.161445,3            -7.129128,52.161453,3.1            -7.129057,52.161462,3.1            -7.128985,52.161468,3.2            -7.128914,52.161476,3.2            -7.128842,52.161485,3.3            -7.128766,52.161493,3.3            -7.12869,52.161502,3.4            -7.128612,52.161517,3.4            -7.128539,52.161535,3.4            -7.128475,52.161556,3.4            -7.128412,52.161587,3.4            -7.128361,52.161621,3.3            -7.128318,52.161655,3.2            -7.128287,52.161688,3.1            -7.128267,52.161731,3            -7.128266,52.161776,2.8            -7.128297,52.161818,2.6            -7.12835,52.161854,2.6            -7.128408,52.161881,2.5            -7.12847,52.161901,2.5            -7.12854,52.161911,2.5            -7.128614,52.161911,2.5            -7.128687,52.161907,2.5            -7.128764,52.161902,2.4            -7.12884,52.161897,2.4            -7.128912,52.161892,2.4            -7.128984,52.161887,2.4            -7.129053,52.16188,2.5            -7.12912,52.161875,2.5            -7.129193,52.161868,2.5            -7.129269,52.161862,2.5            -7.129346,52.161858,2.5            -7.129423,52.161853,2.5            -7.129497,52.161847,2.6            -7.129556,52.16184,2.6            -7.129625,52.161832,2.7            -7.129697,52.161823,2.7            -7.129772,52.161816,2.8            -7.129842,52.16181,2.9            -7.129917,52.161807,3            -7.129995,52.161804,3.1            -7.130072,52.1618,3.3            -7.130146,52.1618,3.4            -7.130215,52.161801,3.5            -7.130289,52.161803,3.7            -7.130359,52.161807,3.8            -7.13043,52.161816,3.9            -7.130499,52.161828,4            -7.130568,52.161844,4.1            -7.130636,52.161866,4.2            -7.130699,52.161893,4.4            -7.130759,52.16192,4.5            -7.130816,52.16195,4.6            -7.130875,52.161981,4.6            -7.130923,52.162015,4.7            -7.130966,52.16205,4.8            -7.131012,52.162086,4.8            -7.131058,52.162123,4.9            -7.131093,52.162159,4.9            -7.131126,52.162191,4.9            -7.131167,52.162227,5            -7.131202,52.162263,5            -7.131234,52.162301,5            -7.131271,52.162337,5            -7.131312,52.162371,5            -7.131357,52.162406,4.9            -7.1314,52.162441,4.8            -7.131443,52.162478,4.8            -7.131483,52.162513,4.8            -7.131527,52.162547,4.7            -7.13159,52.162579,4.7            -7.131657,52.162609,4.6            -7.131719,52.162637,4.4            -7.13178,52.162666,4.4            -7.131835,52.162695,4.3            -7.131881,52.162727,4.2            -7.131927,52.162759,4            -7.131984,52.162786,4            -7.132048,52.162811,4            -7.132113,52.162836,3.9            -7.132181,52.162858,3.9            -7.132247,52.16288,3.9            -7.132314,52.162902,3.9            -7.132373,52.162921,3.8            -7.132436,52.162941,3.8            -7.132503,52.162956,3.7            -7.13257,52.162972,3.7            -7.132641,52.162989,3.7            -7.132708,52.163006,3.7            -7.132774,52.163023,3.7            -7.132839,52.16304,3.6            -7.132907,52.163054,3.6            -7.132981,52.163069,3.6            -7.133052,52.163082,3.6            -7.133121,52.163096,3.6            -7.133185,52.163113,3.6            -7.133247,52.163127,3.6            -7.133318,52.163142,3.7            -7.133394,52.163157,3.7            -7.133463,52.163166,3.8            -7.13354,52.163163,3.8            -7.133611,52.163143,3.9            -7.133669,52.163104,3.9            -7.133696,52.163076,3.9            -7.133717,52.163051,3.9            -7.133748,52.163006,3.9            -7.133775,52.162965,3.9            -7.133804,52.162926,4            -7.133836,52.162885,4            -7.133868,52.162842,4            -7.133901,52.162803,4            -7.133938,52.162763,4            -7.133978,52.162725,4            -7.134021,52.162688,4.1            -7.134066,52.162648,4.1            -7.134111,52.162608,4.1            -7.134154,52.162571,4.1            -7.134198,52.162532,4.1            -7.134245,52.162493,4.1            -7.134291,52.162456,4.1            -7.134341,52.162418,4.1            -7.134392,52.162374,4.2            -7.134431,52.16233,4.2            -7.134461,52.162288,4.2            -7.134489,52.162245,4.2            -7.134515,52.1622,4.3            -7.13454,52.162158,4.3            -7.134563,52.162115,4.3            -7.134577,52.162067,4.4            -7.134584,52.162021,4.4            -7.134588,52.161974,4.5            -7.134591,52.161927,4.5            -7.134595,52.161881,4.6            -7.134595,52.161833,4.6            -7.134591,52.161786,4.7            -7.134583,52.161737,4.7            -7.134573,52.161689,4.8            -7.134564,52.161641,4.8            -7.134555,52.161598,4.9            -7.13454,52.161553,4.9            -7.134519,52.161512,4.9            -7.134485,52.161472,5            -7.134437,52.16144,5            -7.134374,52.161416,5            -7.134306,52.1614,5            -7.134236,52.161384,4.9            -7.134169,52.161365,4.8            -7.134117,52.161339,4.8            -7.134081,52.161306,4.7            -7.134054,52.161263,4.7            -7.134036,52.161219,4.6            -7.134026,52.161174,4.6            -7.134022,52.161128,4.5            -7.134028,52.161082,4.4            -7.134038,52.161036,4.4            -7.134048,52.160993,4.3            -7.134064,52.160947,4.3            -7.134082,52.160902,4.2            -7.1341,52.160854,4.1            -7.134122,52.160808,4.1            -7.134149,52.160764,4            -7.13417,52.160717,4            -7.134179,52.160672,4            -7.134158,52.160628,4            -7.134097,52.160598,3.9            -7.134018,52.160594,3.9            -7.133937,52.160602,3.8            -7.133862,52.160612,3.8            -7.133787,52.160621,3.8            -7.133706,52.160629,3.7            -7.133632,52.160639,3.7            -7.133569,52.160645,3.6            -7.133505,52.160653,3.6            -7.13344,52.160658,3.6            -7.133367,52.160661,3.5            -7.133293,52.160666,3.5            -7.133216,52.160673,3.5            -7.133138,52.16068,3.5            -7.133061,52.160682,3.5            -7.132987,52.160685,3.5            -7.132912,52.160692,3.5            -7.132832,52.160699,3.5            -7.132759,52.160703,3.5            -7.132691,52.16071,3.5            -7.132618,52.160721,3.6            -7.132544,52.160729,3.6            -7.132474,52.160737,3.6            -7.132404,52.160744,3.6            -7.132331,52.160751,3.7            -7.132259,52.160758,3.7            -7.132188,52.16077,3.7            -7.132118,52.160782,3.8            -7.132043,52.160798,3.9            -7.131973,52.160811,3.9            -7.131898,52.160825,3.9            -7.131824,52.160837,4            -7.131755,52.160848,4            -7.131684,52.160859,4            -7.131611,52.160873,4            -7.131538,52.160889,4            -7.131467,52.160908,4            -7.131397,52.160931,4            -7.131331,52.160955,4            -7.131267,52.160977,4            -7.131195,52.161,3.9            -7.131135,52.161022,3.9            -7.131077,52.161045,3.9            -7.13101,52.161072,3.8            -7.130955,52.161098,3.8            -7.130908,52.161119,3.7            -7.130852,52.161141,3.7            -7.130794,52.161164,3.6            -7.13073,52.16119,3.6            -7.130665,52.161215,3.5            -7.1306,52.161241,3.4            -7.130537,52.161261,3.3            -7.130472,52.161279,3.3            -7.13041,52.161291,3.2            -7.130342,52.161298,3.1            -7.130279,52.161299,3.1            -7.130207,52.1613,3            -7.130135,52.161308,3            -7.130067,52.161319,3            -7.12999,52.161332,3            -7.12992,52.161344,2.9            -7.129846,52.161353,2.9            -7.129773,52.161365,2.9            -7.129704,52.161377,2.9            -7.129634,52.161385,2.9            -7.129562,52.16139,2.9            -7.129487,52.161396,3            -7.129409,52.161407,3            -7.129332,52.16142,3            -7.129257,52.16143,3.1            -7.129182,52.161444,3.1            -7.129109,52.161459,3.2            -7.129038,52.16147,3.2            -7.128967,52.161479,3.3            -7.128894,52.161482,3.3            -7.128849,52.161485,3.3            -7.128775,52.161493,3.4            -7.128702,52.161501,3.4            -7.128632,52.161513,3.4            -7.128562,52.16153,3.4            -7.128499,52.16155,3.4            -7.128441,52.161571,3.3            -7.128386,52.161603,3.2            -7.12834,52.161644,3            -7.128308,52.161686,2.9            -7.128288,52.161733,2.7            -7.128288,52.161779,2.6            -7.12831,52.161822,2.5            -7.128351,52.161858,2.5            -7.128408,52.161884,2.5            -7.128479,52.161902,2.5            -7.128554,52.161912,2.5            -7.128633,52.161915,2.5            -7.128712,52.161912,2.4            -7.128794,52.161907,2.4            -7.128868,52.161903,2.4            -7.12894,52.161897,2.5            -7.129012,52.16189,2.5            -7.129084,52.161883,2.4            -7.129155,52.161876,2.5            -7.129226,52.161868,2.5            -7.129298,52.16186,2.5            -7.12937,52.161853,2.5            -7.129449,52.161845,2.6            -7.129525,52.161838,2.7            -7.129597,52.161832,2.7            -7.129659,52.161827,2.7            -7.129728,52.161819,2.8            -7.129802,52.161812,2.9            -7.129876,52.161804,3.1            -7.129946,52.161799,3.2            -7.13003,52.161796,3.3            -7.130108,52.161793,3.5            -7.130183,52.161792,3.6            -7.130257,52.161792,3.7            -7.130328,52.161796,3.8            -7.130396,52.161802,3.9            -7.130465,52.161809,4            -7.130541,52.16182,4.1            -7.130611,52.161834,4.3            -7.130677,52.161852,4.4            -7.130736,52.161876,4.5            -7.130795,52.161905,4.6            -7.130853,52.161934,4.6            -7.130916,52.161966,4.7            -7.130968,52.161998,4.8            -7.131012,52.162032,4.8            -7.131057,52.162067,4.9            -7.131103,52.162102,4.9            -7.131146,52.16214,4.9            -7.131181,52.162172,5            -7.131216,52.162207,5            -7.131251,52.162244,5            -7.131289,52.162282,5            -7.131327,52.162319,4.9            -7.131367,52.162353,4.9            -7.131406,52.162387,4.8            -7.131449,52.162422,4.8            -7.131499,52.16246,4.8            -7.131548,52.162494,4.7            -7.131604,52.162529,4.7            -7.13166,52.162565,4.5            -7.131712,52.162597,4.4            -7.131758,52.162627,4.4            -7.131806,52.162657,4.3            -7.131848,52.162685,4.2            -7.131888,52.162716,4.1            -7.131934,52.162746,4            -7.131988,52.162774,4            -7.132042,52.1628,3.9            -7.132103,52.162825,3.9            -7.132168,52.162848,3.9            -7.132233,52.162871,3.9            -7.132296,52.162893,3.9            -7.132357,52.162915,3.8            -7.132424,52.162933,3.8            -7.132494,52.16295,3.7            -7.132562,52.162965,3.7            -7.132632,52.162979,3.7            -7.132698,52.162994,3.7            -7.132763,52.16301,3.6            -7.132831,52.163027,3.6            -7.132897,52.16304,3.6            -7.132967,52.163054,3.6            -7.133037,52.16307,3.6            -7.133106,52.163086,3.6            -7.133174,52.163101,3.6            -7.133237,52.163117,3.6            -7.133301,52.163132,3.7            -7.133371,52.163148,3.7            -7.133442,52.163162,3.8            -7.133517,52.16317,3.8            -7.133589,52.163163,3.9            -7.13365,52.163141,3.9            -7.133699,52.163109,3.9            -7.133738,52.163068,3.9            -7.133766,52.163021,3.9            -7.133791,52.162975,3.9            -7.133813,52.162933,4            -7.13384,52.162889,4            -7.133868,52.162847,4            -7.133902,52.162806,4            -7.133939,52.162769,4            -7.13398,52.162731,4            -7.13402,52.162694,4.1            -7.134058,52.162659,4.1            -7.1341,52.162623,4.1            -7.134144,52.162588,4.1            -7.134186,52.162553,4.1            -7.134229,52.162521,4.1            -7.134273,52.162489,4.1            -7.13432,52.162454,4.1            -7.134366,52.16242,4.1            -7.134409,52.162385,4.2            -7.134447,52.162346,4.2            -7.134478,52.1623,4.2            -7.134503,52.162258,4.2            -7.13453,52.162216,4.3            -7.134551,52.162173,4.3            -7.134571,52.162127,4.3            -7.134582,52.162076,4.4            -7.134588,52.162029,4.4            -7.134592,52.16198,4.5            -7.134595,52.161934,4.5            -7.134599,52.161888,4.6            -7.1346,52.161839,4.6            -7.134598,52.161793,4.7            -7.134592,52.161746,4.7            -7.134579,52.1617,4.8            -7.134567,52.161652,4.8            -7.134557,52.161607,4.9            -7.134544,52.161564,4.9            -7.13452,52.161526,4.9            -7.134485,52.161489,5            -7.134438,52.161455,5            -7.134378,52.161426,5            -7.134307,52.161403,5            -7.134239,52.161385,4.9            -7.134178,52.161366,4.8            -7.134128,52.161338,4.8            -7.134088,52.161305,4.7            -7.134053,52.161269,4.7            -7.134033,52.161227,4.6            -7.134025,52.161183,4.5            -7.134022,52.161138,4.5            -7.134022,52.161094,4.4            -7.13403,52.161052,4.3            -7.134044,52.161015,4.3            -7.134063,52.160972,4.2            -7.134082,52.16093,4.2            -7.1341,52.160888,4.1            -7.134123,52.160847,4.1            -7.13415,52.160804,4            -7.134174,52.16076,4.1            -7.134195,52.160714,4.1            -7.134208,52.160669,4.2            -7.13421,52.160622,4.3            -7.134219,52.160578,4.3            -7.134246,52.160537,4.4            -7.134284,52.1605,4.4            -7.134318,52.160459,4.5            -7.134352,52.160417,4.6            -7.13439,52.160381,4.6            -7.134429,52.160348,4.7            -7.134459,52.16031,4.7            -7.134466,52.160268,4.8            -7.134465,52.160239,4.8            -7.134445,52.1602,4.9            -7.134451,52.160152,5            -7.134455,52.160103,5            -7.134455,52.160056,5            -7.134451,52.160005,5            -7.134442,52.159957,5.1            -7.134433,52.159909,5.1            -7.134434,52.159864,5.1            -7.134451,52.15982,5.1            -7.134474,52.159781,5.2            -7.134499,52.159744,5.2            -7.134515,52.159695,5.3            -7.134532,52.159653,5.3            -7.134559,52.159611,5.4            -7.134585,52.15957,5.4            -7.134605,52.159527,5.4            -7.134627,52.159484,5.5            -7.134654,52.159444,5.5            -7.134685,52.159405,5.5            -7.134717,52.159369,5.5            -7.134755,52.15933,5.6            -7.134792,52.159292,5.6            -7.134834,52.159255,5.6            -7.134874,52.159224,5.7            -7.134915,52.159192,5.7            -7.134947,52.15916,5.7            -7.134936,52.15913,5.7            -7.134878,52.159112,5.7            -7.134809,52.159101,5.7            -7.134746,52.159079,5.8            -7.134706,52.159053,5.8            -7.134666,52.159036,5.8            -7.134614,52.159018,6.5            -7.134562,52.159007,6.6            -7.134502,52.159001,6.6            -7.134442,52.158991,6.7            -7.134382,52.158976,6.8            -7.134321,52.158963,6.8            -7.134265,52.15895,6.9            -7.13421,52.158933,6.9            -7.134151,52.158914,7            -7.134093,52.158893,7            -7.134035,52.158877,7.1            -7.133984,52.158865,7.1            -7.133933,52.15885,7.1            -7.133877,52.158843,7.2            -7.133811,52.15884,7.2            -7.13374,52.158835,7.3            -7.133673,52.158834,7.3            -7.133605,52.158824,7.3            -7.13354,52.158797,7.4            -7.13348,52.158772,7.4            -7.133419,52.158756,7.4            -7.133354,52.158737,7.5            -7.133288,52.158716,7.5            -7.133222,52.158698,7.5            -7.133159,52.158684,7.5            -7.133093,52.158667,7.6            -7.133033,52.158653,7.6            -7.132966,52.158645,7.7            -7.132888,52.158644,7.7            -7.132816,52.15865,7.7            -7.132742,52.158644,7.8            -7.132678,52.158631,7.8            -7.132614,52.158615,7.9            -7.132555,52.158591,7.9            -7.132504,52.158561,8            -7.132454,52.158537,8            -7.132392,52.158524,8            -7.132326,52.158515,8            -7.132258,52.158511,8            -7.132189,52.15851,8            -7.132122,52.1585,8            -7.132055,52.158481,8            -7.131991,52.158461,8            -7.131925,52.158448,8            -7.131859,52.158435,7.9            -7.131792,52.158425,7.9            -7.131734,52.158405,7.9            -7.131714,52.158362,7.8            -7.131737,52.158314,7.8            -7.131786,52.158277,7.9            -7.131861,52.158265,7.9            -7.131909,52.158269,7.9            -7.131953,52.158276,8            -7.132024,52.158295,8            -7.132089,52.158318,8            -7.132157,52.158339,8            -7.132225,52.158356,8            -7.132285,52.158372,8            -7.132347,52.158388,8            -7.132413,52.158404,8            -7.132472,52.158417,8            -7.132532,52.15843,8            -7.132604,52.158441,7.9            -7.132668,52.158448,7.9            -7.13273,52.158449,7.8            -7.132793,52.158457,7.8            -7.132851,52.158476,7.8            -7.132906,52.158491,7.7            -7.132973,52.158503,7.7            -7.133041,52.158519,7.6            -7.133097,52.158537,7.6            -7.133165,52.158553,7.6            -7.133227,52.158566,7.5            -7.133297,52.158581,7.5            -7.133367,52.158596,7.5            -7.133438,52.158608,7.5            -7.133503,52.158621,7.4            -7.133564,52.158634,7.4            -7.133632,52.158646,7.4            -7.133701,52.158656,7.3            -7.133772,52.158668,7.3            -7.133847,52.158678,7.2            -7.133916,52.158689,7.2            -7.133978,52.158708,7.2            -7.134039,52.158724,7.1            -7.134102,52.158734,7.1            -7.13417,52.158742,7            -7.134238,52.158747,7            -7.134305,52.158749,6.9            -7.134363,52.158758,6.9            -7.134419,52.158775,6.8            -7.13448,52.15879,6.8            -7.134549,52.158801,6.7            -7.13462,52.158805,6.6            -7.134685,52.158814,6.5            -7.134746,52.158829,6.4            -7.134813,52.158846,6.3            -7.134879,52.158861,6.1            -7.134941,52.158878,6            -7.135003,52.158894,6            -7.135067,52.158909,6            -7.135131,52.158918,5.9            -7.135199,52.158922,5.7            -7.135268,52.158929,5.5            -7.135332,52.158941,5.4            -7.135391,52.158952,5.3            -7.135457,52.15896,5.1            -7.135513,52.158969,5            -7.135575,52.158981,4.9            -7.135635,52.158997,4.7            -7.135694,52.159017,4.7            -7.135749,52.159043,4.6            -7.135798,52.159072,4.5            -7.13584,52.159103,4.4            -7.135894,52.159128,4.4            -7.135964,52.159146,4.3            -7.136037,52.15916,4.3            -7.136116,52.159173,4.2            -7.13618,52.15918,4.2            -7.136252,52.159189,4.2            -7.136321,52.1592,4.2            -7.136392,52.159214,4.2            -7.136459,52.159229,4.1            -7.136531,52.159244,4.1            -7.136598,52.159262,4.1            -7.136662,52.159281,4.1            -7.136723,52.159297,4.1            -7.136794,52.159311,4.1            -7.13686,52.159321,4.1            -7.136931,52.159336,4.1            -7.136996,52.159355,4            -7.137069,52.159365,4            -7.137145,52.159369,4            -7.137223,52.159369,4            -7.1373,52.159368,4            -7.137375,52.159368,4            -7.137449,52.159373,4            -7.13752,52.159374,4            -7.13759,52.159376,4            -7.137658,52.159377,4            -7.13773,52.159379,4            -7.137805,52.159373,4            -7.137867,52.15935,4            -7.137917,52.159317,4            -7.13797,52.159294,4            -7.138037,52.159286,3.9            -7.138091,52.159292,3.9            -7.138164,52.159299,3.9            -7.138238,52.159305,3.9            -7.138312,52.15931,3.9            -7.138388,52.159314,3.9            -7.138461,52.159318,3.9            -7.138536,52.15932,3.8            -7.13861,52.159326,3.8            -7.138682,52.159333,3.8            -7.138755,52.15934,3.8            -7.138826,52.159349,3.8            -7.138897,52.159359,3.8            -7.13897,52.159364,3.8            -7.139043,52.159366,3.8            -7.139113,52.15937,3.8            -7.139182,52.159375,3.7            -7.139252,52.159381,3.7            -7.139307,52.159385,3.7            -7.139298,52.159414,3.7          </coordinates></LineString></Placemark><Placemark><name>Finish</name><styleUrl>#icon-503-DB4436-nodesc</styleUrl><Point><coordinates>            -7.139298,52.159414,3.7          </coordinates></Point></Placemark><Placemark><name>Start</name><styleUrl>#icon-503-009D57-nodesc</styleUrl><Point><coordinates>            -7.138258,52.159293,3.9          </coordinates></Point></Placemark></Folder></Document></kml>