<?xml version="1.0" encoding="UTF-8"?><kml xmlns="http://www.opengis.net/kml/2.2"><Document><name>Coler Mountain Bike Preserve parkrun</name><description/><Style id="icon-1899-FFEA00-nodesc-normal"><IconStyle><color>ff00eaff</color><scale>1</scale><Icon><href>https://www.gstatic.com/mapspro/images/stock/503-wht-blank_maps.png</href></Icon><hotSpot x="32" xunits="pixels" y="64" yunits="insetPixels"/></IconStyle><LabelStyle><scale>0</scale></LabelStyle><BalloonStyle><text><![CDATA[<h3>$[name]</h3>]]></text></BalloonStyle></Style><Style id="icon-1899-FFEA00-nodesc-highlight"><IconStyle><color>ff00eaff</color><scale>1</scale><Icon><href>https://www.gstatic.com/mapspro/images/stock/503-wht-blank_maps.png</href></Icon><hotSpot x="32" xunits="pixels" y="64" yunits="insetPixels"/></IconStyle><LabelStyle><scale>1</scale></LabelStyle><BalloonStyle><text><![CDATA[<h3>$[name]</h3>]]></text></BalloonStyle></Style><StyleMap id="icon-1899-FFEA00-nodesc"><Pair><key>normal</key><styleUrl>#icon-1899-FFEA00-nodesc-normal</styleUrl></Pair><Pair><key>highlight</key><styleUrl>#icon-1899-FFEA00-nodesc-highlight</styleUrl></Pair></StyleMap><Style id="line-0288D1-5650-nodesc-normal"><LineStyle><color>ffd18802</color><width>5.65</width></LineStyle><BalloonStyle><text><![CDATA[<h3>$[name]</h3>]]></text></BalloonStyle></Style><Style id="line-0288D1-5650-nodesc-highlight"><LineStyle><color>ffd18802</color><width>8.475</width></LineStyle><BalloonStyle><text><![CDATA[<h3>$[name]</h3>]]></text></BalloonStyle></Style><StyleMap id="line-0288D1-5650-nodesc"><Pair><key>normal</key><styleUrl>#line-0288D1-5650-nodesc-normal</styleUrl></Pair><Pair><key>highlight</key><styleUrl>#line-0288D1-5650-nodesc-highlight</styleUrl></Pair></StyleMap><Folder><name>Untitled layer</name><Placemark><name>Course</name><styleUrl>#line-0288D1-5650-nodesc</styleUrl><LineString><tessellate>1</tessellate><coordinates>            -94.238012,36.387376,0            -94.238237,36.386789,0            -94.23858,36.38653,0            -94.238698,36.385485,0            -94.237733,36.383887,0            -94.237121,36.383774,0            -94.235844,36.382159,0            -94.235823,36.380449,0            -94.235512,36.37981,0            -94.236316,36.377814,0            -94.236166,36.377098,0            -94.236316,36.377797,0            -94.235512,36.379801,0            -94.235812,36.380458,0            -94.235844,36.382177,0            -94.2371,36.383766,0            -94.237722,36.383878,0            -94.238677,36.385493,0            -94.238591,36.386521,0            -94.238237,36.386806,0            -94.237765,36.387868,0            -94.237797,36.389924,0            -94.237947,36.390304,0            -94.237904,36.390736,0            -94.238623,36.39457,0            -94.238763,36.395728,0            -94.238602,36.396643,0            -94.238097,36.397731,0          </coordinates></LineString></Placemark><Placemark><name>Start/Finish</name><styleUrl>#icon-1899-FFEA00-nodesc</styleUrl><Point><coordinates>            -94.238135,36.387223,0          </coordinates></Point></Placemark></Folder></Document></kml>