<?xml version="1.0" encoding="UTF-8"?><kml xmlns="http://www.opengis.net/kml/2.2"><Document><name>Courthouse Lake parkrun</name><description/><Style id="icon-1899-FFEA00-nodesc-normal"><IconStyle><color>ff00eaff</color><scale>1</scale><Icon><href>https://www.gstatic.com/mapspro/images/stock/503-wht-blank_maps.png</href></Icon><hotSpot x="32" xunits="pixels" y="64" yunits="insetPixels"/></IconStyle><LabelStyle><scale>0</scale></LabelStyle><BalloonStyle><text><![CDATA[<h3>$[name]</h3>]]></text></BalloonStyle></Style><Style id="icon-1899-FFEA00-nodesc-highlight"><IconStyle><color>ff00eaff</color><scale>1</scale><Icon><href>https://www.gstatic.com/mapspro/images/stock/503-wht-blank_maps.png</href></Icon><hotSpot x="32" xunits="pixels" y="64" yunits="insetPixels"/></IconStyle><LabelStyle><scale>1</scale></LabelStyle><BalloonStyle><text><![CDATA[<h3>$[name]</h3>]]></text></BalloonStyle></Style><StyleMap id="icon-1899-FFEA00-nodesc"><Pair><key>normal</key><styleUrl>#icon-1899-FFEA00-nodesc-normal</styleUrl></Pair><Pair><key>highlight</key><styleUrl>#icon-1899-FFEA00-nodesc-highlight</styleUrl></Pair></StyleMap><Style id="line-0288D1-5069-nodesc-normal"><LineStyle><color>ffd18802</color><width>5.069</width></LineStyle><BalloonStyle><text><![CDATA[<h3>$[name]</h3>]]></text></BalloonStyle></Style><Style id="line-0288D1-5069-nodesc-highlight"><LineStyle><color>ffd18802</color><width>7.6035</width></LineStyle><BalloonStyle><text><![CDATA[<h3>$[name]</h3>]]></text></BalloonStyle></Style><StyleMap id="line-0288D1-5069-nodesc"><Pair><key>normal</key><styleUrl>#line-0288D1-5069-nodesc-normal</styleUrl></Pair><Pair><key>highlight</key><styleUrl>#line-0288D1-5069-nodesc-highlight</styleUrl></Pair></StyleMap><Folder><name>Untitled layer</name><Placemark><name>Course</name><styleUrl>#line-0288D1-5069-nodesc</styleUrl><LineString><tessellate>1</tessellate><coordinates>            -93.59287,44.78616,0            -93.59281,44.78614,0            -93.59279,44.78613,0            -93.59221,44.78587,0            -93.59216,44.78585,0            -93.59214,44.78584,0            -93.59182,44.78569,0            -93.59171,44.78565,0            -93.59162,44.78564,0            -93.59155,44.78565,0            -93.59148,44.78569,0            -93.59139,44.78575,0            -93.59133,44.7858,0            -93.59064,44.78636,0            -93.58984,44.787,0            -93.58936,44.78739,0            -93.58919,44.78755,0            -93.58866,44.78818,0            -93.58798,44.78904,0            -93.58782,44.78927,0            -93.58776,44.7894,0            -93.58775,44.78941,0            -93.58768,44.78983,0            -93.58758,44.79062,0            -93.58752,44.79101,0            -93.5875,44.79119,0            -93.58748,44.79138,0            -93.58749,44.79147,0            -93.58755,44.79164,0            -93.58806,44.79251,0            -93.58796,44.79253,0            -93.58786,44.79259,0            -93.58774,44.79265,0            -93.58757,44.79282,0            -93.58751,44.79288,0            -93.58736,44.79294,0            -93.58729,44.79296,0            -93.58714,44.79305,0            -93.58695,44.79324,0            -93.58674,44.79338,0            -93.58658,44.79346,0            -93.58649,44.79347,0            -93.58636,44.7935,0            -93.58619,44.79351,0            -93.58603,44.79353,0            -93.58587,44.7936,0            -93.58576,44.79365,0            -93.58526,44.79393,0            -93.58499,44.79409,0            -93.58429,44.79448,0            -93.5837,44.7948,0            -93.58358,44.79485,0            -93.5835,44.79488,0            -93.58338,44.79488,0            -93.58309,44.79489,0            -93.58301,44.79489,0            -93.58293,44.79486,0            -93.58286,44.79481,0            -93.58282,44.79478,0            -93.58274,44.79474,0            -93.58268,44.79471,0            -93.58235,44.79442,0            -93.58234,44.79441,0            -93.58221,44.79427,0            -93.58209,44.79418,0            -93.58206,44.79413,0            -93.58203,44.7941,0            -93.58196,44.79396,0            -93.58191,44.79378,0            -93.58184,44.79362,0            -93.58177,44.7935,0            -93.58172,44.79345,0            -93.58169,44.79342,0            -93.58161,44.79332,0            -93.58159,44.79321,0            -93.58158,44.79307,0            -93.58146,44.79309,0            -93.58134,44.79315,0            -93.58124,44.79322,0            -93.58119,44.79328,0            -93.58105,44.79343,0            -93.58098,44.7935,0            -93.58089,44.79362,0            -93.58084,44.7937,0            -93.58081,44.79376,0            -93.58079,44.79382,0            -93.58076,44.7939,0            -93.58071,44.79395,0            -93.58055,44.79404,0            -93.5805,44.79406,0            -93.58033,44.79417,0            -93.58023,44.79425,0            -93.5802,44.79433,0            -93.58018,44.79447,0            -93.58016,44.79463,0            -93.58014,44.79475,0            -93.58014,44.79482,0            -93.58015,44.79488,0            -93.58032,44.79522,0            -93.58054,44.79561,0            -93.58067,44.79583,0            -93.58076,44.79603,0            -93.58087,44.79624,0            -93.58092,44.79639,0            -93.58095,44.79652,0            -93.58097,44.79687,0            -93.58098,44.79697,0            -93.58099,44.79707,0            -93.581,44.79717,0            -93.58107,44.79733,0            -93.58113,44.79741,0            -93.58123,44.79755,0            -93.58137,44.79772,0            -93.58143,44.7978,0            -93.58148,44.79783,0            -93.58153,44.79784,0            -93.58167,44.79782,0            -93.58183,44.79779,0            -93.58194,44.79779,0            -93.58197,44.7978,0            -93.582,44.79782,0            -93.58202,44.79783,0            -93.58204,44.79786,0            -93.58212,44.79794,0            -93.58214,44.79798,0            -93.58211,44.79803,0            -93.58202,44.79806,0            -93.58193,44.79809,0            -93.58179,44.79814,0            -93.58168,44.79819,0            -93.58163,44.79823,0            -93.58161,44.79828,0            -93.5816,44.79834,0            -93.58161,44.7984,0            -93.58162,44.79843,0            -93.58165,44.79848,0          </coordinates></LineString></Placemark><Placemark><name>Start/Finish</name><styleUrl>#icon-1899-FFEA00-nodesc</styleUrl><Point><coordinates>            -93.592883,44.786222,0          </coordinates></Point></Placemark></Folder></Document></kml>