<?xml version="1.0" encoding="UTF-8"?><kml xmlns="http://www.opengis.net/kml/2.2"><Document><name>Creekside parkrun</name><description/><Style id="icon-1899-FFEA00-nodesc-normal"><IconStyle><color>ff00eaff</color><scale>1</scale><Icon><href>https://www.gstatic.com/mapspro/images/stock/503-wht-blank_maps.png</href></Icon><hotSpot x="32" xunits="pixels" y="64" yunits="insetPixels"/></IconStyle><LabelStyle><scale>0</scale></LabelStyle><BalloonStyle><text><![CDATA[<h3>$[name]</h3>]]></text></BalloonStyle></Style><Style id="icon-1899-FFEA00-nodesc-highlight"><IconStyle><color>ff00eaff</color><scale>1</scale><Icon><href>https://www.gstatic.com/mapspro/images/stock/503-wht-blank_maps.png</href></Icon><hotSpot x="32" xunits="pixels" y="64" yunits="insetPixels"/></IconStyle><LabelStyle><scale>1</scale></LabelStyle><BalloonStyle><text><![CDATA[<h3>$[name]</h3>]]></text></BalloonStyle></Style><StyleMap id="icon-1899-FFEA00-nodesc"><Pair><key>normal</key><styleUrl>#icon-1899-FFEA00-nodesc-normal</styleUrl></Pair><Pair><key>highlight</key><styleUrl>#icon-1899-FFEA00-nodesc-highlight</styleUrl></Pair></StyleMap><Style id="line-0288D1-5456-nodesc-normal"><LineStyle><color>ffd18802</color><width>5.456</width></LineStyle><BalloonStyle><text><![CDATA[<h3>$[name]</h3>]]></text></BalloonStyle></Style><Style id="line-0288D1-5456-nodesc-highlight"><LineStyle><color>ffd18802</color><width>8.184</width></LineStyle><BalloonStyle><text><![CDATA[<h3>$[name]</h3>]]></text></BalloonStyle></Style><StyleMap id="line-0288D1-5456-nodesc"><Pair><key>normal</key><styleUrl>#line-0288D1-5456-nodesc-normal</styleUrl></Pair><Pair><key>highlight</key><styleUrl>#line-0288D1-5456-nodesc-highlight</styleUrl></Pair></StyleMap><Folder><name>Untitled layer</name><Placemark><name>Course</name><styleUrl>#line-0288D1-5456-nodesc</styleUrl><LineString><tessellate>1</tessellate><coordinates>            -79.934146,35.89111,0            -79.933331,35.890658,0            -79.932966,35.891092,0            -79.932387,35.891336,0            -79.932087,35.891961,0            -79.932408,35.89217,0            -79.932065,35.892309,0            -79.931185,35.89297,0            -79.931421,35.893874,0            -79.931657,35.894186,0            -79.932065,35.89443,0            -79.932387,35.894551,0            -79.932387,35.894777,0            -79.932215,35.894847,0            -79.932258,35.895299,0            -79.93213,35.895681,0            -79.932215,35.895959,0            -79.93228,35.896533,0            -79.932194,35.89702,0            -79.93228,35.897298,0            -79.930155,35.897559,0            -79.930005,35.898202,0            -79.932065,35.898793,0            -79.931228,35.898558,0            -79.930005,35.898202,0            -79.930091,35.897872,0            -79.930155,35.897559,0            -79.932258,35.897298,0            -79.932473,35.897385,0            -79.932923,35.897246,0            -79.933353,35.897437,0            -79.93391,35.897385,0            -79.934554,35.897541,0            -79.934983,35.897107,0            -79.935026,35.896637,0            -79.935391,35.896568,0            -79.938052,35.894152,0            -79.938266,35.894308,0            -79.93994,35.893126,0          </coordinates></LineString></Placemark><Placemark><name>Start/Finish</name><styleUrl>#icon-1899-FFEA00-nodesc</styleUrl><Point><coordinates>            -79.933782,35.890986,0          </coordinates></Point></Placemark></Folder></Document></kml>