<?xml version="1.0" encoding="UTF-8"?><kml xmlns="http://www.opengis.net/kml/2.2"><Document><name>Cutler Park parkrun</name><description/><Style id="icon-1899-FFD600-nodesc-normal"><IconStyle><color>ff00d6ff</color><scale>1</scale><Icon><href>https://www.gstatic.com/mapspro/images/stock/503-wht-blank_maps.png</href></Icon><hotSpot x="32" xunits="pixels" y="64" yunits="insetPixels"/></IconStyle><LabelStyle><scale>0</scale></LabelStyle><BalloonStyle><text><![CDATA[<h3>$[name]</h3>]]></text></BalloonStyle></Style><Style id="icon-1899-FFD600-nodesc-highlight"><IconStyle><color>ff00d6ff</color><scale>1</scale><Icon><href>https://www.gstatic.com/mapspro/images/stock/503-wht-blank_maps.png</href></Icon><hotSpot x="32" xunits="pixels" y="64" yunits="insetPixels"/></IconStyle><LabelStyle><scale>1</scale></LabelStyle><BalloonStyle><text><![CDATA[<h3>$[name]</h3>]]></text></BalloonStyle></Style><StyleMap id="icon-1899-FFD600-nodesc"><Pair><key>normal</key><styleUrl>#icon-1899-FFD600-nodesc-normal</styleUrl></Pair><Pair><key>highlight</key><styleUrl>#icon-1899-FFD600-nodesc-highlight</styleUrl></Pair></StyleMap><Style id="line-0288D1-5263-nodesc-normal"><LineStyle><color>ffd18802</color><width>5.263</width></LineStyle><BalloonStyle><text><![CDATA[<h3>$[name]</h3>]]></text></BalloonStyle></Style><Style id="line-0288D1-5263-nodesc-highlight"><LineStyle><color>ffd18802</color><width>7.8945</width></LineStyle><BalloonStyle><text><![CDATA[<h3>$[name]</h3>]]></text></BalloonStyle></Style><StyleMap id="line-0288D1-5263-nodesc"><Pair><key>normal</key><styleUrl>#line-0288D1-5263-nodesc-normal</styleUrl></Pair><Pair><key>highlight</key><styleUrl>#line-0288D1-5263-nodesc-highlight</styleUrl></Pair></StyleMap><Folder><name>Cutler Park parkrun</name><Placemark><name>Line 3</name><styleUrl>#line-0288D1-5263-nodesc</styleUrl><LineString><tessellate>1</tessellate><coordinates>            -71.213524,42.294756,0            -71.215184,42.293568,0            -71.215141,42.293314,0            -71.214476,42.292616,0            -71.213188,42.292155,0            -71.211493,42.291203,0            -71.210463,42.290981,0            -71.210024,42.290692,0            -71.2096707,42.2903236,0            -71.2090699,42.2895855,0            -71.2087266,42.2893394,0            -71.2084047,42.2891569,0            -71.207558,42.288931,0            -71.207194,42.288359,0            -71.2068383,42.2879902,0            -71.2064199,42.2876489,0            -71.2061103,42.2874866,0            -71.205799,42.287423,0            -71.2063984,42.2898632,0            -71.207128,42.2920299,0            -71.2082116,42.2944108,0            -71.208288,42.294518,0            -71.2089841,42.2950298,0            -71.2098746,42.2955218,0            -71.210198,42.295708,0            -71.2115912,42.2957758,0            -71.211901,42.295806,0            -71.2127376,42.2956864,0            -71.212781,42.295282,0            -71.2134473,42.2947996,0          </coordinates></LineString></Placemark><Placemark><name>Start/Finish</name><styleUrl>#icon-1899-FFD600-nodesc</styleUrl><Point><coordinates>            -71.213524,42.294756,0          </coordinates></Point></Placemark></Folder></Document></kml>