<?xml version="1.0" encoding="UTF-8"?><kml xmlns="http://www.opengis.net/kml/2.2"><Document><name>Eagan parkrun Temporary (from Jul 2025)</name><description/><Style id="icon-1899-0F9D58-nodesc-normal"><IconStyle><color>ff589d0f</color><scale>1</scale><Icon><href>https://www.gstatic.com/mapspro/images/stock/503-wht-blank_maps.png</href></Icon><hotSpot x="32" xunits="pixels" y="64" yunits="insetPixels"/></IconStyle><LabelStyle><scale>0</scale></LabelStyle><BalloonStyle><text><![CDATA[<h3>$[name]</h3>]]></text></BalloonStyle></Style><Style id="icon-1899-0F9D58-nodesc-highlight"><IconStyle><color>ff589d0f</color><scale>1</scale><Icon><href>https://www.gstatic.com/mapspro/images/stock/503-wht-blank_maps.png</href></Icon><hotSpot x="32" xunits="pixels" y="64" yunits="insetPixels"/></IconStyle><LabelStyle><scale>1</scale></LabelStyle><BalloonStyle><text><![CDATA[<h3>$[name]</h3>]]></text></BalloonStyle></Style><StyleMap id="icon-1899-0F9D58-nodesc"><Pair><key>normal</key><styleUrl>#icon-1899-0F9D58-nodesc-normal</styleUrl></Pair><Pair><key>highlight</key><styleUrl>#icon-1899-0F9D58-nodesc-highlight</styleUrl></Pair></StyleMap><Style id="icon-1899-FF5252-nodesc-normal"><IconStyle><color>ff5252ff</color><scale>1</scale><Icon><href>https://www.gstatic.com/mapspro/images/stock/503-wht-blank_maps.png</href></Icon><hotSpot x="32" xunits="pixels" y="64" yunits="insetPixels"/></IconStyle><LabelStyle><scale>0</scale></LabelStyle><BalloonStyle><text><![CDATA[<h3>$[name]</h3>]]></text></BalloonStyle></Style><Style id="icon-1899-FF5252-nodesc-highlight"><IconStyle><color>ff5252ff</color><scale>1</scale><Icon><href>https://www.gstatic.com/mapspro/images/stock/503-wht-blank_maps.png</href></Icon><hotSpot x="32" xunits="pixels" y="64" yunits="insetPixels"/></IconStyle><LabelStyle><scale>1</scale></LabelStyle><BalloonStyle><text><![CDATA[<h3>$[name]</h3>]]></text></BalloonStyle></Style><StyleMap id="icon-1899-FF5252-nodesc"><Pair><key>normal</key><styleUrl>#icon-1899-FF5252-nodesc-normal</styleUrl></Pair><Pair><key>highlight</key><styleUrl>#icon-1899-FF5252-nodesc-highlight</styleUrl></Pair></StyleMap><Style id="line-0288D1-5650-nodesc-normal"><LineStyle><color>ffd18802</color><width>5.65</width></LineStyle><BalloonStyle><text><![CDATA[<h3>$[name]</h3>]]></text></BalloonStyle></Style><Style id="line-0288D1-5650-nodesc-highlight"><LineStyle><color>ffd18802</color><width>8.475</width></LineStyle><BalloonStyle><text><![CDATA[<h3>$[name]</h3>]]></text></BalloonStyle></Style><StyleMap id="line-0288D1-5650-nodesc"><Pair><key>normal</key><styleUrl>#line-0288D1-5650-nodesc-normal</styleUrl></Pair><Pair><key>highlight</key><styleUrl>#line-0288D1-5650-nodesc-highlight</styleUrl></Pair></StyleMap><Folder><name>Untitled layer</name><Placemark><name>Course</name><styleUrl>#line-0288D1-5650-nodesc</styleUrl><LineString><tessellate>1</tessellate><coordinates>            -93.1731028,44.797026,0            -93.17305,44.797139,0            -93.1718217,44.7971237,0            -93.1708739,44.7970646,0            -93.1708382,44.7975232,0            -93.1708739,44.7970646,0            -93.170223,44.796756,0            -93.1699215,44.7967463,0            -93.1696523,44.7968203,0            -93.1689096,44.7970453,0            -93.1683406,44.7969639,0            -93.168101,44.796817,0            -93.167905,44.796535,0            -93.16786,44.79609,0            -93.167878,44.795716,0            -93.168282,44.795616,0            -93.168611,44.795634,0            -93.1687952,44.7956688,0            -93.168958,44.795635,0            -93.169096,44.795535,0            -93.169105,44.795362,0            -93.1690851,44.7952975,0            -93.1687946,44.795118,0            -93.1686658,44.7950878,0            -93.168537,44.795088,0            -93.1684152,44.7950086,0            -93.16839,44.794853,0            -93.168336,44.794524,0            -93.168366,44.794246,0            -93.168556,44.794004,0            -93.168771,44.793855,0            -93.169203,44.793753,0            -93.169692,44.793724,0            -93.170044,44.793685,0            -93.170199,44.793791,0            -93.169923,44.794043,0            -93.16972,44.794256,0            -93.169654,44.794612,0            -93.169621,44.79482,0            -93.169791,44.794971,0            -93.170233,44.79507,0            -93.170569,44.795128,0            -93.170684,44.795144,0            -93.170687,44.795072,0            -93.171042,44.795009,0            -93.171566,44.794968,0            -93.172038,44.795163,0            -93.1722212,44.7953655,0            -93.172222,44.795568,0            -93.172199,44.795968,0            -93.172252,44.79629,0            -93.1724415,44.796409,0            -93.1727329,44.7964937,0            -93.1731826,44.7965295,0            -93.17334,44.796534,0            -93.173201,44.796848,0            -93.1731028,44.797026,0          </coordinates></LineString></Placemark><Placemark><name>Finish</name><styleUrl>#icon-1899-FF5252-nodesc</styleUrl><Point><coordinates>            -93.1708382,44.7975232,0          </coordinates></Point></Placemark><Placemark><name>Start</name><styleUrl>#icon-1899-0F9D58-nodesc</styleUrl><Point><coordinates>            -93.1678817,44.7962665,0          </coordinates></Point></Placemark></Folder></Document></kml>