<?xml version="1.0" encoding="UTF-8"?><kml xmlns="http://www.opengis.net/kml/2.2"><Document><name>Ed Austin Regional parkrun</name><description/><Style id="icon-1724-0288D1-nodesc-normal"><IconStyle><color>ffd18802</color><scale>1</scale><Icon><href>https://www.gstatic.com/mapspro/images/stock/503-wht-blank_maps.png</href></Icon></IconStyle><LabelStyle><scale>0</scale></LabelStyle><BalloonStyle><text><![CDATA[<h3>$[name]</h3>]]></text></BalloonStyle></Style><Style id="icon-1724-0288D1-nodesc-highlight"><IconStyle><color>ffd18802</color><scale>1</scale><Icon><href>https://www.gstatic.com/mapspro/images/stock/503-wht-blank_maps.png</href></Icon></IconStyle><LabelStyle><scale>1</scale></LabelStyle><BalloonStyle><text><![CDATA[<h3>$[name]</h3>]]></text></BalloonStyle></Style><StyleMap id="icon-1724-0288D1-nodesc"><Pair><key>normal</key><styleUrl>#icon-1724-0288D1-nodesc-normal</styleUrl></Pair><Pair><key>highlight</key><styleUrl>#icon-1724-0288D1-nodesc-highlight</styleUrl></Pair></StyleMap><Style id="icon-1899-FFEA00-nodesc-normal"><IconStyle><color>ff00eaff</color><scale>1</scale><Icon><href>https://www.gstatic.com/mapspro/images/stock/503-wht-blank_maps.png</href></Icon><hotSpot x="32" xunits="pixels" y="64" yunits="insetPixels"/></IconStyle><LabelStyle><scale>0</scale></LabelStyle><BalloonStyle><text><![CDATA[<h3>$[name]</h3>]]></text></BalloonStyle></Style><Style id="icon-1899-FFEA00-nodesc-highlight"><IconStyle><color>ff00eaff</color><scale>1</scale><Icon><href>https://www.gstatic.com/mapspro/images/stock/503-wht-blank_maps.png</href></Icon><hotSpot x="32" xunits="pixels" y="64" yunits="insetPixels"/></IconStyle><LabelStyle><scale>1</scale></LabelStyle><BalloonStyle><text><![CDATA[<h3>$[name]</h3>]]></text></BalloonStyle></Style><StyleMap id="icon-1899-FFEA00-nodesc"><Pair><key>normal</key><styleUrl>#icon-1899-FFEA00-nodesc-normal</styleUrl></Pair><Pair><key>highlight</key><styleUrl>#icon-1899-FFEA00-nodesc-highlight</styleUrl></Pair></StyleMap><Style id="line-0288D1-5650-nodesc-normal"><LineStyle><color>ffd18802</color><width>5.65</width></LineStyle><BalloonStyle><text><![CDATA[<h3>$[name]</h3>]]></text></BalloonStyle></Style><Style id="line-0288D1-5650-nodesc-highlight"><LineStyle><color>ffd18802</color><width>8.475</width></LineStyle><BalloonStyle><text><![CDATA[<h3>$[name]</h3>]]></text></BalloonStyle></Style><StyleMap id="line-0288D1-5650-nodesc"><Pair><key>normal</key><styleUrl>#line-0288D1-5650-nodesc-normal</styleUrl></Pair><Pair><key>highlight</key><styleUrl>#line-0288D1-5650-nodesc-highlight</styleUrl></Pair></StyleMap><Folder><name>Untitled layer</name><Placemark><name>First/Last Turnaround</name><styleUrl>#icon-1724-0288D1-nodesc</styleUrl><Point><coordinates>            -81.503616,30.36652,0          </coordinates></Point></Placemark><Placemark><name>Midpoint Turnaround</name><styleUrl>#icon-1724-0288D1-nodesc</styleUrl><Point><coordinates>            -81.507348,30.362116,0          </coordinates></Point></Placemark><Placemark><name>Course</name><styleUrl>#line-0288D1-5650-nodesc</styleUrl><LineString><tessellate>1</tessellate><coordinates>            -81.507662,30.366102,0            -81.507492,30.366078,0            -81.507056,30.366032,0            -81.507,30.36604,0            -81.506894,30.366088,0            -81.506875,30.36611,0            -81.506855,30.366196,0            -81.506864,30.366209,0            -81.506877,30.366236,0            -81.50686,30.36631,0            -81.506859,30.366393,0            -81.50685,30.366461,0            -81.50681,30.366567,0            -81.506799,30.366639,0            -81.506814,30.366697,0            -81.506857,30.366767,0            -81.506872,30.366827,0            -81.50686,30.366925,0            -81.506831,30.366985,0            -81.506758,30.367043,0            -81.506652,30.367081,0            -81.506594,30.367119,0            -81.50657,30.367165,0            -81.506555,30.367238,0            -81.506524,30.367284,0            -81.506468,30.367364,0            -81.506441,30.367419,0            -81.506432,30.367467,0            -81.506396,30.367468,0            -81.506311,30.367463,0            -81.505811,30.367478,0            -81.505248,30.367492,0            -81.504785,30.367498,0            -81.504557,30.367493,0            -81.504373,30.367472,0            -81.504208,30.367448,0            -81.504097,30.367456,0            -81.503806,30.367501,0            -81.503751,30.367488,0            -81.503662,30.367441,0            -81.503594,30.367372,0            -81.503564,30.367303,0            -81.503562,30.367222,0            -81.503601,30.367148,0            -81.503689,30.367038,0            -81.503701,30.367001,0            -81.503657,30.366919,0            -81.50359,30.36677,0            -81.503564,30.36669,0            -81.503559,30.366624,0            -81.503578,30.366561,0            -81.503616,30.36652,0            -81.503575,30.366565,0            -81.503558,30.366631,0            -81.503572,30.36672,0            -81.503605,30.366803,0            -81.50366,30.366927,0            -81.503693,30.366986,0            -81.503696,30.367015,0            -81.503684,30.367051,0            -81.503617,30.367133,0            -81.503568,30.367206,0            -81.503562,30.367268,0            -81.503575,30.367335,0            -81.50361,30.367392,0            -81.503661,30.367437,0            -81.503721,30.367475,0            -81.503776,30.367496,0            -81.503827,30.3675,0            -81.50401,30.367468,0            -81.504138,30.367451,0            -81.504254,30.367453,0            -81.504444,30.367481,0            -81.504742,30.367502,0            -81.505927,30.367474,0            -81.506303,30.367464,0            -81.506402,30.367474,0            -81.506475,30.367515,0            -81.506531,30.367585,0            -81.506576,30.367675,0            -81.506648,30.367707,0            -81.506721,30.3677,0            -81.506879,30.367665,0            -81.507026,30.367684,0            -81.507182,30.367698,0            -81.507332,30.367647,0            -81.507434,30.367651,0            -81.507533,30.367714,0            -81.507646,30.367732,0            -81.507896,30.367718,0            -81.50815,30.367688,0            -81.508255,30.367644,0            -81.508327,30.367584,0            -81.508413,30.367482,0            -81.50852,30.367443,0            -81.509073,30.367427,0            -81.509698,30.367404,0            -81.510124,30.367371,0            -81.51032,30.367376,0            -81.510503,30.367411,0            -81.510629,30.36742,0            -81.510717,30.367394,0            -81.510749,30.367339,0            -81.510722,30.367272,0            -81.510647,30.367135,0            -81.510551,30.36677,0            -81.510465,30.366369,0            -81.510411,30.365902,0            -81.510344,30.365508,0            -81.510253,30.365145,0            -81.510188,30.364958,0            -81.510194,30.364877,0            -81.510314,30.364579,0            -81.510376,30.364502,0            -81.510486,30.3644,0            -81.510542,30.364301,0            -81.510631,30.364007,0            -81.510711,30.363912,0            -81.510805,30.363822,0            -81.510837,30.363759,0            -81.510848,30.363667,0            -81.510834,30.363128,0            -81.510824,30.362498,0            -81.510816,30.361919,0            -81.510816,30.361702,0            -81.510781,30.361619,0            -81.510706,30.361579,0            -81.510483,30.361496,0            -81.510092,30.361424,0            -81.509453,30.361336,0            -81.509064,30.361248,0            -81.508582,30.361137,0            -81.508354,30.361135,0            -81.508045,30.361165,0            -81.5079,30.361239,0            -81.507704,30.361359,0            -81.507629,30.36145,0            -81.507546,30.36169,0            -81.507495,30.361864,0            -81.50749,30.361986,0            -81.507479,30.36204,0            -81.507436,30.362072,0            -81.507348,30.362116,0            -81.507458,30.362054,0            -81.50749,30.362012,0            -81.507492,30.361894,0            -81.507538,30.361727,0            -81.507635,30.361445,0            -81.507715,30.361352,0            -81.507873,30.361253,0            -81.508016,30.361176,0            -81.508134,30.361153,0            -81.508332,30.36114,0            -81.508547,30.361137,0            -81.508783,30.361179,0            -81.509375,30.36132,0            -81.509606,30.361355,0            -81.510255,30.361459,0            -81.510443,30.361491,0            -81.510593,30.361538,0            -81.510743,30.3616,0            -81.510797,30.361651,0            -81.510816,30.36172,0            -81.51081,30.361873,0            -81.510829,30.362776,0            -81.510853,30.363632,0            -81.51084,30.363738,0            -81.510818,30.36381,0            -81.510743,30.363887,0            -81.510666,30.363961,0            -81.510623,30.364026,0            -81.510542,30.364301,0            -81.510491,30.364396,0            -81.510378,30.364495,0            -81.510314,30.364588,0            -81.510236,30.364773,0            -81.510188,30.364886,0            -81.510188,30.364967,0            -81.510234,30.365102,0            -81.510277,30.365245,0            -81.510346,30.365518,0            -81.510411,30.365886,0            -81.510462,30.36637,0            -81.510518,30.366627,0            -81.510582,30.366877,0            -81.510615,30.367066,0            -81.510679,30.367184,0            -81.510733,30.367279,0            -81.510746,30.367332,0            -81.510722,30.367386,0            -81.510674,30.367409,0            -81.510588,30.367418,0            -81.51047,30.367407,0            -81.510333,30.367381,0            -81.51022,30.367376,0            -81.510054,30.367379,0            -81.509735,30.367402,0            -81.509324,30.367418,0            -81.508702,30.367437,0            -81.508504,30.367448,0            -81.508407,30.36749,0            -81.508319,30.367596,0            -81.508222,30.367656,0            -81.508123,30.367696,0            -81.507726,30.367733,0            -81.507576,30.367724,0            -81.507484,30.367689,0            -81.50742,30.367647,0            -81.50734,30.367645,0            -81.507256,30.367673,0            -81.507165,30.3677,0            -81.507036,30.367689,0            -81.506817,30.367666,0            -81.506723,30.367696,0            -81.506626,30.367703,0            -81.50658,30.36767,0            -81.506546,30.367622,0            -81.506497,30.367541,0            -81.506454,30.367502,0            -81.506401,30.367474,0            -81.506294,30.367464,0            -81.505773,30.367481,0            -81.504824,30.367499,0            -81.504582,30.367494,0            -81.504368,30.367471,0            -81.50421,30.367448,0            -81.504086,30.36746,0            -81.503901,30.367488,0            -81.503783,30.367499,0            -81.503721,30.367478,0            -81.503654,30.367437,0            -81.503603,30.367388,0            -81.503579,30.367351,0            -81.50356,30.367291,0            -81.50356,30.367228,0            -81.50359,30.36717,0            -81.503646,30.367092,0            -81.503694,30.367032,0            -81.503692,30.366981,0            -81.503646,30.366886,0            -81.503576,30.366728,0            -81.503555,30.366643,0            -81.503563,30.366594,0            -81.503582,30.366557,0            -81.503616,30.36652,0            -81.503571,30.366566,0            -81.503552,30.366629,0            -81.503568,30.366712,0            -81.503611,30.366821,0            -81.50366,30.366925,0            -81.503694,30.366992,0            -81.503689,30.367039,0            -81.503665,30.36708,0            -81.503576,30.367191,0            -81.503558,30.367242,0            -81.503563,30.367314,0            -81.503601,30.367388,0            -81.503676,30.367453,0            -81.503756,30.36749,0            -81.503812,30.367502,0            -81.503896,30.36749,0            -81.504086,30.367462,0            -81.504191,30.367451,0            -81.504306,30.367462,0            -81.504483,30.367485,0            -81.504684,30.367499,0            -81.504985,30.367499,0            -81.505652,30.367481,0            -81.506108,30.367471,0            -81.506323,30.367462,0            -81.506377,30.367471,0            -81.506425,30.367474,0            -81.506435,30.367452,0            -81.506465,30.367373,0            -81.506537,30.36727,0            -81.506558,30.367218,0            -81.50658,30.367141,0            -81.506607,30.367104,0            -81.506685,30.367067,0            -81.506767,30.367036,0            -81.506822,30.36699,0            -81.506855,30.36694,0            -81.506864,30.366895,0            -81.506872,30.366827,0            -81.506862,30.366782,0            -81.506822,30.366706,0            -81.506803,30.366655,0            -81.506803,30.366588,0            -81.50682,30.366529,0            -81.506851,30.36645,0            -81.50686,30.366372,0            -81.50686,30.366328,0            -81.506868,30.366289,0            -81.506875,30.366252,0            -81.506871,30.366222,0            -81.50686,30.366184,0            -81.506871,30.366124,0            -81.506886,30.366098,0            -81.50693,30.36607,0            -81.506985,30.366044,0            -81.507038,30.366034,0            -81.507199,30.366048,0            -81.507439,30.366071,0            -81.507662,30.366102,0          </coordinates></LineString></Placemark><Placemark><name>Start/Finish</name><styleUrl>#icon-1899-FFEA00-nodesc</styleUrl><Point><coordinates>            -81.507662,30.366102,0          </coordinates></Point></Placemark></Folder></Document></kml>