<?xml version="1.0" encoding="UTF-8"?><kml xmlns="http://www.opengis.net/kml/2.2"><Document><name>Mace Ranch parkrun</name><description/><Style id="icon-1899-FFEA00-nodesc-normal"><IconStyle><color>ff00eaff</color><scale>1</scale><Icon><href>https://www.gstatic.com/mapspro/images/stock/503-wht-blank_maps.png</href></Icon><hotSpot x="32" xunits="pixels" y="64" yunits="insetPixels"/></IconStyle><LabelStyle><scale>0</scale></LabelStyle><BalloonStyle><text><![CDATA[<h3>$[name]</h3>]]></text></BalloonStyle></Style><Style id="icon-1899-FFEA00-nodesc-highlight"><IconStyle><color>ff00eaff</color><scale>1</scale><Icon><href>https://www.gstatic.com/mapspro/images/stock/503-wht-blank_maps.png</href></Icon><hotSpot x="32" xunits="pixels" y="64" yunits="insetPixels"/></IconStyle><LabelStyle><scale>1</scale></LabelStyle><BalloonStyle><text><![CDATA[<h3>$[name]</h3>]]></text></BalloonStyle></Style><StyleMap id="icon-1899-FFEA00-nodesc"><Pair><key>normal</key><styleUrl>#icon-1899-FFEA00-nodesc-normal</styleUrl></Pair><Pair><key>highlight</key><styleUrl>#icon-1899-FFEA00-nodesc-highlight</styleUrl></Pair></StyleMap><Style id="line-0288D1-5263-nodesc-normal"><LineStyle><color>ffd18802</color><width>5.263</width></LineStyle><BalloonStyle><text><![CDATA[<h3>$[name]</h3>]]></text></BalloonStyle></Style><Style id="line-0288D1-5263-nodesc-highlight"><LineStyle><color>ffd18802</color><width>7.8945</width></LineStyle><BalloonStyle><text><![CDATA[<h3>$[name]</h3>]]></text></BalloonStyle></Style><StyleMap id="line-0288D1-5263-nodesc"><Pair><key>normal</key><styleUrl>#line-0288D1-5263-nodesc-normal</styleUrl></Pair><Pair><key>highlight</key><styleUrl>#line-0288D1-5263-nodesc-highlight</styleUrl></Pair></StyleMap><Folder><name>Untitled layer</name><Placemark><name>Course</name><styleUrl>#line-0288D1-5263-nodesc</styleUrl><LineString><tessellate>1</tessellate><coordinates>            -121.715519,38.57433,0            -121.7136864,38.5744336,0            -121.7134289,38.5743854,0            -121.713327,38.5743235,0            -121.7132143,38.5742113,0            -121.7131684,38.5733292,0            -121.713262,38.572489,0            -121.7133753,38.5690107,0            -121.713219,38.568538,0            -121.713294,38.564029,0            -121.712929,38.564012,0            -121.7128453,38.5640834,0            -121.7127937,38.5642639,0            -121.7126724,38.564394,0            -121.712476,38.564348,0            -121.712324,38.5631563,0            -121.7124679,38.5625353,0            -121.7123253,38.5621116,0            -121.712408,38.561864,0            -121.7124839,38.5614945,0            -121.7123502,38.5611126,0            -121.712419,38.56085,0            -121.7125159,38.5596519,0            -121.7126235,38.5593264,0            -121.7123986,38.558401,0            -121.7126133,38.5580935,0            -121.7125491,38.5569681,0            -121.712111,38.5568281,0            -121.711271,38.557111,0            -121.710793,38.557158,0          </coordinates></LineString></Placemark><Placemark><name>Start/Finish</name><styleUrl>#icon-1899-FFEA00-nodesc</styleUrl><Point><coordinates>            -121.710793,38.557158,0          </coordinates></Point></Placemark></Folder></Document></kml>