<?xml version="1.0" encoding="UTF-8"?><kml xmlns="http://www.opengis.net/kml/2.2"><Document><name>Merrymeeting parkrun</name><description/><Style id="icon-1899-FFEA00-nodesc-normal"><IconStyle><color>ff00eaff</color><scale>1</scale><Icon><href>https://www.gstatic.com/mapspro/images/stock/503-wht-blank_maps.png</href></Icon><hotSpot x="32" xunits="pixels" y="64" yunits="insetPixels"/></IconStyle><LabelStyle><scale>0</scale></LabelStyle><BalloonStyle><text><![CDATA[<h3>$[name]</h3>]]></text></BalloonStyle></Style><Style id="icon-1899-FFEA00-nodesc-highlight"><IconStyle><color>ff00eaff</color><scale>1</scale><Icon><href>https://www.gstatic.com/mapspro/images/stock/503-wht-blank_maps.png</href></Icon><hotSpot x="32" xunits="pixels" y="64" yunits="insetPixels"/></IconStyle><LabelStyle><scale>1</scale></LabelStyle><BalloonStyle><text><![CDATA[<h3>$[name]</h3>]]></text></BalloonStyle></Style><StyleMap id="icon-1899-FFEA00-nodesc"><Pair><key>normal</key><styleUrl>#icon-1899-FFEA00-nodesc-normal</styleUrl></Pair><Pair><key>highlight</key><styleUrl>#icon-1899-FFEA00-nodesc-highlight</styleUrl></Pair></StyleMap><Style id="line-0288D1-5263-nodesc-normal"><LineStyle><color>ffd18802</color><width>5.263</width></LineStyle><BalloonStyle><text><![CDATA[<h3>$[name]</h3>]]></text></BalloonStyle></Style><Style id="line-0288D1-5263-nodesc-highlight"><LineStyle><color>ffd18802</color><width>7.8945</width></LineStyle><BalloonStyle><text><![CDATA[<h3>$[name]</h3>]]></text></BalloonStyle></Style><StyleMap id="line-0288D1-5263-nodesc"><Pair><key>normal</key><styleUrl>#line-0288D1-5263-nodesc-normal</styleUrl></Pair><Pair><key>highlight</key><styleUrl>#line-0288D1-5263-nodesc-highlight</styleUrl></Pair></StyleMap><Folder><name>Untitled layer</name><Placemark><name>Course</name><styleUrl>#line-0288D1-5263-nodesc</styleUrl><LineString><tessellate>1</tessellate><coordinates>            -69.954871,43.921822,0            -69.954615,43.9217,0            -69.953682,43.921256,0            -69.952676,43.920848,0            -69.952205,43.920444,0            -69.951668,43.920179,0            -69.95115,43.919903,0            -69.949611,43.919261,0            -69.949008,43.918812,0            -69.947983,43.918422,0            -69.947703,43.918167,0            -69.9475,43.917893,0            -69.94725,43.917611,0            -69.946961,43.917371,0            -69.946782,43.917253,0            -69.946554,43.917176,0            -69.945738,43.917046,0            -69.945481,43.916896,0            -69.945207,43.916751,0            -69.944574,43.91631,0            -69.944504,43.916224,0            -69.944469,43.916179,0            -69.944451,43.916134,0            -69.944345,43.915937,0            -69.94432,43.9159,0            -69.944286,43.915864,0            -69.94289,43.915063,0            -69.942194,43.914667,0            -69.941841,43.914473,0            -69.941652,43.91437,0            -69.941461,43.914284,0            -69.940885,43.914109,0            -69.940757,43.914056,0            -69.940632,43.914001,0            -69.940508,43.913943,0            -69.940319,43.91384,0            -69.939722,43.91338,0            -69.939453,43.91322,0            -69.938835,43.913003,0            -69.938288,43.912779,0            -69.937916,43.912556,0            -69.937379,43.912241,0            -69.937159,43.91187,0            -69.936926,43.91174,0            -69.936676,43.911638,0            -69.935362,43.911194,0            -69.930014,43.909907,0            -69.929542,43.909845,0          </coordinates></LineString></Placemark><Placemark><name>Start/Finish</name><styleUrl>#icon-1899-FFEA00-nodesc</styleUrl><Point><coordinates>            -69.954872,43.921856,0          </coordinates></Point></Placemark></Folder></Document></kml>