<?xml version="1.0" encoding="UTF-8"?><kml xmlns="http://www.opengis.net/kml/2.2"><Document><name>Morrissey Park parkrun</name><description/><Style id="icon-1899-0F9D58-nodesc-normal"><IconStyle><color>ff589d0f</color><scale>1</scale><Icon><href>https://www.gstatic.com/mapspro/images/stock/503-wht-blank_maps.png</href></Icon><hotSpot x="32" xunits="pixels" y="64" yunits="insetPixels"/></IconStyle><LabelStyle><scale>0</scale></LabelStyle><BalloonStyle><text><![CDATA[<h3>$[name]</h3>]]></text></BalloonStyle></Style><Style id="icon-1899-0F9D58-nodesc-highlight"><IconStyle><color>ff589d0f</color><scale>1</scale><Icon><href>https://www.gstatic.com/mapspro/images/stock/503-wht-blank_maps.png</href></Icon><hotSpot x="32" xunits="pixels" y="64" yunits="insetPixels"/></IconStyle><LabelStyle><scale>1</scale></LabelStyle><BalloonStyle><text><![CDATA[<h3>$[name]</h3>]]></text></BalloonStyle></Style><StyleMap id="icon-1899-0F9D58-nodesc"><Pair><key>normal</key><styleUrl>#icon-1899-0F9D58-nodesc-normal</styleUrl></Pair><Pair><key>highlight</key><styleUrl>#icon-1899-0F9D58-nodesc-highlight</styleUrl></Pair></StyleMap><Style id="icon-1899-FF5252-nodesc-normal"><IconStyle><color>ff5252ff</color><scale>1</scale><Icon><href>https://www.gstatic.com/mapspro/images/stock/503-wht-blank_maps.png</href></Icon><hotSpot x="32" xunits="pixels" y="64" yunits="insetPixels"/></IconStyle><LabelStyle><scale>0</scale></LabelStyle><BalloonStyle><text><![CDATA[<h3>$[name]</h3>]]></text></BalloonStyle></Style><Style id="icon-1899-FF5252-nodesc-highlight"><IconStyle><color>ff5252ff</color><scale>1</scale><Icon><href>https://www.gstatic.com/mapspro/images/stock/503-wht-blank_maps.png</href></Icon><hotSpot x="32" xunits="pixels" y="64" yunits="insetPixels"/></IconStyle><LabelStyle><scale>1</scale></LabelStyle><BalloonStyle><text><![CDATA[<h3>$[name]</h3>]]></text></BalloonStyle></Style><StyleMap id="icon-1899-FF5252-nodesc"><Pair><key>normal</key><styleUrl>#icon-1899-FF5252-nodesc-normal</styleUrl></Pair><Pair><key>highlight</key><styleUrl>#icon-1899-FF5252-nodesc-highlight</styleUrl></Pair></StyleMap><Style id="line-0288D1-5026-nodesc-normal"><LineStyle><color>ffd18802</color><width>5.026</width></LineStyle><BalloonStyle><text><![CDATA[<h3>$[name]</h3>]]></text></BalloonStyle></Style><Style id="line-0288D1-5026-nodesc-highlight"><LineStyle><color>ffd18802</color><width>7.539</width></LineStyle><BalloonStyle><text><![CDATA[<h3>$[name]</h3>]]></text></BalloonStyle></Style><StyleMap id="line-0288D1-5026-nodesc"><Pair><key>normal</key><styleUrl>#line-0288D1-5026-nodesc-normal</styleUrl></Pair><Pair><key>highlight</key><styleUrl>#line-0288D1-5026-nodesc-highlight</styleUrl></Pair></StyleMap><Folder><name>Untitled layer</name><Placemark><name>Course</name><styleUrl>#line-0288D1-5026-nodesc</styleUrl><LineString><tessellate>1</tessellate><coordinates>            -88.263964,40.086669,0            -88.263991,40.086485,0            -88.263932,40.086324,0            -88.263986,40.085787,0            -88.264018,40.085627,0            -88.263921,40.085463,0            -88.263921,40.085385,0            -88.263969,40.085282,0            -88.264044,40.085212,0            -88.264264,40.085114,0            -88.26442,40.085089,0            -88.26471,40.085102,0            -88.264828,40.085085,0            -88.264908,40.084995,0            -88.264908,40.084872,0            -88.264876,40.084814,0            -88.264908,40.084712,0            -88.265064,40.084552,0            -88.265042,40.084256,0            -88.265107,40.084182,0            -88.264924,40.083899,0            -88.264951,40.083702,0            -88.266732,40.083718,0            -88.266458,40.084252,0            -88.266566,40.084638,0            -88.266603,40.08474,0            -88.266673,40.084814,0            -88.266619,40.085003,0            -88.266437,40.085093,0            -88.265992,40.085085,0            -88.265563,40.085225,0            -88.265225,40.085536,0            -88.265208,40.085643,0            -88.265321,40.085775,0            -88.265348,40.085996,0            -88.265445,40.086103,0            -88.265568,40.086193,0            -88.265643,40.086357,0            -88.265445,40.086427,0            -88.265284,40.086546,0            -88.264672,40.086756,0            -88.264318,40.086764,0            -88.2642,40.086801,0            -88.264044,40.086796,0            -88.263942,40.086698,0            -88.263986,40.086485,0            -88.263926,40.086316,0            -88.263986,40.085787,0            -88.264023,40.085631,0            -88.263916,40.085463,0            -88.263916,40.085385,0            -88.263959,40.085282,0            -88.264044,40.085208,0            -88.264264,40.085118,0            -88.264415,40.085081,0            -88.26471,40.085097,0            -88.264833,40.085089,0            -88.264994,40.084913,0            -88.26523,40.085052,0            -88.265176,40.085286,0            -88.265252,40.085348,0            -88.265273,40.085491,0            -88.265225,40.085541,0            -88.265198,40.085651,0            -88.265321,40.085779,0            -88.265343,40.086004,0            -88.265445,40.086107,0            -88.265563,40.086189,0            -88.265643,40.086357,0            -88.265445,40.086431,0            -88.265278,40.086546,0            -88.264672,40.086747,0            -88.264447,40.08676,0            -88.264345,40.08671,0            -88.264232,40.086657,0            -88.264141,40.086587,0            -88.264104,40.086501,0            -88.264104,40.086398,0            -88.264104,40.086333,0          </coordinates></LineString></Placemark><Placemark><name>Finish</name><styleUrl>#icon-1899-FF5252-nodesc</styleUrl><Point><coordinates>            -88.264104,40.086333,0          </coordinates></Point></Placemark><Placemark><name>Start</name><styleUrl>#icon-1899-0F9D58-nodesc</styleUrl><Point><coordinates>            -88.263964,40.086669,0          </coordinates></Point></Placemark></Folder></Document></kml>