<?xml version="1.0" encoding="UTF-8"?><kml xmlns="http://www.opengis.net/kml/2.2"><Document><name>Peace Valley parkrun</name><description/><Style id="icon-1899-FFEA00-nodesc-normal"><IconStyle><color>ff00eaff</color><scale>1</scale><Icon><href>https://www.gstatic.com/mapspro/images/stock/503-wht-blank_maps.png</href></Icon><hotSpot x="32" xunits="pixels" y="64" yunits="insetPixels"/></IconStyle><LabelStyle><scale>0</scale></LabelStyle><BalloonStyle><text><![CDATA[<h3>$[name]</h3>]]></text></BalloonStyle></Style><Style id="icon-1899-FFEA00-nodesc-highlight"><IconStyle><color>ff00eaff</color><scale>1</scale><Icon><href>https://www.gstatic.com/mapspro/images/stock/503-wht-blank_maps.png</href></Icon><hotSpot x="32" xunits="pixels" y="64" yunits="insetPixels"/></IconStyle><LabelStyle><scale>1</scale></LabelStyle><BalloonStyle><text><![CDATA[<h3>$[name]</h3>]]></text></BalloonStyle></Style><StyleMap id="icon-1899-FFEA00-nodesc"><Pair><key>normal</key><styleUrl>#icon-1899-FFEA00-nodesc-normal</styleUrl></Pair><Pair><key>highlight</key><styleUrl>#icon-1899-FFEA00-nodesc-highlight</styleUrl></Pair></StyleMap><Style id="line-0288D1-5263-nodesc-normal"><LineStyle><color>ffd18802</color><width>5.263</width></LineStyle><BalloonStyle><text><![CDATA[<h3>$[name]</h3>]]></text></BalloonStyle></Style><Style id="line-0288D1-5263-nodesc-highlight"><LineStyle><color>ffd18802</color><width>7.8945</width></LineStyle><BalloonStyle><text><![CDATA[<h3>$[name]</h3>]]></text></BalloonStyle></Style><StyleMap id="line-0288D1-5263-nodesc"><Pair><key>normal</key><styleUrl>#line-0288D1-5263-nodesc-normal</styleUrl></Pair><Pair><key>highlight</key><styleUrl>#line-0288D1-5263-nodesc-highlight</styleUrl></Pair></StyleMap><Folder><name>Untitled layer</name><Placemark><name>Course</name><styleUrl>#line-0288D1-5263-nodesc</styleUrl><LineString><tessellate>1</tessellate><coordinates>            -75.192677,40.321078,0            -75.192076,40.321356,0            -75.191368,40.32134,0            -75.191046,40.321831,0            -75.190359,40.322027,0            -75.189651,40.322027,0            -75.189029,40.322714,0            -75.188557,40.322747,0            -75.187956,40.323434,0            -75.187913,40.323679,0            -75.187505,40.324056,0            -75.187055,40.324301,0            -75.186819,40.325037,0            -75.186454,40.32525,0            -75.18639,40.325544,0            -75.185832,40.325642,0            -75.185553,40.326182,0            -75.184952,40.326493,0            -75.184437,40.326542,0            -75.184244,40.326788,0            -75.184115,40.327147,0            -75.183278,40.327834,0            -75.182849,40.328145,0            -75.182334,40.3288,0            -75.18139,40.329143,0            -75.180896,40.329454,0            -75.180618,40.329454,0            -75.179223,40.330779,0            -75.178944,40.330746,0            -75.177592,40.331286,0            -75.176884,40.331711,0            -75.176583,40.332578,0            -75.176347,40.332774,0            -75.176047,40.332873,0            -75.175725,40.333151,0            -75.175189,40.3332,0            -75.174309,40.333576,0            -75.174159,40.33387,0            -75.174309,40.3341,0            -75.174244,40.334459,0            -75.173923,40.334786,0            -75.173279,40.33531,0          </coordinates></LineString></Placemark><Placemark><name>Start/Finish</name><styleUrl>#icon-1899-FFEA00-nodesc</styleUrl><Point><coordinates>            -75.192764,40.320956,0          </coordinates></Point></Placemark></Folder></Document></kml>