<?xml version="1.0" encoding="UTF-8"?><kml xmlns="http://www.opengis.net/kml/2.2"><Document><name>Umstead Park parkrun</name><description/><Style id="icon-1899-FFEA00-nodesc-normal"><IconStyle><color>ff00eaff</color><scale>1</scale><Icon><href>https://www.gstatic.com/mapspro/images/stock/503-wht-blank_maps.png</href></Icon><hotSpot x="32" xunits="pixels" y="64" yunits="insetPixels"/></IconStyle><LabelStyle><scale>0</scale></LabelStyle><BalloonStyle><text><![CDATA[<h3>$[name]</h3>]]></text></BalloonStyle></Style><Style id="icon-1899-FFEA00-nodesc-highlight"><IconStyle><color>ff00eaff</color><scale>1</scale><Icon><href>https://www.gstatic.com/mapspro/images/stock/503-wht-blank_maps.png</href></Icon><hotSpot x="32" xunits="pixels" y="64" yunits="insetPixels"/></IconStyle><LabelStyle><scale>1</scale></LabelStyle><BalloonStyle><text><![CDATA[<h3>$[name]</h3>]]></text></BalloonStyle></Style><StyleMap id="icon-1899-FFEA00-nodesc"><Pair><key>normal</key><styleUrl>#icon-1899-FFEA00-nodesc-normal</styleUrl></Pair><Pair><key>highlight</key><styleUrl>#icon-1899-FFEA00-nodesc-highlight</styleUrl></Pair></StyleMap><Style id="line-0288D1-6006-nodesc-normal"><LineStyle><color>ffd18802</color><width>6.006</width></LineStyle><BalloonStyle><text><![CDATA[<h3>$[name]</h3>]]></text></BalloonStyle></Style><Style id="line-0288D1-6006-nodesc-highlight"><LineStyle><color>ffd18802</color><width>9.009</width></LineStyle><BalloonStyle><text><![CDATA[<h3>$[name]</h3>]]></text></BalloonStyle></Style><StyleMap id="line-0288D1-6006-nodesc"><Pair><key>normal</key><styleUrl>#line-0288D1-6006-nodesc-normal</styleUrl></Pair><Pair><key>highlight</key><styleUrl>#line-0288D1-6006-nodesc-highlight</styleUrl></Pair></StyleMap><Folder><name>Untitled layer</name><Placemark><name>Course</name><styleUrl>#line-0288D1-6006-nodesc</styleUrl><LineString><tessellate>1</tessellate><coordinates>            -79.06322,35.92142,0            -79.06322,35.92141,0            -79.06321,35.92137,0            -79.06318,35.92133,0            -79.06312,35.92126,0            -79.06308,35.92123,0            -79.06305,35.92122,0            -79.06293,35.92123,0            -79.06284,35.92124,0            -79.06273,35.92117,0            -79.06266,35.92114,0            -79.06258,35.92109,0            -79.06249,35.92108,0            -79.06218,35.92126,0            -79.06195,35.9214,0            -79.06194,35.92141,0            -79.06163,35.92161,0            -79.06154,35.92167,0            -79.06149,35.92172,0            -79.06142,35.92183,0            -79.06139,35.92189,0            -79.06136,35.92193,0            -79.06132,35.92198,0            -79.06128,35.92199,0            -79.06125,35.92201,0            -79.0612,35.92204,0            -79.0611,35.92214,0            -79.06107,35.92217,0            -79.06105,35.92217,0            -79.06104,35.92219,0            -79.06094,35.92222,0            -79.06074,35.92225,0            -79.06063,35.92227,0            -79.0605,35.9223,0            -79.06035,35.92234,0            -79.06021,35.92238,0            -79.0601,35.92242,0            -79.05999,35.92245,0            -79.05992,35.92247,0            -79.05986,35.9225,0            -79.05973,35.9226,0            -79.05964,35.92266,0            -79.05952,35.92273,0            -79.05946,35.92276,0            -79.0594,35.92278,0            -79.05931,35.92281,0            -79.05892,35.92299,0            -79.05874,35.92305,0            -79.05866,35.92309,0            -79.05858,35.92313,0            -79.05848,35.92323,0            -79.05828,35.92352,0            -79.05813,35.92365,0            -79.05793,35.92387,0            -79.05786,35.92393,0            -79.05766,35.92409,0            -79.05737,35.92424,0            -79.05722,35.92433,0            -79.05703,35.9245,0            -79.0569,35.92461,0            -79.05657,35.92486,0            -79.05637,35.92499,0            -79.05601,35.92522,0            -79.05589,35.92527,0            -79.05576,35.9253,0            -79.0557,35.92531,0            -79.05563,35.92532,0            -79.05554,35.92533,0          </coordinates></LineString></Placemark><Placemark><name>Start/Finish</name><styleUrl>#icon-1899-FFEA00-nodesc</styleUrl><Point><coordinates>            -79.06322,35.92142,0          </coordinates></Point></Placemark></Folder></Document></kml>