<?xml version="1.0" encoding="UTF-8"?><kml xmlns="http://www.opengis.net/kml/2.2"><Document><name>Veterans Park parkrun</name><description/><Style id="icon-1899-FFEA00-nodesc-normal"><IconStyle><color>ff00eaff</color><scale>1</scale><Icon><href>https://www.gstatic.com/mapspro/images/stock/503-wht-blank_maps.png</href></Icon><hotSpot x="32" xunits="pixels" y="64" yunits="insetPixels"/></IconStyle><LabelStyle><scale>0</scale></LabelStyle><BalloonStyle><text><![CDATA[<h3>$[name]</h3>]]></text></BalloonStyle></Style><Style id="icon-1899-FFEA00-nodesc-highlight"><IconStyle><color>ff00eaff</color><scale>1</scale><Icon><href>https://www.gstatic.com/mapspro/images/stock/503-wht-blank_maps.png</href></Icon><hotSpot x="32" xunits="pixels" y="64" yunits="insetPixels"/></IconStyle><LabelStyle><scale>1</scale></LabelStyle><BalloonStyle><text><![CDATA[<h3>$[name]</h3>]]></text></BalloonStyle></Style><StyleMap id="icon-1899-FFEA00-nodesc"><Pair><key>normal</key><styleUrl>#icon-1899-FFEA00-nodesc-normal</styleUrl></Pair><Pair><key>highlight</key><styleUrl>#icon-1899-FFEA00-nodesc-highlight</styleUrl></Pair></StyleMap><Style id="line-0288D1-5000-nodesc-normal"><LineStyle><color>ffd18802</color><width>5</width></LineStyle><BalloonStyle><text><![CDATA[<h3>$[name]</h3>]]></text></BalloonStyle></Style><Style id="line-0288D1-5000-nodesc-highlight"><LineStyle><color>ffd18802</color><width>7.5</width></LineStyle><BalloonStyle><text><![CDATA[<h3>$[name]</h3>]]></text></BalloonStyle></Style><StyleMap id="line-0288D1-5000-nodesc"><Pair><key>normal</key><styleUrl>#line-0288D1-5000-nodesc-normal</styleUrl></Pair><Pair><key>highlight</key><styleUrl>#line-0288D1-5000-nodesc-highlight</styleUrl></Pair></StyleMap><Folder><name>Veterans Park parkrun</name><Placemark><name>Course</name><styleUrl>#line-0288D1-5000-nodesc</styleUrl><LineString><tessellate>1</tessellate><coordinates>            -74.66812,40.21494,0            -74.66818,40.2149,0            -74.66832,40.2148,0            -74.66838,40.21473,0            -74.66841,40.21466,0            -74.66842,40.21461,0            -74.6684,40.21453,0            -74.66833,40.21442,0            -74.66827,40.21429,0            -74.66826,40.21421,0            -74.66828,40.21415,0            -74.6683,40.21412,0            -74.66839,40.21404,0            -74.66848,40.21393,0            -74.6685,40.21383,0            -74.6685,40.21372,0            -74.6685,40.21364,0            -74.66854,40.21357,0            -74.66865,40.21347,0            -74.66897,40.21326,0            -74.66915,40.21313,0            -74.66929,40.21303,0            -74.66931,40.21297,0            -74.66932,40.21288,0            -74.6693,40.2128,0            -74.66922,40.21273,0            -74.66903,40.2126,0            -74.66869,40.21243,0            -74.66844,40.21235,0            -74.66842,40.21234,0            -74.66814,40.21228,0            -74.66784,40.21228,0            -74.66744,40.21228,0            -74.66726,40.21228,0            -74.66712,40.21221,0            -74.66709,40.21217,0            -74.66697,40.21205,0            -74.66662,40.21163,0            -74.66658,40.21157,0            -74.66649,40.2114,0            -74.6664,40.21108,0            -74.66633,40.21064,0            -74.66662,40.21065,0            -74.66706,40.21065,0            -74.6674,40.2106,0            -74.66799,40.21049,0            -74.66806,40.21046,0            -74.66813,40.21043,0            -74.66824,40.21037,0            -74.6683,40.21031,0            -74.66835,40.21024,0            -74.66841,40.21012,0            -74.66842,40.21003,0            -74.66841,40.20992,0            -74.6684,40.20976,0            -74.66841,40.20971,0            -74.66846,40.20965,0            -74.66856,40.20957,0            -74.6688,40.20942,0            -74.66889,40.20938,0            -74.66898,40.20936,0            -74.66899,40.20935,0            -74.66922,40.20933,0            -74.66992,40.20926,0            -74.67015,40.20923,0            -74.67092,40.20913,0            -74.67131,40.20909,0            -74.6715,40.20906,0            -74.67154,40.20924,0            -74.67157,40.20931,0            -74.67161,40.20939,0            -74.67165,40.20942,0            -74.67193,40.20951,0            -74.67215,40.20957,0            -74.67224,40.2096,0            -74.67237,40.20964,0            -74.67258,40.20972,0            -74.67279,40.2098,0            -74.67305,40.20982,0            -74.67326,40.20982,0            -74.67327,40.20981,0            -74.6734,40.20981,0            -74.67348,40.20985,0            -74.67352,40.20987,0            -74.67375,40.20997,0            -74.6739,40.21001,0            -74.67412,40.21006,0            -74.67422,40.20999,0            -74.67426,40.20994,0            -74.67428,40.20991,0            -74.6744,40.20966,0            -74.6745,40.2095,0            -74.67451,40.20948,0            -74.67458,40.20939,0            -74.6746,40.20928,0            -74.67455,40.20913,0            -74.67465,40.20884,0            -74.67472,40.2088,0            -74.67497,40.20863,0            -74.67509,40.20857,0            -74.67527,40.20854,0            -74.67553,40.20849,0            -74.67565,40.20847,0            -74.67589,40.20845,0            -74.67672,40.20839,0            -74.67682,40.20838,0            -74.67688,40.20837,0            -74.67694,40.20834,0            -74.67696,40.20827,0            -74.67696,40.20826,0            -74.67699,40.20805,0            -74.677,40.20791,0            -74.67701,40.20779,0            -74.67702,40.20772,0            -74.67721,40.20755,0            -74.67732,40.20745,0            -74.67757,40.2072,0            -74.67782,40.20688,0            -74.67803,40.20661,0            -74.67806,40.20656,0            -74.6779,40.20647,0            -74.67762,40.20632,0            -74.67753,40.20628,0            -74.67721,40.20618,0            -74.67698,40.20607,0            -74.67674,40.20596,0            -74.67666,40.20594,0            -74.67658,40.20594,0            -74.67652,40.2061,0            -74.67642,40.20623,0            -74.67614,40.20656,0            -74.67609,40.20665,0            -74.67609,40.20669,0            -74.6761,40.20674,0            -74.67614,40.2068,0            -74.67619,40.20685,0            -74.67627,40.20689,0            -74.67684,40.20718,0            -74.67732,40.20745,0            -74.67721,40.20755,0            -74.67702,40.20772,0            -74.67701,40.20779,0            -74.677,40.20791,0            -74.67699,40.20805,0            -74.67696,40.20826,0            -74.67696,40.20827,0            -74.67694,40.20834,0            -74.67688,40.20837,0            -74.67682,40.20838,0            -74.67672,40.20839,0            -74.67589,40.20845,0            -74.67565,40.20847,0            -74.67553,40.20849,0            -74.67527,40.20854,0            -74.67509,40.20857,0            -74.67462,40.20858,0            -74.67445,40.20859,0            -74.67401,40.20862,0            -74.67375,40.20865,0            -74.67352,40.20868,0            -74.67328,40.20871,0            -74.67305,40.20874,0            -74.67251,40.20881,0            -74.67233,40.20882,0            -74.67173,40.20901,0            -74.67151,40.20906,0            -74.669522,40.207164,0            -74.668288,40.207893,0            -74.667773,40.209245,0            -74.671121,40.208762,0            -74.667773,40.209245,0            -74.668288,40.207893,0            -74.669522,40.207164,0            -74.67141,40.20904,0            -74.67015,40.20923,0            -74.66992,40.20926,0            -74.66922,40.20933,0            -74.66899,40.20935,0            -74.66898,40.20936,0            -74.66889,40.20938,0            -74.6688,40.20942,0            -74.66856,40.20957,0            -74.66846,40.20965,0            -74.66841,40.20971,0            -74.6684,40.20976,0            -74.66841,40.20992,0            -74.66842,40.21003,0            -74.66841,40.21012,0            -74.66835,40.21024,0            -74.6683,40.21031,0            -74.66824,40.21037,0            -74.66813,40.21043,0            -74.66806,40.21046,0            -74.66799,40.21049,0            -74.6674,40.2106,0            -74.66706,40.21065,0            -74.66662,40.21065,0            -74.66633,40.21064,0            -74.6664,40.21108,0            -74.66649,40.2114,0            -74.66658,40.21157,0            -74.66662,40.21163,0            -74.66697,40.21205,0            -74.66709,40.21217,0            -74.66712,40.21221,0            -74.66726,40.21228,0            -74.66744,40.21228,0            -74.66784,40.21228,0            -74.66814,40.21228,0            -74.66842,40.21234,0            -74.66844,40.21235,0            -74.66869,40.21243,0            -74.66903,40.2126,0            -74.66922,40.21273,0            -74.6693,40.2128,0            -74.66932,40.21288,0            -74.66931,40.21297,0            -74.66929,40.21303,0            -74.66915,40.21313,0            -74.66897,40.21326,0            -74.66865,40.21347,0            -74.66854,40.21357,0            -74.6685,40.21364,0            -74.6685,40.21372,0            -74.6685,40.21383,0            -74.66848,40.21393,0            -74.66839,40.21404,0            -74.6683,40.21412,0            -74.66828,40.21415,0            -74.66826,40.21421,0            -74.66827,40.21429,0            -74.66833,40.21442,0            -74.6684,40.21453,0            -74.66842,40.21461,0            -74.66841,40.21466,0            -74.66838,40.21473,0            -74.66832,40.2148,0            -74.66822,40.21487,0          </coordinates></LineString></Placemark><Placemark><name>Start/Finish</name><styleUrl>#icon-1899-FFEA00-nodesc</styleUrl><Point><coordinates>            -74.668231,40.214874,0          </coordinates></Point></Placemark></Folder></Document></kml>