<?xml version="1.0" encoding="UTF-8"?><kml xmlns="http://www.opengis.net/kml/2.2"><Document><name>Aldenham parkrun</name><description/><Style id="icon-1899-FFEA00-nodesc-normal"><IconStyle><color>ff00eaff</color><scale>1</scale><Icon><href>https://www.gstatic.com/mapspro/images/stock/503-wht-blank_maps.png</href></Icon><hotSpot x="32" xunits="pixels" y="64" yunits="insetPixels"/></IconStyle><LabelStyle><scale>0</scale></LabelStyle><BalloonStyle><text><![CDATA[<h3>$[name]</h3>]]></text></BalloonStyle></Style><Style id="icon-1899-FFEA00-nodesc-highlight"><IconStyle><color>ff00eaff</color><scale>1</scale><Icon><href>https://www.gstatic.com/mapspro/images/stock/503-wht-blank_maps.png</href></Icon><hotSpot x="32" xunits="pixels" y="64" yunits="insetPixels"/></IconStyle><LabelStyle><scale>1</scale></LabelStyle><BalloonStyle><text><![CDATA[<h3>$[name]</h3>]]></text></BalloonStyle></Style><StyleMap id="icon-1899-FFEA00-nodesc"><Pair><key>normal</key><styleUrl>#icon-1899-FFEA00-nodesc-normal</styleUrl></Pair><Pair><key>highlight</key><styleUrl>#icon-1899-FFEA00-nodesc-highlight</styleUrl></Pair></StyleMap><Style id="line-0288D1-5000-normal"><LineStyle><color>ffd18802</color><width>5</width></LineStyle></Style><Style id="line-0288D1-5000-highlight"><LineStyle><color>ffd18802</color><width>7.5</width></LineStyle></Style><StyleMap id="line-0288D1-5000"><Pair><key>normal</key><styleUrl>#line-0288D1-5000-normal</styleUrl></Pair><Pair><key>highlight</key><styleUrl>#line-0288D1-5000-highlight</styleUrl></Pair></StyleMap><Folder><name>Untitled layer</name><Placemark><name>Start/Finish</name><styleUrl>#icon-1899-FFEA00-nodesc</styleUrl><Point><coordinates>            -0.316466,51.648148,103.5          </coordinates></Point></Placemark><Placemark><name>Run</name><description><![CDATA[Statistics computed from imported data<br><br>Saturday, February 29, 2020 9:02 AM GMT<br>Distance: 3.1 miles<br>Duration: 24 minutes and 10 seconds<br>Average Speed: 7.6 mph<br>Minimum Elevation: 318 feet<br>Maximum Elevation: 341 feet<br>Total climb: 46 feet<br>Total descent: 42 feet]]></description><styleUrl>#line-0288D1-5000</styleUrl><LineString><tessellate>1</tessellate><coordinates>            -0.316466,51.648148,103.5            -0.316455,51.648155,103.4            -0.316439,51.648182,103.4            -0.316418,51.648201,103.4            -0.316392,51.64822,103.3            -0.316365,51.648247,103.2            -0.316333,51.648273,103.2            -0.316296,51.648308,103.1            -0.316215,51.648365,103            -0.316173,51.648396,102.9            -0.316127,51.64843,102.9            -0.316083,51.648464,102.9            -0.316041,51.648499,102.8            -0.315959,51.648567,102.8            -0.315917,51.648598,102.8            -0.315877,51.648628,102.8            -0.315836,51.648659,102.8            -0.315795,51.648685,102.7            -0.315752,51.648716,102.7            -0.315711,51.648746,102.7            -0.315672,51.648777,102.7            -0.315633,51.648804,102.6            -0.315593,51.648834,102.6            -0.315551,51.648861,102.6            -0.315511,51.648888,102.5            -0.315467,51.648914,102.5            -0.315422,51.648945,102.5            -0.315335,51.648998,102.4            -0.315295,51.649025,102.4            -0.315257,51.649048,102.3            -0.315214,51.649078,102.3            -0.315175,51.649105,102.3            -0.315141,51.649132,102.2            -0.315067,51.649181,102.2            -0.315035,51.649208,102.1            -0.315006,51.649235,102            -0.314976,51.649261,102            -0.314945,51.649292,101.9            -0.31492,51.649319,101.9            -0.314895,51.649345,101.9            -0.314844,51.649395,101.8            -0.314814,51.649418,101.8            -0.314777,51.649433,101.7            -0.31473,51.649441,101.7            -0.314681,51.649433,101.6            -0.314634,51.649426,101.6            -0.31458,51.64941,101.5            -0.314534,51.649395,101.4            -0.314487,51.649384,101.4            -0.314436,51.649372,101.3            -0.314384,51.649364,101.3            -0.314333,51.649361,101.2            -0.314283,51.649353,101.1            -0.314242,51.649345,101.1            -0.3142,51.649334,101            -0.314159,51.649319,101            -0.314116,51.649303,100.9            -0.314022,51.649273,100.8            -0.313972,51.649261,100.7            -0.313869,51.649231,100.6            -0.313821,51.64922,100.6            -0.313773,51.649204,100.5            -0.313725,51.649193,100.5            -0.313678,51.649178,100.4            -0.313578,51.649155,100.3            -0.313527,51.649143,100.2            -0.313476,51.649128,100.1            -0.313423,51.649117,100            -0.313375,51.649101,99.9            -0.313324,51.64909,99.8            -0.31327,51.649075,99.6            -0.313218,51.649059,99.5            -0.313166,51.649048,99.4            -0.313113,51.649036,99.2            -0.31306,51.649025,99.1            -0.313009,51.649014,99            -0.312959,51.649002,98.9            -0.312911,51.648991,98.8            -0.312864,51.648975,98.7            -0.312817,51.648968,98.6            -0.312772,51.648952,98.5            -0.312724,51.648941,98.4            -0.312624,51.648918,98.2            -0.312576,51.648907,98.1            -0.312527,51.648891,98            -0.312476,51.64888,97.9            -0.312425,51.648865,97.8            -0.312376,51.648853,97.7            -0.312327,51.648842,97.6            -0.312226,51.648823,97.4            -0.312177,51.648811,97.3            -0.312129,51.6488,97.3            -0.312081,51.648792,97.2            -0.312032,51.648781,97.1            -0.311985,51.648769,97            -0.311937,51.648758,97            -0.311888,51.648746,96.9            -0.31184,51.648735,96.9            -0.311788,51.64872,96.8            -0.311738,51.648712,96.8            -0.311687,51.648705,96.7            -0.311637,51.648693,96.7            -0.311589,51.648685,96.7            -0.311542,51.64867,96.7            -0.311498,51.648659,96.8            -0.311453,51.648647,96.8            -0.311407,51.648636,96.8            -0.311361,51.648624,96.8            -0.311315,51.648613,96.9            -0.311269,51.648605,96.9            -0.311225,51.648594,96.9            -0.31118,51.648582,96.9            -0.311086,51.64856,97            -0.311039,51.648548,97            -0.310998,51.648533,97.1            -0.310958,51.648518,97.2            -0.310918,51.648502,97.2            -0.310875,51.648483,97.3            -0.310832,51.648468,97.4            -0.310786,51.648449,97.5            -0.310741,51.648438,97.6            -0.310698,51.648422,97.7            -0.31065,51.648403,97.9            -0.310606,51.648392,98            -0.310561,51.648376,98.1            -0.310515,51.648361,98.2            -0.310473,51.648346,98.4            -0.310429,51.648331,98.5            -0.310386,51.648315,98.5            -0.310346,51.6483,98.6            -0.310305,51.648285,98.6            -0.310262,51.648273,98.6            -0.31022,51.648266,98.7            -0.310176,51.648251,98.7            -0.310131,51.648239,98.7            -0.310086,51.648224,98.8            -0.310039,51.648209,98.8            -0.309996,51.648197,98.8            -0.309952,51.648182,98.9            -0.309909,51.648163,98.9            -0.309827,51.648132,98.9            -0.309785,51.648117,98.9            -0.309744,51.648102,98.9            -0.3097,51.64809,99            -0.309655,51.648075,99            -0.309609,51.64806,99            -0.309567,51.648045,99            -0.309481,51.648014,99            -0.309437,51.648003,99            -0.309393,51.647991,99            -0.309347,51.647976,99            -0.309306,51.647968,99            -0.309267,51.647961,99            -0.309228,51.647953,99            -0.309192,51.647945,99.1            -0.309155,51.647934,99.1            -0.309117,51.647919,99.1            -0.309085,51.647907,99.1            -0.309051,51.647892,99.1            -0.30902,51.647877,99.1            -0.308988,51.647858,99            -0.308958,51.647839,99            -0.308936,51.647823,99            -0.308914,51.647804,98.9            -0.308884,51.647785,98.9            -0.308857,51.64777,98.9            -0.308827,51.647751,98.8            -0.308799,51.647736,98.8            -0.308746,51.647697,98.7            -0.308672,51.647655,98.6            -0.308596,51.64761,98.4            -0.308556,51.647587,98.4            -0.30852,51.647564,98.3            -0.308493,51.647537,98.2            -0.30847,51.647514,98.1            -0.308448,51.647491,98.1            -0.308431,51.647465,98.2            -0.308405,51.647434,98.4            -0.308376,51.647404,98.6            -0.308347,51.647377,98.7            -0.308304,51.64732,99.2            -0.308285,51.647297,99.4            -0.308267,51.647274,99.6            -0.308248,51.647251,99.8            -0.308227,51.647224,100            -0.308207,51.647198,100.2            -0.308187,51.647171,100.4            -0.30816,51.647141,100.6            -0.308136,51.647114,100.8            -0.308109,51.647087,101            -0.308087,51.64706,101.2            -0.308079,51.64703,101.4            -0.308078,51.646996,101.6            -0.308079,51.646961,101.8            -0.308112,51.6469,102            -0.308136,51.646877,102.1            -0.30816,51.646854,102.2            -0.308193,51.646832,102.3            -0.308223,51.646809,102.3            -0.308251,51.646786,102.4            -0.308284,51.646767,102.5            -0.308312,51.646748,102.6            -0.308342,51.646732,102.6            -0.308371,51.646709,102.6            -0.308403,51.64669,102.6            -0.308431,51.646667,102.7            -0.308455,51.646652,102.6            -0.308476,51.646629,102.5            -0.308493,51.646606,102.4            -0.308502,51.646576,102.3            -0.308516,51.646545,102.2            -0.308524,51.646515,102.2            -0.308533,51.646488,102.1            -0.308538,51.646461,102.1            -0.308543,51.646435,102            -0.308547,51.646408,102            -0.308557,51.646374,101.9            -0.308566,51.646343,101.9            -0.308577,51.646317,101.8            -0.308592,51.646294,101.8            -0.308616,51.646263,101.7            -0.308627,51.646236,101.6            -0.30865,51.646206,101.5            -0.30868,51.646141,101.4            -0.308699,51.646107,101.3            -0.30872,51.646042,101.2            -0.308728,51.646011,101.2            -0.30873,51.645973,101.1            -0.308726,51.645939,101.1            -0.308727,51.645901,101.1            -0.308722,51.64587,101.1            -0.308717,51.645832,101.1            -0.308713,51.645798,101            -0.308712,51.645763,100.8            -0.308709,51.645729,100.7            -0.308705,51.645695,100.6            -0.308704,51.645668,100.5            -0.308705,51.645634,100.4            -0.30871,51.645603,100.2            -0.308707,51.645573,100.1            -0.308704,51.645542,100            -0.308698,51.645508,99.9            -0.30869,51.645473,99.8            -0.308684,51.645443,99.7            -0.308677,51.645416,99.6            -0.308669,51.645386,99.5            -0.30866,51.645363,99.4            -0.30865,51.64534,99.3            -0.308633,51.645313,99.2            -0.308614,51.645287,99.1            -0.308595,51.64526,99            -0.308553,51.645203,98.8            -0.308533,51.645176,98.7            -0.308511,51.645149,98.6            -0.308487,51.645126,98.5            -0.308471,51.645103,98.5            -0.308454,51.645081,98.4            -0.30843,51.645054,98.2            -0.308387,51.645004,98            -0.308369,51.644981,98            -0.308351,51.644955,98            -0.308329,51.644924,98            -0.308302,51.644894,98.1            -0.308287,51.644859,98.2            -0.308269,51.644825,98.2            -0.308252,51.644794,98.3            -0.308219,51.644737,98.4            -0.308205,51.644707,98.5            -0.308187,51.644676,98.5            -0.308154,51.644615,98.7            -0.308143,51.644585,98.7            -0.308124,51.64455,98.8            -0.308108,51.644516,98.8            -0.308097,51.644455,98.9            -0.308092,51.644424,98.9            -0.308091,51.64439,98.9            -0.308096,51.64436,98.9            -0.308094,51.644325,98.9            -0.308091,51.644257,98.9            -0.308107,51.644196,98.8            -0.308116,51.644165,98.8            -0.308149,51.644104,99            -0.308167,51.644077,99.1            -0.308198,51.644051,99.1            -0.308217,51.644024,99.2            -0.308296,51.643978,99.2            -0.308327,51.643959,99.3            -0.308355,51.643944,99.3            -0.308387,51.643929,99.4            -0.308466,51.643887,99.5            -0.3085,51.643864,99.6            -0.308532,51.643845,99.7            -0.308563,51.643818,99.8            -0.308621,51.643776,99.9            -0.308647,51.643749,99.9            -0.308661,51.643719,100.1            -0.308707,51.643661,100.2            -0.308729,51.643635,100.3            -0.308753,51.643604,100.4            -0.30878,51.643574,100.4            -0.308809,51.643551,100.4            -0.308878,51.643517,100.4            -0.308918,51.643509,100.3            -0.308962,51.643501,100.2            -0.309014,51.643486,100.1            -0.309064,51.643467,100            -0.309104,51.643452,99.9            -0.30915,51.643436,99.8            -0.309212,51.64341,99.7            -0.309243,51.643394,99.7            -0.309272,51.643379,99.7            -0.309306,51.643364,99.6            -0.309381,51.643333,99.5            -0.309421,51.643318,99.4            -0.309461,51.643311,99.4            -0.30955,51.643288,99.2            -0.309587,51.64328,99.2            -0.309626,51.643272,99.1            -0.309677,51.643261,99.1            -0.309716,51.64325,99            -0.309809,51.64323,98.9            -0.309861,51.643219,98.8            -0.309906,51.643208,98.8            -0.309952,51.643196,98.8            -0.310034,51.643173,98.8            -0.31008,51.643166,98.8            -0.310169,51.643154,98.8            -0.310258,51.643139,98.9            -0.310303,51.643139,98.9            -0.310349,51.643131,98.9            -0.31039,51.643124,98.9            -0.31044,51.643112,98.9            -0.310488,51.643101,99            -0.310546,51.643085,99            -0.310592,51.643066,99.1            -0.310692,51.643017,99.2            -0.31074,51.642994,99.3            -0.310786,51.642975,99.3            -0.310831,51.642956,99.4            -0.31094,51.642921,99.5            -0.310989,51.64291,99.5            -0.311038,51.642899,99.6            -0.311142,51.642883,99.6            -0.311193,51.642876,99.7            -0.311244,51.642868,99.7            -0.311295,51.642868,99.7            -0.311346,51.642868,99.7            -0.311398,51.642868,99.7            -0.311446,51.642872,99.7            -0.311503,51.642868,99.7            -0.311552,51.642868,99.7            -0.311653,51.642864,99.7            -0.311708,51.64286,99.8            -0.311757,51.64286,100            -0.311851,51.642857,100.2            -0.311892,51.642853,100.3            -0.311931,51.642845,100.5            -0.311972,51.642841,100.6            -0.312017,51.642838,100.7            -0.312065,51.642834,100.8            -0.31217,51.642834,101.1            -0.31223,51.642834,101.3            -0.312295,51.64283,101.5            -0.312421,51.642834,101.8            -0.312473,51.642834,101.9            -0.312572,51.642834,102.2            -0.312615,51.642838,102.2            -0.31266,51.642838,102.3            -0.312704,51.642841,102.4            -0.312746,51.642838,102.5            -0.31279,51.642834,102.6            -0.312834,51.642834,102.7            -0.312938,51.642853,103            -0.312985,51.642868,103.1            -0.313032,51.642879,103.2            -0.313105,51.642914,103.4            -0.313139,51.642933,103.6            -0.313213,51.642971,103.8            -0.313245,51.64299,103.9            -0.313275,51.643009,104.1            -0.313332,51.643051,104.3            -0.313368,51.643078,104.4            -0.313394,51.643101,104.4            -0.31343,51.643139,104.5            -0.313439,51.643166,104.5            -0.31344,51.643192,104.6            -0.313435,51.643219,104.6            -0.313433,51.643269,104.7            -0.313431,51.643299,104.8            -0.313442,51.643326,104.9            -0.313457,51.643383,104.5            -0.313456,51.643414,104.2            -0.313465,51.64344,104            -0.313469,51.643497,103.6            -0.313471,51.643524,103.4            -0.313476,51.643547,103.2            -0.313484,51.64357,103            -0.31349,51.643593,102.8            -0.313508,51.643642,102.4            -0.31352,51.643669,102.2            -0.313531,51.643696,102            -0.313551,51.643753,101.6            -0.313565,51.64378,101.4            -0.313584,51.643806,101.2            -0.313599,51.643829,101.1            -0.313634,51.64389,100.7            -0.313654,51.643917,100.5            -0.313677,51.643944,100.4            -0.313696,51.643967,100.2            -0.313712,51.643993,100.1            -0.313752,51.644054,99.8            -0.313771,51.644085,99.6            -0.313796,51.644112,99.5            -0.313824,51.644135,99.4            -0.31385,51.64415,99.3            -0.313881,51.644169,99.3            -0.313913,51.644184,99.4            -0.313945,51.644199,99.5            -0.313983,51.644222,99.6            -0.314057,51.644264,99.7            -0.314096,51.644283,99.8            -0.314158,51.644318,100            -0.314223,51.644329,100.1            -0.314265,51.644337,100.2            -0.31434,51.644371,100.4            -0.314382,51.64439,100.5            -0.314472,51.644421,100.7            -0.314506,51.644432,100.8            -0.31458,51.64444,101            -0.314636,51.644451,101.1            -0.314746,51.644474,101.4            -0.314797,51.644482,101.5            -0.314906,51.644508,101.8            -0.314952,51.644524,101.9            -0.315047,51.644554,102            -0.315141,51.644577,102.1            -0.315193,51.644592,102.1            -0.315288,51.644623,102.2            -0.315334,51.644638,102.2            -0.315411,51.644672,102.3            -0.315449,51.644691,102.3            -0.315538,51.64473,102.4            -0.315574,51.644745,102.5            -0.31567,51.644775,102.6            -0.315719,51.644791,102.6            -0.31582,51.644814,102.8            -0.315861,51.644821,102.8            -0.315954,51.644844,102.8            -0.316004,51.644855,102.8            -0.316089,51.644863,102.8            -0.316137,51.644867,102.8            -0.316227,51.644878,102.9            -0.316278,51.644882,102.9            -0.316374,51.64489,102.9            -0.31646,51.644897,102.9            -0.316495,51.644905,102.9            -0.316588,51.644928,102.9            -0.316633,51.644939,102.9            -0.316729,51.644955,102.9            -0.31677,51.644966,102.8            -0.316875,51.644989,102.7            -0.316958,51.645016,102.7            -0.317001,51.645031,102.6            -0.317038,51.645054,102.6            -0.317091,51.645092,102.5            -0.31711,51.645111,102.5            -0.317125,51.64513,102.5            -0.317134,51.645184,102.6            -0.317145,51.64521,102.6            -0.317159,51.645271,102.6            -0.317165,51.645302,102.6            -0.317187,51.645329,102.6            -0.31721,51.645355,102.6            -0.317237,51.64542,102.7            -0.317232,51.645451,102.7            -0.317201,51.645515,102.8            -0.317183,51.645546,102.8            -0.317167,51.645576,102.8            -0.317136,51.645634,102.9            -0.317119,51.645657,102.9            -0.317069,51.645702,102.9            -0.317035,51.645721,102.9            -0.316994,51.645744,103            -0.316924,51.645782,103            -0.316883,51.645802,103            -0.3168,51.645832,103            -0.316754,51.645851,103            -0.316669,51.645882,103            -0.316621,51.645901,103            -0.316527,51.645935,103            -0.31648,51.64595,103            -0.31638,51.645966,103            -0.316326,51.645966,103            -0.316221,51.645954,103            -0.316185,51.645939,103            -0.316145,51.645893,103            -0.31613,51.645866,103            -0.316092,51.645813,103            -0.316075,51.645786,103            -0.316019,51.645741,103            -0.315982,51.645718,103            -0.315912,51.645679,103            -0.31588,51.645664,103            -0.315815,51.645641,103            -0.315734,51.645618,102.9            -0.315692,51.645607,102.8            -0.315653,51.645592,102.8            -0.315581,51.645554,102.7            -0.315547,51.645538,102.7            -0.315515,51.645523,102.6            -0.315447,51.645489,102.5            -0.315362,51.645451,102.4            -0.315316,51.645443,102.4            -0.315228,51.645416,102.3            -0.315189,51.645397,102.2            -0.315155,51.645382,102.2            -0.315072,51.645351,102.1            -0.315023,51.64534,102            -0.314927,51.645325,101.8            -0.314882,51.645317,101.7            -0.314778,51.645298,101.5            -0.314723,51.645294,101.3            -0.31462,51.645298,101.1            -0.314569,51.645294,101            -0.314458,51.645294,100.7            -0.314399,51.64529,100.6            -0.314288,51.645279,100.3            -0.314178,51.645275,100            -0.314129,51.645271,99.9            -0.314041,51.645283,99.7            -0.313998,51.645298,99.6            -0.313941,51.645325,99.5            -0.313916,51.645336,99.4            -0.313891,51.645348,99.3            -0.313838,51.645386,99.2            -0.313816,51.645409,99.2            -0.313779,51.645454,99.1            -0.313765,51.645477,99            -0.313724,51.645523,98.9            -0.313703,51.645546,98.9            -0.313668,51.645588,98.8            -0.313662,51.645607,98.8            -0.313672,51.645649,98.8            -0.313677,51.645676,98.8            -0.313667,51.645721,98.8            -0.31366,51.645744,98.8            -0.313644,51.645794,98.7            -0.313637,51.645824,98.7            -0.313634,51.645855,98.7            -0.313619,51.64592,98.7            -0.313607,51.645954,98.7            -0.313583,51.646019,98.7            -0.313575,51.646053,98.7            -0.31356,51.646107,98.6            -0.313552,51.646137,98.6            -0.313512,51.646187,98.5            -0.313492,51.646214,98.5            -0.313468,51.646275,98.4            -0.313467,51.646309,98.4            -0.313466,51.646343,98.4            -0.313467,51.646385,98.4            -0.313468,51.646461,98.4            -0.31347,51.6465,98.5            -0.31347,51.646572,98.5            -0.313472,51.646606,98.5            -0.313478,51.646675,98.5            -0.313488,51.646702,98.5            -0.313511,51.646759,98.6            -0.313527,51.646782,98.6            -0.313575,51.646832,98.7            -0.313605,51.646858,98.7            -0.313671,51.6469,98.9            -0.313704,51.646915,98.9            -0.313778,51.646946,99.1            -0.313813,51.646961,99.1            -0.313896,51.646999,99.2            -0.313941,51.647018,99.3            -0.314032,51.647045,99.4            -0.314073,51.647057,99.4            -0.314152,51.647076,99.5            -0.314195,51.647083,99.6            -0.314274,51.647099,99.6            -0.314315,51.647106,99.7            -0.314395,51.647121,99.7            -0.314436,51.647129,99.8            -0.314493,51.647141,99.8            -0.314587,51.647163,99.8            -0.314629,51.647171,99.8            -0.314731,51.64719,99.9            -0.314776,51.647198,99.9            -0.314821,51.647205,99.9            -0.314866,51.647213,99.9            -0.314963,51.647228,99.9            -0.315045,51.64724,100            -0.315091,51.647243,100            -0.315138,51.647243,100.1            -0.315247,51.647243,100.4            -0.3153,51.647247,100.5            -0.315409,51.647251,100.7            -0.315467,51.647251,100.8            -0.315566,51.64727,100.9            -0.315612,51.647285,101            -0.31571,51.647312,101.1            -0.315758,51.647327,101.2            -0.315844,51.647354,101.4            -0.315883,51.647373,101.5            -0.315914,51.647392,101.5            -0.315946,51.647415,101.6            -0.316008,51.647472,101.7            -0.316035,51.647499,101.7            -0.316071,51.647549,101.9            -0.316088,51.647572,102            -0.31609,51.647594,102            -0.316085,51.647648,102            -0.316087,51.647678,102.1            -0.316103,51.647739,102.2            -0.316105,51.64777,102.2            -0.316101,51.647831,102.2            -0.316116,51.647888,102.3            -0.316136,51.647942,102.4            -0.316143,51.647972,102.5            -0.316154,51.648003,102.5            -0.316184,51.648064,102.6            -0.316201,51.64809,102.7            -0.316219,51.648117,102.8            -0.316268,51.648167,102.9            -0.316324,51.648216,103.1            -0.316329,51.648247,103.1            -0.316318,51.648273,103.1            -0.316294,51.6483,103.1            -0.316271,51.648327,103            -0.316243,51.64835,103            -0.316212,51.648376,103            -0.316145,51.648422,102.9            -0.316112,51.648445,102.9            -0.316049,51.648491,102.8            -0.316018,51.648521,102.8            -0.315951,51.648579,102.8            -0.315921,51.648605,102.8            -0.315858,51.648655,102.8            -0.315825,51.648678,102.8            -0.315754,51.648727,102.7            -0.315717,51.648754,102.7            -0.315681,51.648781,102.7            -0.315642,51.648804,102.7            -0.315566,51.648849,102.6            -0.31553,51.648872,102.6            -0.315456,51.648922,102.5            -0.315421,51.648941,102.5            -0.315352,51.648987,102.4            -0.315319,51.649014,102.4            -0.315253,51.649063,102.4            -0.315218,51.649094,102.3            -0.315151,51.649143,102.3            -0.315119,51.64917,102.3            -0.315063,51.649216,102.1            -0.315036,51.649246,102.1            -0.315009,51.649273,102            -0.314965,51.64933,102            -0.314943,51.649361,101.9            -0.314889,51.64941,101.9            -0.314849,51.649433,101.8            -0.314747,51.649441,101.7            -0.314697,51.649433,101.6            -0.314647,51.649418,101.6            -0.314594,51.649406,101.5            -0.314507,51.64938,101.4            -0.314461,51.649368,101.4            -0.314358,51.649353,101.2            -0.314309,51.649345,101.2            -0.314257,51.649334,101.1            -0.314206,51.649323,101            -0.314149,51.649311,101            -0.314045,51.649288,100.8            -0.313991,51.649273,100.8            -0.313888,51.649242,100.6            -0.313839,51.649227,100.6            -0.313742,51.6492,100.5            -0.313695,51.649189,100.4            -0.313601,51.649162,100.3            -0.313551,51.649151,100.2            -0.313458,51.649124,100            -0.313412,51.649113,100            -0.313321,51.649086,99.8            -0.313274,51.649071,99.6            -0.313183,51.64904,99.4            -0.31314,51.649029,99.3            -0.31305,51.649002,99.1            -0.313004,51.648991,98.9            -0.312913,51.648964,98.7            -0.312869,51.648952,98.7            -0.312783,51.64893,98.5            -0.31274,51.648914,98.4            -0.31265,51.648895,98.2            -0.312604,51.648884,98.2            -0.312558,51.648872,98.1            -0.312464,51.648849,97.9            -0.312415,51.648834,97.8            -0.312317,51.648811,97.6            -0.312268,51.6488,97.5            -0.312174,51.648769,97.4            -0.312127,51.648758,97.3            -0.312031,51.648731,97.2            -0.311982,51.64872,97.1            -0.311884,51.648693,97            -0.311835,51.648678,97            -0.311785,51.648666,97            -0.311734,51.648651,96.9            -0.311632,51.648624,96.9            -0.311581,51.648609,97            -0.311479,51.648582,97            -0.311428,51.648567,97.1            -0.311325,51.64854,97.2            -0.311276,51.648525,97.2            -0.311224,51.648514,97.2            -0.311127,51.648483,97.3            -0.31108,51.648468,97.4            -0.311034,51.648453,97.5            -0.310984,51.648441,97.5            -0.310883,51.648411,97.6            -0.310782,51.64838,97.8            -0.310734,51.648365,98            -0.310683,51.64835,98.1            -0.310631,51.648331,98.2            -0.310583,51.648312,98.3            -0.310487,51.648281,98.4            -0.310393,51.648254,98.5            -0.310296,51.648232,98.6            -0.310249,51.648216,98.6            -0.310155,51.64819,98.7            -0.310109,51.648178,98.7            -0.310021,51.648148,98.8            -0.309981,51.648129,98.8            -0.309893,51.648102,98.8            -0.309849,51.64809,98.8            -0.309764,51.648067,98.9            -0.309719,51.648056,98.9            -0.309677,51.648045,98.9            -0.309592,51.648018,98.9            -0.309548,51.64801,98.9            -0.309503,51.647999,99            -0.309453,51.64798,99            -0.309405,51.647968,99            -0.309363,51.647953,99            -0.30932,51.647945,99            -0.309278,51.647934,99            -0.309207,51.647907,99            -0.309168,51.6479,99            -0.309132,51.647884,99            -0.309101,51.647869,99            -0.309068,51.647854,98.9            -0.309036,51.647835,98.9            -0.308978,51.647793,98.9            -0.30895,51.647774,98.8            -0.308923,51.647755,98.8            -0.308896,51.647732,98.7            -0.308869,51.647713,98.7            -0.308836,51.64769,98.6            -0.308805,51.647671,98.6            -0.308772,51.647655,98.5            -0.308739,51.647633,98.5            -0.308706,51.647614,98.4            -0.308673,51.647598,98.4            -0.308635,51.647583,98.3            -0.3086,51.647564,98.3            -0.308566,51.647549,98.2            -0.308531,51.64753,98.1            -0.308503,51.647507,98            -0.308459,51.647457,98.2            -0.308435,51.647434,98.4            -0.308416,51.647408,98.5            -0.308393,51.647385,98.7            -0.308342,51.647339,99            -0.308313,51.647316,99.2            -0.308287,51.647293,99.4            -0.308267,51.647274,99.6            -0.308225,51.647236,99.9            -0.308204,51.647213,100.1            -0.308178,51.647194,100.3            -0.308153,51.647171,100.5            -0.308128,51.647144,100.7            -0.3081,51.647125,100.8            -0.308073,51.647099,101.1            -0.308063,51.647072,101.2            -0.308064,51.647041,101.4            -0.308068,51.647011,101.5            -0.30807,51.64698,101.7            -0.308079,51.646957,101.8            -0.308102,51.646938,101.8            -0.308119,51.646923,101.9            -0.30815,51.6469,102            -0.30818,51.646885,102            -0.308234,51.646858,102            -0.308264,51.646847,102            -0.308298,51.646824,102.1            -0.308367,51.646786,102.2            -0.308397,51.64677,102.2            -0.308424,51.646751,102.2            -0.308439,51.646732,102.3            -0.308451,51.646709,102.4            -0.308465,51.646664,102.5            -0.308472,51.646633,102.5            -0.308479,51.646603,102.4            -0.308493,51.646576,102.3            -0.308499,51.646553,102.3            -0.308501,51.64653,102.3            -0.308505,51.646507,102.2            -0.308507,51.646454,102.2            -0.308523,51.64642,102.1            -0.308538,51.646393,102            -0.308555,51.646366,101.9            -0.308586,51.646336,101.8            -0.308607,51.646309,101.7            -0.308635,51.646248,101.6            -0.308648,51.646221,101.5            -0.308677,51.646179,101.4            -0.308696,51.646137,101.3            -0.308703,51.646095,101.3            -0.308708,51.646057,101.3            -0.308708,51.646023,101.2            -0.308701,51.645992,101.2            -0.308697,51.645954,101.2            -0.308693,51.64592,101.2            -0.308681,51.645844,101.2            -0.308678,51.645809,101.1            -0.308677,51.645775,101            -0.30868,51.64571,100.7            -0.308685,51.645679,100.6            -0.30869,51.645645,100.4            -0.308693,51.645618,100.3            -0.308693,51.645592,100.2            -0.308693,51.645557,100.1            -0.308689,51.645523,100            -0.308682,51.645496,99.9            -0.308668,51.645443,99.7            -0.308661,51.64542,99.6            -0.308653,51.645397,99.5            -0.308646,51.645374,99.5            -0.308637,51.645351,99.4            -0.308613,51.645306,99.2            -0.3086,51.645279,99.1            -0.308581,51.645256,99            -0.308554,51.645233,99            -0.308522,51.645184,98.8            -0.308506,51.645161,98.7            -0.308486,51.645134,98.6            -0.308468,51.645107,98.5            -0.308428,51.645065,98.3            -0.308386,51.645023,98.1            -0.308366,51.645,98            -0.308331,51.644943,98            -0.308295,51.644878,98.1            -0.308272,51.64484,98.2            -0.308245,51.644772,98.3            -0.308233,51.644737,98.4            -0.308213,51.644703,98.4            -0.308193,51.644672,98.5            -0.30817,51.644646,98.6            -0.308149,51.644619,98.7            -0.308131,51.644588,98.7            -0.308119,51.644554,98.8            -0.308106,51.64452,98.8            -0.308096,51.644489,98.9            -0.30809,51.644459,98.9            -0.308081,51.64439,98.9            -0.308086,51.644356,98.9            -0.308075,51.644287,98.9            -0.308087,51.644257,98.9            -0.30809,51.644218,98.9            -0.308105,51.644157,98.9            -0.308134,51.6441,99.1            -0.30817,51.644047,99.2            -0.308232,51.644005,99.3            -0.308268,51.64399,99.3            -0.308358,51.643951,99.3            -0.308394,51.643936,99.3            -0.308475,51.643898,99.5            -0.308513,51.643879,99.5            -0.30858,51.643829,99.7            -0.308632,51.64378,99.8            -0.308653,51.643753,99.9            -0.308665,51.643726,100            -0.308694,51.643669,100.2            -0.308719,51.643635,100.3            -0.308752,51.643578,100.5            -0.308769,51.643555,100.5            -0.308803,51.643513,100.6            -0.308837,51.643497,100.6            -0.308872,51.643494,100.5            -0.308918,51.643486,100.4            -0.308974,51.643467,100.3            -0.309058,51.64344,100.1            -0.309151,51.643406,99.9            -0.309222,51.643375,99.8            -0.309251,51.643364,99.7            -0.309325,51.64333,99.6            -0.309353,51.643318,99.6            -0.309397,51.643303,99.5            -0.309434,51.643291,99.5            -0.309507,51.64328,99.4            -0.309535,51.643276,99.3            -0.309573,51.643269,99.3            -0.309612,51.643261,99.2            -0.309654,51.643253,99.1            -0.309707,51.643238,99.1            -0.309756,51.64323,99            -0.30984,51.643211,98.9            -0.309878,51.643204,98.9            -0.309925,51.643196,98.8            -0.309987,51.643185,98.7            -0.310029,51.643177,98.8            -0.310076,51.643169,98.8            -0.310168,51.643154,98.8            -0.31023,51.643143,98.9            -0.310277,51.643131,98.9            -0.310319,51.643124,98.9            -0.310363,51.643116,98.9            -0.310445,51.643101,99            -0.310485,51.643093,99            -0.310521,51.643085,99            -0.310557,51.643082,99            -0.310611,51.643059,99.1            -0.310652,51.643044,99.1            -0.31077,51.643002,99.2            -0.310811,51.642986,99.3            -0.31085,51.642975,99.3            -0.310892,51.64296,99.4            -0.310975,51.642929,99.5            -0.311011,51.642925,99.5            -0.311056,51.642918,99.5            -0.311094,51.642914,99.5            -0.311137,51.642906,99.5            -0.311178,51.642899,99.6            -0.311266,51.642887,99.6            -0.311313,51.642887,99.6            -0.311415,51.642883,99.6            -0.31147,51.642883,99.6            -0.311572,51.642879,99.6            -0.311625,51.642876,99.7            -0.31167,51.642868,99.7            -0.311719,51.642868,99.8            -0.311768,51.642864,100            -0.311815,51.642857,100.1            -0.311853,51.642853,100.2            -0.311891,51.642849,100.3            -0.311937,51.642845,100.5            -0.311983,51.642841,100.6            -0.312089,51.642838,100.9            -0.312144,51.642834,101.1            -0.31226,51.642826,101.4            -0.31232,51.642822,101.5            -0.31242,51.642822,101.8            -0.312516,51.642818,102            -0.312594,51.642822,102.2            -0.312638,51.642822,102.3            -0.31268,51.642826,102.4            -0.312727,51.642822,102.5            -0.31277,51.642826,102.6            -0.312815,51.642822,102.7            -0.312902,51.642826,102.9            -0.31295,51.642834,103            -0.312995,51.642838,103.1            -0.313035,51.642849,103.2            -0.313066,51.642864,103.3            -0.313094,51.642883,103.4            -0.313126,51.642902,103.5            -0.31316,51.642925,103.6            -0.313223,51.642967,103.8            -0.313247,51.642986,103.9            -0.313302,51.643036,104.2            -0.31333,51.643066,104.3            -0.313381,51.643116,104.4            -0.313403,51.643169,104.6            -0.313412,51.6432,104.6            -0.313409,51.643223,104.7            -0.313397,51.64325,104.7            -0.313392,51.643272,104.8            -0.313387,51.643295,104.8            -0.313389,51.643318,104.9            -0.3134,51.643345,104.8            -0.313413,51.643372,104.6            -0.313432,51.643421,104.2            -0.313435,51.643448,104            -0.313435,51.643471,103.8            -0.313446,51.64352,103.4            -0.31347,51.643539,103.2            -0.313483,51.643562,103.1            -0.313497,51.643589,102.8            -0.313508,51.643616,102.6            -0.313517,51.643639,102.5            -0.31352,51.643673,102.2            -0.313528,51.6437,102            -0.313531,51.64373,101.8            -0.313535,51.643764,101.5            -0.313552,51.643818,101.1            -0.313572,51.643841,101            -0.313596,51.643867,100.8            -0.313643,51.643925,100.5            -0.313668,51.643951,100.3            -0.313692,51.643982,100.1            -0.313726,51.644039,99.8            -0.313748,51.64407,99.6            -0.313772,51.6441,99.5            -0.313796,51.644131,99.3            -0.313823,51.64415,99.3            -0.313851,51.644169,99.2            -0.313883,51.644188,99.3            -0.313919,51.644203,99.4            -0.313961,51.644222,99.5            -0.314001,51.644241,99.6            -0.314044,51.64426,99.7            -0.314083,51.644279,99.8            -0.31412,51.644299,99.9            -0.314153,51.644321,100            -0.314177,51.644333,100            -0.314201,51.644341,100.1            -0.31427,51.644352,100.2            -0.314311,51.64436,100.3            -0.314347,51.644379,100.4            -0.314412,51.644413,100.6            -0.31445,51.644428,100.7            -0.314488,51.64444,100.8            -0.314523,51.644447,100.9            -0.314564,51.644455,100.9            -0.314665,51.644474,101.2            -0.314725,51.644485,101.3            -0.314775,51.644493,101.5            -0.31482,51.644501,101.6            -0.314871,51.644516,101.7            -0.314962,51.644539,101.9            -0.315017,51.644554,102            -0.315059,51.644566,102            -0.315095,51.644577,102.1            -0.315132,51.644592,102.1            -0.31517,51.644608,102.1            -0.315213,51.644619,102.1            -0.31526,51.64463,102.2            -0.315301,51.644642,102.2            -0.315381,51.644669,102.3            -0.315415,51.644684,102.3            -0.315446,51.644703,102.3            -0.315475,51.644718,102.4            -0.315507,51.644733,102.4            -0.315535,51.644753,102.4            -0.315605,51.644787,102.5            -0.315659,51.644802,102.6            -0.315706,51.64481,102.7            -0.315751,51.644817,102.7            -0.315802,51.644821,102.8            -0.315849,51.644825,102.8            -0.315892,51.644829,102.8            -0.315939,51.644836,102.8            -0.315986,51.644844,102.8            -0.31603,51.644848,102.8            -0.316079,51.644852,102.8            -0.316139,51.644855,102.8            -0.316183,51.644859,102.8            -0.316243,51.644867,102.8            -0.316298,51.644875,102.8            -0.316349,51.644882,102.9            -0.316395,51.644886,102.9            -0.316441,51.64489,102.9            -0.316497,51.644894,102.9            -0.316546,51.644905,102.9            -0.316594,51.644913,102.9            -0.316682,51.644936,102.9            -0.316724,51.644951,102.9            -0.316767,51.644962,102.8            -0.316808,51.644974,102.8            -0.31685,51.644981,102.8            -0.316891,51.644997,102.7            -0.316969,51.645031,102.7            -0.316999,51.645054,102.6            -0.317028,51.645084,102.6            -0.317053,51.645111,102.6            -0.317071,51.645138,102.6            -0.317078,51.645164,102.6            -0.317092,51.645195,102.6            -0.317119,51.645245,102.6            -0.317131,51.645275,102.6            -0.317147,51.645302,102.6            -0.317165,51.645332,102.6            -0.317185,51.645359,102.6            -0.31721,51.645393,102.7            -0.317224,51.645424,102.7            -0.317237,51.645462,102.7            -0.317225,51.645523,102.8            -0.317207,51.645557,102.8            -0.317192,51.645588,102.8            -0.317177,51.645615,102.8            -0.317156,51.645645,102.9            -0.317133,51.645672,102.9            -0.317107,51.645695,102.9            -0.317072,51.645721,102.9            -0.317038,51.645744,103            -0.317004,51.645767,103            -0.316977,51.645794,103            -0.316943,51.645817,103            -0.316865,51.645863,103            -0.31682,51.645885,103            -0.316776,51.645912,103            -0.316672,51.645966,103            -0.316617,51.645985,103            -0.316571,51.646011,103            -0.316524,51.646034,103            -0.316485,51.646065,103            -0.316425,51.646099,103            -0.316413,51.646118,103            -0.316412,51.646145,103            -0.316419,51.646172,103            -0.316425,51.646202,103            -0.316436,51.646229,103            -0.316446,51.646282,103            -0.316451,51.646309,103            -0.316461,51.646362,103            -0.316467,51.646385,103            -0.316473,51.646412,103            -0.316484,51.646465,103            -0.316488,51.646492,103            -0.316493,51.646519,103            -0.316501,51.646549,103            -0.316508,51.646576,103            -0.316519,51.646606,103            -0.316534,51.646675,103            -0.31654,51.646709,103            -0.316548,51.64674,103            -0.316556,51.64677,103.1            -0.316559,51.646801,103.1            -0.31656,51.646828,103.1            -0.316561,51.646862,103.1            -0.316561,51.646896,103.2            -0.316562,51.646935,103.2            -0.316567,51.646973,103.2            -0.316592,51.647041,103.3            -0.316616,51.647076,103.4            -0.316641,51.647114,103.5            -0.316657,51.647156,103.6            -0.316669,51.647198,103.6            -0.316688,51.647282,103.7            -0.316691,51.647324,103.8            -0.316694,51.647366,103.8            -0.316697,51.647404,103.9            -0.316698,51.647442,103.9            -0.316705,51.64748,104            -0.316713,51.647549,104            -0.31672,51.647583,104            -0.316731,51.647617,104            -0.316777,51.647675,104            -0.316811,51.647705,104            -0.316835,51.647732,104.1            -0.31685,51.647762,104.1            -0.316859,51.647823,104.1            -0.316849,51.647854,104.1            -0.31684,51.647888,104.1            -0.316823,51.647919,104.1            -0.316795,51.647945,104.1            -0.316763,51.64798,104.1            -0.316731,51.64801,104            -0.316697,51.648041,104            -0.316664,51.648067,104            -0.31663,51.648094,103.9            -0.316596,51.648121,103.8            -0.316562,51.648144,103.7          </coordinates></LineString></Placemark></Folder></Document></kml>