<?xml version="1.0" encoding="UTF-8"?><kml xmlns="http://www.opengis.net/kml/2.2"><Document><name>Alton Water parkrun Summer Course ( from June 2024)</name><description/><Style id="icon-1899-FFEA00-nodesc-normal"><IconStyle><color>ff00eaff</color><scale>1</scale><Icon><href>https://www.gstatic.com/mapspro/images/stock/503-wht-blank_maps.png</href></Icon><hotSpot x="32" xunits="pixels" y="64" yunits="insetPixels"/></IconStyle><LabelStyle><scale>0</scale></LabelStyle><BalloonStyle><text><![CDATA[<h3>$[name]</h3>]]></text></BalloonStyle></Style><Style id="icon-1899-FFEA00-nodesc-highlight"><IconStyle><color>ff00eaff</color><scale>1</scale><Icon><href>https://www.gstatic.com/mapspro/images/stock/503-wht-blank_maps.png</href></Icon><hotSpot x="32" xunits="pixels" y="64" yunits="insetPixels"/></IconStyle><LabelStyle><scale>1</scale></LabelStyle><BalloonStyle><text><![CDATA[<h3>$[name]</h3>]]></text></BalloonStyle></Style><StyleMap id="icon-1899-FFEA00-nodesc"><Pair><key>normal</key><styleUrl>#icon-1899-FFEA00-nodesc-normal</styleUrl></Pair><Pair><key>highlight</key><styleUrl>#icon-1899-FFEA00-nodesc-highlight</styleUrl></Pair></StyleMap><Style id="line-0288D1-3519-nodesc-normal"><LineStyle><color>ffd18802</color><width>3.519</width></LineStyle><BalloonStyle><text><![CDATA[<h3>$[name]</h3>]]></text></BalloonStyle></Style><Style id="line-0288D1-3519-nodesc-highlight"><LineStyle><color>ffd18802</color><width>5.2785</width></LineStyle><BalloonStyle><text><![CDATA[<h3>$[name]</h3>]]></text></BalloonStyle></Style><StyleMap id="line-0288D1-3519-nodesc"><Pair><key>normal</key><styleUrl>#line-0288D1-3519-nodesc-normal</styleUrl></Pair><Pair><key>highlight</key><styleUrl>#line-0288D1-3519-nodesc-highlight</styleUrl></Pair></StyleMap><Folder><name>Untitled layer</name><Placemark><name>Course</name><styleUrl>#line-0288D1-3519-nodesc</styleUrl><LineString><tessellate>1</tessellate><coordinates>            1.132328,51.975355,29.726163            1.13223,51.975428,29.726163            1.132115,51.975488,29.726163            1.131968,51.975532,29.726163            1.131858,51.975601,29.726163            1.131766,51.975672,29.726163            1.131689,51.975753,29.726163            1.131582,51.975823,29.726163            1.131492,51.975896,29.726163            1.131386,51.97597,29.726163            1.131278,51.976039,29.772146            1.13116,51.976104,29.857254            1.131072,51.976177,29.936614            1.130966,51.976257,30.026743            1.130864,51.97633,30.110808            1.130775,51.976406,30.192598            1.130684,51.976479,30.27293            1.130587,51.976557,30.358688            1.130491,51.976626,30.438002            1.130407,51.9767,30.516812            1.130306,51.976769,30.597901            1.130213,51.976843,30.679581            1.130106,51.976911,30.762235            1.130016,51.976987,30.844341            1.129912,51.977054,30.925248            1.129825,51.977128,31.004994            1.129724,51.977202,31.089374            1.129637,51.977274,31.167712            1.129521,51.97735,31.258758            1.129424,51.977422,31.350346            1.129328,51.977501,31.455731            1.129237,51.977572,31.552337            1.129136,51.977651,31.659726            1.129024,51.977717,31.761688            1.12892,51.977785,31.861458            1.128832,51.97787,31.969121            1.128719,51.977943,32.07684            1.128631,51.978017,32.174801            1.12852,51.978079,32.27337            1.128421,51.978163,32.384223            1.128312,51.97823,32.48552            1.128183,51.978286,32.589335            1.128064,51.978355,32.696841            1.127952,51.978434,32.80885            1.127848,51.978506,32.911771            1.127738,51.97858,33.018922            1.127647,51.978663,33.125881            1.127531,51.978731,33.208561            1.127412,51.978792,33.149404            1.127272,51.978868,33.0781            1.127159,51.978927,33.021497            1.12704,51.979001,32.956885            1.126942,51.979076,32.897162            1.126843,51.979156,32.834761            1.126748,51.979234,32.774273            1.126649,51.979308,32.71479            1.126546,51.979373,32.658445            1.126501,51.979464,32.599433            1.126516,51.97956,32.539605            1.126589,51.97965,32.477195            1.126639,51.979745,32.415243            1.126657,51.979843,32.354062            1.126695,51.979935,32.295172            1.126776,51.980022,32.232958            1.12682,51.980121,32.169285            1.126817,51.980216,32.110341            1.12675,51.980308,31.966203            1.126661,51.980404,31.792695            1.126599,51.980493,31.640692            1.126582,51.980594,31.481322            1.126543,51.980693,31.321431            1.126428,51.980769,31.158374            1.126298,51.980822,31.007666            1.126176,51.980887,30.851727            1.12605,51.980935,30.708507            1.1259,51.980986,30.542875            1.125787,51.98105,30.394475            1.125643,51.981116,30.220957            1.125517,51.98118,30.063077            1.125409,51.981248,29.913776            1.125295,51.981307,29.769833            1.125188,51.981373,29.623444            1.125083,51.98144,29.477291            1.124952,51.981498,29.321331            1.124823,51.981565,29.172138            1.124714,51.981625,29.047237            1.124594,51.981696,28.905068            1.124488,51.98176,28.778246            1.124377,51.981825,28.647387            1.124249,51.981883,28.511618            1.124131,51.981948,28.376362            1.124002,51.982011,28.235703            1.123894,51.982081,28.101751            1.123875,51.982178,27.966218            1.123993,51.982247,27.827202            1.124106,51.982313,27.694149            1.124238,51.982365,27.560276            1.124384,51.982412,27.419527            1.12452,51.982462,27.284205            1.124673,51.982511,27.13687            1.124837,51.982524,26.995598            1.125002,51.982534,26.853946            1.125145,51.982569,26.798063            1.125295,51.982578,26.82994            1.125455,51.982585,26.863868            1.125604,51.982623,26.897978            1.125747,51.982677,26.933457            1.12589,51.982732,26.969117            1.126035,51.982781,27.004099            1.126194,51.982805,27.038725            1.126359,51.982811,27.073686            1.126504,51.982767,27.107876            1.126597,51.982687,27.141665            1.126689,51.982608,27.175053            1.126791,51.982534,27.208389            1.126885,51.98245,27.243424            1.126993,51.982372,27.278629            1.127105,51.982294,27.314389            1.127222,51.98222,27.349861            1.127333,51.982146,27.384459            1.127433,51.98208,27.469375            1.127552,51.982026,27.615278            1.127643,51.981943,27.775787            1.127688,51.98185,27.931313            1.127711,51.98175,28.093179            1.127681,51.981653,28.251433            1.127603,51.981568,28.407912            1.127532,51.981487,28.555438            1.127444,51.981404,28.714309            1.127353,51.981325,28.869548            1.127246,51.981259,29.019028            1.127167,51.98117,29.18159            1.12706,51.981092,29.345245            1.12696,51.981025,29.491101            1.126884,51.980939,29.648024            1.126801,51.980854,29.80699            1.126735,51.980761,29.969655            1.126722,51.980671,30.114464            1.126722,51.980575,30.26832            1.126725,51.980474,30.336055            1.126767,51.980377,30.393776            1.126819,51.980279,30.453055            1.126886,51.980191,30.508939            1.126978,51.98011,30.565776            1.127072,51.98003,30.622555            1.127175,51.979965,30.674778            1.127276,51.979884,30.733501            1.127373,51.979806,30.789992            1.127503,51.979742,30.84893            1.127625,51.979681,30.904578            1.127747,51.97962,30.960227            1.127882,51.979564,31.017868            1.12801,51.979499,31.076618            1.12816,51.97944,31.139647            1.128283,51.979382,31.194506            1.128422,51.979323,31.254289            1.128581,51.97929,31.313709            1.128714,51.979246,31.124012            1.128883,51.979236,30.889647            1.129038,51.979282,30.652141            1.129186,51.979331,30.420196            1.129332,51.979361,30.207736            1.129465,51.979425,29.974756            1.129602,51.979478,29.751431            1.129718,51.979532,29.550715            1.129856,51.979577,29.33517            1.129996,51.979604,29.132661            1.13015,51.979642,28.903654            1.130273,51.979586,28.692515            1.130184,51.979512,28.486123            1.130077,51.979434,28.257268            1.129982,51.979349,28.025997            1.129896,51.979275,27.822042            1.129815,51.9792,27.620164            1.129716,51.979118,27.391146            1.129599,51.979042,27.314613            1.129493,51.978977,27.359177            1.129399,51.978907,27.403118            1.129321,51.97883,27.447019            1.129302,51.978727,27.497162            1.12928,51.97863,27.544538            1.129282,51.978531,27.592429            1.129277,51.978425,27.643724            1.129278,51.978326,27.691612            1.129335,51.978234,27.739244            1.129408,51.978152,27.78448            1.129487,51.978061,27.834396            1.129563,51.97798,27.879649            1.129628,51.977884,27.929962            1.12969,51.97779,27.97904            1.129759,51.977698,28.028061            1.129852,51.977612,28.078044            1.129953,51.977536,28.125552            1.130051,51.977457,28.124686            1.130165,51.977384,28.033332            1.130298,51.977334,27.946771            1.130403,51.977269,27.86407            1.130476,51.977189,27.781302            1.13058,51.977109,27.688868            1.130696,51.97705,27.605295            1.130796,51.976984,27.523873            1.130914,51.976917,27.434716            1.131025,51.976855,27.351473            1.131176,51.976811,27.258672            1.131325,51.976764,27.165673            1.131481,51.976725,27.072141            1.131625,51.976684,26.984009            1.131783,51.976653,26.891886            1.131919,51.976613,26.80816            1.132073,51.976579,26.717276            1.132207,51.976529,26.630239            1.132357,51.976487,26.5387            1.132503,51.976449,26.604055            1.132647,51.976412,26.676214            1.132804,51.976383,26.752018            1.132964,51.976352,26.829589            1.133128,51.976326,26.907908            1.133286,51.976294,26.984829            1.13335,51.976204,27.058599            1.133269,51.976122,27.130666            1.13322,51.97603,27.203362            1.133154,51.975935,27.280945            1.133089,51.975848,27.35285            1.133001,51.975764,27.427909            1.132904,51.975683,27.50348            1.132807,51.975601,27.579657            1.132708,51.975524,27.653404            1.132602,51.975454,27.725275            1.132521,51.975376,27.794795            1.132411,51.975316,27.862747            1.13229,51.975385,27.987422            1.13217,51.975444,28.121836            1.132052,51.975511,28.26233            1.131928,51.975582,28.410539            1.131805,51.975649,28.554282            1.131707,51.975717,28.683511            1.131594,51.975792,28.828933            1.131479,51.975867,28.975551            1.131383,51.975935,29.103624            1.131284,51.976005,29.235565            1.131177,51.976088,29.386193            1.131067,51.976166,29.533032            1.130979,51.97624,29.663398            1.13087,51.976319,29.810745            1.130763,51.976399,29.958057            1.13067,51.976485,30.104914            1.130557,51.976561,30.251379            1.130461,51.976631,30.381609            1.13036,51.976697,30.489361            1.130265,51.976768,30.580333            1.130162,51.97685,30.682845            1.130068,51.976925,30.776528            1.129979,51.977001,30.869183            1.12987,51.977076,30.968712            1.12978,51.977148,31.058559            1.129681,51.977231,31.160394            1.129584,51.977313,31.260711            1.129471,51.977387,31.361159            1.12937,51.97747,31.463719            1.129258,51.977545,31.564476            1.12916,51.977625,31.663567            1.129059,51.977706,31.764551            1.128949,51.977779,31.863029            1.128845,51.977857,31.962827            1.12874,51.977921,32.052792            1.128648,51.977993,32.143386            1.128542,51.978074,32.240592            1.128439,51.978155,32.32088            1.128329,51.97823,32.399752            1.128209,51.978301,32.479729            1.128096,51.978375,32.559004            1.127983,51.978454,32.641164            1.127885,51.97852,32.710958            1.12778,51.978583,32.781413            1.127656,51.978652,32.861733            1.127549,51.978717,32.933967            1.127466,51.978795,33.006742            1.127355,51.978853,33.076706            1.127237,51.978928,33.158204            1.127108,51.978996,33.239813            1.126975,51.979056,33.319051            1.126855,51.979128,33.399571            1.126744,51.979188,33.470553            1.12665,51.979264,33.545108            1.126556,51.979342,33.62091            1.126539,51.979435,33.462829            1.126554,51.979527,33.300123            1.126603,51.979619,33.129743            1.126678,51.979707,32.95485            1.126705,51.979802,32.785138            1.126727,51.979899,32.61279            1.126753,51.980001,32.431103            1.126803,51.980102,32.245295            1.126817,51.980201,32.070426            1.126747,51.980292,31.89323            1.126671,51.980372,31.730126            1.126584,51.98046,31.548823            1.126552,51.980552,31.383258            1.126535,51.980652,31.206327            1.12644,51.98073,31.034743            1.12633,51.980797,30.86707            1.126205,51.98086,30.692014            1.126084,51.980919,30.524748            1.125953,51.98098,30.357026            1.125831,51.981045,30.19835            1.125725,51.981115,30.045477            1.125585,51.981178,29.874924            1.125466,51.981243,29.718468            1.12536,51.981311,29.567916            1.125238,51.981371,29.414346            1.125138,51.98145,29.254364            1.125009,51.981514,29.091425            1.124877,51.98157,28.933762            1.124764,51.981629,28.788044            1.124649,51.981686,28.642843            1.124532,51.98174,28.499028            1.124414,51.981802,28.34646            1.124304,51.981862,28.201927            1.124203,51.981942,28.040081            1.124073,51.982,27.882182            1.123959,51.982071,27.722708            1.123852,51.98214,27.581011            1.123928,51.982236,27.531906            1.124052,51.982289,27.489167            1.12417,51.982352,27.444946            1.124305,51.982394,27.402118            1.124453,51.982436,27.355974            1.124583,51.98249,27.311572            1.124726,51.982516,27.269351            1.12489,51.982524,27.222766            1.125035,51.982539,27.181132            1.125178,51.982566,27.138778            1.125332,51.982576,27.094929            1.125495,51.982604,27.047011            1.125644,51.982648,27.00022            1.125779,51.982711,26.952258            1.125928,51.98276,26.904428            1.126076,51.982796,26.859369            1.126237,51.982815,26.81295            1.12639,51.982807,26.76947            1.126512,51.982742,26.812306            1.126612,51.982673,26.878594            1.126705,51.982585,26.953849            1.126806,51.982508,27.024796            1.126905,51.982423,27.09977            1.127029,51.982353,27.174022            1.127149,51.98228,27.248476            1.127254,51.982202,27.321095            1.127369,51.982128,27.394512            1.127481,51.982053,27.467545            1.127601,51.981979,27.542505            1.12767,51.98189,27.613192            1.1277,51.98179,27.686077            1.127711,51.981693,27.755768            1.127652,51.9816,27.82733            1.127575,51.98151,27.900243            1.127506,51.981425,27.968354            1.127434,51.981342,28.0358            1.127329,51.981278,28.250769            1.127231,51.981193,28.534607            1.127153,51.981109,28.798071            1.127019,51.981044,29.0841            1.126924,51.980962,29.358368            1.126846,51.98088,29.617119            1.126764,51.980795,29.886314            1.126733,51.980706,30.134142            1.126723,51.980616,30.379752            1.126738,51.980517,30.650465            1.126744,51.980415,30.928356            1.126795,51.980319,31.203365            1.12683,51.980225,31.465937            1.126907,51.980141,31.728574            1.127005,51.980069,31.984379            1.127103,51.979995,32.244381            1.127206,51.979927,32.497583            1.127315,51.979853,32.769621            1.127438,51.979792,32.854999            1.127544,51.979729,32.608887            1.127662,51.979674,32.361646            1.127778,51.979608,32.097798            1.127905,51.979562,31.851636            1.12801,51.979497,31.602908            1.12812,51.979431,31.346333            1.128243,51.97938,31.098597            1.128381,51.979324,30.822483            1.128527,51.979272,30.540698            1.128659,51.979229,30.291205            1.128805,51.979204,30.038015            1.128959,51.979231,29.770488            1.129088,51.979279,29.518677            1.129231,51.979312,29.263532            1.129381,51.97936,28.981105            1.129488,51.979427,28.72617            1.129631,51.979478,28.450082            1.129778,51.979529,28.168192            1.129926,51.979571,28.073445            1.130076,51.979611,28.086151            1.130235,51.979628,28.098695            1.13029,51.979541,28.110477            1.130192,51.979471,28.122142            1.130088,51.979405,28.133749            1.129994,51.979318,28.146937            1.129896,51.979242,28.159185            1.129802,51.979167,28.171142            1.129717,51.979079,28.184064            1.129614,51.979014,28.195527            1.129486,51.97895,28.208342            1.129361,51.978884,28.22114            1.129275,51.978796,28.234102            1.129251,51.978701,28.246235            1.129251,51.978609,28.257845            1.129215,51.97851,28.270649            1.129209,51.978411,28.283151            1.129224,51.978315,28.290901            1.129286,51.978223,28.283501            1.129379,51.978147,28.276432            1.129451,51.978056,28.268912            1.129538,51.977971,28.261447            1.129602,51.977889,28.254689            1.129665,51.977801,28.247544            1.129738,51.977708,28.239871            1.129833,51.97762,28.232021            1.129938,51.977543,28.224551            1.130035,51.977475,28.217826            1.13013,51.977393,28.210343            1.130219,51.977321,28.203621            1.130328,51.977245,28.196088            1.13042,51.977172,28.189223            1.130533,51.977109,28.182249            1.130636,51.977045,28.175554            1.130755,51.976976,28.168076            1.130873,51.976918,28.161169            1.130994,51.97685,28.072432            1.131139,51.976795,27.944166            1.13127,51.976755,27.834034            1.131413,51.976723,27.719434            1.131559,51.976682,27.598572            1.131698,51.976652,27.487631            1.131847,51.976612,27.365203            1.132002,51.976572,27.238619            1.132136,51.976512,27.113836            1.132285,51.976493,26.999224            1.132445,51.976465,26.873936            1.132591,51.976415,26.748109            1.132739,51.976376,26.626857            1.132894,51.97635,26.505852            1.133048,51.976328,26.386774            1.133201,51.976306,26.26843            1.133364,51.976288,26.143693            1.133378,51.976197,26.031918            1.133289,51.976122,25.959504            1.133204,51.976036,25.959504            1.133123,51.975957,25.959504            1.133045,51.975876,25.959504            1.132975,51.975782,25.959504            1.132891,51.9757,25.959504            1.132808,51.975618,25.959504            1.132712,51.975546,25.959504            1.132613,51.975479,25.959504            1.132541,51.975399,25.959504            1.132465,51.975313,25.959504          </coordinates></LineString></Placemark><Placemark><name>Start/Finish</name><styleUrl>#icon-1899-FFEA00-nodesc</styleUrl><Point><coordinates>            1.132328,51.975355,0          </coordinates></Point></Placemark></Folder></Document></kml>