<?xml version="1.0" encoding="UTF-8"?><kml xmlns="http://www.opengis.net/kml/2.2"><Document><name>Alvaston parkrun</name><description/><Style id="icon-1644-1A237E-normal"><IconStyle><color>ff7e231a</color><scale>1</scale><Icon><href>https://www.gstatic.com/mapspro/images/stock/503-wht-blank_maps.png</href></Icon></IconStyle><LabelStyle><scale>0</scale></LabelStyle></Style><Style id="icon-1644-1A237E-highlight"><IconStyle><color>ff7e231a</color><scale>1</scale><Icon><href>https://www.gstatic.com/mapspro/images/stock/503-wht-blank_maps.png</href></Icon></IconStyle><LabelStyle><scale>1</scale></LabelStyle></Style><StyleMap id="icon-1644-1A237E"><Pair><key>normal</key><styleUrl>#icon-1644-1A237E-normal</styleUrl></Pair><Pair><key>highlight</key><styleUrl>#icon-1644-1A237E-highlight</styleUrl></Pair></StyleMap><Style id="icon-1899-FFEA00-nodesc-normal"><IconStyle><color>ff00eaff</color><scale>1</scale><Icon><href>https://www.gstatic.com/mapspro/images/stock/503-wht-blank_maps.png</href></Icon><hotSpot x="32" xunits="pixels" y="64" yunits="insetPixels"/></IconStyle><LabelStyle><scale>0</scale></LabelStyle><BalloonStyle><text><![CDATA[<h3>$[name]</h3>]]></text></BalloonStyle></Style><Style id="icon-1899-FFEA00-nodesc-highlight"><IconStyle><color>ff00eaff</color><scale>1</scale><Icon><href>https://www.gstatic.com/mapspro/images/stock/503-wht-blank_maps.png</href></Icon><hotSpot x="32" xunits="pixels" y="64" yunits="insetPixels"/></IconStyle><LabelStyle><scale>1</scale></LabelStyle><BalloonStyle><text><![CDATA[<h3>$[name]</h3>]]></text></BalloonStyle></Style><StyleMap id="icon-1899-FFEA00-nodesc"><Pair><key>normal</key><styleUrl>#icon-1899-FFEA00-nodesc-normal</styleUrl></Pair><Pair><key>highlight</key><styleUrl>#icon-1899-FFEA00-nodesc-highlight</styleUrl></Pair></StyleMap><Style id="line-0288D1-5069-nodesc-normal"><LineStyle><color>ffd18802</color><width>5.069</width></LineStyle><BalloonStyle><text><![CDATA[<h3>$[name]</h3>]]></text></BalloonStyle></Style><Style id="line-0288D1-5069-nodesc-highlight"><LineStyle><color>ffd18802</color><width>7.6035</width></LineStyle><BalloonStyle><text><![CDATA[<h3>$[name]</h3>]]></text></BalloonStyle></Style><StyleMap id="line-0288D1-5069-nodesc"><Pair><key>normal</key><styleUrl>#line-0288D1-5069-nodesc-normal</styleUrl></Pair><Pair><key>highlight</key><styleUrl>#line-0288D1-5069-nodesc-highlight</styleUrl></Pair></StyleMap><Folder><name>Untitled layer</name><Placemark><name>Course</name><styleUrl>#line-0288D1-5069-nodesc</styleUrl><LineString><tessellate>1</tessellate><coordinates>            -1.440034,52.906261,0            -1.440175,52.906163,0            -1.44074,52.905591,0            -1.441226,52.905065,0            -1.441727,52.905209,0            -1.442175,52.905311,0            -1.44224,52.905322,0            -1.44232,52.905335,0            -1.442405,52.905347,0            -1.442719,52.905401,0            -1.443054,52.905458,0            -1.443098,52.905502,0            -1.443011,52.90563,0            -1.442848,52.905878,0            -1.442642,52.90619,0            -1.442447,52.906476,0            -1.442283,52.906728,0            -1.44202,52.907129,0            -1.441824,52.907422,0            -1.441772,52.907506,0            -1.441756,52.907558,0            -1.441757,52.907619,0            -1.441784,52.907675,0            -1.441808,52.907708,0            -1.441901,52.907816,0            -1.441917,52.90785,0            -1.441898,52.907902,0            -1.441722,52.908213,0            -1.441537,52.908557,0            -1.441358,52.908876,0            -1.441222,52.909128,0            -1.441242,52.909163,0            -1.441289,52.909139,0            -1.441452,52.90884,0            -1.441666,52.908439,0            -1.441843,52.908131,0            -1.441962,52.907902,0            -1.441972,52.907862,0            -1.441972,52.907824,0            -1.441953,52.907786,0            -1.441879,52.907704,0            -1.441839,52.907636,0            -1.441826,52.907586,0            -1.441831,52.907526,0            -1.441912,52.907396,0            -1.442667,52.906255,0            -1.442966,52.905793,0            -1.443109,52.905572,0            -1.443281,52.905466,0            -1.44355,52.905445,0            -1.443756,52.905494,0            -1.444033,52.905573,0            -1.444106,52.905585,0            -1.44434,52.905602,0            -1.444401,52.905604,0            -1.444543,52.905588,0            -1.444832,52.905576,0            -1.445209,52.905497,0            -1.445677,52.905358,0            -1.445734,52.905324,0            -1.445798,52.905272,0            -1.44583,52.905207,0            -1.445824,52.905136,0            -1.44581,52.905034,0            -1.445755,52.904946,0            -1.445663,52.904815,0            -1.445567,52.904668,0            -1.445519,52.904578,0            -1.44549,52.904498,0            -1.445474,52.904417,0            -1.44552,52.904255,0            -1.445641,52.904031,0            -1.445772,52.903738,0            -1.445786,52.903676,0            -1.445908,52.903488,0            -1.44634,52.902744,0            -1.446418,52.902616,0            -1.446738,52.902064,0            -1.446817,52.901924,0            -1.447,52.901601,0            -1.447056,52.901479,0            -1.447102,52.901369,0            -1.447147,52.901238,0            -1.44717,52.901135,0            -1.447174,52.900817,0            -1.447171,52.900746,0            -1.447147,52.900675,0            -1.447088,52.900507,0            -1.446926,52.900201,0            -1.446785,52.899922,0            -1.446742,52.899843,0            -1.446717,52.899778,0            -1.446683,52.899661,0            -1.446664,52.899484,0            -1.446647,52.899205,0            -1.446626,52.89907,0            -1.44657,52.898903,0            -1.446501,52.898652,0            -1.446473,52.89853,0            -1.446419,52.898221,0            -1.446364,52.897897,0            -1.446257,52.897201,0            -1.446166,52.896623,0            -1.446117,52.896324,0            -1.44598,52.895592,0            -1.44592,52.895249,0            -1.445947,52.895222,0            -1.445994,52.895247,0            -1.446042,52.89558,0            -1.446096,52.89588,0            -1.446131,52.896043,0            -1.446196,52.896414,0            -1.446266,52.896864,0            -1.446384,52.897603,0            -1.446508,52.898359,0            -1.446548,52.898571,0            -1.446604,52.898803,0            -1.44669,52.899083,0            -1.446709,52.899167,0            -1.446748,52.899669,0            -1.44679,52.899788,0            -1.446839,52.899902,0            -1.446912,52.900048,0            -1.446985,52.900188,0            -1.44715,52.900511,0            -1.44721,52.900645,0            -1.447229,52.900724,0            -1.447238,52.900854,0            -1.447234,52.901021,0            -1.447228,52.901173,0            -1.4472,52.901281,0            -1.447151,52.9014,0            -1.44711,52.90151,0            -1.447016,52.901697,0            -1.446872,52.901945,0            -1.446703,52.902238,0            -1.446604,52.902419,0            -1.446265,52.902979,0            -1.446108,52.903253,0            -1.445954,52.903511,0            -1.445807,52.903764,0            -1.445744,52.903901,0            -1.445656,52.904029,0            -1.44553,52.904256,0            -1.445518,52.90434,0            -1.445531,52.904443,0            -1.445566,52.904549,0            -1.445626,52.90466,0            -1.445704,52.904783,0            -1.445824,52.904949,0            -1.445869,52.905063,0            -1.445885,52.905169,0            -1.445884,52.905237,0            -1.445846,52.90529,0            -1.445731,52.905381,0            -1.445534,52.905441,0            -1.445266,52.905522,0            -1.444934,52.905598,0            -1.444879,52.905606,0            -1.444587,52.905617,0            -1.444391,52.905636,0            -1.444088,52.905618,0            -1.444,52.905603,0            -1.443828,52.905554,0            -1.44367,52.905507,0            -1.443503,52.905474,0            -1.443393,52.905466,0            -1.443265,52.905488,0            -1.443195,52.905517,0          </coordinates></LineString></Placemark><Placemark><name>Car Park</name><description>Pay and Display</description><styleUrl>#icon-1644-1A237E</styleUrl><Point><coordinates>            -1.443686,52.915111,0          </coordinates></Point></Placemark><Placemark><name>Car Park</name><description>Free parking</description><styleUrl>#icon-1644-1A237E</styleUrl><Point><coordinates>            -1.444282,52.903982,0          </coordinates></Point></Placemark><Placemark><name>Start/Finish</name><styleUrl>#icon-1899-FFEA00-nodesc</styleUrl><Point><coordinates>            -1.440034,52.906261,0          </coordinates></Point></Placemark></Folder></Document></kml>