<?xml version="1.0" encoding="UTF-8"?><kml xmlns="http://www.opengis.net/kml/2.2"><Document><name>Archerfield Walled Garden junior parkrun Regular Course (from Jan 2024)</name><description/><Style id="icon-1899-0F9D58-nodesc-normal"><IconStyle><color>ff589d0f</color><scale>1</scale><Icon><href>https://www.gstatic.com/mapspro/images/stock/503-wht-blank_maps.png</href></Icon><hotSpot x="32" xunits="pixels" y="64" yunits="insetPixels"/></IconStyle><LabelStyle><scale>0</scale></LabelStyle><BalloonStyle><text><![CDATA[<h3>$[name]</h3>]]></text></BalloonStyle></Style><Style id="icon-1899-0F9D58-nodesc-highlight"><IconStyle><color>ff589d0f</color><scale>1</scale><Icon><href>https://www.gstatic.com/mapspro/images/stock/503-wht-blank_maps.png</href></Icon><hotSpot x="32" xunits="pixels" y="64" yunits="insetPixels"/></IconStyle><LabelStyle><scale>1</scale></LabelStyle><BalloonStyle><text><![CDATA[<h3>$[name]</h3>]]></text></BalloonStyle></Style><StyleMap id="icon-1899-0F9D58-nodesc"><Pair><key>normal</key><styleUrl>#icon-1899-0F9D58-nodesc-normal</styleUrl></Pair><Pair><key>highlight</key><styleUrl>#icon-1899-0F9D58-nodesc-highlight</styleUrl></Pair></StyleMap><Style id="icon-1899-DB4436-nodesc-normal"><IconStyle><color>ff3644db</color><scale>1</scale><Icon><href>https://www.gstatic.com/mapspro/images/stock/503-wht-blank_maps.png</href></Icon><hotSpot x="32" xunits="pixels" y="64" yunits="insetPixels"/></IconStyle><LabelStyle><scale>0</scale></LabelStyle><BalloonStyle><text><![CDATA[<h3>$[name]</h3>]]></text></BalloonStyle></Style><Style id="icon-1899-DB4436-nodesc-highlight"><IconStyle><color>ff3644db</color><scale>1</scale><Icon><href>https://www.gstatic.com/mapspro/images/stock/503-wht-blank_maps.png</href></Icon><hotSpot x="32" xunits="pixels" y="64" yunits="insetPixels"/></IconStyle><LabelStyle><scale>1</scale></LabelStyle><BalloonStyle><text><![CDATA[<h3>$[name]</h3>]]></text></BalloonStyle></Style><StyleMap id="icon-1899-DB4436-nodesc"><Pair><key>normal</key><styleUrl>#icon-1899-DB4436-nodesc-normal</styleUrl></Pair><Pair><key>highlight</key><styleUrl>#icon-1899-DB4436-nodesc-highlight</styleUrl></Pair></StyleMap><Style id="line-0288D1-3713-nodesc-normal"><LineStyle><color>ffd18802</color><width>3.713</width></LineStyle><BalloonStyle><text><![CDATA[<h3>$[name]</h3>]]></text></BalloonStyle></Style><Style id="line-0288D1-3713-nodesc-highlight"><LineStyle><color>ffd18802</color><width>5.5695</width></LineStyle><BalloonStyle><text><![CDATA[<h3>$[name]</h3>]]></text></BalloonStyle></Style><StyleMap id="line-0288D1-3713-nodesc"><Pair><key>normal</key><styleUrl>#line-0288D1-3713-nodesc-normal</styleUrl></Pair><Pair><key>highlight</key><styleUrl>#line-0288D1-3713-nodesc-highlight</styleUrl></Pair></StyleMap><Folder><name>Route</name><Placemark><name>Course</name><styleUrl>#line-0288D1-3713-nodesc</styleUrl><LineString><tessellate>1</tessellate><coordinates>            -2.799522,56.04643,0            -2.799535,56.046419,0            -2.799591,56.04641,0            -2.799614,56.046405,0            -2.799646,56.046398,0            -2.799728,56.046397,0            -2.799806,56.046375,0            -2.799904,56.046357,0            -2.799968,56.046344,0            -2.800027,56.04633,0            -2.80008,56.046316,0            -2.800353,56.046265,0            -2.800373,56.046259,0            -2.800658,56.046195,0            -2.800778,56.046171,0            -2.800932,56.046135,0            -2.801031,56.046114,0            -2.801151,56.046092,0            -2.801354,56.046044,0            -2.801433,56.046025,0            -2.801455,56.04602,0            -2.80152,56.046005,0            -2.801602,56.045986,0            -2.801693,56.045966,0            -2.801721,56.045959,0            -2.801743,56.045955,0            -2.801903,56.045918,0            -2.802097,56.045922,0            -2.802164,56.045953,0            -2.802241,56.045995,0            -2.802319,56.046033,0            -2.802336,56.046043,0            -2.802368,56.046062,0            -2.802415,56.046092,0            -2.802529,56.046115,0            -2.802598,56.046113,0            -2.802645,56.046111,0            -2.802755,56.046121,0            -2.802839,56.046178,0            -2.80285,56.046189,0            -2.803013,56.046316,0            -2.803101,56.046378,0            -2.803286,56.046462,0            -2.803368,56.0465,0            -2.803405,56.046528,0            -2.803503,56.046656,0            -2.803553,56.046748,0            -2.803582,56.046778,0            -2.80368,56.046886,0            -2.803733,56.046948,0            -2.803752,56.046979,0            -2.803796,56.047048,0            -2.803819,56.04707,0            -2.803855,56.047111,0            -2.803871,56.047125,0            -2.803948,56.0472,0            -2.804003,56.047256,0            -2.804038,56.047299,0            -2.804088,56.047341,0            -2.804151,56.047367,0            -2.804227,56.047388,0            -2.804269,56.047401,0            -2.804396,56.047441,0            -2.804416,56.047446,0            -2.804453,56.047457,0            -2.80458,56.047492,0            -2.804674,56.047502,0            -2.80482,56.047544,0            -2.804895,56.047571,0            -2.804944,56.047589,0            -2.805028,56.0476,0            -2.805105,56.047612,0            -2.805089,56.047662,0            -2.805037,56.047697,0            -2.804933,56.047737,0            -2.804852,56.047777,0            -2.804831,56.047802,0            -2.804826,56.047846,0            -2.804784,56.047885,0            -2.804761,56.04791,0            -2.804704,56.047931,0            -2.804637,56.047956,0            -2.804579,56.04798,0            -2.804481,56.048018,0            -2.804412,56.04804,0            -2.804171,56.04807,0            -2.804109,56.048079,0            -2.804078,56.048089,0            -2.804019,56.048143,0            -2.803936,56.048204,0            -2.803891,56.048244,0            -2.803844,56.048294,0            -2.803769,56.048341,0            -2.803719,56.048373,0            -2.803699,56.048394,0            -2.803657,56.048429,0            -2.803617,56.048451,0            -2.80352,56.04851,0            -2.80345,56.048539,0            -2.803391,56.048574,0            -2.803384,56.0486,0            -2.80339,56.048621,0            -2.803436,56.048648,0            -2.803485,56.048648,0            -2.803509,56.048632,0            -2.803524,56.0486,0            -2.803517,56.048565,0            -2.803541,56.048515,0            -2.803588,56.048482,0            -2.803628,56.048458,0            -2.803678,56.048428,0            -2.803742,56.048388,0            -2.803784,56.048369,0            -2.803832,56.048345,0            -2.803902,56.048329,0            -2.803966,56.048316,0            -2.804028,56.048293,0            -2.804124,56.048259,0            -2.80422,56.048229,0            -2.80433,56.048212,0            -2.804453,56.048198,0            -2.80456,56.048174,0            -2.80469,56.048168,0            -2.804865,56.048136,0            -2.80516,56.048066,0            -2.805412,56.048058,0            -2.805519,56.048051,0            -2.805598,56.04804,0            -2.80567,56.048022,0            -2.805744,56.048003,0            -2.805792,56.047972,0            -2.805814,56.047939,0            -2.805848,56.047879,0            -2.805825,56.047863,0            -2.805721,56.047841,0            -2.805718,56.047831,0            -2.80575,56.047814,0            -2.805791,56.047759,0            -2.805818,56.047717,0            -2.805803,56.047683,0            -2.805767,56.047654,0            -2.80573,56.047627,0            -2.805673,56.047547,0            -2.805661,56.04748,0            -2.805602,56.047446,0            -2.805555,56.047422,0            -2.805524,56.047407,0            -2.805458,56.047376,0            -2.805293,56.047325,0            -2.805188,56.047291,0            -2.805116,56.047266,0            -2.804862,56.047145,0            -2.804841,56.047134,0            -2.8048,56.047109,0            -2.804693,56.047028,0            -2.804619,56.046956,0            -2.804584,56.046908,0            -2.804542,56.046881,0            -2.804385,56.046801,0            -2.804259,56.046728,0            -2.804193,56.046677,0            -2.804138,56.046657,0            -2.804083,56.046642,0            -2.803935,56.046609,0            -2.803834,56.046586,0            -2.8037,56.046574,0            -2.803628,56.046568,0            -2.803577,56.046557,0            -2.803553,56.046552,0            -2.803529,56.046545,0            -2.80346,56.046527,0            -2.803398,56.046506,0            -2.80338,56.046521,0            -2.803381,56.046539,0            -2.80345,56.046608,0            -2.803491,56.046656,0            -2.803538,56.046747,0            -2.803645,56.046868,0            -2.803683,56.046912,0            -2.803719,56.046958,0            -2.803781,56.047053,0            -2.803833,56.047104,0            -2.803965,56.047238,0            -2.80404,56.047321,0            -2.804079,56.047349,0            -2.804126,56.047372,0            -2.804322,56.047433,0            -2.804369,56.047449,0            -2.80441,56.047463,0            -2.804525,56.047491,0            -2.804568,56.047505,0            -2.804622,56.047512,0            -2.804685,56.047518,0            -2.804779,56.047547,0            -2.804826,56.047561,0            -2.804849,56.047567,0            -2.804936,56.0476,0            -2.805024,56.047614,0            -2.805093,56.047619,0            -2.805079,56.047652,0            -2.805041,56.047684,0            -2.805004,56.047704,0            -2.804851,56.047764,0            -2.804822,56.047784,0            -2.804807,56.047841,0            -2.804748,56.047903,0            -2.804619,56.047951,0            -2.804521,56.047996,0            -2.80442,56.048031,0            -2.804307,56.048044,0            -2.804184,56.048058,0            -2.804103,56.048072,0            -2.804059,56.048084,0            -2.803979,56.048157,0            -2.803962,56.048169,0            -2.803947,56.048179,0            -2.80392,56.048199,0            -2.803836,56.048285,0            -2.803757,56.048339,0            -2.803706,56.048368,0            -2.803684,56.048392,0            -2.803644,56.048423,0            -2.803562,56.048473,0            -2.803511,56.048502,0            -2.803394,56.048556,0            -2.803373,56.048575,0            -2.803371,56.048619,0            -2.803386,56.048633,0            -2.803434,56.048659,0            -2.803494,56.048655,0            -2.803522,56.048639,0            -2.803529,56.04863,0            -2.803542,56.048587,0            -2.803538,56.048564,0            -2.803546,56.048533,0            -2.803644,56.048462,0            -2.803672,56.04844,0            -2.803722,56.048409,0            -2.803796,56.048374,0            -2.803831,56.048355,0            -2.803976,56.048324,0            -2.804037,56.0483,0            -2.804225,56.048236,0            -2.804297,56.048223,0            -2.804315,56.048222,0            -2.80433,56.048221,0            -2.804354,56.048219,0            -2.804456,56.048207,0            -2.804564,56.048184,0            -2.804693,56.048176,0            -2.804745,56.048166,0            -2.804841,56.048152,0            -2.805011,56.048117,0            -2.805048,56.048106,0            -2.805143,56.048083,0            -2.805167,56.048078,0            -2.80532,56.048071,0            -2.805352,56.04807,0            -2.805415,56.048067,0            -2.805495,56.048064,0            -2.805602,56.048048,0            -2.80575,56.048012,0            -2.805799,56.04798,0            -2.805829,56.047942,0            -2.805863,56.047876,0            -2.805832,56.047854,0            -2.805774,56.04784,0            -2.805742,56.047834,0            -2.805782,56.04779,0            -2.805835,56.047718,0            -2.805819,56.047679,0            -2.805812,56.047668,0            -2.805743,56.047624,0            -2.805686,56.04754,0            -2.805675,56.047477,0            -2.805642,56.047454,0            -2.805619,56.047442,0            -2.805468,56.047368,0            -2.805252,56.047299,0            -2.805196,56.04728,0            -2.805124,56.047257,0            -2.804962,56.047183,0            -2.804874,56.047134,0            -2.804815,56.047101,0            -2.804763,56.04707,0            -2.804658,56.046987,0            -2.804642,56.046963,0            -2.804622,56.046939,0            -2.804591,56.0469,0            -2.804496,56.046846,0            -2.804423,56.046808,0            -2.804378,56.046784,0            -2.804272,56.046723,0            -2.804194,56.046666,0            -2.804092,56.046633,0            -2.80396,56.046605,0            -2.803931,56.046596,0            -2.803863,56.046582,0            -2.803637,56.046558,0            -2.803586,56.046547,0            -2.803537,56.046536,0            -2.803416,56.046502,0            -2.803285,56.046463,0            -2.803101,56.046378,0            -2.80293,56.046252,0            -2.802798,56.046151,0            -2.802755,56.046121,0            -2.802645,56.046111,0            -2.802529,56.046115,0            -2.802415,56.046092,0            -2.802352,56.046103,0            -2.802329,56.046106,0            -2.802137,56.046148,0            -2.801869,56.046207,0            -2.801809,56.046221,0            -2.801208,56.046347,0          </coordinates></LineString></Placemark></Folder><Folder><name>Laps</name><Placemark><name>Start</name><styleUrl>#icon-1899-0F9D58-nodesc</styleUrl><Point><coordinates>            -2.801208,56.046347,0          </coordinates></Point></Placemark><Placemark><name>Finish</name><styleUrl>#icon-1899-DB4436-nodesc</styleUrl><Point><coordinates>            -2.799522,56.04643,0          </coordinates></Point></Placemark></Folder></Document></kml>