<?xml version="1.0" encoding="UTF-8"?><kml xmlns="http://www.opengis.net/kml/2.2"><Document><name>Barnstaple junior parkrun</name><description/><Style id="icon-1899-0F9D58-nodesc-normal"><IconStyle><color>ff589d0f</color><scale>1</scale><Icon><href>https://www.gstatic.com/mapspro/images/stock/503-wht-blank_maps.png</href></Icon><hotSpot x="32" xunits="pixels" y="64" yunits="insetPixels"/></IconStyle><LabelStyle><scale>0</scale></LabelStyle><BalloonStyle><text><![CDATA[<h3>$[name]</h3>]]></text></BalloonStyle></Style><Style id="icon-1899-0F9D58-nodesc-highlight"><IconStyle><color>ff589d0f</color><scale>1</scale><Icon><href>https://www.gstatic.com/mapspro/images/stock/503-wht-blank_maps.png</href></Icon><hotSpot x="32" xunits="pixels" y="64" yunits="insetPixels"/></IconStyle><LabelStyle><scale>1</scale></LabelStyle><BalloonStyle><text><![CDATA[<h3>$[name]</h3>]]></text></BalloonStyle></Style><StyleMap id="icon-1899-0F9D58-nodesc"><Pair><key>normal</key><styleUrl>#icon-1899-0F9D58-nodesc-normal</styleUrl></Pair><Pair><key>highlight</key><styleUrl>#icon-1899-0F9D58-nodesc-highlight</styleUrl></Pair></StyleMap><Style id="icon-1899-FF5252-nodesc-normal"><IconStyle><color>ff5252ff</color><scale>1</scale><Icon><href>https://www.gstatic.com/mapspro/images/stock/503-wht-blank_maps.png</href></Icon><hotSpot x="32" xunits="pixels" y="64" yunits="insetPixels"/></IconStyle><LabelStyle><scale>0</scale></LabelStyle><BalloonStyle><text><![CDATA[<h3>$[name]</h3>]]></text></BalloonStyle></Style><Style id="icon-1899-FF5252-nodesc-highlight"><IconStyle><color>ff5252ff</color><scale>1</scale><Icon><href>https://www.gstatic.com/mapspro/images/stock/503-wht-blank_maps.png</href></Icon><hotSpot x="32" xunits="pixels" y="64" yunits="insetPixels"/></IconStyle><LabelStyle><scale>1</scale></LabelStyle><BalloonStyle><text><![CDATA[<h3>$[name]</h3>]]></text></BalloonStyle></Style><StyleMap id="icon-1899-FF5252-nodesc"><Pair><key>normal</key><styleUrl>#icon-1899-FF5252-nodesc-normal</styleUrl></Pair><Pair><key>highlight</key><styleUrl>#icon-1899-FF5252-nodesc-highlight</styleUrl></Pair></StyleMap><Style id="line-0288D1-5069-nodesc-normal"><LineStyle><color>ffd18802</color><width>5.069</width></LineStyle><BalloonStyle><text><![CDATA[<h3>$[name]</h3>]]></text></BalloonStyle></Style><Style id="line-0288D1-5069-nodesc-highlight"><LineStyle><color>ffd18802</color><width>7.6035</width></LineStyle><BalloonStyle><text><![CDATA[<h3>$[name]</h3>]]></text></BalloonStyle></Style><StyleMap id="line-0288D1-5069-nodesc"><Pair><key>normal</key><styleUrl>#line-0288D1-5069-nodesc-normal</styleUrl></Pair><Pair><key>highlight</key><styleUrl>#line-0288D1-5069-nodesc-highlight</styleUrl></Pair></StyleMap><Folder><name>Untitled layer</name><Placemark><name>Course</name><styleUrl>#line-0288D1-5069-nodesc</styleUrl><LineString><tessellate>1</tessellate><coordinates>            -4.053264,51.073315,0            -4.053146,51.074065,0            -4.053355,51.074345,0            -4.053398,51.074517,0            -4.053506,51.074305,0            -4.053672,51.074153,0            -4.053827,51.074055,0            -4.054004,51.074005,0            -4.054155,51.073954,0            -4.054391,51.07392,0            -4.054568,51.073968,0            -4.054466,51.073293,0            -4.054401,51.073027,0            -4.054283,51.072771,0            -4.054031,51.072437,0            -4.053876,51.072171,0            -4.05379,51.072373,0            -4.053661,51.072619,0            -4.053372,51.072923,0            -4.053114,51.073122,0            -4.053007,51.07324,0            -4.052878,51.073573,0            -4.052905,51.073705,0            -4.053028,51.07393,0            -4.053141,51.074072,0            -4.053248,51.07421,0            -4.05335,51.074348,0            -4.053377,51.074429,0            -4.053393,51.074517,0            -4.053436,51.074814,0            -4.054305,51.07508,0            -4.054959,51.075322,0            -4.055163,51.075221,0            -4.05497,51.074972,0            -4.054772,51.074696,0            -4.054643,51.07446,0            -4.054476,51.074035,0            -4.054562,51.073961,0            -4.054471,51.073293,0            -4.054391,51.073371,0            -4.054305,51.073381,0            -4.054149,51.073334,0            -4.053983,51.073327,0            -4.05379,51.073068,0          </coordinates></LineString></Placemark><Placemark><name>FINISH</name><styleUrl>#icon-1899-FF5252-nodesc</styleUrl><Point><coordinates>            -4.05379,51.073068,0          </coordinates></Point></Placemark><Placemark><name>START</name><styleUrl>#icon-1899-0F9D58-nodesc</styleUrl><Point><coordinates>            -4.053264,51.073315,0          </coordinates></Point></Placemark></Folder></Document></kml>