<?xml version="1.0" encoding="UTF-8"?><kml xmlns="http://www.opengis.net/kml/2.2"><Document><name>Barry Island parkrun</name><description/><Style id="icon-1207-nodesc-normal"><IconStyle><scale>1.1</scale><Icon><href>https://www.gstatic.com/mapspro/images/stock/1207-fac-parking.png</href></Icon></IconStyle><LabelStyle><scale>0</scale></LabelStyle><BalloonStyle><text><![CDATA[<h3>$[name]</h3>]]></text></BalloonStyle></Style><Style id="icon-1207-nodesc-highlight"><IconStyle><scale>1.1</scale><Icon><href>https://www.gstatic.com/mapspro/images/stock/1207-fac-parking.png</href></Icon></IconStyle><LabelStyle><scale>1.1</scale></LabelStyle><BalloonStyle><text><![CDATA[<h3>$[name]</h3>]]></text></BalloonStyle></Style><StyleMap id="icon-1207-nodesc"><Pair><key>normal</key><styleUrl>#icon-1207-nodesc-normal</styleUrl></Pair><Pair><key>highlight</key><styleUrl>#icon-1207-nodesc-highlight</styleUrl></Pair></StyleMap><Style id="icon-1219-nodesc-normal"><IconStyle><scale>1.1</scale><Icon><href>https://www.gstatic.com/mapspro/images/stock/1219-fac-wc-unisex.png</href></Icon></IconStyle><LabelStyle><scale>0</scale></LabelStyle><BalloonStyle><text><![CDATA[<h3>$[name]</h3>]]></text></BalloonStyle></Style><Style id="icon-1219-nodesc-highlight"><IconStyle><scale>1.1</scale><Icon><href>https://www.gstatic.com/mapspro/images/stock/1219-fac-wc-unisex.png</href></Icon></IconStyle><LabelStyle><scale>1.1</scale></LabelStyle><BalloonStyle><text><![CDATA[<h3>$[name]</h3>]]></text></BalloonStyle></Style><StyleMap id="icon-1219-nodesc"><Pair><key>normal</key><styleUrl>#icon-1219-nodesc-normal</styleUrl></Pair><Pair><key>highlight</key><styleUrl>#icon-1219-nodesc-highlight</styleUrl></Pair></StyleMap><Style id="icon-503-009D57-nodesc-normal"><IconStyle><color>ff579d00</color><scale>1.1</scale><Icon><href>https://www.gstatic.com/mapspro/images/stock/503-wht-blank_maps.png</href></Icon><hotSpot x="16" xunits="pixels" y="32" yunits="insetPixels"/></IconStyle><LabelStyle><scale>0</scale></LabelStyle><BalloonStyle><text><![CDATA[<h3>$[name]</h3>]]></text></BalloonStyle></Style><Style id="icon-503-009D57-nodesc-highlight"><IconStyle><color>ff579d00</color><scale>1.1</scale><Icon><href>https://www.gstatic.com/mapspro/images/stock/503-wht-blank_maps.png</href></Icon><hotSpot x="16" xunits="pixels" y="32" yunits="insetPixels"/></IconStyle><LabelStyle><scale>1.1</scale></LabelStyle><BalloonStyle><text><![CDATA[<h3>$[name]</h3>]]></text></BalloonStyle></Style><StyleMap id="icon-503-009D57-nodesc"><Pair><key>normal</key><styleUrl>#icon-503-009D57-nodesc-normal</styleUrl></Pair><Pair><key>highlight</key><styleUrl>#icon-503-009D57-nodesc-highlight</styleUrl></Pair></StyleMap><Style id="icon-503-DB4436-nodesc-normal"><IconStyle><color>ff3644db</color><scale>1.1</scale><Icon><href>https://www.gstatic.com/mapspro/images/stock/503-wht-blank_maps.png</href></Icon><hotSpot x="16" xunits="pixels" y="32" yunits="insetPixels"/></IconStyle><LabelStyle><scale>0</scale></LabelStyle><BalloonStyle><text><![CDATA[<h3>$[name]</h3>]]></text></BalloonStyle></Style><Style id="icon-503-DB4436-nodesc-highlight"><IconStyle><color>ff3644db</color><scale>1.1</scale><Icon><href>https://www.gstatic.com/mapspro/images/stock/503-wht-blank_maps.png</href></Icon><hotSpot x="16" xunits="pixels" y="32" yunits="insetPixels"/></IconStyle><LabelStyle><scale>1.1</scale></LabelStyle><BalloonStyle><text><![CDATA[<h3>$[name]</h3>]]></text></BalloonStyle></Style><StyleMap id="icon-503-DB4436-nodesc"><Pair><key>normal</key><styleUrl>#icon-503-DB4436-nodesc-normal</styleUrl></Pair><Pair><key>highlight</key><styleUrl>#icon-503-DB4436-nodesc-highlight</styleUrl></Pair></StyleMap><Style id="icon-991-nodesc-normal"><IconStyle><scale>1.1</scale><Icon><href>https://www.gstatic.com/mapspro/images/stock/991-biz-cafe.png</href></Icon></IconStyle><LabelStyle><scale>0</scale></LabelStyle><BalloonStyle><text><![CDATA[<h3>$[name]</h3>]]></text></BalloonStyle></Style><Style id="icon-991-nodesc-highlight"><IconStyle><scale>1.1</scale><Icon><href>https://www.gstatic.com/mapspro/images/stock/991-biz-cafe.png</href></Icon></IconStyle><LabelStyle><scale>1.1</scale></LabelStyle><BalloonStyle><text><![CDATA[<h3>$[name]</h3>]]></text></BalloonStyle></Style><StyleMap id="icon-991-nodesc"><Pair><key>normal</key><styleUrl>#icon-991-nodesc-normal</styleUrl></Pair><Pair><key>highlight</key><styleUrl>#icon-991-nodesc-highlight</styleUrl></Pair></StyleMap><Style id="line-4186F0-3713-nodesc-normal"><LineStyle><color>fff08641</color><width>3.713</width></LineStyle><BalloonStyle><text><![CDATA[<h3>$[name]</h3>]]></text></BalloonStyle></Style><Style id="line-4186F0-3713-nodesc-highlight"><LineStyle><color>fff08641</color><width>5.5695</width></LineStyle><BalloonStyle><text><![CDATA[<h3>$[name]</h3>]]></text></BalloonStyle></Style><StyleMap id="line-4186F0-3713-nodesc"><Pair><key>normal</key><styleUrl>#line-4186F0-3713-nodesc-normal</styleUrl></Pair><Pair><key>highlight</key><styleUrl>#line-4186F0-3713-nodesc-highlight</styleUrl></Pair></StyleMap><Folder><name>Untitled layer</name><Placemark><name>Course</name><styleUrl>#line-4186F0-3713-nodesc</styleUrl><LineString><tessellate>1</tessellate><coordinates>            -3.271362,51.390175,0            -3.272982,51.390443,0            -3.2737,51.390516,0            -3.274527,51.39053,0            -3.27516,51.390503,0            -3.275793,51.390496,0            -3.276222,51.390456,0            -3.276265,51.39067,0            -3.274645,51.390764,0            -3.273497,51.390811,0            -3.272724,51.390764,0            -3.271973,51.390664,0            -3.270675,51.390383,0            -3.270203,51.390289,0            -3.269559,51.389733,0            -3.269173,51.389646,0            -3.268379,51.388769,0            -3.267564,51.387765,0            -3.267242,51.387731,0            -3.266458,51.387798,0            -3.266083,51.387825,0            -3.265976,51.387852,0            -3.266158,51.3881,0            -3.266609,51.387986,0            -3.266995,51.387885,0            -3.267328,51.387792,0            -3.267403,51.387772,0          </coordinates></LineString></Placemark><Placemark><name>Finish</name><styleUrl>#icon-503-DB4436-nodesc</styleUrl><Point><coordinates>            -3.271276,51.390175,0          </coordinates></Point></Placemark><Placemark><name>Start</name><styleUrl>#icon-503-009D57-nodesc</styleUrl><Point><coordinates>            -3.271362,51.390175,0          </coordinates></Point></Placemark><Placemark><name>Pay and Display Car Park</name><styleUrl>#icon-1207-nodesc</styleUrl><Point><coordinates>            -3.279333,51.391835,0          </coordinates></Point></Placemark><Placemark><name>Pay and Display Car Park</name><styleUrl>#icon-1207-nodesc</styleUrl><Point><coordinates>            -3.270407,51.390691,0          </coordinates></Point></Placemark><Placemark><name>Toilets</name><styleUrl>#icon-1219-nodesc</styleUrl><Point><coordinates>            -3.278636,51.392726,0          </coordinates></Point></Placemark><Placemark><name>Toilets</name><styleUrl>#icon-1219-nodesc</styleUrl><Point><coordinates>            -3.277391,51.390383,0          </coordinates></Point></Placemark><Placemark><name>Cafe</name><styleUrl>#icon-991-nodesc</styleUrl><Point><coordinates>            -3.277177,51.39051,0          </coordinates></Point></Placemark></Folder></Document></kml>