<?xml version="1.0" encoding="UTF-8"?><kml xmlns="http://www.opengis.net/kml/2.2"><Document><name>Basingstoke parkrun</name><description>Free 5km timed run every Saturday at 9am</description><Style id="icon-1453-normal"><IconStyle><scale>1.1</scale><Icon><href>https://www.gstatic.com/mapspro/images/stock/1453-trans-parking.png</href></Icon></IconStyle><LabelStyle><scale>0</scale></LabelStyle></Style><Style id="icon-1453-highlight"><IconStyle><scale>1.1</scale><Icon><href>https://www.gstatic.com/mapspro/images/stock/1453-trans-parking.png</href></Icon></IconStyle><LabelStyle><scale>1.1</scale></LabelStyle></Style><StyleMap id="icon-1453"><Pair><key>normal</key><styleUrl>#icon-1453-normal</styleUrl></Pair><Pair><key>highlight</key><styleUrl>#icon-1453-highlight</styleUrl></Pair></StyleMap><Style id="icon-1899-0F9D58-nodesc-normal"><IconStyle><color>ff589d0f</color><scale>1</scale><Icon><href>https://www.gstatic.com/mapspro/images/stock/503-wht-blank_maps.png</href></Icon><hotSpot x="32" xunits="pixels" y="64" yunits="insetPixels"/></IconStyle><LabelStyle><scale>0</scale></LabelStyle><BalloonStyle><text><![CDATA[<h3>$[name]</h3>]]></text></BalloonStyle></Style><Style id="icon-1899-0F9D58-nodesc-highlight"><IconStyle><color>ff589d0f</color><scale>1</scale><Icon><href>https://www.gstatic.com/mapspro/images/stock/503-wht-blank_maps.png</href></Icon><hotSpot x="32" xunits="pixels" y="64" yunits="insetPixels"/></IconStyle><LabelStyle><scale>1</scale></LabelStyle><BalloonStyle><text><![CDATA[<h3>$[name]</h3>]]></text></BalloonStyle></Style><StyleMap id="icon-1899-0F9D58-nodesc"><Pair><key>normal</key><styleUrl>#icon-1899-0F9D58-nodesc-normal</styleUrl></Pair><Pair><key>highlight</key><styleUrl>#icon-1899-0F9D58-nodesc-highlight</styleUrl></Pair></StyleMap><Style id="icon-1899-FF5252-nodesc-normal"><IconStyle><color>ff5252ff</color><scale>1</scale><Icon><href>https://www.gstatic.com/mapspro/images/stock/503-wht-blank_maps.png</href></Icon><hotSpot x="32" xunits="pixels" y="64" yunits="insetPixels"/></IconStyle><LabelStyle><scale>0</scale></LabelStyle><BalloonStyle><text><![CDATA[<h3>$[name]</h3>]]></text></BalloonStyle></Style><Style id="icon-1899-FF5252-nodesc-highlight"><IconStyle><color>ff5252ff</color><scale>1</scale><Icon><href>https://www.gstatic.com/mapspro/images/stock/503-wht-blank_maps.png</href></Icon><hotSpot x="32" xunits="pixels" y="64" yunits="insetPixels"/></IconStyle><LabelStyle><scale>1</scale></LabelStyle><BalloonStyle><text><![CDATA[<h3>$[name]</h3>]]></text></BalloonStyle></Style><StyleMap id="icon-1899-FF5252-nodesc"><Pair><key>normal</key><styleUrl>#icon-1899-FF5252-nodesc-normal</styleUrl></Pair><Pair><key>highlight</key><styleUrl>#icon-1899-FF5252-nodesc-highlight</styleUrl></Pair></StyleMap><Style id="icon-35-nodesc-normal"><IconStyle><scale>1.1</scale><Icon><href>https://www.gstatic.com/mapspro/images/stock/35-coffeehouse.png</href></Icon></IconStyle><LabelStyle><scale>0</scale></LabelStyle><BalloonStyle><text><![CDATA[<h3>$[name]</h3>]]></text></BalloonStyle></Style><Style id="icon-35-nodesc-highlight"><IconStyle><scale>1.1</scale><Icon><href>https://www.gstatic.com/mapspro/images/stock/35-coffeehouse.png</href></Icon></IconStyle><LabelStyle><scale>1.1</scale></LabelStyle><BalloonStyle><text><![CDATA[<h3>$[name]</h3>]]></text></BalloonStyle></Style><StyleMap id="icon-35-nodesc"><Pair><key>normal</key><styleUrl>#icon-35-nodesc-normal</styleUrl></Pair><Pair><key>highlight</key><styleUrl>#icon-35-nodesc-highlight</styleUrl></Pair></StyleMap><Style id="line-0288D1-6000-nodesc-normal"><LineStyle><color>ffd18802</color><width>6</width></LineStyle><BalloonStyle><text><![CDATA[<h3>$[name]</h3>]]></text></BalloonStyle></Style><Style id="line-0288D1-6000-nodesc-highlight"><LineStyle><color>ffd18802</color><width>9</width></LineStyle><BalloonStyle><text><![CDATA[<h3>$[name]</h3>]]></text></BalloonStyle></Style><StyleMap id="line-0288D1-6000-nodesc"><Pair><key>normal</key><styleUrl>#line-0288D1-6000-nodesc-normal</styleUrl></Pair><Pair><key>highlight</key><styleUrl>#line-0288D1-6000-nodesc-highlight</styleUrl></Pair></StyleMap><Folder><name>Tracks</name><Placemark><name>Course</name><styleUrl>#line-0288D1-6000-nodesc</styleUrl><LineString><tessellate>1</tessellate><coordinates>            -1.075914,51.260918,0            -1.075878,51.259929,0            -1.075968,51.259874,0            -1.076128,51.259853,0            -1.07635,51.259836,0            -1.076759,51.259825,0            -1.077156,51.259817,0            -1.077773,51.259824,0            -1.078282,51.259874,0            -1.078404,51.259918,0            -1.078274,51.260841,0            -1.078154,51.26086,0            -1.077004,51.260906,0            -1.075914,51.260918,0            -1.075355,51.260518,0            -1.075223,51.260647,0            -1.074934,51.26104,0            -1.074729,51.261185,0            -1.074024,51.260936,0            -1.074354,51.260544,0            -1.074483,51.260348,0            -1.074539,51.26017,0            -1.074492,51.259804,0            -1.07437,51.259592,0            -1.074393,51.259394,0            -1.074713,51.259079,0            -1.075369,51.258813,0            -1.076062,51.258565,0            -1.076937,51.258358,0            -1.078602,51.258179,0            -1.079983,51.258124,0            -1.080141,51.258174,0            -1.080408,51.258186,0            -1.081136,51.258355,0            -1.08159,51.258508,0            -1.081978,51.258647,0            -1.082448,51.258754,0            -1.082695,51.258813,0            -1.082846,51.258852,0            -1.082929,51.258906,0            -1.083076,51.259088,0            -1.083323,51.259641,0            -1.083543,51.260195,0            -1.083498,51.260707,0            -1.083438,51.261207,0            -1.083355,51.26137,0            -1.08324,51.261506,0            -1.083053,51.261645,0            -1.082807,51.261751,0            -1.082624,51.261761,0            -1.082442,51.261742,0            -1.08223,51.261699,0            -1.082002,51.261613,0            -1.081919,51.261602,0            -1.081848,51.261624,0            -1.081785,51.261538,0            -1.081692,51.261444,0            -1.081586,51.261265,0            -1.081484,51.261088,0            -1.081494,51.261031,0            -1.081596,51.260714,0            -1.081522,51.260277,0            -1.08145,51.260191,0            -1.081376,51.260107,0            -1.081215,51.260054,0            -1.080963,51.259982,0            -1.080674,51.259855,0            -1.080095,51.259589,0            -1.079102,51.25957,0            -1.078865,51.25953,0            -1.078704,51.25946,0            -1.078586,51.259341,0            -1.078418,51.259275,0            -1.078231,51.259222,0            -1.07803,51.259206,0            -1.077608,51.259216,0            -1.077543,51.259243,0            -1.077541,51.259304,0            -1.076915,51.260182,0            -1.077541,51.259304,0            -1.077594,51.259701,0            -1.077658,51.259724,0            -1.077936,51.259835,0          </coordinates></LineString></Placemark><Placemark><name>Car park</name><description>Car park</description><styleUrl>#icon-1453</styleUrl><Point><coordinates>            -1.08313,51.262778,0          </coordinates></Point></Placemark><Placemark><name>Coffee</name><styleUrl>#icon-35-nodesc</styleUrl><Point><coordinates>            -1.084846,51.262311,0          </coordinates></Point></Placemark><Placemark><name>Finish</name><styleUrl>#icon-1899-FF5252-nodesc</styleUrl><Point><coordinates>            -1.076915,51.260182,0          </coordinates></Point></Placemark><Placemark><name>Start</name><styleUrl>#icon-1899-0F9D58-nodesc</styleUrl><Point><coordinates>            -1.078234,51.260851,0          </coordinates></Point></Placemark></Folder></Document></kml>