<?xml version="1.0" encoding="UTF-8"?><kml xmlns="http://www.opengis.net/kml/2.2"><Document><name>Battlestead Croft parkrun (from Jan 2026)</name><description/><Style id="icon-1899-0F9D58-nodesc-normal"><IconStyle><color>ff589d0f</color><scale>1</scale><Icon><href>https://www.gstatic.com/mapspro/images/stock/503-wht-blank_maps.png</href></Icon><hotSpot x="32" xunits="pixels" y="64" yunits="insetPixels"/></IconStyle><LabelStyle><scale>0</scale></LabelStyle><BalloonStyle><text><![CDATA[<h3>$[name]</h3>]]></text></BalloonStyle></Style><Style id="icon-1899-0F9D58-nodesc-highlight"><IconStyle><color>ff589d0f</color><scale>1</scale><Icon><href>https://www.gstatic.com/mapspro/images/stock/503-wht-blank_maps.png</href></Icon><hotSpot x="32" xunits="pixels" y="64" yunits="insetPixels"/></IconStyle><LabelStyle><scale>1</scale></LabelStyle><BalloonStyle><text><![CDATA[<h3>$[name]</h3>]]></text></BalloonStyle></Style><StyleMap id="icon-1899-0F9D58-nodesc"><Pair><key>normal</key><styleUrl>#icon-1899-0F9D58-nodesc-normal</styleUrl></Pair><Pair><key>highlight</key><styleUrl>#icon-1899-0F9D58-nodesc-highlight</styleUrl></Pair></StyleMap><Style id="icon-1899-FF5252-nodesc-normal"><IconStyle><color>ff5252ff</color><scale>1</scale><Icon><href>https://www.gstatic.com/mapspro/images/stock/503-wht-blank_maps.png</href></Icon><hotSpot x="32" xunits="pixels" y="64" yunits="insetPixels"/></IconStyle><LabelStyle><scale>0</scale></LabelStyle><BalloonStyle><text><![CDATA[<h3>$[name]</h3>]]></text></BalloonStyle></Style><Style id="icon-1899-FF5252-nodesc-highlight"><IconStyle><color>ff5252ff</color><scale>1</scale><Icon><href>https://www.gstatic.com/mapspro/images/stock/503-wht-blank_maps.png</href></Icon><hotSpot x="32" xunits="pixels" y="64" yunits="insetPixels"/></IconStyle><LabelStyle><scale>1</scale></LabelStyle><BalloonStyle><text><![CDATA[<h3>$[name]</h3>]]></text></BalloonStyle></Style><StyleMap id="icon-1899-FF5252-nodesc"><Pair><key>normal</key><styleUrl>#icon-1899-FF5252-nodesc-normal</styleUrl></Pair><Pair><key>highlight</key><styleUrl>#icon-1899-FF5252-nodesc-highlight</styleUrl></Pair></StyleMap><Style id="line-0288D1-5456-nodesc-normal"><LineStyle><color>ffd18802</color><width>5.456</width></LineStyle><BalloonStyle><text><![CDATA[<h3>$[name]</h3>]]></text></BalloonStyle></Style><Style id="line-0288D1-5456-nodesc-highlight"><LineStyle><color>ffd18802</color><width>8.184</width></LineStyle><BalloonStyle><text><![CDATA[<h3>$[name]</h3>]]></text></BalloonStyle></Style><StyleMap id="line-0288D1-5456-nodesc"><Pair><key>normal</key><styleUrl>#line-0288D1-5456-nodesc-normal</styleUrl></Pair><Pair><key>highlight</key><styleUrl>#line-0288D1-5456-nodesc-highlight</styleUrl></Pair></StyleMap><Folder><name>Untitled layer</name><Placemark><name>Course</name><styleUrl>#line-0288D1-5456-nodesc</styleUrl><LineString><tessellate>1</tessellate><coordinates>            -1.682681,52.790297,0            -1.682916,52.790221,0            -1.683157,52.790158,0            -1.683425,52.790122,0            -1.684595,52.790011,0            -1.684799,52.790037,0            -1.684933,52.789992,0            -1.68511,52.789914,0            -1.685241,52.789818,0            -1.685375,52.789633,0            -1.685499,52.789296,0            -1.685522,52.789129,0            -1.685592,52.78896,0            -1.685798,52.788702,0            -1.68585,52.788571,0            -1.683999,52.787286,0            -1.683806,52.787281,0            -1.682084,52.787914,0            -1.682049,52.787925,0            -1.681994,52.787897,0            -1.681947,52.78783,0            -1.683112,52.787348,0            -1.682908,52.787113,0            -1.682642,52.786897,0            -1.682524,52.786881,0            -1.680684,52.788196,0            -1.680746,52.78824,0            -1.681868,52.787881,0            -1.68192,52.787913,0            -1.681939,52.787961,0            -1.680553,52.78848,0            -1.680338,52.788581,0            -1.680059,52.788978,0            -1.680016,52.78921,0            -1.68,52.78931,0            -1.680365,52.789468,0            -1.682196,52.790231,0            -1.68232,52.790283,0            -1.682478,52.790337,0            -1.682537,52.79038,0            -1.68255,52.790389,0            -1.682717,52.790502,0            -1.682897,52.790604,0            -1.683117,52.790632,0            -1.683251,52.790619,0            -1.683319,52.790522,0            -1.683262,52.790379,0            -1.683168,52.79022,0            -1.68318,52.79021,0            -1.683409,52.790154,0            -1.684595,52.79001,0            -1.684694,52.790024,0            -1.684799,52.790042,0            -1.684866,52.790016,0            -1.684935,52.78999,0            -1.685027,52.789953,0            -1.685115,52.789914,0            -1.685177,52.789867,0            -1.685244,52.789817,0            -1.685306,52.789722,0            -1.685378,52.789635,0            -1.685437,52.78947,0            -1.685496,52.789298,0            -1.685509,52.789212,0            -1.685522,52.789129,0            -1.685555,52.789032,0            -1.685584,52.788962,0            -1.685702,52.788826,0            -1.685798,52.788702,0            -1.685826,52.788626,0            -1.68585,52.788566,0            -1.684925,52.787927,0            -1.684002,52.787286,0            -1.683892,52.787284,0            -1.683814,52.787284,0            -1.682934,52.787598,0            -1.682082,52.787917,0            -1.682044,52.787926,0            -1.682015,52.787919,0            -1.681997,52.787894,0            -1.681966,52.787861,0            -1.681947,52.787825,0            -1.682682,52.787546,0            -1.683121,52.78735,0            -1.682905,52.787078,0            -1.682743,52.786967,0            -1.682615,52.786892,0            -1.682524,52.786881,0            -1.681644,52.787512,0            -1.680681,52.788195,0            -1.680719,52.788227,0            -1.680781,52.788227,0            -1.681298,52.788052,0            -1.681868,52.787881,0            -1.681926,52.787914,0            -1.681945,52.787963,0            -1.681264,52.788219,0            -1.680539,52.788478,0            -1.680459,52.788526,0            -1.680344,52.788574,0            -1.680196,52.78878,0            -1.680051,52.788976,0            -1.680038,52.789101,0            -1.680016,52.78921,0            -1.680008,52.789261,0            -1.680006,52.789309,0            -1.680188,52.789385,0            -1.68037,52.789471,0            -1.68099,52.789737,0            -1.681702,52.790024,0            -1.682209,52.790236,0            -1.682316,52.790275,0            -1.682417,52.790317,0            -1.682456,52.790338,0            -1.682797,52.790554,0            -1.682896,52.790598,0            -1.683065,52.790631,0            -1.683103,52.790626,0            -1.683242,52.790616,0            -1.68331,52.790524,0            -1.683255,52.790382,0            -1.683203,52.790292,0            -1.68317,52.790236,0            -1.68316,52.790219,0            -1.683175,52.790207,0            -1.683227,52.790196,0            -1.683305,52.790175,0            -1.683439,52.790142,0            -1.684023,52.790073,0            -1.684589,52.790002,0            -1.684659,52.790013,0            -1.684702,52.790021,0            -1.684801,52.790042,0            -1.684879,52.790011,0            -1.685013,52.789961,0            -1.685204,52.789854,0            -1.685319,52.789732,0            -1.685383,52.789619,0            -1.685434,52.789502,0            -1.685472,52.789384,0            -1.685501,52.789298,0            -1.685517,52.789168,0            -1.685547,52.789038,0            -1.685598,52.788941,0            -1.685719,52.788806,0            -1.685807,52.788667,0            -1.685847,52.78859,0            -1.685786,52.788516,0            -1.685083,52.788042,0            -1.684616,52.787714,0            -1.684321,52.787516,0            -1.683997,52.787283,0            -1.683809,52.787281,0            -1.683361,52.787437,0            -1.682892,52.787624,0            -1.682339,52.787826,0            -1.682087,52.787922,0            -1.682044,52.787926,0            -1.681994,52.787897,0            -1.681947,52.787836,0            -1.682022,52.787797,0            -1.682811,52.787487,0            -1.683048,52.787374,0            -1.683101,52.787332,0            -1.682853,52.78705,0            -1.68258,52.786881,0            -1.682512,52.786885,0            -1.682124,52.787163,0            -1.681631,52.787531,0            -1.681076,52.787916,0            -1.680692,52.788203,0            -1.680751,52.788243,0            -1.681068,52.788133,0            -1.681339,52.788032,0            -1.681736,52.787914,0            -1.681868,52.787881,0            -1.681934,52.787911,0            -1.681945,52.787963,0            -1.68161,52.788107,0            -1.681105,52.788266,0            -1.680714,52.788417,0            -1.680413,52.78854,0            -1.680315,52.788612,0            -1.680209,52.788754,0            -1.680046,52.788988,0            -1.680038,52.789093,0            -1.680016,52.78921,0            -1.680008,52.789315,0            -1.680282,52.789431,0            -1.681686,52.790024,0            -1.682208,52.790228,0            -1.682283,52.790255,0            -1.682464,52.790333,0            -1.682524,52.79038,0            -1.682692,52.790493,0            -1.682743,52.790513,0            -1.682784,52.790546,0            -1.682866,52.790593,0            -1.682993,52.790614,0            -1.683136,52.790619,0            -1.683236,52.790611,0            -1.683304,52.790526,0            -1.683212,52.790386,0            -1.683086,52.790242,0            -1.682985,52.790049,0            -1.682942,52.789909,0            -1.682921,52.789752,0            -1.683062,52.789454,0          </coordinates></LineString></Placemark><Placemark><name>Finish</name><styleUrl>#icon-1899-FF5252-nodesc</styleUrl><Point><coordinates>            -1.683062,52.789451,0          </coordinates></Point></Placemark><Placemark><name>Start</name><styleUrl>#icon-1899-0F9D58-nodesc</styleUrl><Point><coordinates>            -1.682682,52.7903,0          </coordinates></Point></Placemark></Folder></Document></kml>