<?xml version="1.0" encoding="UTF-8"?><kml xmlns="http://www.opengis.net/kml/2.2"><Document><name>Beckton parkrun (from Jan 2026)</name><description><![CDATA[FREE 5K. Saturday 9am weekly.<br><br>Two laps.]]></description><Style id="icon-503-009D57-nodesc-normal"><IconStyle><color>ff579d00</color><scale>1.1</scale><Icon><href>https://www.gstatic.com/mapspro/images/stock/503-wht-blank_maps.png</href></Icon><hotSpot x="16" xunits="pixels" y="32" yunits="insetPixels"/></IconStyle><LabelStyle><scale>0</scale></LabelStyle><BalloonStyle><text><![CDATA[<h3>$[name]</h3>]]></text></BalloonStyle></Style><Style id="icon-503-009D57-nodesc-highlight"><IconStyle><color>ff579d00</color><scale>1.1</scale><Icon><href>https://www.gstatic.com/mapspro/images/stock/503-wht-blank_maps.png</href></Icon><hotSpot x="16" xunits="pixels" y="32" yunits="insetPixels"/></IconStyle><LabelStyle><scale>1.1</scale></LabelStyle><BalloonStyle><text><![CDATA[<h3>$[name]</h3>]]></text></BalloonStyle></Style><StyleMap id="icon-503-009D57-nodesc"><Pair><key>normal</key><styleUrl>#icon-503-009D57-nodesc-normal</styleUrl></Pair><Pair><key>highlight</key><styleUrl>#icon-503-009D57-nodesc-highlight</styleUrl></Pair></StyleMap><Style id="icon-503-DB4436-nodesc-normal"><IconStyle><color>ff3644db</color><scale>1.1</scale><Icon><href>https://www.gstatic.com/mapspro/images/stock/503-wht-blank_maps.png</href></Icon><hotSpot x="16" xunits="pixels" y="32" yunits="insetPixels"/></IconStyle><LabelStyle><scale>0</scale></LabelStyle><BalloonStyle><text><![CDATA[<h3>$[name]</h3>]]></text></BalloonStyle></Style><Style id="icon-503-DB4436-nodesc-highlight"><IconStyle><color>ff3644db</color><scale>1.1</scale><Icon><href>https://www.gstatic.com/mapspro/images/stock/503-wht-blank_maps.png</href></Icon><hotSpot x="16" xunits="pixels" y="32" yunits="insetPixels"/></IconStyle><LabelStyle><scale>1.1</scale></LabelStyle><BalloonStyle><text><![CDATA[<h3>$[name]</h3>]]></text></BalloonStyle></Style><StyleMap id="icon-503-DB4436-nodesc"><Pair><key>normal</key><styleUrl>#icon-503-DB4436-nodesc-normal</styleUrl></Pair><Pair><key>highlight</key><styleUrl>#icon-503-DB4436-nodesc-highlight</styleUrl></Pair></StyleMap><Style id="line-4186F0-6619-nodesc-normal"><LineStyle><color>fff08641</color><width>6.619</width></LineStyle><BalloonStyle><text><![CDATA[<h3>$[name]</h3>]]></text></BalloonStyle></Style><Style id="line-4186F0-6619-nodesc-highlight"><LineStyle><color>fff08641</color><width>9.9285</width></LineStyle><BalloonStyle><text><![CDATA[<h3>$[name]</h3>]]></text></BalloonStyle></Style><StyleMap id="line-4186F0-6619-nodesc"><Pair><key>normal</key><styleUrl>#line-4186F0-6619-nodesc-normal</styleUrl></Pair><Pair><key>highlight</key><styleUrl>#line-4186F0-6619-nodesc-highlight</styleUrl></Pair></StyleMap><Folder><name>Untitled layer</name><Placemark><name>Course</name><styleUrl>#line-4186F0-6619-nodesc</styleUrl><LineString><tessellate>1</tessellate><coordinates>            0.0470375,51.5114939,0            0.0473312,51.5111058,0            0.0473916,51.5110632,0            0.0475123,51.5109872,0            0.0476021,51.5108328,0            0.0480266,51.5102581,0            0.0481024,51.510236,0            0.0489191,51.5098621,0            0.0492812,51.5097302,0            0.0494904,51.5096071,0            0.0498458,51.5096701,0            0.0505284,51.5097995,0            0.0506371,51.5098054,0            0.0507846,51.5097803,0            0.0511467,51.509716,0            0.0514645,51.5096856,0            0.0518561,51.5096518,0            0.0519768,51.5099047,0            0.0520801,51.5102143,0            0.0521564,51.5103311,0            0.0521964,51.5103477,0            0.0523874,51.5103747,0            0.0524453,51.5103744,0            0.0526104,51.5103163,0            0.0527345,51.5102845,0            0.0528938,51.5102793,0            0.0533006,51.5102101,0            0.0534205,51.5101876,0            0.0535026,51.5101749,0            0.0535316,51.5101604,0            0.0537144,51.5100396,0            0.0537837,51.5099917,0            0.0539308,51.509817,0            0.0542393,51.5095412,0            0.0543224,51.5094669,0            0.0544176,51.5094122,0            0.0546847,51.5094593,0            0.0549504,51.5095564,0            0.0551678,51.5095661,0            0.0553148,51.5095165,0            0.055601,51.5093455,0            0.055634,51.5093938,0            0.0556192,51.5094339,0            0.0550768,51.5101467,0            0.055003,51.5102198,0            0.0548521,51.5103212,0            0.0547274,51.5105165,0            0.0546691,51.5105244,0            0.054018,51.5103821,0            0.0536753,51.5103211,0            0.05298,51.5102769,0            0.0527345,51.5102845,0            0.052646,51.5103062,0            0.0521284,51.5105357,0            0.0519245,51.5106058,0            0.0513854,51.5107327,0            0.0511896,51.5108262,0            0.0508758,51.511044,0            0.0507993,51.5111283,0            0.0507832,51.5112084,0            0.0507779,51.5112752,0            0.0507905,51.5113387,0            0.0507698,51.5114225,0            0.0507402,51.5115381,0            0.0512063,51.5118573,0            0.0564099,51.5131585,0            0.0515551,51.5119659,0            0.0475544,51.5110077,0            0.0473916,51.5110632,0            0.0473312,51.5111058,0            0.0473244,51.5111638,0            0.0473546,51.5112078,0            0.0473753,51.5112606,0            0.047335,51.5113248,0            0.0473753,51.5112606,0            0.0473546,51.5112078,0            0.0473244,51.5111638,0            0.0473312,51.5111058,0            0.0473916,51.5110632,0            0.0475544,51.5110077,0            0.0515551,51.5119659,0            0.051488,51.5120167,0            0.0515668,51.5120889,0            0.0515659,51.5121411,0            0.0515476,51.51219,0            0.0515728,51.51225,0            0.0515114,51.5122776,0            0.0513076,51.5123122,0            0.0509985,51.5123036,0            0.0507628,51.5122877,0            0.0505324,51.5122679,0            0.0504037,51.5122793,0            0.0488306,51.5123886,0            0.0485624,51.5123527,0            0.0479562,51.5122542,0            0.047513,51.5122513,0            0.0473832,51.5121547,0            0.0472628,51.5120481,0            0.0471971,51.5120189,0            0.0469691,51.5119629,0            0.0469517,51.5119416,0            0.0469544,51.5119068,0            0.0471033,51.5116378,0            0.0471032,51.5115915,0            0.0470778,51.5115448,0            0.0470375,51.5114939,0          </coordinates></LineString></Placemark><Placemark><name>Finish</name><styleUrl>#icon-503-DB4436-nodesc</styleUrl><Point><coordinates>            0.047335,51.5113248,0          </coordinates></Point></Placemark><Placemark><name>Start</name><styleUrl>#icon-503-009D57-nodesc</styleUrl><Point><coordinates>            0.0470375,51.5114939,0          </coordinates></Point></Placemark></Folder></Document></kml>