<?xml version="1.0" encoding="UTF-8"?><kml xmlns="http://www.opengis.net/kml/2.2"><Document><name>Bedfont Lakes parkrun</name><description/><Style id="icon-1899-FFEA00-nodesc-normal"><IconStyle><color>ff00eaff</color><scale>1</scale><Icon><href>https://www.gstatic.com/mapspro/images/stock/503-wht-blank_maps.png</href></Icon><hotSpot x="32" xunits="pixels" y="64" yunits="insetPixels"/></IconStyle><LabelStyle><scale>0</scale></LabelStyle><BalloonStyle><text><![CDATA[<h3>$[name]</h3>]]></text></BalloonStyle></Style><Style id="icon-1899-FFEA00-nodesc-highlight"><IconStyle><color>ff00eaff</color><scale>1</scale><Icon><href>https://www.gstatic.com/mapspro/images/stock/503-wht-blank_maps.png</href></Icon><hotSpot x="32" xunits="pixels" y="64" yunits="insetPixels"/></IconStyle><LabelStyle><scale>1</scale></LabelStyle><BalloonStyle><text><![CDATA[<h3>$[name]</h3>]]></text></BalloonStyle></Style><StyleMap id="icon-1899-FFEA00-nodesc"><Pair><key>normal</key><styleUrl>#icon-1899-FFEA00-nodesc-normal</styleUrl></Pair><Pair><key>highlight</key><styleUrl>#icon-1899-FFEA00-nodesc-highlight</styleUrl></Pair></StyleMap><Style id="line-4186F0-5814-nodesc-normal"><LineStyle><color>fff08641</color><width>5.814</width></LineStyle><BalloonStyle><text><![CDATA[<h3>$[name]</h3>]]></text></BalloonStyle></Style><Style id="line-4186F0-5814-nodesc-highlight"><LineStyle><color>fff08641</color><width>8.721</width></LineStyle><BalloonStyle><text><![CDATA[<h3>$[name]</h3>]]></text></BalloonStyle></Style><StyleMap id="line-4186F0-5814-nodesc"><Pair><key>normal</key><styleUrl>#line-4186F0-5814-nodesc-normal</styleUrl></Pair><Pair><key>highlight</key><styleUrl>#line-4186F0-5814-nodesc-highlight</styleUrl></Pair></StyleMap><Folder><name>Untitled layer</name><Placemark><name>Course</name><styleUrl>#line-4186F0-5814-nodesc</styleUrl><LineString><tessellate>1</tessellate><coordinates>            -0.444224,51.442109,0            -0.444492,51.441969,0            -0.44475,51.441875,0            -0.444986,51.441808,0            -0.445372,51.441868,0            -0.445812,51.441908,0            -0.445941,51.441982,0            -0.446145,51.442096,0            -0.446295,51.442149,0            -0.44667,51.442016,0            -0.447014,51.441942,0            -0.447282,51.441822,0            -0.447915,51.441561,0            -0.448065,51.441541,0            -0.448312,51.441561,0            -0.448591,51.44148,0            -0.449041,51.441347,0            -0.449267,51.441273,0            -0.449588,51.441086,0            -0.449803,51.441059,0            -0.450211,51.441059,0            -0.450458,51.441032,0            -0.450758,51.440919,0            -0.451123,51.440765,0            -0.451284,51.440725,0            -0.451187,51.440618,0            -0.451209,51.440257,0            -0.451327,51.440056,0            -0.451541,51.439822,0            -0.45152,51.439655,0            -0.451359,51.439521,0            -0.451176,51.439448,0            -0.451016,51.439307,0            -0.450543,51.439394,0            -0.44917,51.439702,0            -0.449009,51.439748,0            -0.447893,51.439956,0            -0.447711,51.440023,0            -0.447282,51.440116,0            -0.446338,51.440297,0            -0.445426,51.440524,0            -0.444739,51.440698,0            -0.444428,51.440752,0            -0.443999,51.440845,0            -0.443409,51.441032,0            -0.442904,51.441086,0            -0.442304,51.4412,0            -0.441853,51.4413,0            -0.44122,51.44138,0            -0.440877,51.44148,0            -0.440265,51.441634,0            -0.439868,51.441701,0            -0.439664,51.441828,0            -0.43946,51.442029,0            -0.4393,51.44249,0            -0.439064,51.442845,0            -0.438988,51.443072,0            -0.439203,51.443333,0            -0.439407,51.443514,0            -0.439621,51.44358,0            -0.439997,51.443694,0            -0.440372,51.443834,0            -0.440362,51.444055,0            -0.440308,51.444476,0            -0.440383,51.44463,0            -0.440587,51.44457,0            -0.440791,51.444503,0            -0.441156,51.444503,0            -0.44136,51.444503,0            -0.441499,51.44443,0            -0.441606,51.444302,0            -0.441789,51.444222,0            -0.442207,51.444189,0            -0.442454,51.444182,0            -0.442765,51.444068,0            -0.44298,51.444135,0            -0.443216,51.444189,0            -0.443419,51.444182,0            -0.443548,51.444095,0            -0.44357,51.443935,0            -0.443559,51.443567,0            -0.443774,51.443467,0            -0.44417,51.443212,0            -0.444364,51.443139,0            -0.444707,51.443086,0            -0.444986,51.442992,0            -0.445308,51.442865,0            -0.445608,51.442711,0            -0.445844,51.442577,0            -0.445994,51.442403,0            -0.446134,51.442263,0            -0.446273,51.442149,0            -0.446123,51.442096,0          </coordinates></LineString></Placemark><Placemark><name>Start/Finish</name><styleUrl>#icon-1899-FFEA00-nodesc</styleUrl><Point><coordinates>            -0.444192,51.442176,0          </coordinates></Point></Placemark></Folder></Document></kml>