<?xml version="1.0" encoding="UTF-8"?><kml xmlns="http://www.opengis.net/kml/2.2"><Document><name>Bicester parkrun</name><description/><Style id="icon-1899-FFEA00-nodesc-normal"><IconStyle><color>ff00eaff</color><scale>1</scale><Icon><href>https://www.gstatic.com/mapspro/images/stock/503-wht-blank_maps.png</href></Icon><hotSpot x="32" xunits="pixels" y="64" yunits="insetPixels"/></IconStyle><LabelStyle><scale>0</scale></LabelStyle><BalloonStyle><text><![CDATA[<h3>$[name]</h3>]]></text></BalloonStyle></Style><Style id="icon-1899-FFEA00-nodesc-highlight"><IconStyle><color>ff00eaff</color><scale>1</scale><Icon><href>https://www.gstatic.com/mapspro/images/stock/503-wht-blank_maps.png</href></Icon><hotSpot x="32" xunits="pixels" y="64" yunits="insetPixels"/></IconStyle><LabelStyle><scale>1</scale></LabelStyle><BalloonStyle><text><![CDATA[<h3>$[name]</h3>]]></text></BalloonStyle></Style><StyleMap id="icon-1899-FFEA00-nodesc"><Pair><key>normal</key><styleUrl>#icon-1899-FFEA00-nodesc-normal</styleUrl></Pair><Pair><key>highlight</key><styleUrl>#icon-1899-FFEA00-nodesc-highlight</styleUrl></Pair></StyleMap><Style id="line-4186F0-4509-nodesc-normal"><LineStyle><color>fff08641</color><width>4.509</width></LineStyle><BalloonStyle><text><![CDATA[<h3>$[name]</h3>]]></text></BalloonStyle></Style><Style id="line-4186F0-4509-nodesc-highlight"><LineStyle><color>fff08641</color><width>6.7635</width></LineStyle><BalloonStyle><text><![CDATA[<h3>$[name]</h3>]]></text></BalloonStyle></Style><StyleMap id="line-4186F0-4509-nodesc"><Pair><key>normal</key><styleUrl>#line-4186F0-4509-nodesc-normal</styleUrl></Pair><Pair><key>highlight</key><styleUrl>#line-4186F0-4509-nodesc-highlight</styleUrl></Pair></StyleMap><Folder><name>Untitled layer</name><Placemark><name>Course</name><styleUrl>#line-4186F0-4509-nodesc</styleUrl><LineString><tessellate>1</tessellate><coordinates>            -1.14688,51.8911,0            -1.14673,51.891193,0            -1.146473,51.891239,0            -1.146151,51.891246,0            -1.145647,51.891312,0            -1.145475,51.891319,0            -1.145314,51.891279,0            -1.145132,51.891365,0            -1.144778,51.891471,0            -1.144348,51.891557,0            -1.143823,51.891722,0            -1.143458,51.891868,0            -1.143093,51.891994,0            -1.142803,51.892318,0            -1.142621,51.892491,0            -1.142546,51.89257,0            -1.142482,51.892775,0            -1.142374,51.892921,0            -1.142095,51.89308,0            -1.141741,51.893232,0            -1.141505,51.893371,0            -1.141291,51.893537,0            -1.141033,51.893649,0            -1.140529,51.893901,0            -1.140314,51.894027,0            -1.139939,51.894258,0            -1.139799,51.894311,0            -1.139628,51.894331,0            -1.13937,51.894477,0            -1.139091,51.894603,0            -1.138748,51.894715,0            -1.138351,51.894914,0            -1.137932,51.895146,0            -1.1379,51.895205,0            -1.138094,51.895318,0            -1.138201,51.895397,0            -1.138169,51.895503,0            -1.138061,51.895609,0            -1.137814,51.895675,0            -1.137525,51.895755,0            -1.137321,51.895834,0            -1.136645,51.895768,0            -1.135969,51.895556,0            -1.13539,51.895331,0            -1.135143,51.895218,0            -1.135583,51.894987,0            -1.135701,51.894947,0            -1.135873,51.894947,0            -1.136034,51.894947,0            -1.13627,51.894821,0            -1.136366,51.894702,0            -1.136527,51.894682,0            -1.136795,51.894682,0            -1.136946,51.894636,0            -1.137085,51.894556,0            -1.137224,51.89447,0            -1.137364,51.894411,0            -1.137471,51.894344,0            -1.137654,51.894212,0            -1.137857,51.894106,0            -1.138212,51.893735,0            -1.138555,51.893643,0            -1.138769,51.893583,0            -1.13893,51.893444,0            -1.139048,51.893325,0            -1.13922,51.893239,0            -1.13937,51.893133,0            -1.139445,51.892981,0            -1.139617,51.892914,0            -1.139874,51.892914,0            -1.139992,51.892842,0            -1.140153,51.892716,0            -1.140443,51.892596,0            -1.140647,51.892451,0            -1.140883,51.892259,0            -1.14099,51.892133,0            -1.14114,51.892054,0            -1.141323,51.892027,0            -1.141484,51.891875,0            -1.142042,51.891577,0            -1.14261,51.891319,0            -1.142911,51.891199,0            -1.143115,51.891186,0            -1.143394,51.891001,0            -1.143801,51.890756,0            -1.144166,51.890564,0            -1.144338,51.890491,0            -1.14467,51.890418,0            -1.144938,51.890325,0            -1.145067,51.8902,0            -1.145293,51.890127,0            -1.145529,51.889955,0            -1.145765,51.889809,0            -1.145915,51.889657,0            -1.146097,51.889584,0            -1.145958,51.889835,0            -1.145797,51.890127,0            -1.145582,51.890358,0            -1.145368,51.890491,0            -1.14496,51.890643,0            -1.144874,51.890743,0            -1.144938,51.890822,0            -1.145056,51.890882,0            -1.14525,51.890749,0            -1.14541,51.890643,0            -1.145722,51.89059,0            -1.146108,51.890537,0            -1.146387,51.890531,0            -1.146591,51.890604,0            -1.146784,51.890756,0            -1.146859,51.890928,0            -1.146913,51.891047,0          </coordinates></LineString></Placemark><Placemark><name>Start/Finish</name><styleUrl>#icon-1899-FFEA00-nodesc</styleUrl><Point><coordinates>            -1.1425169,51.892565,0          </coordinates></Point></Placemark></Folder></Document></kml>