<?xml version="1.0" encoding="UTF-8"?><kml xmlns="http://www.opengis.net/kml/2.2"><Document><name>Bittesby Country Park parkrun</name><description/><Style id="icon-1899-0F9D58-nodesc-normal"><IconStyle><color>ff589d0f</color><scale>1</scale><Icon><href>https://www.gstatic.com/mapspro/images/stock/503-wht-blank_maps.png</href></Icon><hotSpot x="32" xunits="pixels" y="64" yunits="insetPixels"/></IconStyle><LabelStyle><scale>0</scale></LabelStyle><BalloonStyle><text><![CDATA[<h3>$[name]</h3>]]></text></BalloonStyle></Style><Style id="icon-1899-0F9D58-nodesc-highlight"><IconStyle><color>ff589d0f</color><scale>1</scale><Icon><href>https://www.gstatic.com/mapspro/images/stock/503-wht-blank_maps.png</href></Icon><hotSpot x="32" xunits="pixels" y="64" yunits="insetPixels"/></IconStyle><LabelStyle><scale>1</scale></LabelStyle><BalloonStyle><text><![CDATA[<h3>$[name]</h3>]]></text></BalloonStyle></Style><StyleMap id="icon-1899-0F9D58-nodesc"><Pair><key>normal</key><styleUrl>#icon-1899-0F9D58-nodesc-normal</styleUrl></Pair><Pair><key>highlight</key><styleUrl>#icon-1899-0F9D58-nodesc-highlight</styleUrl></Pair></StyleMap><Style id="icon-1899-E65100-nodesc-normal"><IconStyle><color>ff0051e6</color><scale>1</scale><Icon><href>https://www.gstatic.com/mapspro/images/stock/503-wht-blank_maps.png</href></Icon><hotSpot x="32" xunits="pixels" y="64" yunits="insetPixels"/></IconStyle><LabelStyle><scale>0</scale></LabelStyle><BalloonStyle><text><![CDATA[<h3>$[name]</h3>]]></text></BalloonStyle></Style><Style id="icon-1899-E65100-nodesc-highlight"><IconStyle><color>ff0051e6</color><scale>1</scale><Icon><href>https://www.gstatic.com/mapspro/images/stock/503-wht-blank_maps.png</href></Icon><hotSpot x="32" xunits="pixels" y="64" yunits="insetPixels"/></IconStyle><LabelStyle><scale>1</scale></LabelStyle><BalloonStyle><text><![CDATA[<h3>$[name]</h3>]]></text></BalloonStyle></Style><StyleMap id="icon-1899-E65100-nodesc"><Pair><key>normal</key><styleUrl>#icon-1899-E65100-nodesc-normal</styleUrl></Pair><Pair><key>highlight</key><styleUrl>#icon-1899-E65100-nodesc-highlight</styleUrl></Pair></StyleMap><Style id="line-0288D1-6038-nodesc-normal"><LineStyle><color>ffd18802</color><width>6.038</width></LineStyle><BalloonStyle><text><![CDATA[<h3>$[name]</h3>]]></text></BalloonStyle></Style><Style id="line-0288D1-6038-nodesc-highlight"><LineStyle><color>ffd18802</color><width>9.057</width></LineStyle><BalloonStyle><text><![CDATA[<h3>$[name]</h3>]]></text></BalloonStyle></Style><StyleMap id="line-0288D1-6038-nodesc"><Pair><key>normal</key><styleUrl>#line-0288D1-6038-nodesc-normal</styleUrl></Pair><Pair><key>highlight</key><styleUrl>#line-0288D1-6038-nodesc-highlight</styleUrl></Pair></StyleMap><Folder><name>Untitled layer</name><Placemark><name>Course</name><styleUrl>#line-0288D1-6038-nodesc</styleUrl><LineString><tessellate>1</tessellate><coordinates>            -1.265381,52.466997,0            -1.265585,52.467042,0            -1.266519,52.46713,0            -1.266633,52.467195,0            -1.266717,52.467277,0            -1.26679,52.467476,0            -1.26672,52.467793,0            -1.266456,52.4685,0            -1.266295,52.468872,0            -1.266201,52.469236,0            -1.266089,52.47001,0            -1.266009,52.470313,0            -1.265918,52.470531,0            -1.265894,52.470712,0            -1.265895,52.470873,0            -1.265962,52.471106,0            -1.266066,52.471306,0            -1.26652,52.471797,0            -1.267017,52.472269,0            -1.268676,52.473676,0            -1.269733,52.474538,0            -1.26998,52.474752,0            -1.270104,52.4749,0            -1.270244,52.475032,0            -1.270384,52.475103,0            -1.270532,52.475152,0            -1.270997,52.475283,0            -1.270879,52.475471,0            -1.270463,52.475388,0            -1.269963,52.47523,0            -1.269683,52.475174,0            -1.269594,52.474703,0            -1.269421,52.474452,0            -1.26923,52.474303,0            -1.269132,52.474262,0            -1.269031,52.474228,0            -1.268905,52.474218,0            -1.26874,52.47425,0            -1.268612,52.474234,0            -1.268511,52.474185,0            -1.268433,52.47411,0            -1.268237,52.473901,0            -1.268088,52.47383,0            -1.26794,52.473733,0            -1.267703,52.473458,0            -1.267229,52.473196,0            -1.266794,52.473062,0            -1.266566,52.473027,0            -1.266152,52.473089,0            -1.266016,52.473068,0            -1.265906,52.473028,0            -1.265832,52.472965,0            -1.265792,52.472899,0            -1.265668,52.472646,0            -1.265354,52.472374,0            -1.26517,52.472259,0            -1.265014,52.472177,0            -1.26498,52.472091,0            -1.265055,52.471836,0            -1.26512,52.471737,0            -1.265134,52.471626,0            -1.265171,52.471537,0            -1.26522,52.471277,0            -1.265304,52.471131,0            -1.26541,52.470713,0            -1.265877,52.470704,0            -1.265902,52.470524,0            -1.265986,52.470312,0            -1.266067,52.470009,0            -1.26613,52.469612,0            -1.266175,52.469266,0            -1.266239,52.46899,0          </coordinates></LineString></Placemark><Placemark><name>Finish</name><styleUrl>#icon-1899-E65100-nodesc</styleUrl><Point><coordinates>            -1.266239,52.46898,0          </coordinates></Point></Placemark><Placemark><name>Start</name><styleUrl>#icon-1899-0F9D58-nodesc</styleUrl><Point><coordinates>            -1.265379,52.466993,0          </coordinates></Point></Placemark></Folder></Document></kml>