<?xml version="1.0" encoding="UTF-8"?><kml xmlns="http://www.opengis.net/kml/2.2"><Document><name>Brentwood Parkrun (from Apr 2023)</name><description/><Style id="icon-1899-0F9D58-nodesc-normal"><IconStyle><color>ff589d0f</color><scale>1</scale><Icon><href>https://www.gstatic.com/mapspro/images/stock/503-wht-blank_maps.png</href></Icon><hotSpot x="32" xunits="pixels" y="64" yunits="insetPixels"/></IconStyle><LabelStyle><scale>0</scale></LabelStyle><BalloonStyle><text><![CDATA[<h3>$[name]</h3>]]></text></BalloonStyle></Style><Style id="icon-1899-0F9D58-nodesc-highlight"><IconStyle><color>ff589d0f</color><scale>1</scale><Icon><href>https://www.gstatic.com/mapspro/images/stock/503-wht-blank_maps.png</href></Icon><hotSpot x="32" xunits="pixels" y="64" yunits="insetPixels"/></IconStyle><LabelStyle><scale>1</scale></LabelStyle><BalloonStyle><text><![CDATA[<h3>$[name]</h3>]]></text></BalloonStyle></Style><StyleMap id="icon-1899-0F9D58-nodesc"><Pair><key>normal</key><styleUrl>#icon-1899-0F9D58-nodesc-normal</styleUrl></Pair><Pair><key>highlight</key><styleUrl>#icon-1899-0F9D58-nodesc-highlight</styleUrl></Pair></StyleMap><Style id="icon-1899-C2185B-nodesc-normal"><IconStyle><color>ff5b18c2</color><scale>1</scale><Icon><href>https://www.gstatic.com/mapspro/images/stock/503-wht-blank_maps.png</href></Icon><hotSpot x="32" xunits="pixels" y="64" yunits="insetPixels"/></IconStyle><LabelStyle><scale>0</scale></LabelStyle><BalloonStyle><text><![CDATA[<h3>$[name]</h3>]]></text></BalloonStyle></Style><Style id="icon-1899-C2185B-nodesc-highlight"><IconStyle><color>ff5b18c2</color><scale>1</scale><Icon><href>https://www.gstatic.com/mapspro/images/stock/503-wht-blank_maps.png</href></Icon><hotSpot x="32" xunits="pixels" y="64" yunits="insetPixels"/></IconStyle><LabelStyle><scale>1</scale></LabelStyle><BalloonStyle><text><![CDATA[<h3>$[name]</h3>]]></text></BalloonStyle></Style><StyleMap id="icon-1899-C2185B-nodesc"><Pair><key>normal</key><styleUrl>#icon-1899-C2185B-nodesc-normal</styleUrl></Pair><Pair><key>highlight</key><styleUrl>#icon-1899-C2185B-nodesc-highlight</styleUrl></Pair></StyleMap><Style id="line-0288D1-5263-nodesc-normal"><LineStyle><color>ffd18802</color><width>5.263</width></LineStyle><BalloonStyle><text><![CDATA[<h3>$[name]</h3>]]></text></BalloonStyle></Style><Style id="line-0288D1-5263-nodesc-highlight"><LineStyle><color>ffd18802</color><width>7.8945</width></LineStyle><BalloonStyle><text><![CDATA[<h3>$[name]</h3>]]></text></BalloonStyle></Style><StyleMap id="line-0288D1-5263-nodesc"><Pair><key>normal</key><styleUrl>#line-0288D1-5263-nodesc-normal</styleUrl></Pair><Pair><key>highlight</key><styleUrl>#line-0288D1-5263-nodesc-highlight</styleUrl></Pair></StyleMap><Folder><name>Untitled layer</name><Placemark><name>Course</name><styleUrl>#line-0288D1-5263-nodesc</styleUrl><LineString><tessellate>1</tessellate><coordinates>            0.265253,51.624211,0            0.266916,51.622545,0            0.270232,51.623911,0            0.26933,51.626099,0            0.268622,51.627046,0            0.268076,51.627915,0            0.268327,51.628373,0            0.268426,51.628603,0            0.268354,51.628833,0            0.267115,51.631134,0            0.267332,51.632045,0            0.266949,51.633435,0            0.266059,51.6354,0            0.264814,51.635027,0            0.265179,51.634255,0            0.26563,51.633855,0            0.266542,51.633223,0            0.264492,51.632843,0            0.262668,51.63235,0            0.26048,51.631844,0            0.259621,51.631658,0            0.258935,51.630805,0            0.258699,51.630219,0            0.258763,51.630073,0            0.258935,51.62986,0            0.259042,51.629607,0            0.261553,51.626356,0            0.262111,51.626783,0            0.262411,51.626889,0            0.262218,51.627968,0            0.263763,51.628228,0            0.265308,51.628248,0            0.26623,51.628334,0            0.267142,51.628245,0            0.268076,51.627915,0            0.268714,51.626952,0            0.26946,51.625937,0            0.270264,51.623826,0            0.266917,51.62264,0            0.265253,51.624211,0          </coordinates></LineString></Placemark><Placemark><name>Finish</name><styleUrl>#icon-1899-C2185B-nodesc</styleUrl><Point><coordinates>            0.265253,51.624211,0          </coordinates></Point></Placemark><Placemark><name>Start</name><styleUrl>#icon-1899-0F9D58-nodesc</styleUrl><Point><coordinates>            0.265253,51.624211,0          </coordinates></Point></Placemark></Folder></Document></kml>