<?xml version="1.0" encoding="UTF-8"?><kml xmlns="http://www.opengis.net/kml/2.2"><Document><name>Brickfields Park parkrun</name><description/><Style id="icon-1899-FFEA00-nodesc-normal"><IconStyle><color>ff00eaff</color><scale>1</scale><Icon><href>https://www.gstatic.com/mapspro/images/stock/503-wht-blank_maps.png</href></Icon><hotSpot x="32" xunits="pixels" y="64" yunits="insetPixels"/></IconStyle><LabelStyle><scale>0</scale></LabelStyle><BalloonStyle><text><![CDATA[<h3>$[name]</h3>]]></text></BalloonStyle></Style><Style id="icon-1899-FFEA00-nodesc-highlight"><IconStyle><color>ff00eaff</color><scale>1</scale><Icon><href>https://www.gstatic.com/mapspro/images/stock/503-wht-blank_maps.png</href></Icon><hotSpot x="32" xunits="pixels" y="64" yunits="insetPixels"/></IconStyle><LabelStyle><scale>1</scale></LabelStyle><BalloonStyle><text><![CDATA[<h3>$[name]</h3>]]></text></BalloonStyle></Style><StyleMap id="icon-1899-FFEA00-nodesc"><Pair><key>normal</key><styleUrl>#icon-1899-FFEA00-nodesc-normal</styleUrl></Pair><Pair><key>highlight</key><styleUrl>#icon-1899-FFEA00-nodesc-highlight</styleUrl></Pair></StyleMap><Style id="line-0288D1-5621-nodesc-normal"><LineStyle><color>ffd18802</color><width>5.621</width></LineStyle><BalloonStyle><text><![CDATA[<h3>$[name]</h3>]]></text></BalloonStyle></Style><Style id="line-0288D1-5621-nodesc-highlight"><LineStyle><color>ffd18802</color><width>8.4315</width></LineStyle><BalloonStyle><text><![CDATA[<h3>$[name]</h3>]]></text></BalloonStyle></Style><StyleMap id="line-0288D1-5621-nodesc"><Pair><key>normal</key><styleUrl>#line-0288D1-5621-nodesc-normal</styleUrl></Pair><Pair><key>highlight</key><styleUrl>#line-0288D1-5621-nodesc-highlight</styleUrl></Pair></StyleMap><Folder><name>Untitled layer</name><Placemark><name>Course</name><styleUrl>#line-0288D1-5621-nodesc</styleUrl><LineString><tessellate>1</tessellate><coordinates>            -2.368429,51.371644,0            -2.369588,51.371698,0            -2.3695571,51.3710229,0            -2.369738,51.370733,0            -2.3736555,51.371974,0            -2.378192,51.373493,0            -2.382421,51.3755102,0            -2.3836216,51.3761692,0            -2.3846183,51.376855,0            -2.385123,51.3779,0            -2.385273,51.379011,0            -2.385123,51.3779,0            -2.3846183,51.376855,0            -2.384844,51.376667,0            -2.3866481,51.3767089,0            -2.38656,51.376895,0            -2.387333,51.376868,0            -2.387698,51.377484,0            -2.387269,51.378033,0            -2.385488,51.377966,0            -2.385209,51.376895,0            -2.3864228,51.3768764,0            -2.386573,51.3770973,0            -2.3864765,51.3778273,0            -2.385917,51.377873,0            -2.385938,51.377498,0          </coordinates></LineString></Placemark><Placemark><name>Start/Finish</name><styleUrl>#icon-1899-FFEA00-nodesc</styleUrl><Point><coordinates>            -2.3859273,51.3774172,0          </coordinates></Point></Placemark></Folder></Document></kml>