<?xml version="1.0" encoding="UTF-8"?><kml xmlns="http://www.opengis.net/kml/2.2"><Document><name>Bromley parkrun (winter course)</name><description/><Style id="icon-25-normal"><IconStyle><scale>1.1</scale><Icon><href>https://www.gstatic.com/mapspro/images/stock/25-bus.png</href></Icon></IconStyle><LabelStyle><scale>0</scale></LabelStyle></Style><Style id="icon-25-highlight"><IconStyle><scale>1.1</scale><Icon><href>https://www.gstatic.com/mapspro/images/stock/25-bus.png</href></Icon></IconStyle><LabelStyle><scale>1.1</scale></LabelStyle></Style><StyleMap id="icon-25"><Pair><key>normal</key><styleUrl>#icon-25-normal</styleUrl></Pair><Pair><key>highlight</key><styleUrl>#icon-25-highlight</styleUrl></Pair></StyleMap><Style id="icon-503-009D57-nodesc-normal"><IconStyle><color>ff579d00</color><scale>1.1</scale><Icon><href>https://www.gstatic.com/mapspro/images/stock/503-wht-blank_maps.png</href></Icon><hotSpot x="16" xunits="pixels" y="32" yunits="insetPixels"/></IconStyle><LabelStyle><scale>0</scale></LabelStyle><BalloonStyle><text><![CDATA[<h3>$[name]</h3>]]></text></BalloonStyle></Style><Style id="icon-503-009D57-nodesc-highlight"><IconStyle><color>ff579d00</color><scale>1.1</scale><Icon><href>https://www.gstatic.com/mapspro/images/stock/503-wht-blank_maps.png</href></Icon><hotSpot x="16" xunits="pixels" y="32" yunits="insetPixels"/></IconStyle><LabelStyle><scale>1.1</scale></LabelStyle><BalloonStyle><text><![CDATA[<h3>$[name]</h3>]]></text></BalloonStyle></Style><StyleMap id="icon-503-009D57-nodesc"><Pair><key>normal</key><styleUrl>#icon-503-009D57-nodesc-normal</styleUrl></Pair><Pair><key>highlight</key><styleUrl>#icon-503-009D57-nodesc-highlight</styleUrl></Pair></StyleMap><Style id="icon-503-DB4436-nodesc-normal"><IconStyle><color>ff3644db</color><scale>1.1</scale><Icon><href>https://www.gstatic.com/mapspro/images/stock/503-wht-blank_maps.png</href></Icon><hotSpot x="16" xunits="pixels" y="32" yunits="insetPixels"/></IconStyle><LabelStyle><scale>0</scale></LabelStyle><BalloonStyle><text><![CDATA[<h3>$[name]</h3>]]></text></BalloonStyle></Style><Style id="icon-503-DB4436-nodesc-highlight"><IconStyle><color>ff3644db</color><scale>1.1</scale><Icon><href>https://www.gstatic.com/mapspro/images/stock/503-wht-blank_maps.png</href></Icon><hotSpot x="16" xunits="pixels" y="32" yunits="insetPixels"/></IconStyle><LabelStyle><scale>1.1</scale></LabelStyle><BalloonStyle><text><![CDATA[<h3>$[name]</h3>]]></text></BalloonStyle></Style><StyleMap id="icon-503-DB4436-nodesc"><Pair><key>normal</key><styleUrl>#icon-503-DB4436-nodesc-normal</styleUrl></Pair><Pair><key>highlight</key><styleUrl>#icon-503-DB4436-nodesc-highlight</styleUrl></Pair></StyleMap><Style id="icon-93-normal"><IconStyle><scale>1.1</scale><Icon><href>https://www.gstatic.com/mapspro/images/stock/93-parkinglot.png</href></Icon></IconStyle><LabelStyle><scale>0</scale></LabelStyle></Style><Style id="icon-93-highlight"><IconStyle><scale>1.1</scale><Icon><href>https://www.gstatic.com/mapspro/images/stock/93-parkinglot.png</href></Icon></IconStyle><LabelStyle><scale>1.1</scale></LabelStyle></Style><StyleMap id="icon-93"><Pair><key>normal</key><styleUrl>#icon-93-normal</styleUrl></Pair><Pair><key>highlight</key><styleUrl>#icon-93-highlight</styleUrl></Pair></StyleMap><Style id="line-4186F0-5456-nodesc-normal"><LineStyle><color>fff08641</color><width>5.456</width></LineStyle><BalloonStyle><text><![CDATA[<h3>$[name]</h3>]]></text></BalloonStyle></Style><Style id="line-4186F0-5456-nodesc-highlight"><LineStyle><color>fff08641</color><width>8.184</width></LineStyle><BalloonStyle><text><![CDATA[<h3>$[name]</h3>]]></text></BalloonStyle></Style><StyleMap id="line-4186F0-5456-nodesc"><Pair><key>normal</key><styleUrl>#line-4186F0-5456-nodesc-normal</styleUrl></Pair><Pair><key>highlight</key><styleUrl>#line-4186F0-5456-nodesc-highlight</styleUrl></Pair></StyleMap><Folder><name>Untitled layer</name><Placemark><name>Course</name><styleUrl>#line-4186F0-5456-nodesc</styleUrl><LineString><tessellate>1</tessellate><coordinates>            0.02945,51.387952,0            0.028629,51.387607,0            0.024187,51.386221,0            0.02378,51.386161,0            0.023415,51.386194,0            0.023157,51.386288,0            0.023027,51.386344,0            0.022922,51.386419,0            0.022471,51.387138,0            0.021854,51.38818,0            0.021948,51.388202,0            0.022274,51.388278,0            0.022406,51.388311,0            0.022505,51.388336,0            0.02356,51.388589,0            0.024689,51.388879,0            0.025041,51.388963,0            0.025234,51.389008,0            0.025851,51.389245,0            0.026109,51.389346,0            0.026263,51.389411,0            0.027074,51.389775,0            0.027943,51.390154,0            0.028603,51.390445,0            0.029274,51.390361,0            0.030057,51.390247,0            0.030159,51.390224,0            0.029896,51.389919,0            0.029837,51.389819,0            0.029901,51.389692,0            0.030062,51.389585,0            0.030239,51.389511,0            0.030518,51.389498,0            0.030819,51.389544,0            0.031076,51.389611,0            0.031162,51.389655,0            0.031264,51.389849,0            0.031355,51.389886,0            0.032106,51.389638,0            0.032251,51.389273,0            0.032246,51.38923,0            0.031725,51.388959,0            0.031124,51.388691,0            0.030708,51.388518,0            0.030207,51.38829,0            0.029826,51.388116,0            0.029568,51.388004,0            0.02945,51.387952,0          </coordinates></LineString></Placemark><Placemark><name>Start</name><styleUrl>#icon-503-009D57-nodesc</styleUrl><Point><coordinates>            0.02945,51.387952,0          </coordinates></Point></Placemark><Placemark><name>Finish</name><styleUrl>#icon-503-DB4436-nodesc</styleUrl><Point><coordinates>            0.027586,51.389966,0          </coordinates></Point></Placemark><Placemark><name>Hayes Lane car park</name><description>Hayes Lane car park</description><styleUrl>#icon-93</styleUrl><Point><coordinates>            0.021179,51.387785,0          </coordinates></Point></Placemark><Placemark><name>Hook Farm Road car park</name><description>Hook Farm Road car park</description><styleUrl>#icon-93</styleUrl><Point><coordinates>            0.030695,51.389994,0          </coordinates></Point></Placemark><Placemark><name><![CDATA[119, 146 & 314 Bus stop]]></name><description><![CDATA[Route 119, 146 & 314 bus stop on Hayes Lane.]]></description><styleUrl>#icon-25</styleUrl><Point><coordinates>            0.017552,51.387537,0          </coordinates></Point></Placemark><Placemark><name><![CDATA[61, 208, 261, 320, 358 & 402 Bus stop]]></name><description><![CDATA[Route 61, 208, 261, 320, 358 & 402 bus stop on Bromley Common.]]></description><styleUrl>#icon-25</styleUrl><Point><coordinates>            0.034493,51.390081,0          </coordinates></Point></Placemark></Folder></Document></kml>