<?xml version="1.0" encoding="UTF-8"?><kml xmlns="http://www.opengis.net/kml/2.2"><Document><name>Brynaman parkrun</name><description/><Style id="icon-1899-FFEA00-nodesc-normal"><IconStyle><color>ff00eaff</color><scale>1</scale><Icon><href>https://www.gstatic.com/mapspro/images/stock/503-wht-blank_maps.png</href></Icon><hotSpot x="32" xunits="pixels" y="64" yunits="insetPixels"/></IconStyle><LabelStyle><scale>0</scale></LabelStyle><BalloonStyle><text><![CDATA[<h3>$[name]</h3>]]></text></BalloonStyle></Style><Style id="icon-1899-FFEA00-nodesc-highlight"><IconStyle><color>ff00eaff</color><scale>1</scale><Icon><href>https://www.gstatic.com/mapspro/images/stock/503-wht-blank_maps.png</href></Icon><hotSpot x="32" xunits="pixels" y="64" yunits="insetPixels"/></IconStyle><LabelStyle><scale>1</scale></LabelStyle><BalloonStyle><text><![CDATA[<h3>$[name]</h3>]]></text></BalloonStyle></Style><StyleMap id="icon-1899-FFEA00-nodesc"><Pair><key>normal</key><styleUrl>#icon-1899-FFEA00-nodesc-normal</styleUrl></Pair><Pair><key>highlight</key><styleUrl>#icon-1899-FFEA00-nodesc-highlight</styleUrl></Pair></StyleMap><Style id="line-0288D1-5650-nodesc-normal"><LineStyle><color>ffd18802</color><width>5.65</width></LineStyle><BalloonStyle><text><![CDATA[<h3>$[name]</h3>]]></text></BalloonStyle></Style><Style id="line-0288D1-5650-nodesc-highlight"><LineStyle><color>ffd18802</color><width>8.475</width></LineStyle><BalloonStyle><text><![CDATA[<h3>$[name]</h3>]]></text></BalloonStyle></Style><StyleMap id="line-0288D1-5650-nodesc"><Pair><key>normal</key><styleUrl>#line-0288D1-5650-nodesc-normal</styleUrl></Pair><Pair><key>highlight</key><styleUrl>#line-0288D1-5650-nodesc-highlight</styleUrl></Pair></StyleMap><Folder><name>Untitled layer</name></Folder><Folder><name>Brynaman-parkrun-GPX-file-1.gpx</name><Placemark><name>Course</name><styleUrl>#line-0288D1-5650-nodesc</styleUrl><LineString><tessellate>1</tessellate><coordinates>            -3.869847,51.808357,0            -3.870565,51.807833,0            -3.872098,51.807241,0            -3.872311,51.807478,0            -3.872624,51.807812,0            -3.87118,51.808527,0            -3.872624,51.807812,0            -3.876879,51.807439,0            -3.8784228,51.8072013,0            -3.880747,51.806465,0            -3.881998,51.805719,0            -3.883922,51.805069,0            -3.885946,51.804352,0            -3.8873845,51.8038959,0            -3.8881471,51.8036455,0            -3.892234,51.803488,0            -3.89357,51.803709,0            -3.8982137,51.8038181,0            -3.898886,51.803569,0          </coordinates></LineString></Placemark><Placemark><name>Start/Finish</name><styleUrl>#icon-1899-FFEA00-nodesc</styleUrl><Point><coordinates>            -3.869847,51.808357,0          </coordinates></Point></Placemark></Folder></Document></kml>