<?xml version="1.0" encoding="UTF-8"?><kml xmlns="http://www.opengis.net/kml/2.2"><Document><name>Burslem Park junior parkrun</name><description/><Style id="icon-1899-0F9D58-nodesc-normal"><IconStyle><color>ff589d0f</color><scale>1</scale><Icon><href>https://www.gstatic.com/mapspro/images/stock/503-wht-blank_maps.png</href></Icon><hotSpot x="32" xunits="pixels" y="64" yunits="insetPixels"/></IconStyle><LabelStyle><scale>0</scale></LabelStyle><BalloonStyle><text><![CDATA[<h3>$[name]</h3>]]></text></BalloonStyle></Style><Style id="icon-1899-0F9D58-nodesc-highlight"><IconStyle><color>ff589d0f</color><scale>1</scale><Icon><href>https://www.gstatic.com/mapspro/images/stock/503-wht-blank_maps.png</href></Icon><hotSpot x="32" xunits="pixels" y="64" yunits="insetPixels"/></IconStyle><LabelStyle><scale>1</scale></LabelStyle><BalloonStyle><text><![CDATA[<h3>$[name]</h3>]]></text></BalloonStyle></Style><StyleMap id="icon-1899-0F9D58-nodesc"><Pair><key>normal</key><styleUrl>#icon-1899-0F9D58-nodesc-normal</styleUrl></Pair><Pair><key>highlight</key><styleUrl>#icon-1899-0F9D58-nodesc-highlight</styleUrl></Pair></StyleMap><Style id="icon-1899-FF5252-nodesc-normal"><IconStyle><color>ff5252ff</color><scale>1</scale><Icon><href>https://www.gstatic.com/mapspro/images/stock/503-wht-blank_maps.png</href></Icon><hotSpot x="32" xunits="pixels" y="64" yunits="insetPixels"/></IconStyle><LabelStyle><scale>0</scale></LabelStyle><BalloonStyle><text><![CDATA[<h3>$[name]</h3>]]></text></BalloonStyle></Style><Style id="icon-1899-FF5252-nodesc-highlight"><IconStyle><color>ff5252ff</color><scale>1</scale><Icon><href>https://www.gstatic.com/mapspro/images/stock/503-wht-blank_maps.png</href></Icon><hotSpot x="32" xunits="pixels" y="64" yunits="insetPixels"/></IconStyle><LabelStyle><scale>1</scale></LabelStyle><BalloonStyle><text><![CDATA[<h3>$[name]</h3>]]></text></BalloonStyle></Style><StyleMap id="icon-1899-FF5252-nodesc"><Pair><key>normal</key><styleUrl>#icon-1899-FF5252-nodesc-normal</styleUrl></Pair><Pair><key>highlight</key><styleUrl>#icon-1899-FF5252-nodesc-highlight</styleUrl></Pair></StyleMap><Style id="line-0288D1-5069-nodesc-normal"><LineStyle><color>ffd18802</color><width>5.069</width></LineStyle><BalloonStyle><text><![CDATA[<h3>$[name]</h3>]]></text></BalloonStyle></Style><Style id="line-0288D1-5069-nodesc-highlight"><LineStyle><color>ffd18802</color><width>7.6035</width></LineStyle><BalloonStyle><text><![CDATA[<h3>$[name]</h3>]]></text></BalloonStyle></Style><StyleMap id="line-0288D1-5069-nodesc"><Pair><key>normal</key><styleUrl>#line-0288D1-5069-nodesc-normal</styleUrl></Pair><Pair><key>highlight</key><styleUrl>#line-0288D1-5069-nodesc-highlight</styleUrl></Pair></StyleMap><Folder><name>Untitled layer</name><Placemark><name>Course</name><styleUrl>#line-0288D1-5069-nodesc</styleUrl><LineString><tessellate>1</tessellate><coordinates>            -2.189309,53.048532,0            -2.189655,53.048844,0            -2.189293,53.048994,0            -2.189406,53.049106,0            -2.189701,53.04917,0            -2.18981,53.049109,0            -2.189904,53.049001,0            -2.189988,53.048825,0            -2.18988,53.048786,0            -2.189762,53.048738,0            -2.189883,53.04878,0            -2.189706,53.048701,0            -2.189491,53.048506,0            -2.188888,53.047975,0            -2.188786,53.047893,0            -2.188612,53.047845,0            -2.188609,53.047959,0            -2.188118,53.048165,0            -2.188062,53.048236,0            -2.187504,53.048456,0            -2.187641,53.04859,0            -2.187987,53.048457,0            -2.188652,53.049017,0            -2.188853,53.049184,0            -2.188848,53.049346,0            -2.188673,53.049549,0            -2.188885,53.049318,0            -2.189105,53.049334,0            -2.189304,53.049322,0            -2.189553,53.049247,0            -2.189762,53.049142,0            -2.189926,53.048976,0            -2.189985,53.048817,0            -2.189741,53.048727,0            -2.188778,53.047886,0            -2.188612,53.047848,0            -2.188617,53.047962,0            -2.188113,53.048164,0            -2.188062,53.048246,0            -2.187496,53.048451,0            -2.187627,53.048599,0            -2.187973,53.048462,0            -2.188853,53.049168,0            -2.188853,53.049339,0            -2.188662,53.049539,0            -2.188899,53.049317,0            -2.189312,53.049328,0            -2.189389,53.049297,0            -2.189406,53.049102,0            -2.189145,53.048875,0            -2.189006,53.048864,0            -2.18903,53.048785,0            -2.18877,53.048544,0            -2.188628,53.048415,0            -2.188475,53.048393,0            -2.188193,53.048509,0            -2.188011,53.048356,0            -2.188384,53.048165,0          </coordinates></LineString></Placemark><Placemark><name>Finish</name><styleUrl>#icon-1899-FF5252-nodesc</styleUrl><Point><coordinates>            -2.188384,53.048165,0          </coordinates></Point></Placemark><Placemark><name>Start</name><styleUrl>#icon-1899-0F9D58-nodesc</styleUrl><Point><coordinates>            -2.189298,53.04852,0          </coordinates></Point></Placemark></Folder></Document></kml>