<?xml version="1.0" encoding="UTF-8"?><kml xmlns="http://www.opengis.net/kml/2.2"><Document><name>Bury St Edmunds junior parkrun</name><description/><Style id="icon-503-009D57-normal"><IconStyle><color>ff579d00</color><scale>1.1</scale><Icon><href>https://www.gstatic.com/mapspro/images/stock/503-wht-blank_maps.png</href></Icon><hotSpot x="16" xunits="pixels" y="32" yunits="insetPixels"/></IconStyle><LabelStyle><scale>0</scale></LabelStyle></Style><Style id="icon-503-009D57-highlight"><IconStyle><color>ff579d00</color><scale>1.1</scale><Icon><href>https://www.gstatic.com/mapspro/images/stock/503-wht-blank_maps.png</href></Icon><hotSpot x="16" xunits="pixels" y="32" yunits="insetPixels"/></IconStyle><LabelStyle><scale>1.1</scale></LabelStyle></Style><StyleMap id="icon-503-009D57"><Pair><key>normal</key><styleUrl>#icon-503-009D57-normal</styleUrl></Pair><Pair><key>highlight</key><styleUrl>#icon-503-009D57-highlight</styleUrl></Pair></StyleMap><Style id="icon-503-DB4436-normal"><IconStyle><color>ff3644db</color><scale>1.1</scale><Icon><href>https://www.gstatic.com/mapspro/images/stock/503-wht-blank_maps.png</href></Icon><hotSpot x="16" xunits="pixels" y="32" yunits="insetPixels"/></IconStyle><LabelStyle><scale>0</scale></LabelStyle></Style><Style id="icon-503-DB4436-highlight"><IconStyle><color>ff3644db</color><scale>1.1</scale><Icon><href>https://www.gstatic.com/mapspro/images/stock/503-wht-blank_maps.png</href></Icon><hotSpot x="16" xunits="pixels" y="32" yunits="insetPixels"/></IconStyle><LabelStyle><scale>1.1</scale></LabelStyle></Style><StyleMap id="icon-503-DB4436"><Pair><key>normal</key><styleUrl>#icon-503-DB4436-normal</styleUrl></Pair><Pair><key>highlight</key><styleUrl>#icon-503-DB4436-highlight</styleUrl></Pair></StyleMap><Style id="line-0288D1-5069-nodesc-normal"><LineStyle><color>ffd18802</color><width>5.069</width></LineStyle><BalloonStyle><text><![CDATA[<h3>$[name]</h3>]]></text></BalloonStyle></Style><Style id="line-0288D1-5069-nodesc-highlight"><LineStyle><color>ffd18802</color><width>7.6035</width></LineStyle><BalloonStyle><text><![CDATA[<h3>$[name]</h3>]]></text></BalloonStyle></Style><StyleMap id="line-0288D1-5069-nodesc"><Pair><key>normal</key><styleUrl>#line-0288D1-5069-nodesc-normal</styleUrl></Pair><Pair><key>highlight</key><styleUrl>#line-0288D1-5069-nodesc-highlight</styleUrl></Pair></StyleMap><Folder><name>Untitled layer</name><Placemark><name>Finish</name><description>Finish 20 paces in from the junction - in line with two very large oak trees either side of field.</description><styleUrl>#icon-503-DB4436</styleUrl><Point><coordinates>            0.734917,52.246014,0          </coordinates></Point></Placemark><Placemark><name>Start</name><description>Adjacent to the hedge end</description><styleUrl>#icon-503-009D57</styleUrl><Point><coordinates>            0.734695,52.24444,0          </coordinates></Point></Placemark><Placemark><name>Course</name><styleUrl>#line-0288D1-5069-nodesc</styleUrl><LineString><tessellate>1</tessellate><coordinates>            0.734917,52.246014,0            0.735675,52.245626,0            0.73587,52.245456,0            0.735919,52.245284,0            0.735966,52.2445737,0            0.735966,52.2442781,0            0.735884,52.2441,0            0.735782,52.243999,0            0.735441,52.24399,0            0.735348,52.244063,0            0.735177,52.24418,0            0.73507,52.244249,0            0.734768,52.244354,0            0.734695,52.24444,0            0.7343566,52.2454605,0            0.734241,52.245883,0            0.7342494,52.246597,0            0.734285,52.246849,0            0.734543,52.247109,0            0.734738,52.247249,0            0.734846,52.247258,0            0.7351613,52.2471947,0            0.7353866,52.2470896,0            0.735509,52.247027,0            0.735826,52.246906,0            0.73588,52.246812,0            0.735875,52.246587,0            0.7358694,52.2463802,0            0.735826,52.246309,0            0.7356226,52.2462357,0            0.7354188,52.2461766,0            0.735309,52.246022,0            0.735275,52.245906,0            0.735358,52.2458,0          </coordinates></LineString></Placemark></Folder></Document></kml>