<?xml version="1.0" encoding="UTF-8"?><kml xmlns="http://www.opengis.net/kml/2.2"><Document><name>Cannock Chase parkrun</name><description/><Style id="icon-1899-0F9D58-nodesc-normal"><IconStyle><color>ff589d0f</color><scale>1</scale><Icon><href>https://www.gstatic.com/mapspro/images/stock/503-wht-blank_maps.png</href></Icon><hotSpot x="32" xunits="pixels" y="64" yunits="insetPixels"/></IconStyle><LabelStyle><scale>0</scale></LabelStyle><BalloonStyle><text><![CDATA[<h3>$[name]</h3>]]></text></BalloonStyle></Style><Style id="icon-1899-0F9D58-nodesc-highlight"><IconStyle><color>ff589d0f</color><scale>1</scale><Icon><href>https://www.gstatic.com/mapspro/images/stock/503-wht-blank_maps.png</href></Icon><hotSpot x="32" xunits="pixels" y="64" yunits="insetPixels"/></IconStyle><LabelStyle><scale>1</scale></LabelStyle><BalloonStyle><text><![CDATA[<h3>$[name]</h3>]]></text></BalloonStyle></Style><StyleMap id="icon-1899-0F9D58-nodesc"><Pair><key>normal</key><styleUrl>#icon-1899-0F9D58-nodesc-normal</styleUrl></Pair><Pair><key>highlight</key><styleUrl>#icon-1899-0F9D58-nodesc-highlight</styleUrl></Pair></StyleMap><Style id="icon-1899-FF5252-nodesc-normal"><IconStyle><color>ff5252ff</color><scale>1</scale><Icon><href>https://www.gstatic.com/mapspro/images/stock/503-wht-blank_maps.png</href></Icon><hotSpot x="32" xunits="pixels" y="64" yunits="insetPixels"/></IconStyle><LabelStyle><scale>0</scale></LabelStyle><BalloonStyle><text><![CDATA[<h3>$[name]</h3>]]></text></BalloonStyle></Style><Style id="icon-1899-FF5252-nodesc-highlight"><IconStyle><color>ff5252ff</color><scale>1</scale><Icon><href>https://www.gstatic.com/mapspro/images/stock/503-wht-blank_maps.png</href></Icon><hotSpot x="32" xunits="pixels" y="64" yunits="insetPixels"/></IconStyle><LabelStyle><scale>1</scale></LabelStyle><BalloonStyle><text><![CDATA[<h3>$[name]</h3>]]></text></BalloonStyle></Style><StyleMap id="icon-1899-FF5252-nodesc"><Pair><key>normal</key><styleUrl>#icon-1899-FF5252-nodesc-normal</styleUrl></Pair><Pair><key>highlight</key><styleUrl>#icon-1899-FF5252-nodesc-highlight</styleUrl></Pair></StyleMap><Style id="line-0288D1-5263-nodesc-normal"><LineStyle><color>ffd18802</color><width>5.263</width></LineStyle><BalloonStyle><text><![CDATA[<h3>$[name]</h3>]]></text></BalloonStyle></Style><Style id="line-0288D1-5263-nodesc-highlight"><LineStyle><color>ffd18802</color><width>7.8945</width></LineStyle><BalloonStyle><text><![CDATA[<h3>$[name]</h3>]]></text></BalloonStyle></Style><StyleMap id="line-0288D1-5263-nodesc"><Pair><key>normal</key><styleUrl>#line-0288D1-5263-nodesc-normal</styleUrl></Pair><Pair><key>highlight</key><styleUrl>#line-0288D1-5263-nodesc-highlight</styleUrl></Pair></StyleMap><Folder><name>Cannock Chase Park Run</name><Placemark><name>Course</name><styleUrl>#line-0288D1-5263-nodesc</styleUrl><LineString><tessellate>1</tessellate><coordinates>            -1.995446,52.737467,0            -1.994389,52.737071,0            -1.994024,52.736922,0            -1.9936,52.736753,0            -1.993064,52.736558,0            -1.992479,52.736353,0            -1.992184,52.736227,0            -1.991706,52.736058,0            -1.991422,52.735973,0            -1.991127,52.735895,0            -1.990789,52.735811,0            -1.990376,52.73573,0            -1.989475,52.735551,0            -1.988466,52.735346,0            -1.987656,52.735184,0            -1.986213,52.734905,0            -1.985838,52.73482,0            -1.985747,52.734778,0            -1.985714,52.734729,0            -1.985736,52.734658,0            -1.986149,52.733872,0            -1.986154,52.733817,0            -1.986101,52.733784,0            -1.985983,52.733761,0            -1.985001,52.733566,0            -1.984915,52.733537,0            -1.984894,52.733492,0            -1.98492,52.733443,0            -1.985736,52.731842,0            -1.985779,52.731783,0            -1.985822,52.731751,0            -1.985913,52.731744,0            -1.985977,52.731757,0            -1.988804,52.732296,0            -1.990741,52.732676,0            -1.992634,52.733044,0            -1.992656,52.733105,0            -1.992634,52.733199,0            -1.9925,52.733433,0            -1.991792,52.734794,0            -1.991755,52.734836,0            -1.99169,52.734846,0            -1.991588,52.73484,0            -1.99146,52.734814,0            -1.98749,52.734054,0            -1.984502,52.733472,0            -1.982716,52.733131,0            -1.980828,52.73278,0            -1.980726,52.732758,0            -1.980677,52.732732,0            -1.980634,52.732689,0            -1.980661,52.732579,0            -1.981498,52.731,0            -1.981552,52.730945,0            -1.981611,52.730929,0            -1.981707,52.730932,0            -1.981772,52.730948,0            -1.984711,52.73151,0            -1.98477,52.7315,0            -1.984808,52.731465,0            -1.98484,52.731413,0            -1.985178,52.730753,0            -1.985275,52.730555,0            -1.985382,52.730367,0            -1.985446,52.730234,0            -1.985537,52.730078,0            -1.985623,52.729961,0            -1.985795,52.729795,0            -1.985881,52.729678,0            -1.98595,52.729564,0            -1.98602,52.729431,0            -1.986079,52.729295,0            -1.986106,52.729158,0            -1.986079,52.729038,0            -1.986015,52.728843,0            -1.985972,52.72873,0            -1.985918,52.728635,0            -1.985854,52.728528,0            -1.985795,52.728401,0            -1.985763,52.728288,0            -1.985704,52.728184,0            -1.985623,52.728054,0            -1.985521,52.72796,0            -1.985543,52.727901,0            -1.985709,52.72782,0            -1.985977,52.727716,0            -1.986278,52.727612,0            -1.986508,52.72754,0            -1.986675,52.727482,0            -1.986895,52.727443,0            -1.987034,52.727446,0            -1.9872,52.727446,0            -1.98734,52.727443,0            -1.98749,52.727404,0            -1.987635,52.727391,0            -1.987796,52.727388,0            -1.987984,52.727384,0            -1.988187,52.727384,0            -1.988332,52.727404,0            -1.988949,52.72755,0            -1.989276,52.727618,0            -1.989652,52.727677,0            -1.989909,52.727703,0            -1.990188,52.727716,0            -1.990355,52.727722,0            -1.990365,52.727774,0            -1.990285,52.727885,0            -1.990086,52.728122,0            -1.989909,52.728278,0            -1.989845,52.728346,0            -1.989791,52.728405,0            -1.989738,52.728486,0            -1.989743,52.728541,0            -1.989759,52.7286,0            -1.989824,52.728687,0            -1.989974,52.728866,0            -1.990076,52.729028,0            -1.99014,52.729145,0            -1.990204,52.729285,0            -1.990242,52.729434,0            -1.990269,52.72959,0            -1.99028,52.729724,0            -1.990296,52.72986,0            -1.990306,52.729987,0            -1.990269,52.730188,0            -1.990237,52.730299,0            -1.990172,52.730442,0            -1.990108,52.730555,0            -1.990011,52.730698,0            -1.989904,52.730857,0            -1.989765,52.731062,0            -1.989647,52.73127,0            -1.989528,52.731445,0            -1.989464,52.731604,0            -1.989427,52.731796,0            -1.989402,52.731963,0            -1.989365,52.732103,0            -1.98933,52.73229,0            -1.989306,52.732384,0            -1.992559,52.732992,0            -1.992664,52.733039,0            -1.992675,52.733087,0            -1.992678,52.733115,0            -1.992664,52.733182,0            -1.992187,52.734094,0            -1.992254,52.734101,0            -1.992406,52.734114,0            -1.99253,52.734132,0            -1.992683,52.734148,0            -1.992822,52.734172,0            -1.99294,52.734198,0            -1.993093,52.734239,0            -1.993257,52.73431,0            -1.993399,52.734372,0            -1.993552,52.734427,0            -1.993689,52.734489,0            -1.993844,52.734568,0            -1.993965,52.734646,0            -1.994134,52.734778,0            -1.994217,52.734836,0            -1.994319,52.734897,0            -1.994429,52.734945,0            -1.994555,52.734992,0            -1.994694,52.735036,0            -1.994826,52.735085,0            -1.994941,52.735134,0            -1.994995,52.735153,0            -1.995121,52.73516,0            -1.995242,52.735163,0            -1.995376,52.735174,0            -1.995483,52.73519,0          </coordinates></LineString></Placemark><Placemark><name>Start</name><styleUrl>#icon-1899-0F9D58-nodesc</styleUrl><Point><coordinates>            -1.995446,52.737467,0          </coordinates></Point></Placemark><Placemark><name>Finish</name><styleUrl>#icon-1899-FF5252-nodesc</styleUrl><Point><coordinates>            -1.995483,52.73519,0          </coordinates></Point></Placemark></Folder></Document></kml>