<?xml version="1.0" encoding="UTF-8"?><kml xmlns="http://www.opengis.net/kml/2.2"><Document><name>Canterbury parkrun Regular Course (from Nov 2024)</name><description/><Style id="icon-1899-0F9D58-nodesc-normal"><IconStyle><color>ff589d0f</color><scale>1</scale><Icon><href>https://www.gstatic.com/mapspro/images/stock/503-wht-blank_maps.png</href></Icon><hotSpot x="32" xunits="pixels" y="64" yunits="insetPixels"/></IconStyle><LabelStyle><scale>0</scale></LabelStyle><BalloonStyle><text><![CDATA[<h3>$[name]</h3>]]></text></BalloonStyle></Style><Style id="icon-1899-0F9D58-nodesc-highlight"><IconStyle><color>ff589d0f</color><scale>1</scale><Icon><href>https://www.gstatic.com/mapspro/images/stock/503-wht-blank_maps.png</href></Icon><hotSpot x="32" xunits="pixels" y="64" yunits="insetPixels"/></IconStyle><LabelStyle><scale>1</scale></LabelStyle><BalloonStyle><text><![CDATA[<h3>$[name]</h3>]]></text></BalloonStyle></Style><StyleMap id="icon-1899-0F9D58-nodesc"><Pair><key>normal</key><styleUrl>#icon-1899-0F9D58-nodesc-normal</styleUrl></Pair><Pair><key>highlight</key><styleUrl>#icon-1899-0F9D58-nodesc-highlight</styleUrl></Pair></StyleMap><Style id="icon-1899-FF5252-nodesc-normal"><IconStyle><color>ff5252ff</color><scale>1</scale><Icon><href>https://www.gstatic.com/mapspro/images/stock/503-wht-blank_maps.png</href></Icon><hotSpot x="32" xunits="pixels" y="64" yunits="insetPixels"/></IconStyle><LabelStyle><scale>0</scale></LabelStyle><BalloonStyle><text><![CDATA[<h3>$[name]</h3>]]></text></BalloonStyle></Style><Style id="icon-1899-FF5252-nodesc-highlight"><IconStyle><color>ff5252ff</color><scale>1</scale><Icon><href>https://www.gstatic.com/mapspro/images/stock/503-wht-blank_maps.png</href></Icon><hotSpot x="32" xunits="pixels" y="64" yunits="insetPixels"/></IconStyle><LabelStyle><scale>1</scale></LabelStyle><BalloonStyle><text><![CDATA[<h3>$[name]</h3>]]></text></BalloonStyle></Style><StyleMap id="icon-1899-FF5252-nodesc"><Pair><key>normal</key><styleUrl>#icon-1899-FF5252-nodesc-normal</styleUrl></Pair><Pair><key>highlight</key><styleUrl>#icon-1899-FF5252-nodesc-highlight</styleUrl></Pair></StyleMap><Style id="line-0288D1-4875-nodesc-normal"><LineStyle><color>ffd18802</color><width>4.875</width></LineStyle><BalloonStyle><text><![CDATA[<h3>$[name]</h3>]]></text></BalloonStyle></Style><Style id="line-0288D1-4875-nodesc-highlight"><LineStyle><color>ffd18802</color><width>7.3125</width></LineStyle><BalloonStyle><text><![CDATA[<h3>$[name]</h3>]]></text></BalloonStyle></Style><StyleMap id="line-0288D1-4875-nodesc"><Pair><key>normal</key><styleUrl>#line-0288D1-4875-nodesc-normal</styleUrl></Pair><Pair><key>highlight</key><styleUrl>#line-0288D1-4875-nodesc-highlight</styleUrl></Pair></StyleMap><Folder><name>5 km route</name><Placemark><name>Start</name><styleUrl>#icon-1899-0F9D58-nodesc</styleUrl><Point><coordinates>            1.05735,51.29908,0          </coordinates></Point></Placemark><Placemark><name>Finish</name><styleUrl>#icon-1899-FF5252-nodesc</styleUrl><Point><coordinates>            1.05729,51.2991,0          </coordinates></Point></Placemark><Placemark><name>Course</name><styleUrl>#line-0288D1-4875-nodesc</styleUrl><LineString><tessellate>1</tessellate><coordinates>            1.05735,51.29908,0            1.05724,51.29857,0            1.05657,51.29836,0            1.05387,51.29832,0            1.05387,51.29834,0            1.05387,51.29844,0            1.05382,51.29857,0            1.05355,51.29927,0            1.05329,51.29981,0            1.0532,51.29997,0            1.05315,51.30016,0            1.0532,51.30032,0            1.05327,51.30046,0            1.05337,51.3007,0            1.0541,51.30172,0            1.05412,51.30184,0            1.05407,51.30196,0            1.05404,51.30201,0            1.054,51.30208,0            1.05382,51.30257,0            1.05379,51.30274,0            1.05381,51.30315,0            1.05351,51.30521,0            1.05347,51.30547,0            1.05351,51.30521,0            1.05381,51.30315,0            1.05379,51.30274,0            1.05382,51.30257,0            1.054,51.30208,0            1.05404,51.30201,0            1.05407,51.30196,0            1.05412,51.30184,0            1.0541,51.30172,0            1.05337,51.3007,0            1.05327,51.30046,0            1.0532,51.30032,0            1.05315,51.30016,0            1.0532,51.29997,0            1.05329,51.29981,0            1.05355,51.29927,0            1.05362,51.29909,0            1.05346,51.29903,0            1.05294,51.29995,0            1.05268,51.29985,0            1.053,51.29889,0            1.05366,51.299,0            1.05355,51.29927,0            1.05329,51.29981,0            1.0532,51.29997,0            1.05315,51.30016,0            1.0532,51.30032,0            1.05327,51.30046,0            1.05337,51.3007,0            1.0541,51.30172,0            1.05412,51.30184,0            1.05407,51.30196,0            1.05404,51.30201,0            1.054,51.30208,0            1.05382,51.30257,0            1.05379,51.30274,0            1.05381,51.30315,0            1.05351,51.30521,0            1.05347,51.30545,0            1.05351,51.30521,0            1.05381,51.30315,0            1.05379,51.30274,0            1.05382,51.30257,0            1.054,51.30208,0            1.05404,51.30201,0            1.05407,51.30196,0            1.05412,51.30184,0            1.0541,51.30172,0            1.05337,51.3007,0            1.05327,51.30046,0            1.0532,51.30032,0            1.05315,51.30016,0            1.0532,51.29997,0            1.05329,51.29981,0            1.05355,51.29927,0            1.05363,51.29907,0            1.05346,51.29903,0            1.05295,51.29995,0            1.05269,51.29985,0            1.05301,51.29888,0            1.05366,51.29899,0            1.05382,51.29857,0            1.05381,51.29857,0            1.0529,51.29846,0            1.05226,51.29835,0            1.0528,51.29706,0            1.0542,51.29709,0            1.05383,51.29817,0            1.05285,51.29809,0            1.05227,51.29835,0            1.0529,51.29846,0            1.0538,51.29857,0            1.05388,51.29832,0            1.05656,51.29837,0            1.05725,51.29857,0            1.05729,51.2991,0          </coordinates></LineString></Placemark></Folder></Document></kml>