<?xml version="1.0" encoding="UTF-8"?><kml xmlns="http://www.opengis.net/kml/2.2"><Document><name>Cardiff Junior parkrun</name><description/><Style id="icon-503-F4EB37-nodesc-normal"><IconStyle><color>ff37ebf4</color><scale>1.1</scale><Icon><href>https://www.gstatic.com/mapspro/images/stock/503-wht-blank_maps.png</href></Icon><hotSpot x="16" xunits="pixels" y="32" yunits="insetPixels"/></IconStyle><LabelStyle><scale>0</scale></LabelStyle><BalloonStyle><text><![CDATA[<h3>$[name]</h3>]]></text></BalloonStyle></Style><Style id="icon-503-F4EB37-nodesc-highlight"><IconStyle><color>ff37ebf4</color><scale>1.1</scale><Icon><href>https://www.gstatic.com/mapspro/images/stock/503-wht-blank_maps.png</href></Icon><hotSpot x="16" xunits="pixels" y="32" yunits="insetPixels"/></IconStyle><LabelStyle><scale>1.1</scale></LabelStyle><BalloonStyle><text><![CDATA[<h3>$[name]</h3>]]></text></BalloonStyle></Style><StyleMap id="icon-503-F4EB37-nodesc"><Pair><key>normal</key><styleUrl>#icon-503-F4EB37-nodesc-normal</styleUrl></Pair><Pair><key>highlight</key><styleUrl>#icon-503-F4EB37-nodesc-highlight</styleUrl></Pair></StyleMap><Style id="line-4186F0-4000-nodesc-normal"><LineStyle><color>fff08641</color><width>4</width></LineStyle><BalloonStyle><text><![CDATA[<h3>$[name]</h3>]]></text></BalloonStyle></Style><Style id="line-4186F0-4000-nodesc-highlight"><LineStyle><color>fff08641</color><width>6</width></LineStyle><BalloonStyle><text><![CDATA[<h3>$[name]</h3>]]></text></BalloonStyle></Style><StyleMap id="line-4186F0-4000-nodesc"><Pair><key>normal</key><styleUrl>#line-4186F0-4000-nodesc-normal</styleUrl></Pair><Pair><key>highlight</key><styleUrl>#line-4186F0-4000-nodesc-highlight</styleUrl></Pair></StyleMap><Folder><name>Untitled layer</name><Placemark><name>Course</name><styleUrl>#line-4186F0-4000-nodesc</styleUrl><LineString><tessellate>1</tessellate><coordinates>            -3.204081,51.489614,0            -3.207504,51.49071,0            -3.208437,51.49109,0            -3.209722,51.491753,0            -3.208437,51.492201,0            -3.208075,51.492274,0            -3.20672,51.492241,0            -3.20633,51.492153,0            -3.20616,51.492078,0            -3.205937,51.491902,0            -3.20616,51.492078,0            -3.20633,51.492153,0            -3.20672,51.492241,0            -3.208075,51.492274,0            -3.208437,51.492201,0            -3.209722,51.491753,0            -3.210398,51.492455,0            -3.21095,51.492971,0            -3.21186,51.493702,0            -3.212364,51.494029,0          </coordinates></LineString></Placemark><Placemark><name>Start /  Finish</name><styleUrl>#icon-503-F4EB37-nodesc</styleUrl><Point><coordinates>            -3.204081,51.489614,0          </coordinates></Point></Placemark></Folder></Document></kml>