<?xml version="1.0" encoding="UTF-8"?><kml xmlns="http://www.opengis.net/kml/2.2"><Document><name>Carlingwark Loch parkrun</name><description/><Style id="icon-1899-FFEA00-nodesc-normal"><IconStyle><color>ff00eaff</color><scale>1</scale><Icon><href>https://www.gstatic.com/mapspro/images/stock/503-wht-blank_maps.png</href></Icon><hotSpot x="32" xunits="pixels" y="64" yunits="insetPixels"/></IconStyle><LabelStyle><scale>0</scale></LabelStyle><BalloonStyle><text><![CDATA[<h3>$[name]</h3>]]></text></BalloonStyle></Style><Style id="icon-1899-FFEA00-nodesc-highlight"><IconStyle><color>ff00eaff</color><scale>1</scale><Icon><href>https://www.gstatic.com/mapspro/images/stock/503-wht-blank_maps.png</href></Icon><hotSpot x="32" xunits="pixels" y="64" yunits="insetPixels"/></IconStyle><LabelStyle><scale>1</scale></LabelStyle><BalloonStyle><text><![CDATA[<h3>$[name]</h3>]]></text></BalloonStyle></Style><StyleMap id="icon-1899-FFEA00-nodesc"><Pair><key>normal</key><styleUrl>#icon-1899-FFEA00-nodesc-normal</styleUrl></Pair><Pair><key>highlight</key><styleUrl>#icon-1899-FFEA00-nodesc-highlight</styleUrl></Pair></StyleMap><Style id="line-0288D1-5456-nodesc-normal"><LineStyle><color>ffd18802</color><width>5.456</width></LineStyle><BalloonStyle><text><![CDATA[<h3>$[name]</h3>]]></text></BalloonStyle></Style><Style id="line-0288D1-5456-nodesc-highlight"><LineStyle><color>ffd18802</color><width>8.184</width></LineStyle><BalloonStyle><text><![CDATA[<h3>$[name]</h3>]]></text></BalloonStyle></Style><StyleMap id="line-0288D1-5456-nodesc"><Pair><key>normal</key><styleUrl>#line-0288D1-5456-nodesc-normal</styleUrl></Pair><Pair><key>highlight</key><styleUrl>#line-0288D1-5456-nodesc-highlight</styleUrl></Pair></StyleMap><Folder><name>Untitled layer</name><Placemark><name>Course</name><styleUrl>#line-0288D1-5456-nodesc</styleUrl><LineString><tessellate>1</tessellate><coordinates>            -3.927195,54.934896,0            -3.92763,54.93485,0            -3.9283,54.934881,0            -3.928601,54.934948,0            -3.928579,54.93514,0            -3.929148,54.935744,0            -3.929481,54.935928,0            -3.929888,54.936116,0            -3.930462,54.936354,0            -3.931841,54.936301,0            -3.932216,54.936382,0            -3.932866,54.936351,0            -3.933139,54.936422,0            -3.932941,54.935731,0            -3.932919,54.935642,0            -3.932474,54.935599,0            -3.932023,54.935716,0            -3.931771,54.935827,0            -3.931348,54.935975,0            -3.930511,54.935827,0            -3.929497,54.935796,0            -3.929094,54.935506,0            -3.92918,54.935346,0            -3.929159,54.935072,0            -3.929395,54.93464,0            -3.929271,54.934406,0            -3.928955,54.934264,0            -3.928022,54.934147,0            -3.927603,54.934381,0            -3.927651,54.934603,0            -3.92727,54.934757,0            -3.926772,54.934868,0            -3.926171,54.935127,0            -3.926257,54.93563,0            -3.927051,54.936052,0            -3.928467,54.935103,0            -3.92793,54.935069,0            -3.927367,54.935152,0            -3.926696,54.935084,0            -3.926546,54.935069,0            -3.92646,54.935004,0            -3.92667,54.934918,0            -3.927195,54.934896,0          </coordinates></LineString></Placemark><Placemark><name>Start/Finish</name><styleUrl>#icon-1899-FFEA00-nodesc</styleUrl><Point><coordinates>            -3.927185,54.934924,0          </coordinates></Point></Placemark></Folder></Document></kml>