<?xml version="1.0" encoding="UTF-8"?><kml xmlns="http://www.opengis.net/kml/2.2"><Document><name>Central Park junior parkrun (from Apr 2026)</name><description/><Style id="icon-1899-0F9D58-nodesc-normal"><IconStyle><color>ff589d0f</color><scale>1</scale><Icon><href>https://www.gstatic.com/mapspro/images/stock/503-wht-blank_maps.png</href></Icon><hotSpot x="32" xunits="pixels" y="64" yunits="insetPixels"/></IconStyle><LabelStyle><scale>0</scale></LabelStyle><BalloonStyle><text><![CDATA[<h3>$[name]</h3>]]></text></BalloonStyle></Style><Style id="icon-1899-0F9D58-nodesc-highlight"><IconStyle><color>ff589d0f</color><scale>1</scale><Icon><href>https://www.gstatic.com/mapspro/images/stock/503-wht-blank_maps.png</href></Icon><hotSpot x="32" xunits="pixels" y="64" yunits="insetPixels"/></IconStyle><LabelStyle><scale>1</scale></LabelStyle><BalloonStyle><text><![CDATA[<h3>$[name]</h3>]]></text></BalloonStyle></Style><StyleMap id="icon-1899-0F9D58-nodesc"><Pair><key>normal</key><styleUrl>#icon-1899-0F9D58-nodesc-normal</styleUrl></Pair><Pair><key>highlight</key><styleUrl>#icon-1899-0F9D58-nodesc-highlight</styleUrl></Pair></StyleMap><Style id="icon-1899-FF5252-nodesc-normal"><IconStyle><color>ff5252ff</color><scale>1</scale><Icon><href>https://www.gstatic.com/mapspro/images/stock/503-wht-blank_maps.png</href></Icon><hotSpot x="32" xunits="pixels" y="64" yunits="insetPixels"/></IconStyle><LabelStyle><scale>0</scale></LabelStyle><BalloonStyle><text><![CDATA[<h3>$[name]</h3>]]></text></BalloonStyle></Style><Style id="icon-1899-FF5252-nodesc-highlight"><IconStyle><color>ff5252ff</color><scale>1</scale><Icon><href>https://www.gstatic.com/mapspro/images/stock/503-wht-blank_maps.png</href></Icon><hotSpot x="32" xunits="pixels" y="64" yunits="insetPixels"/></IconStyle><LabelStyle><scale>1</scale></LabelStyle><BalloonStyle><text><![CDATA[<h3>$[name]</h3>]]></text></BalloonStyle></Style><StyleMap id="icon-1899-FF5252-nodesc"><Pair><key>normal</key><styleUrl>#icon-1899-FF5252-nodesc-normal</styleUrl></Pair><Pair><key>highlight</key><styleUrl>#icon-1899-FF5252-nodesc-highlight</styleUrl></Pair></StyleMap><Style id="line-0288D1-5456-nodesc-normal"><LineStyle><color>ffd18802</color><width>5.456</width></LineStyle><BalloonStyle><text><![CDATA[<h3>$[name]</h3>]]></text></BalloonStyle></Style><Style id="line-0288D1-5456-nodesc-highlight"><LineStyle><color>ffd18802</color><width>8.184</width></LineStyle><BalloonStyle><text><![CDATA[<h3>$[name]</h3>]]></text></BalloonStyle></Style><StyleMap id="line-0288D1-5456-nodesc"><Pair><key>normal</key><styleUrl>#line-0288D1-5456-nodesc-normal</styleUrl></Pair><Pair><key>highlight</key><styleUrl>#line-0288D1-5456-nodesc-highlight</styleUrl></Pair></StyleMap><Folder><name>Untitled layer</name><Placemark><name>Course</name><styleUrl>#line-0288D1-5456-nodesc</styleUrl><LineString><tessellate>1</tessellate><coordinates>            -0.23423,52.58387,0            -0.23399,52.5838,0            -0.2339,52.58377,0            -0.23337,52.5836,0            -0.23353,52.58347,0            -0.23357,52.58343,0            -0.23359,52.5834,0            -0.2336,52.58336,0            -0.23359,52.58333,0            -0.23358,52.58328,0            -0.23357,52.58326,0            -0.23358,52.58323,0            -0.2336,52.58322,0            -0.23363,52.58321,0            -0.23367,52.5832,0            -0.23371,52.58319,0            -0.23374,52.58318,0            -0.23379,52.58316,0            -0.23383,52.58315,0            -0.23388,52.58311,0            -0.2339,52.58309,0            -0.23393,52.58308,0            -0.23394,52.58307,0            -0.23397,52.58306,0            -0.23401,52.58305,0            -0.23405,52.58305,0            -0.2341,52.58306,0            -0.23414,52.58307,0            -0.23419,52.58308,0            -0.23421,52.58308,0            -0.23425,52.58308,0            -0.23431,52.58307,0            -0.23437,52.58305,0            -0.23445,52.58304,0            -0.2345,52.58303,0            -0.23452,52.58303,0            -0.23456,52.58302,0            -0.23459,52.58301,0            -0.23468,52.58293,0            -0.2347,52.58291,0            -0.23473,52.5829,0            -0.23476,52.58289,0            -0.2348,52.58289,0            -0.23486,52.58288,0            -0.23493,52.58288,0            -0.23502,52.58287,0            -0.23508,52.58286,0            -0.23514,52.58284,0            -0.23523,52.58281,0            -0.23525,52.5828,0            -0.23527,52.5828,0            -0.2353,52.58279,0            -0.23533,52.58279,0            -0.23536,52.58278,0            -0.23538,52.58279,0            -0.2354,52.58279,0            -0.23553,52.58283,0            -0.23579,52.58292,0            -0.23631,52.58308,0            -0.23605,52.5834,0            -0.23591,52.58356,0            -0.23554,52.58401,0            -0.2356,52.58403,0            -0.23564,52.58405,0            -0.23567,52.58407,0            -0.2357,52.58409,0            -0.23572,52.58411,0            -0.23574,52.58414,0            -0.23575,52.58416,0            -0.23576,52.58418,0            -0.23576,52.58421,0            -0.23576,52.58423,0            -0.23576,52.58426,0            -0.23575,52.5843,0            -0.23572,52.58433,0            -0.23598,52.58442,0            -0.23734,52.58483,0            -0.23724,52.58494,0            -0.23708,52.58515,0            -0.23706,52.58518,0            -0.23694,52.5853,0            -0.23693,52.58531,0            -0.23688,52.58536,0            -0.2368,52.58541,0            -0.23674,52.58544,0            -0.23666,52.58548,0            -0.23657,52.58552,0            -0.23649,52.58555,0            -0.23642,52.58557,0            -0.23632,52.5856,0            -0.23615,52.58563,0            -0.23601,52.58566,0            -0.23588,52.58568,0            -0.23578,52.5857,0            -0.23557,52.58571,0            -0.2355,52.58571,0            -0.23538,52.58572,0            -0.23512,52.58571,0            -0.23508,52.58571,0            -0.23494,52.5857,0            -0.23475,52.58567,0            -0.23469,52.58566,0            -0.2344,52.58558,0            -0.23427,52.58554,0            -0.23407,52.58547,0            -0.23392,52.58542,0            -0.23385,52.58539,0            -0.23368,52.58531,0            -0.23362,52.58527,0            -0.23355,52.58522,0            -0.23346,52.58514,0            -0.23317,52.5849,0            -0.23314,52.58485,0            -0.23311,52.58479,0            -0.23304,52.58466,0            -0.233,52.58459,0            -0.23299,52.58455,0            -0.23296,52.58445,0            -0.23295,52.58434,0            -0.23295,52.58432,0            -0.23295,52.58427,0            -0.23296,52.58418,0            -0.23299,52.58412,0            -0.233,52.58409,0            -0.23302,52.58407,0            -0.23304,52.58403,0            -0.23307,52.58399,0            -0.23312,52.58393,0            -0.23315,52.58388,0            -0.23337,52.5836,0            -0.23353,52.58347,0            -0.23357,52.58343,0            -0.23359,52.5834,0            -0.2336,52.58336,0            -0.23359,52.58333,0            -0.23358,52.58328,0            -0.23357,52.58326,0            -0.23358,52.58323,0            -0.2336,52.58322,0            -0.23363,52.58321,0            -0.23367,52.5832,0            -0.23371,52.58319,0            -0.23374,52.58318,0            -0.23379,52.58316,0            -0.23383,52.58315,0            -0.23388,52.58311,0            -0.2339,52.58309,0            -0.23393,52.58308,0            -0.23394,52.58307,0            -0.23397,52.58306,0            -0.23401,52.58305,0            -0.23405,52.58305,0            -0.2341,52.58306,0            -0.23414,52.58307,0            -0.23419,52.58308,0            -0.23421,52.58308,0            -0.23425,52.58308,0            -0.23431,52.58307,0            -0.23437,52.58305,0            -0.23445,52.58304,0            -0.2345,52.58303,0            -0.23452,52.58303,0            -0.23456,52.58302,0            -0.23459,52.58301,0            -0.23468,52.58293,0            -0.2347,52.58291,0            -0.23473,52.5829,0            -0.23476,52.58289,0            -0.2348,52.58289,0            -0.23486,52.58288,0            -0.23493,52.58288,0            -0.23502,52.58287,0            -0.23508,52.58286,0            -0.23514,52.58284,0            -0.23523,52.58281,0            -0.23525,52.5828,0            -0.23527,52.5828,0            -0.2353,52.58279,0            -0.23533,52.58279,0            -0.23536,52.58278,0            -0.23538,52.58279,0            -0.2354,52.58279,0            -0.23553,52.58283,0            -0.23579,52.58292,0            -0.23631,52.58308,0            -0.23605,52.5834,0            -0.23591,52.58356,0            -0.23554,52.58401,0            -0.2356,52.58403,0            -0.23564,52.58405,0            -0.23567,52.58407,0            -0.2357,52.58409,0            -0.23572,52.58411,0            -0.23574,52.58414,0            -0.23575,52.58416,0            -0.23576,52.58418,0            -0.23576,52.58421,0            -0.23576,52.58423,0            -0.23576,52.58426,0            -0.23575,52.5843,0            -0.23572,52.58433,0            -0.23598,52.58442,0            -0.23734,52.58483,0            -0.23724,52.58494,0            -0.23708,52.58515,0            -0.23706,52.58518,0            -0.23694,52.5853,0            -0.23693,52.58531,0            -0.23688,52.58536,0            -0.2368,52.58541,0            -0.23674,52.58544,0            -0.23666,52.58548,0            -0.23657,52.58552,0            -0.23649,52.58555,0            -0.23642,52.58557,0            -0.23632,52.5856,0            -0.23615,52.58563,0            -0.23601,52.58566,0            -0.23588,52.58568,0            -0.23578,52.5857,0            -0.23557,52.58571,0            -0.2355,52.58571,0            -0.23538,52.58572,0            -0.23512,52.58571,0            -0.23508,52.58571,0            -0.23494,52.5857,0            -0.23475,52.58567,0            -0.23469,52.58566,0            -0.2344,52.58558,0            -0.23427,52.58554,0            -0.23454,52.58522,0            -0.23517,52.58446,0          </coordinates></LineString></Placemark><Placemark><name>Finish</name><styleUrl>#icon-1899-FF5252-nodesc</styleUrl><Point><coordinates>            -0.235171,52.584458,0          </coordinates></Point></Placemark><Placemark><name>Start</name><styleUrl>#icon-1899-0F9D58-nodesc</styleUrl><Point><coordinates>            -0.234233,52.583873,0          </coordinates></Point></Placemark></Folder></Document></kml>