<?xml version="1.0" encoding="UTF-8"?><kml xmlns="http://www.opengis.net/kml/2.2"><Document><name>Chadderton Hall parkrun</name><description/><Style id="icon-503-009D57-nodesc-normal"><IconStyle><color>ff579d00</color><scale>1.1</scale><Icon><href>https://www.gstatic.com/mapspro/images/stock/503-wht-blank_maps.png</href></Icon><hotSpot x="16" xunits="pixels" y="32" yunits="insetPixels"/></IconStyle><LabelStyle><scale>0</scale></LabelStyle><BalloonStyle><text><![CDATA[<h3>$[name]</h3>]]></text></BalloonStyle></Style><Style id="icon-503-009D57-nodesc-highlight"><IconStyle><color>ff579d00</color><scale>1.1</scale><Icon><href>https://www.gstatic.com/mapspro/images/stock/503-wht-blank_maps.png</href></Icon><hotSpot x="16" xunits="pixels" y="32" yunits="insetPixels"/></IconStyle><LabelStyle><scale>1.1</scale></LabelStyle><BalloonStyle><text><![CDATA[<h3>$[name]</h3>]]></text></BalloonStyle></Style><StyleMap id="icon-503-009D57-nodesc"><Pair><key>normal</key><styleUrl>#icon-503-009D57-nodesc-normal</styleUrl></Pair><Pair><key>highlight</key><styleUrl>#icon-503-009D57-nodesc-highlight</styleUrl></Pair></StyleMap><Style id="line-4186F0-5263-nodesc-normal"><LineStyle><color>fff08641</color><width>5.263</width></LineStyle><BalloonStyle><text><![CDATA[<h3>$[name]</h3>]]></text></BalloonStyle></Style><Style id="line-4186F0-5263-nodesc-highlight"><LineStyle><color>fff08641</color><width>7.8945</width></LineStyle><BalloonStyle><text><![CDATA[<h3>$[name]</h3>]]></text></BalloonStyle></Style><StyleMap id="line-4186F0-5263-nodesc"><Pair><key>normal</key><styleUrl>#line-4186F0-5263-nodesc-normal</styleUrl></Pair><Pair><key>highlight</key><styleUrl>#line-4186F0-5263-nodesc-highlight</styleUrl></Pair></StyleMap><Folder><name>Untitled layer</name><Placemark><name>Start</name><styleUrl>#icon-503-009D57-nodesc</styleUrl><Point><coordinates>            -2.1585485,53.5540631,0          </coordinates></Point></Placemark><Placemark><name>Course</name><styleUrl>#line-4186F0-5263-nodesc</styleUrl><LineString><tessellate>1</tessellate><coordinates>            -2.1583521,53.5541149,0            -2.1587867,53.5539747,0            -2.159281,53.553837,0            -2.159778,53.553707,0            -2.160396,53.5536209,0            -2.1606535,53.5536018,0            -2.160731,53.553876,0            -2.160836,53.553918,0            -2.161179,53.553999,0            -2.161326,53.554042,0            -2.161459,53.554128,0            -2.161556,53.554296,0            -2.161604,53.554429,0            -2.1616298,53.5544909,0            -2.161372,53.554459,0            -2.1610236,53.5543985,0            -2.1606749,53.5542519,0            -2.160367,53.554166,0            -2.160001,53.554159,0            -2.1597362,53.5542296,0            -2.1594357,53.5543571,0            -2.1592212,53.5545196,0            -2.1591085,53.5546789,0            -2.1590119,53.5548032,0            -2.15891,53.5548797,0            -2.1588027,53.555141,0            -2.1584433,53.5552557,0            -2.1582288,53.5553736,0            -2.1580893,53.5554692,0            -2.157986,53.555531,0            -2.1576282,53.5559641,0            -2.1575064,53.5561964,0            -2.157252,53.556362,0            -2.1570379,53.5564364,0            -2.1568079,53.5564688,0            -2.1567012,53.5564549,0            -2.1566295,53.5563893,0            -2.1565319,53.5562808,0            -2.156341,53.5561262,0            -2.156312,53.5560315,0            -2.1563533,53.5559273,0            -2.1566548,53.5557386,0            -2.1571934,53.555492,0            -2.1572437,53.5554747,0            -2.1572608,53.5554351,0            -2.1572296,53.5553412,0            -2.1571404,53.5553144,0            -2.1570217,53.5553386,0            -2.1569233,53.5553665,0            -2.1567767,53.5553497,0            -2.1566464,53.555316,0            -2.1565696,53.555345,0            -2.156659,53.555425,0            -2.1562318,53.5556679,0            -2.1559469,53.5554891,0            -2.1564129,53.5552621,0            -2.1565514,53.5553361,0            -2.1566385,53.5553049,0            -2.1565144,53.5551651,0            -2.1564654,53.5550634,0            -2.1562936,53.5549198,0            -2.156158,53.5547714,0            -2.1561795,53.5546981,0            -2.1562279,53.5546853,0            -2.1561044,53.5545929,0            -2.1563405,53.5545578,0            -2.1570164,53.554475,0            -2.1575582,53.5543634,0            -2.1579605,53.5542519,0            -2.1583521,53.5541149,0          </coordinates></LineString></Placemark></Folder></Document></kml>