<?xml version="1.0" encoding="UTF-8"?><kml xmlns="http://www.opengis.net/kml/2.2"><Document><name>Chester parkrun (from Aug 2025)</name><description/><Style id="icon-1899-0F9D58-nodesc-normal"><IconStyle><color>ff589d0f</color><scale>1</scale><Icon><href>https://www.gstatic.com/mapspro/images/stock/503-wht-blank_maps.png</href></Icon><hotSpot x="32" xunits="pixels" y="64" yunits="insetPixels"/></IconStyle><LabelStyle><scale>0</scale></LabelStyle><BalloonStyle><text><![CDATA[<h3>$[name]</h3>]]></text></BalloonStyle></Style><Style id="icon-1899-0F9D58-nodesc-highlight"><IconStyle><color>ff589d0f</color><scale>1</scale><Icon><href>https://www.gstatic.com/mapspro/images/stock/503-wht-blank_maps.png</href></Icon><hotSpot x="32" xunits="pixels" y="64" yunits="insetPixels"/></IconStyle><LabelStyle><scale>1</scale></LabelStyle><BalloonStyle><text><![CDATA[<h3>$[name]</h3>]]></text></BalloonStyle></Style><StyleMap id="icon-1899-0F9D58-nodesc"><Pair><key>normal</key><styleUrl>#icon-1899-0F9D58-nodesc-normal</styleUrl></Pair><Pair><key>highlight</key><styleUrl>#icon-1899-0F9D58-nodesc-highlight</styleUrl></Pair></StyleMap><Style id="icon-1899-FF5252-nodesc-normal"><IconStyle><color>ff5252ff</color><scale>1</scale><Icon><href>https://www.gstatic.com/mapspro/images/stock/503-wht-blank_maps.png</href></Icon><hotSpot x="32" xunits="pixels" y="64" yunits="insetPixels"/></IconStyle><LabelStyle><scale>0</scale></LabelStyle><BalloonStyle><text><![CDATA[<h3>$[name]</h3>]]></text></BalloonStyle></Style><Style id="icon-1899-FF5252-nodesc-highlight"><IconStyle><color>ff5252ff</color><scale>1</scale><Icon><href>https://www.gstatic.com/mapspro/images/stock/503-wht-blank_maps.png</href></Icon><hotSpot x="32" xunits="pixels" y="64" yunits="insetPixels"/></IconStyle><LabelStyle><scale>1</scale></LabelStyle><BalloonStyle><text><![CDATA[<h3>$[name]</h3>]]></text></BalloonStyle></Style><StyleMap id="icon-1899-FF5252-nodesc"><Pair><key>normal</key><styleUrl>#icon-1899-FF5252-nodesc-normal</styleUrl></Pair><Pair><key>highlight</key><styleUrl>#icon-1899-FF5252-nodesc-highlight</styleUrl></Pair></StyleMap><Style id="line-0288D1-5814-nodesc-normal"><LineStyle><color>ffd18802</color><width>5.814</width></LineStyle><BalloonStyle><text><![CDATA[<h3>$[name]</h3>]]></text></BalloonStyle></Style><Style id="line-0288D1-5814-nodesc-highlight"><LineStyle><color>ffd18802</color><width>8.721</width></LineStyle><BalloonStyle><text><![CDATA[<h3>$[name]</h3>]]></text></BalloonStyle></Style><StyleMap id="line-0288D1-5814-nodesc"><Pair><key>normal</key><styleUrl>#line-0288D1-5814-nodesc-normal</styleUrl></Pair><Pair><key>highlight</key><styleUrl>#line-0288D1-5814-nodesc-highlight</styleUrl></Pair></StyleMap><Folder><name>Untitled layer</name><Placemark><name>Course</name><styleUrl>#line-0288D1-5814-nodesc</styleUrl><LineString><tessellate>1</tessellate><coordinates>            -2.902616,53.208512,0            -2.902504,53.20822,0            -2.902422,53.208105,0            -2.902371,53.207918,0            -2.902335,53.207547,0            -2.902272,53.207238,0            -2.902229,53.207118,0            -2.902197,53.207059,0            -2.902048,53.20691,0            -2.901273,53.206127,0            -2.90128,53.206085,0            -2.901532,53.205986,0            -2.901652,53.2059,0            -2.901826,53.205715,0            -2.901869,53.205722,0            -2.901946,53.20587,0            -2.902008,53.206109,0            -2.902139,53.206215,0            -2.902272,53.206385,0            -2.902328,53.206588,0            -2.902509,53.20681,0            -2.90262,53.20698,0            -2.902804,53.207021,0            -2.902906,53.207137,0            -2.902919,53.207346,0            -2.902982,53.20742,0            -2.903018,53.207464,0            -2.903011,53.207501,0            -2.902961,53.207541,0            -2.902934,53.207601,0            -2.902951,53.207656,0            -2.903056,53.207802,0            -2.903075,53.208018,0            -2.903073,53.208186,0            -2.903102,53.20846,0            -2.903075,53.208638,0            -2.903079,53.208775,0            -2.903153,53.208938,0            -2.903229,53.209,0            -2.903331,53.209018,0            -2.903405,53.209065,0            -2.903398,53.209092,0            -2.90333,53.209162,0            -2.902676,53.209401,0            -2.902278,53.20952,0            -2.901767,53.209716,0            -2.901354,53.209881,0            -2.901207,53.209976,0            -2.90121,53.209989,0            -2.901414,53.210039,0            -2.901948,53.210262,0            -2.902389,53.210387,0            -2.902676,53.210506,0            -2.90286,53.210613,0            -2.903187,53.210836,0            -2.903452,53.210993,0            -2.903886,53.21119,0            -2.904017,53.211221,0            -2.904109,53.211267,0            -2.904181,53.211333,0            -2.904245,53.211362,0            -2.904354,53.211383,0            -2.904382,53.21144,0            -2.904446,53.211595,0            -2.90453,53.211749,0            -2.90471,53.21213,0            -2.904828,53.212416,0            -2.904904,53.212526,0            -2.905,53.212611,0            -2.905087,53.212667,0            -2.905298,53.213038,0            -2.905439,53.213294,0            -2.905461,53.213447,0            -2.905444,53.213749,0            -2.90544,53.214417,0            -2.905459,53.21487,0            -2.905475,53.215183,0            -2.905483,53.215371,0            -2.905473,53.215496,0            -2.905418,53.215728,0            -2.905354,53.215899,0            -2.905257,53.21625,0            -2.905242,53.216718,0            -2.90528,53.216743,0            -2.905597,53.216757,0            -2.906201,53.216812,0            -2.90717,53.216901,0            -2.907397,53.216785,0            -2.90751,53.216723,0            -2.907585,53.216626,0            -2.907838,53.216327,0            -2.908046,53.215923,0            -2.908281,53.21526,0            -2.90837,53.215109,0            -2.908431,53.215035,0            -2.908474,53.214958,0            -2.90852,53.214896,0            -2.908584,53.2148,0            -2.908617,53.214483,0            -2.908656,53.214301,0            -2.908639,53.214198,0            -2.908644,53.214094,0            -2.908681,53.213946,0            -2.908827,53.213855,0            -2.908893,53.21377,0            -2.909173,53.213045,0            -2.909216,53.212868,0            -2.909118,53.21273,0            -2.909044,53.212632,0            -2.908902,53.212547,0            -2.907611,53.212386,0            -2.907329,53.212411,0            -2.90704,53.212489,0            -2.906974,53.21247,0            -2.906916,53.212391,0            -2.906868,53.212288,0            -2.906837,53.212087,0            -2.906713,53.211871,0            -2.906527,53.211583,0            -2.906444,53.211442,0            -2.906319,53.211247,0            -2.906266,53.211238,0            -2.906151,53.211267,0            -2.905919,53.21135,0            -2.905668,53.21143,0            -2.905425,53.211483,0            -2.905069,53.211528,0            -2.904849,53.211554,0            -2.904633,53.211596,0            -2.904527,53.21162,0            -2.904503,53.211633,0            -2.90455,53.211745,0            -2.904743,53.212123,0            -2.904847,53.212413,0            -2.904922,53.212524,0            -2.905016,53.212606,0            -2.905105,53.212661,0            -2.905317,53.213033,0            -2.905457,53.213293,0            -2.905483,53.213447,0            -2.905465,53.213751,0            -2.90546,53.214419,0            -2.905479,53.214872,0            -2.905495,53.215184,0            -2.905507,53.215374,0            -2.905493,53.2155,0            -2.905436,53.215732,0            -2.905373,53.215901,0            -2.905276,53.21627,0            -2.90526,53.216673,0            -2.905266,53.216711,0            -2.905297,53.216729,0            -2.90566,53.216747,0            -2.907207,53.216892,0            -2.907413,53.216794,0            -2.907529,53.216729,0            -2.907599,53.216632,0            -2.907854,53.216331,0            -2.908067,53.215926,0            -2.908295,53.215266,0            -2.908384,53.215114,0            -2.908443,53.21504,0            -2.908487,53.214964,0            -2.908532,53.214903,0            -2.908598,53.214802,0            -2.90863,53.214484,0            -2.908664,53.2143,0            -2.908648,53.214198,0            -2.908653,53.214095,0            -2.908693,53.213947,0            -2.908836,53.213857,0            -2.908909,53.213771,0            -2.909186,53.213046,0            -2.909232,53.21286,0            -2.909132,53.212726,0            -2.909058,53.212626,0            -2.908908,53.212538,0            -2.9087,53.212505,0            -2.907613,53.212376,0            -2.907327,53.212401,0            -2.907179,53.212441,0            -2.907043,53.21248,0            -2.906987,53.212466,0            -2.906929,53.212385,0            -2.906882,53.212282,0            -2.906848,53.212086,0            -2.906727,53.211868,0            -2.906329,53.211239,0            -2.906263,53.211231,0            -2.906148,53.211259,0            -2.905912,53.211343,0            -2.905665,53.211422,0            -2.905422,53.211476,0            -2.904847,53.211545,0            -2.904534,53.211604,0            -2.904472,53.211595,0            -2.904423,53.211485,0            -2.904375,53.211349,0            -2.904329,53.211171,0            -2.904184,53.210919,0            -2.903948,53.210445,0            -2.90379,53.210093,0            -2.903676,53.209886,0            -2.903567,53.209615,0            -2.903446,53.209374,0            -2.903409,53.209336,0            -2.903313,53.209275,0            -2.903158,53.209181,0            -2.902882,53.208999,0            -2.902803,53.208924,0            -2.902735,53.208841,0            -2.902671,53.208699,0            -2.902585,53.208459,0            -2.902513,53.208274,0            -2.902484,53.208214,0            -2.902408,53.208107,0            -2.902395,53.20807,0            -2.902358,53.20792,0            -2.902336,53.207763,0            -2.902316,53.207548,0            -2.902259,53.207239,0            -2.902218,53.207121,0            -2.902184,53.207064,0            -2.902125,53.207008,0            -2.902031,53.206912,0          </coordinates></LineString></Placemark><Placemark><name>Finish</name><styleUrl>#icon-1899-FF5252-nodesc</styleUrl><Point><coordinates>            -2.902018,53.206917,0          </coordinates></Point></Placemark><Placemark><name>Start</name><styleUrl>#icon-1899-0F9D58-nodesc</styleUrl><Point><coordinates>            -2.902648,53.208509,0          </coordinates></Point></Placemark></Folder></Document></kml>