<?xml version="1.0" encoding="UTF-8"?><kml xmlns="http://www.opengis.net/kml/2.2"><Document><name>Clacton Seafront parkrun</name><description/><Style id="icon-1899-0F9D58-nodesc-normal"><IconStyle><color>ff589d0f</color><scale>1</scale><Icon><href>https://www.gstatic.com/mapspro/images/stock/503-wht-blank_maps.png</href></Icon><hotSpot x="32" xunits="pixels" y="64" yunits="insetPixels"/></IconStyle><LabelStyle><scale>0</scale></LabelStyle><BalloonStyle><text><![CDATA[<h3>$[name]</h3>]]></text></BalloonStyle></Style><Style id="icon-1899-0F9D58-nodesc-highlight"><IconStyle><color>ff589d0f</color><scale>1</scale><Icon><href>https://www.gstatic.com/mapspro/images/stock/503-wht-blank_maps.png</href></Icon><hotSpot x="32" xunits="pixels" y="64" yunits="insetPixels"/></IconStyle><LabelStyle><scale>1</scale></LabelStyle><BalloonStyle><text><![CDATA[<h3>$[name]</h3>]]></text></BalloonStyle></Style><StyleMap id="icon-1899-0F9D58-nodesc"><Pair><key>normal</key><styleUrl>#icon-1899-0F9D58-nodesc-normal</styleUrl></Pair><Pair><key>highlight</key><styleUrl>#icon-1899-0F9D58-nodesc-highlight</styleUrl></Pair></StyleMap><Style id="icon-1899-FF5252-nodesc-normal"><IconStyle><color>ff5252ff</color><scale>1</scale><Icon><href>https://www.gstatic.com/mapspro/images/stock/503-wht-blank_maps.png</href></Icon><hotSpot x="32" xunits="pixels" y="64" yunits="insetPixels"/></IconStyle><LabelStyle><scale>0</scale></LabelStyle><BalloonStyle><text><![CDATA[<h3>$[name]</h3>]]></text></BalloonStyle></Style><Style id="icon-1899-FF5252-nodesc-highlight"><IconStyle><color>ff5252ff</color><scale>1</scale><Icon><href>https://www.gstatic.com/mapspro/images/stock/503-wht-blank_maps.png</href></Icon><hotSpot x="32" xunits="pixels" y="64" yunits="insetPixels"/></IconStyle><LabelStyle><scale>1</scale></LabelStyle><BalloonStyle><text><![CDATA[<h3>$[name]</h3>]]></text></BalloonStyle></Style><StyleMap id="icon-1899-FF5252-nodesc"><Pair><key>normal</key><styleUrl>#icon-1899-FF5252-nodesc-normal</styleUrl></Pair><Pair><key>highlight</key><styleUrl>#icon-1899-FF5252-nodesc-highlight</styleUrl></Pair></StyleMap><Style id="line-0288D1-5000-nodesc-normal"><LineStyle><color>ffd18802</color><width>5</width></LineStyle><BalloonStyle><text><![CDATA[<h3>$[name]</h3>]]></text></BalloonStyle></Style><Style id="line-0288D1-5000-nodesc-highlight"><LineStyle><color>ffd18802</color><width>7.5</width></LineStyle><BalloonStyle><text><![CDATA[<h3>$[name]</h3>]]></text></BalloonStyle></Style><StyleMap id="line-0288D1-5000-nodesc"><Pair><key>normal</key><styleUrl>#line-0288D1-5000-nodesc-normal</styleUrl></Pair><Pair><key>highlight</key><styleUrl>#line-0288D1-5000-nodesc-highlight</styleUrl></Pair></StyleMap><Folder><name>Untitled layer</name><Placemark><name>Course</name><styleUrl>#line-0288D1-5000-nodesc</styleUrl><LineString><tessellate>1</tessellate><coordinates>            1.14611,51.78328,6            1.1453,51.7829,5            1.14425,51.78231,4            1.14416,51.78221,4            1.14428,51.78222,3            1.14482,51.78248,3            1.14508,51.78262,3            1.14587,51.78305,4            1.14724,51.78361,4            1.14892,51.78427,4            1.14947,51.78458,4            1.15062,51.78519,3            1.15162,51.78568,3            1.1526,51.78612,4            1.15271,51.78624,6            1.15291,51.78638,8            1.15321,51.78658,9            1.15336,51.7867,10            1.15302,51.78654,10            1.1526,51.78633,10            1.15221,51.78617,10            1.15168,51.78596,11            1.15108,51.78567,11            1.15039,51.78533,11            1.15019,51.78522,10            1.15005,51.78517,11            1.14972,51.78496,10            1.14922,51.78467,10            1.14891,51.78453,10            1.14834,51.78423,9            1.14739,51.78385,8            1.14683,51.7836,7            1.14666,51.7835,6            1.14643,51.78339,6            1.14597,51.78325,6            1.1457,51.78312,6            1.14557,51.78305,6            1.14534,51.78293,5            1.14493,51.7827,5            1.14424,51.7823,4            1.14416,51.78221,3            1.14427,51.78222,3            1.14457,51.78236,3            1.14482,51.78248,3            1.14543,51.78281,4            1.14587,51.78305,4            1.1464,51.78327,4            1.14679,51.78343,4            1.14731,51.78365,4            1.1478,51.78383,4            1.14839,51.78407,4            1.14891,51.78427,4            1.14933,51.78451,4            1.14976,51.78474,4            1.15015,51.78495,3            1.15056,51.78516,3            1.15099,51.78538,3            1.15147,51.78562,4            1.15185,51.78579,3            1.15259,51.78613,5            1.15269,51.78623,6            1.15279,51.78628,7            1.15304,51.78647,9            1.15333,51.78667,10            1.15335,51.78669,10            1.15312,51.78659,10            1.15269,51.78637,10            1.15222,51.78617,10            1.15177,51.78601,11            1.15128,51.78577,11            1.15058,51.78543,11            1.15018,51.78522,11            1.15005,51.78517,11            1.14989,51.78508,10            1.14944,51.7848,10            1.149,51.78458,10            1.14834,51.78423,9            1.14807,51.78412,9            1.14742,51.78386,8            1.14684,51.78361,7            1.14624,51.78334,6            1.14576,51.78315,6            1.14532,51.78292,5            1.14508,51.78278,5            1.14458,51.7825,5            1.14425,51.78231,4            1.14417,51.78222,3            1.14428,51.78221,3            1.14458,51.78236,3            1.14497,51.78256,3            1.14552,51.78286,4            1.14603,51.78312,4            1.1465,51.78331,4            1.14701,51.78352,4            1.14755,51.78373,3            1.14807,51.78394,4            1.14841,51.78408,4            1.14889,51.78425,3            1.1493,51.78449,4            1.14974,51.78474,4            1.15022,51.785,4            1.15059,51.78518,3            1.15084,51.78532,4            1.15125,51.78551,3            1.15169,51.78573,4            1.15218,51.78593,3            1.15261,51.78614,5            1.15275,51.78626,7            1.15285,51.78633,7            1.15314,51.78653,9            1.15336,51.78669,10            1.15306,51.78656,10            1.15282,51.78644,10            1.15223,51.78618,10            1.15176,51.78601,11            1.15163,51.78594,11            1.15121,51.78573,11            1.15074,51.78551,11            1.15043,51.78536,11            1.15016,51.78522,11            1.15004,51.78517,11            1.14977,51.785,10            1.14959,51.78489,10            1.14934,51.78475,10            1.14898,51.78457,10            1.14854,51.78435,10            1.14825,51.7842,9            1.14795,51.78407,8            1.14751,51.78389,8            1.14709,51.78373,8            1.14683,51.78361,7            1.14656,51.78348,7            1.14623,51.78333,6            1.1458,51.78316,6            1.1456,51.78306,6            1.1453,51.78291,5            1.14518,51.78284,5            1.14463,51.78256,5            1.1446,51.7826,5            1.14463,51.78263,5            1.14478,51.78272,6            1.14492,51.78281,6            1.14508,51.78293,6            1.14522,51.783,6            1.14529,51.78305,6            1.14536,51.78308,7            1.14538,51.78309,7          </coordinates></LineString></Placemark><Placemark><name>Finish</name><styleUrl>#icon-1899-FF5252-nodesc</styleUrl><Point><coordinates>            1.14538,51.78309,7          </coordinates></Point></Placemark><Placemark><name>Start</name><styleUrl>#icon-1899-0F9D58-nodesc</styleUrl><Point><coordinates>            1.14611,51.78328,6          </coordinates></Point></Placemark></Folder></Document></kml>