<?xml version="1.0" encoding="UTF-8"?><kml xmlns="http://www.opengis.net/kml/2.2"><Document><name>Coed Cefn-pwll-du parkrun</name><description/><Style id="icon-1899-0F9D58-nodesc-normal"><IconStyle><color>ff589d0f</color><scale>1</scale><Icon><href>https://www.gstatic.com/mapspro/images/stock/503-wht-blank_maps.png</href></Icon><hotSpot x="32" xunits="pixels" y="64" yunits="insetPixels"/></IconStyle><LabelStyle><scale>0</scale></LabelStyle><BalloonStyle><text><![CDATA[<h3>$[name]</h3>]]></text></BalloonStyle></Style><Style id="icon-1899-0F9D58-nodesc-highlight"><IconStyle><color>ff589d0f</color><scale>1</scale><Icon><href>https://www.gstatic.com/mapspro/images/stock/503-wht-blank_maps.png</href></Icon><hotSpot x="32" xunits="pixels" y="64" yunits="insetPixels"/></IconStyle><LabelStyle><scale>1</scale></LabelStyle><BalloonStyle><text><![CDATA[<h3>$[name]</h3>]]></text></BalloonStyle></Style><StyleMap id="icon-1899-0F9D58-nodesc"><Pair><key>normal</key><styleUrl>#icon-1899-0F9D58-nodesc-normal</styleUrl></Pair><Pair><key>highlight</key><styleUrl>#icon-1899-0F9D58-nodesc-highlight</styleUrl></Pair></StyleMap><Style id="icon-1899-FF5252-nodesc-normal"><IconStyle><color>ff5252ff</color><scale>1</scale><Icon><href>https://www.gstatic.com/mapspro/images/stock/503-wht-blank_maps.png</href></Icon><hotSpot x="32" xunits="pixels" y="64" yunits="insetPixels"/></IconStyle><LabelStyle><scale>0</scale></LabelStyle><BalloonStyle><text><![CDATA[<h3>$[name]</h3>]]></text></BalloonStyle></Style><Style id="icon-1899-FF5252-nodesc-highlight"><IconStyle><color>ff5252ff</color><scale>1</scale><Icon><href>https://www.gstatic.com/mapspro/images/stock/503-wht-blank_maps.png</href></Icon><hotSpot x="32" xunits="pixels" y="64" yunits="insetPixels"/></IconStyle><LabelStyle><scale>1</scale></LabelStyle><BalloonStyle><text><![CDATA[<h3>$[name]</h3>]]></text></BalloonStyle></Style><StyleMap id="icon-1899-FF5252-nodesc"><Pair><key>normal</key><styleUrl>#icon-1899-FF5252-nodesc-normal</styleUrl></Pair><Pair><key>highlight</key><styleUrl>#icon-1899-FF5252-nodesc-highlight</styleUrl></Pair></StyleMap><Style id="line-0288D1-5456-nodesc-normal"><LineStyle><color>ffd18802</color><width>5.456</width></LineStyle><BalloonStyle><text><![CDATA[<h3>$[name]</h3>]]></text></BalloonStyle></Style><Style id="line-0288D1-5456-nodesc-highlight"><LineStyle><color>ffd18802</color><width>8.184</width></LineStyle><BalloonStyle><text><![CDATA[<h3>$[name]</h3>]]></text></BalloonStyle></Style><StyleMap id="line-0288D1-5456-nodesc"><Pair><key>normal</key><styleUrl>#line-0288D1-5456-nodesc-normal</styleUrl></Pair><Pair><key>highlight</key><styleUrl>#line-0288D1-5456-nodesc-highlight</styleUrl></Pair></StyleMap><Folder><name>Untitled layer</name><Placemark><name>Course</name><styleUrl>#line-0288D1-5456-nodesc</styleUrl><LineString><tessellate>1</tessellate><coordinates>            -3.140921,51.591893,0            -3.141028,51.59148,0            -3.140535,51.590294,0            -3.140213,51.589427,0            -3.139719,51.588747,0            -3.13966,51.588409,0            -3.139867,51.5878,0            -3.139902,51.587324,0            -3.139784,51.585954,0            -3.140245,51.585344,0            -3.140449,51.584681,0            -3.139773,51.584344,0            -3.138727,51.584442,0            -3.138067,51.584434,0            -3.137807,51.584177,0            -3.137589,51.583839,0            -3.136897,51.582471,0            -3.136412,51.582147,0            -3.13604,51.582025,0            -3.135712,51.581902,0            -3.135256,51.580508,0            -3.135782,51.580141,0            -3.137354,51.579558,0            -3.138668,51.578894,0            -3.140047,51.578557,0            -3.141959,51.577842,0            -3.142927,51.577394,0            -3.144199,51.577244,0            -3.144654,51.577014,0            -3.144858,51.576267,0            -3.144848,51.576067,0            -3.14489,51.576414,0            -3.144654,51.577014,0            -3.144268,51.57736,0            -3.142943,51.57748,0            -3.141425,51.578147,0            -3.139033,51.578894,0            -3.139789,51.579591,0            -3.138442,51.581381,0            -3.139054,51.582228,0            -3.140089,51.582118,0            -3.141554,51.581874,0            -3.142482,51.581924,0            -3.143281,51.582294,0            -3.142702,51.583184,0            -3.142337,51.584208,0            -3.142809,51.585054,0            -3.143818,51.585404,0            -3.145212,51.585541,0            -3.146693,51.585757,0            -3.146843,51.586561,0            -3.146178,51.587154,0            -3.145298,51.587641,0            -3.142122,51.588161,0            -3.140964,51.58868,0            -3.140363,51.589307,0            -3.140578,51.59,0          </coordinates></LineString></Placemark><Placemark><name>Finish</name><styleUrl>#icon-1899-FF5252-nodesc</styleUrl><Point><coordinates>            -3.140578,51.59,0          </coordinates></Point></Placemark><Placemark><name>Start</name><styleUrl>#icon-1899-0F9D58-nodesc</styleUrl><Point><coordinates>            -3.1409226,51.5918633,0          </coordinates></Point></Placemark></Folder></Document></kml>