<?xml version="1.0" encoding="UTF-8"?><kml xmlns="http://www.opengis.net/kml/2.2"><Document><name>Colchester Castle parkrun</name><description/><Style id="icon-1899-FFEA00-nodesc-normal"><IconStyle><color>ff00eaff</color><scale>1</scale><Icon><href>https://www.gstatic.com/mapspro/images/stock/503-wht-blank_maps.png</href></Icon><hotSpot x="32" xunits="pixels" y="64" yunits="insetPixels"/></IconStyle><LabelStyle><scale>0</scale></LabelStyle><BalloonStyle><text><![CDATA[<h3>$[name]</h3>]]></text></BalloonStyle></Style><Style id="icon-1899-FFEA00-nodesc-highlight"><IconStyle><color>ff00eaff</color><scale>1</scale><Icon><href>https://www.gstatic.com/mapspro/images/stock/503-wht-blank_maps.png</href></Icon><hotSpot x="32" xunits="pixels" y="64" yunits="insetPixels"/></IconStyle><LabelStyle><scale>1</scale></LabelStyle><BalloonStyle><text><![CDATA[<h3>$[name]</h3>]]></text></BalloonStyle></Style><StyleMap id="icon-1899-FFEA00-nodesc"><Pair><key>normal</key><styleUrl>#icon-1899-FFEA00-nodesc-normal</styleUrl></Pair><Pair><key>highlight</key><styleUrl>#icon-1899-FFEA00-nodesc-highlight</styleUrl></Pair></StyleMap><Style id="line-4186F0-5456-nodesc-normal"><LineStyle><color>fff08641</color><width>5.456</width></LineStyle><BalloonStyle><text><![CDATA[<h3>$[name]</h3>]]></text></BalloonStyle></Style><Style id="line-4186F0-5456-nodesc-highlight"><LineStyle><color>fff08641</color><width>8.184</width></LineStyle><BalloonStyle><text><![CDATA[<h3>$[name]</h3>]]></text></BalloonStyle></Style><StyleMap id="line-4186F0-5456-nodesc"><Pair><key>normal</key><styleUrl>#line-4186F0-5456-nodesc-normal</styleUrl></Pair><Pair><key>highlight</key><styleUrl>#line-4186F0-5456-nodesc-highlight</styleUrl></Pair></StyleMap><Folder><name>Untitled layer</name><Placemark><name>Course</name><styleUrl>#line-4186F0-5456-nodesc</styleUrl><LineString><tessellate>1</tessellate><coordinates>            0.900975,51.894977,0            0.9007809,51.8947234,0            0.900577,51.8944917,0            0.9005877,51.8942302,0            0.900825,51.893868,0            0.901308,51.893636,0            0.901269,51.8933661,0            0.9018216,51.8933264,0            0.9021649,51.8934721,0            0.902541,51.893547,0            0.903003,51.893977,0            0.903421,51.894023,0            0.9038708,51.8939819,0            0.9040432,51.8939362,0            0.90428,51.894056,0            0.904516,51.894268,0            0.904548,51.894434,0            0.904752,51.89454,0            0.905052,51.894533,0            0.9052548,51.8942931,0            0.9052119,51.8940282,0            0.9049222,51.8937435,0            0.9046754,51.8936111,0            0.904591,51.893428,0            0.9042362,51.8933143,0            0.9041819,51.8932072,0            0.904076,51.893116,0            0.9040961,51.893002,0            0.9041129,51.8926867,0            0.903958,51.89257,0            0.9041129,51.8926867,0            0.904119,51.892795,0            0.90238,51.892683,0            0.9020261,51.892769,0            0.90149,51.892749,0            0.901286,51.892788,0            0.901254,51.893027,0            0.901544,51.893199,0            0.9017695,51.8932352,0            0.9016779,51.8933352,0            0.90238,51.892683,0            0.904119,51.892795,0            0.9041129,51.8926867,0            0.903958,51.89257,0            0.90355,51.892239,0            0.9026268,51.8920347,0            0.902327,51.891862,0            0.9033558,51.8917704,0            0.902327,51.891862,0            0.902262,51.891505,0            0.9023151,51.8912606,0            0.902681,51.890981,0            0.902745,51.890153,0            0.9039029,51.8901846,0            0.904312,51.890319,0            0.904344,51.890676,0            0.904537,51.890789,0            0.9044298,51.8913055,0            0.904462,51.891544,0            0.90458,51.891511,0            0.904837,51.891709,0            0.905009,51.891934,0            0.905009,51.892107,0            0.905148,51.892345,0            0.905052,51.892438,0            0.9044072,51.8924524,0            0.9042738,51.8925178,0            0.903958,51.89257,0          </coordinates></LineString></Placemark><Placemark><name>Start/Finish</name><styleUrl>#icon-1899-FFEA00-nodesc</styleUrl><Point><coordinates>            0.903271,51.891782,0          </coordinates></Point></Placemark></Folder></Document></kml>