<?xml version="1.0" encoding="UTF-8"?><kml xmlns="http://www.opengis.net/kml/2.2"><Document><name>Colwick parkrun</name><description>Colwick parkrun</description><Style id="icon-1534-FFD600-nodesc-normal"><IconStyle><color>ff00d6ff</color><scale>1</scale><Icon><href>https://www.gstatic.com/mapspro/images/stock/503-wht-blank_maps.png</href></Icon></IconStyle><LabelStyle><scale>0</scale></LabelStyle><BalloonStyle><text><![CDATA[<h3>$[name]</h3>]]></text></BalloonStyle></Style><Style id="icon-1534-FFD600-nodesc-highlight"><IconStyle><color>ff00d6ff</color><scale>1</scale><Icon><href>https://www.gstatic.com/mapspro/images/stock/503-wht-blank_maps.png</href></Icon></IconStyle><LabelStyle><scale>1</scale></LabelStyle><BalloonStyle><text><![CDATA[<h3>$[name]</h3>]]></text></BalloonStyle></Style><StyleMap id="icon-1534-FFD600-nodesc"><Pair><key>normal</key><styleUrl>#icon-1534-FFD600-nodesc-normal</styleUrl></Pair><Pair><key>highlight</key><styleUrl>#icon-1534-FFD600-nodesc-highlight</styleUrl></Pair></StyleMap><Style id="icon-1644-0288D1-nodesc-normal"><IconStyle><color>ffd18802</color><scale>1</scale><Icon><href>https://www.gstatic.com/mapspro/images/stock/503-wht-blank_maps.png</href></Icon></IconStyle><LabelStyle><scale>0</scale></LabelStyle><BalloonStyle><text><![CDATA[<h3>$[name]</h3>]]></text></BalloonStyle></Style><Style id="icon-1644-0288D1-nodesc-highlight"><IconStyle><color>ffd18802</color><scale>1</scale><Icon><href>https://www.gstatic.com/mapspro/images/stock/503-wht-blank_maps.png</href></Icon></IconStyle><LabelStyle><scale>1</scale></LabelStyle><BalloonStyle><text><![CDATA[<h3>$[name]</h3>]]></text></BalloonStyle></Style><StyleMap id="icon-1644-0288D1-nodesc"><Pair><key>normal</key><styleUrl>#icon-1644-0288D1-nodesc-normal</styleUrl></Pair><Pair><key>highlight</key><styleUrl>#icon-1644-0288D1-nodesc-highlight</styleUrl></Pair></StyleMap><Style id="icon-1733-0288D1-nodesc-normal"><IconStyle><color>ffd18802</color><scale>1</scale><Icon><href>https://www.gstatic.com/mapspro/images/stock/503-wht-blank_maps.png</href></Icon></IconStyle><LabelStyle><scale>0</scale></LabelStyle><BalloonStyle><text><![CDATA[<h3>$[name]</h3>]]></text></BalloonStyle></Style><Style id="icon-1733-0288D1-nodesc-highlight"><IconStyle><color>ffd18802</color><scale>1</scale><Icon><href>https://www.gstatic.com/mapspro/images/stock/503-wht-blank_maps.png</href></Icon></IconStyle><LabelStyle><scale>1</scale></LabelStyle><BalloonStyle><text><![CDATA[<h3>$[name]</h3>]]></text></BalloonStyle></Style><StyleMap id="icon-1733-0288D1-nodesc"><Pair><key>normal</key><styleUrl>#icon-1733-0288D1-nodesc-normal</styleUrl></Pair><Pair><key>highlight</key><styleUrl>#icon-1733-0288D1-nodesc-highlight</styleUrl></Pair></StyleMap><Style id="icon-1899-0F9D58-nodesc-normal"><IconStyle><color>ff589d0f</color><scale>1</scale><Icon><href>https://www.gstatic.com/mapspro/images/stock/503-wht-blank_maps.png</href></Icon><hotSpot x="32" xunits="pixels" y="64" yunits="insetPixels"/></IconStyle><LabelStyle><scale>0</scale></LabelStyle><BalloonStyle><text><![CDATA[<h3>$[name]</h3>]]></text></BalloonStyle></Style><Style id="icon-1899-0F9D58-nodesc-highlight"><IconStyle><color>ff589d0f</color><scale>1</scale><Icon><href>https://www.gstatic.com/mapspro/images/stock/503-wht-blank_maps.png</href></Icon><hotSpot x="32" xunits="pixels" y="64" yunits="insetPixels"/></IconStyle><LabelStyle><scale>1</scale></LabelStyle><BalloonStyle><text><![CDATA[<h3>$[name]</h3>]]></text></BalloonStyle></Style><StyleMap id="icon-1899-0F9D58-nodesc"><Pair><key>normal</key><styleUrl>#icon-1899-0F9D58-nodesc-normal</styleUrl></Pair><Pair><key>highlight</key><styleUrl>#icon-1899-0F9D58-nodesc-highlight</styleUrl></Pair></StyleMap><Style id="icon-1899-FF5252-nodesc-normal"><IconStyle><color>ff5252ff</color><scale>1</scale><Icon><href>https://www.gstatic.com/mapspro/images/stock/503-wht-blank_maps.png</href></Icon><hotSpot x="32" xunits="pixels" y="64" yunits="insetPixels"/></IconStyle><LabelStyle><scale>0</scale></LabelStyle><BalloonStyle><text><![CDATA[<h3>$[name]</h3>]]></text></BalloonStyle></Style><Style id="icon-1899-FF5252-nodesc-highlight"><IconStyle><color>ff5252ff</color><scale>1</scale><Icon><href>https://www.gstatic.com/mapspro/images/stock/503-wht-blank_maps.png</href></Icon><hotSpot x="32" xunits="pixels" y="64" yunits="insetPixels"/></IconStyle><LabelStyle><scale>1</scale></LabelStyle><BalloonStyle><text><![CDATA[<h3>$[name]</h3>]]></text></BalloonStyle></Style><StyleMap id="icon-1899-FF5252-nodesc"><Pair><key>normal</key><styleUrl>#icon-1899-FF5252-nodesc-normal</styleUrl></Pair><Pair><key>highlight</key><styleUrl>#icon-1899-FF5252-nodesc-highlight</styleUrl></Pair></StyleMap><Style id="line-0288D1-5000-nodesc-normal"><LineStyle><color>ffd18802</color><width>5</width></LineStyle><BalloonStyle><text><![CDATA[<h3>$[name]</h3>]]></text></BalloonStyle></Style><Style id="line-0288D1-5000-nodesc-highlight"><LineStyle><color>ffd18802</color><width>7.5</width></LineStyle><BalloonStyle><text><![CDATA[<h3>$[name]</h3>]]></text></BalloonStyle></Style><StyleMap id="line-0288D1-5000-nodesc"><Pair><key>normal</key><styleUrl>#line-0288D1-5000-nodesc-normal</styleUrl></Pair><Pair><key>highlight</key><styleUrl>#line-0288D1-5000-nodesc-highlight</styleUrl></Pair></StyleMap><Folder><name>Untitled layer</name><Placemark><name>Course</name><styleUrl>#line-0288D1-5000-nodesc</styleUrl><LineString><tessellate>1</tessellate><coordinates>            -1.096697,52.944987,0            -1.096503,52.944839,0            -1.096364,52.944675,0            -1.096525,52.944504,0            -1.096765,52.944383,0            -1.09703,52.944266,0            -1.097264,52.944121,0            -1.097399,52.943942,0            -1.097546,52.943763,0            -1.097746,52.943605,0            -1.098002,52.943482,0            -1.098236,52.943348,0            -1.098477,52.943231,0            -1.098682,52.943077,0            -1.098905,52.942935,0            -1.099165,52.942805,0            -1.099492,52.942759,0            -1.099822,52.94277,0            -1.100147,52.94276,0            -1.100446,52.942738,0            -1.100776,52.942688,0            -1.101058,52.942621,0            -1.101389,52.942599,0            -1.101692,52.942619,0            -1.102014,52.942674,0            -1.102322,52.942741,0            -1.102619,52.942811,0            -1.102899,52.942893,0            -1.103165,52.942976,0            -1.103434,52.943056,0            -1.103721,52.943143,0            -1.104009,52.943235,0            -1.104313,52.943322,0            -1.104629,52.943384,0            -1.104924,52.943436,0            -1.105223,52.943473,0            -1.105516,52.943529,0            -1.105281,52.943625,0            -1.104983,52.943718,0            -1.104673,52.943789,0            -1.104382,52.943896,0            -1.104142,52.944009,0            -1.103948,52.944171,0            -1.103786,52.944333,0            -1.103639,52.944499,0            -1.103415,52.944641,0            -1.103178,52.944775,0            -1.102901,52.944897,0            -1.102613,52.945008,0            -1.102354,52.945119,0            -1.102106,52.945224,0            -1.101931,52.945368,0            -1.101758,52.945516,0            -1.101614,52.945697,0            -1.10144,52.945858,0            -1.101289,52.94604,0            -1.101072,52.946197,0            -1.100806,52.946307,0            -1.100556,52.946414,0            -1.100326,52.946535,0            -1.100091,52.946666,0            -1.099929,52.946843,0            -1.099792,52.947037,0            -1.099675,52.947206,0            -1.099549,52.947369,0            -1.099531,52.947568,0            -1.09957,52.947769,0            -1.099625,52.947969,0            -1.099667,52.948158,0            -1.099637,52.948341,0            -1.099633,52.948535,0            -1.099525,52.948722,0            -1.099376,52.948875,0            -1.099168,52.949021,0            -1.098934,52.949157,0            -1.098833,52.949222,0            -1.098592,52.949359,0            -1.098332,52.949477,0            -1.098062,52.94962,0            -1.097869,52.949786,0            -1.097619,52.949928,0            -1.097329,52.950021,0            -1.097029,52.950109,0            -1.096755,52.950208,0            -1.096478,52.950325,0            -1.096327,52.950502,0            -1.09628,52.95068,0            -1.096292,52.950874,0            -1.096239,52.951052,0            -1.09606,52.951185,0            -1.095745,52.95124,0            -1.095418,52.951282,0            -1.095128,52.951396,0            -1.094979,52.951561,0            -1.09496,52.951742,0            -1.094968,52.951934,0            -1.094921,52.952127,0            -1.094765,52.952288,0            -1.09454,52.952415,0            -1.094311,52.952544,0            -1.094039,52.952644,0            -1.09375,52.952728,0            -1.093442,52.952802,0            -1.093127,52.952842,0            -1.092821,52.952864,0            -1.092511,52.952871,0            -1.092187,52.952853,0            -1.091864,52.952833,0            -1.091831,52.952813,0            -1.091645,52.952641,0            -1.091357,52.952587,0            -1.091038,52.952575,0            -1.090723,52.95258,0            -1.090413,52.952575,0            -1.090126,52.952508,0            -1.089854,52.952423,0            -1.089577,52.952331,0            -1.089302,52.952221,0            -1.08904,52.952083,0            -1.088839,52.951942,0            -1.088629,52.951805,0            -1.088451,52.951629,0            -1.088298,52.951455,0            -1.088146,52.9513,0            -1.087983,52.951122,0            -1.087845,52.950939,0            -1.087723,52.950773,0            -1.087597,52.950601,0            -1.08755,52.950412,0            -1.087509,52.95021,0            -1.087456,52.950018,0            -1.087381,52.949827,0            -1.087375,52.949644,0            -1.087454,52.949461,0            -1.087629,52.9493,0            -1.087935,52.949226,0            -1.08825,52.949192,0            -1.08851,52.949085,0            -1.088728,52.948937,0            -1.08891,52.948778,0            -1.089134,52.948629,0            -1.089372,52.948518,0            -1.089652,52.948403,0            -1.089953,52.948333,0            -1.090212,52.94822,0            -1.090455,52.948111,0            -1.090694,52.947993,0            -1.091017,52.948035,0            -1.091318,52.948073,0            -1.091646,52.948057,0            -1.091968,52.948048,0            -1.09208,52.948053,0            -1.092396,52.948059,0            -1.092701,52.947989,0            -1.093025,52.947946,0            -1.093339,52.947882,0            -1.093645,52.947835,0            -1.093929,52.947776,0            -1.094201,52.947688,0            -1.094476,52.947584,0            -1.094722,52.947479,0            -1.094962,52.947328,0            -1.095153,52.94718,0            -1.095342,52.947007,0            -1.095535,52.946842,0            -1.095732,52.946707,0            -1.09597,52.946567,0            -1.096199,52.946451,0            -1.096435,52.946311,0            -1.096681,52.946173,0            -1.096937,52.946042,0            -1.097173,52.945915,0            -1.097345,52.945767,0            -1.097291,52.94563,0            -1.097073,52.945474,0            -1.09689,52.945331,0            -1.096705,52.945184,0            -1.096524,52.945011,0            -1.09637,52.944857,0            -1.096261,52.944673,0            -1.096429,52.9445,0            -1.09669,52.944363,0            -1.096953,52.944241,0            -1.097213,52.944117,0            -1.097331,52.943939,0            -1.097481,52.943773,0            -1.097678,52.943616,0            -1.097916,52.94349,0            -1.09815,52.943378,0            -1.098399,52.943253,0            -1.098609,52.943119,0            -1.098831,52.942975,0            -1.099063,52.942831,0            -1.099333,52.942749,0            -1.099656,52.942735,0            -1.099986,52.942745,0            -1.100283,52.942719,0            -1.100596,52.942712,0            -1.100876,52.942652,0            -1.101222,52.942612,0            -1.101526,52.942634,0            -1.101848,52.942678,0            -1.102168,52.942741,0            -1.102468,52.942813,0            -1.102785,52.942868,0            -1.103073,52.942931,0            -1.103344,52.943018,0            -1.103661,52.943106,0            -1.103936,52.9432,0            -1.104199,52.943299,0            -1.104512,52.943358,0            -1.104811,52.94341,0            -1.105116,52.943449,0            -1.105432,52.943497,0            -1.105523,52.943522,0            -1.105516,52.943569,0            -1.105219,52.943669,0            -1.104948,52.943761,0            -1.104687,52.943858,0            -1.104401,52.943969,0            -1.10414,52.944091,0            -1.103937,52.944245,0            -1.103769,52.944417,0            -1.103597,52.94457,0            -1.103338,52.944688,0            -1.10311,52.944819,0            -1.102835,52.944926,0            -1.102559,52.94503,0            -1.102511,52.945048,0            -1.102216,52.94514,0            -1.101941,52.945242,0            -1.101738,52.945378,0            -1.101506,52.945527,0            -1.101211,52.945648,0            -1.100916,52.94571,0            -1.100588,52.94573,0            -1.100287,52.945743,0            -1.099944,52.945712,0            -1.099876,52.945703,0          </coordinates></LineString></Placemark><Placemark><name>Finish</name><styleUrl>#icon-1899-FF5252-nodesc</styleUrl><Point><coordinates>            -1.099876,52.945703,21.2          </coordinates></Point></Placemark><Placemark><name>Start</name><styleUrl>#icon-1899-0F9D58-nodesc</styleUrl><Point><coordinates>            -1.096697,52.944987,21.5          </coordinates></Point></Placemark><Placemark><name>Parking</name><styleUrl>#icon-1644-0288D1-nodesc</styleUrl><Point><coordinates>            -1.109098,52.945327,0          </coordinates></Point></Placemark><Placemark><name>Parking</name><styleUrl>#icon-1644-0288D1-nodesc</styleUrl><Point><coordinates>            -1.102918,52.947409,0          </coordinates></Point></Placemark><Placemark><name>Parking</name><styleUrl>#icon-1644-0288D1-nodesc</styleUrl><Point><coordinates>            -1.098742,52.953663,0          </coordinates></Point></Placemark><Placemark><name>Toilets</name><styleUrl>#icon-1733-0288D1-nodesc</styleUrl><Point><coordinates>            -1.09076,52.947888,0          </coordinates></Point></Placemark><Placemark><name>Cafe</name><styleUrl>#icon-1534-FFD600-nodesc</styleUrl><Point><coordinates>            -1.123427,52.946452,0          </coordinates></Point></Placemark></Folder></Document></kml>