<?xml version="1.0" encoding="UTF-8"?><kml xmlns="http://www.opengis.net/kml/2.2"><Document><name>Congleton parkrun</name><description>3 laps around Astbury Mere.</description><Style id="icon-123-nodesc-normal"><IconStyle><scale>1.1</scale><Icon><href>https://www.gstatic.com/mapspro/images/stock/123-red-dot.png</href></Icon><hotSpot x="16" xunits="pixels" y="32" yunits="insetPixels"/></IconStyle><LabelStyle><scale>0</scale></LabelStyle><BalloonStyle><text><![CDATA[<h3>$[name]</h3>]]></text></BalloonStyle></Style><Style id="icon-123-nodesc-highlight"><IconStyle><scale>1.1</scale><Icon><href>https://www.gstatic.com/mapspro/images/stock/123-red-dot.png</href></Icon><hotSpot x="16" xunits="pixels" y="32" yunits="insetPixels"/></IconStyle><LabelStyle><scale>1.1</scale></LabelStyle><BalloonStyle><text><![CDATA[<h3>$[name]</h3>]]></text></BalloonStyle></Style><StyleMap id="icon-123-nodesc"><Pair><key>normal</key><styleUrl>#icon-123-nodesc-normal</styleUrl></Pair><Pair><key>highlight</key><styleUrl>#icon-123-nodesc-highlight</styleUrl></Pair></StyleMap><Style id="icon-61-normal"><IconStyle><scale>1.1</scale><Icon><href>https://www.gstatic.com/mapspro/images/stock/61-green-dot.png</href></Icon><hotSpot x="16" xunits="pixels" y="32" yunits="insetPixels"/></IconStyle><LabelStyle><scale>0</scale></LabelStyle></Style><Style id="icon-61-highlight"><IconStyle><scale>1.1</scale><Icon><href>https://www.gstatic.com/mapspro/images/stock/61-green-dot.png</href></Icon><hotSpot x="16" xunits="pixels" y="32" yunits="insetPixels"/></IconStyle><LabelStyle><scale>1.1</scale></LabelStyle></Style><StyleMap id="icon-61"><Pair><key>normal</key><styleUrl>#icon-61-normal</styleUrl></Pair><Pair><key>highlight</key><styleUrl>#icon-61-highlight</styleUrl></Pair></StyleMap><Style id="line-0000FF-5000-nodesc-normal"><LineStyle><color>ffff0000</color><width>5</width></LineStyle><BalloonStyle><text><![CDATA[<h3>$[name]</h3>]]></text></BalloonStyle></Style><Style id="line-0000FF-5000-nodesc-highlight"><LineStyle><color>ffff0000</color><width>7.5</width></LineStyle><BalloonStyle><text><![CDATA[<h3>$[name]</h3>]]></text></BalloonStyle></Style><StyleMap id="line-0000FF-5000-nodesc"><Pair><key>normal</key><styleUrl>#line-0000FF-5000-nodesc-normal</styleUrl></Pair><Pair><key>highlight</key><styleUrl>#line-0000FF-5000-nodesc-highlight</styleUrl></Pair></StyleMap><Style id="line-FF0000-5000-nodesc-normal"><LineStyle><color>ff0000ff</color><width>5</width></LineStyle><BalloonStyle><text><![CDATA[<h3>$[name]</h3>]]></text></BalloonStyle></Style><Style id="line-FF0000-5000-nodesc-highlight"><LineStyle><color>ff0000ff</color><width>7.5</width></LineStyle><BalloonStyle><text><![CDATA[<h3>$[name]</h3>]]></text></BalloonStyle></Style><StyleMap id="line-FF0000-5000-nodesc"><Pair><key>normal</key><styleUrl>#line-FF0000-5000-nodesc-normal</styleUrl></Pair><Pair><key>highlight</key><styleUrl>#line-FF0000-5000-nodesc-highlight</styleUrl></Pair></StyleMap><Folder><name>Untitled layer</name><Placemark><name>Line 1</name><styleUrl>#line-0000FF-5000-nodesc</styleUrl><LineString><tessellate>1</tessellate><coordinates>            -2.229688,53.160816,0            -2.23015,53.160721,0            -2.230654,53.160744,0            -2.23119,53.160847,0            -2.23134,53.160885,0            -2.231416,53.160698,0            -2.231909,53.160576,0            -2.232252,53.160301,0            -2.232757,53.16003,0            -2.233293,53.159805,0            -2.233679,53.159447,0            -2.233593,53.159027,0            -2.232982,53.158661,0            -2.232735,53.158379,0            -2.232209,53.158035,0            -2.231984,53.157902,0            -2.231469,53.157745,0            -2.231233,53.157497,0            -2.231126,53.157249,0            -2.230675,53.156956,0            -2.230021,53.156658,0            -2.229109,53.156326,0            -2.228379,53.156357,0            -2.227854,53.156551,0            -2.227296,53.156742,0            -2.22677,53.157021,0            -2.226512,53.157143,0            -2.226276,53.157639,0            -2.226062,53.158195,0            -2.225976,53.158455,0            -2.225912,53.158775,0            -2.225976,53.159458,0            -2.22603,53.159889,0            -2.226738,53.160133,0            -2.22751,53.160324,0            -2.228197,53.160515,0            -2.228765,53.160744,0            -2.229345,53.160782,0            -2.229688,53.160816,0          </coordinates></LineString></Placemark><Placemark><name>Start</name><description>100m from the finish</description><styleUrl>#icon-61</styleUrl><Point><coordinates>            -2.22971,53.160797,0          </coordinates></Point></Placemark><Placemark><name>Finish straight after 3 laps.</name><styleUrl>#line-FF0000-5000-nodesc</styleUrl><LineString><tessellate>1</tessellate><coordinates>            -2.230895,53.160789,0            -2.231287,53.160706,0          </coordinates></LineString></Placemark><Placemark><name>Finish</name><styleUrl>#icon-123-nodesc</styleUrl><Point><coordinates>            -2.231289,53.160706,0          </coordinates></Point></Placemark></Folder></Document></kml>