<?xml version="1.0" encoding="UTF-8"?><kml xmlns="http://www.opengis.net/kml/2.2"><Document><name>Cotlands Park junior parkrun</name><description/><Style id="icon-1899-0F9D58-nodesc-normal"><IconStyle><color>ff589d0f</color><scale>1</scale><Icon><href>https://www.gstatic.com/mapspro/images/stock/503-wht-blank_maps.png</href></Icon><hotSpot x="32" xunits="pixels" y="64" yunits="insetPixels"/></IconStyle><LabelStyle><scale>0</scale></LabelStyle><BalloonStyle><text><![CDATA[<h3>$[name]</h3>]]></text></BalloonStyle></Style><Style id="icon-1899-0F9D58-nodesc-highlight"><IconStyle><color>ff589d0f</color><scale>1</scale><Icon><href>https://www.gstatic.com/mapspro/images/stock/503-wht-blank_maps.png</href></Icon><hotSpot x="32" xunits="pixels" y="64" yunits="insetPixels"/></IconStyle><LabelStyle><scale>1</scale></LabelStyle><BalloonStyle><text><![CDATA[<h3>$[name]</h3>]]></text></BalloonStyle></Style><StyleMap id="icon-1899-0F9D58-nodesc"><Pair><key>normal</key><styleUrl>#icon-1899-0F9D58-nodesc-normal</styleUrl></Pair><Pair><key>highlight</key><styleUrl>#icon-1899-0F9D58-nodesc-highlight</styleUrl></Pair></StyleMap><Style id="icon-1899-E65100-nodesc-normal"><IconStyle><color>ff0051e6</color><scale>1</scale><Icon><href>https://www.gstatic.com/mapspro/images/stock/503-wht-blank_maps.png</href></Icon><hotSpot x="32" xunits="pixels" y="64" yunits="insetPixels"/></IconStyle><LabelStyle><scale>0</scale></LabelStyle><BalloonStyle><text><![CDATA[<h3>$[name]</h3>]]></text></BalloonStyle></Style><Style id="icon-1899-E65100-nodesc-highlight"><IconStyle><color>ff0051e6</color><scale>1</scale><Icon><href>https://www.gstatic.com/mapspro/images/stock/503-wht-blank_maps.png</href></Icon><hotSpot x="32" xunits="pixels" y="64" yunits="insetPixels"/></IconStyle><LabelStyle><scale>1</scale></LabelStyle><BalloonStyle><text><![CDATA[<h3>$[name]</h3>]]></text></BalloonStyle></Style><StyleMap id="icon-1899-E65100-nodesc"><Pair><key>normal</key><styleUrl>#icon-1899-E65100-nodesc-normal</styleUrl></Pair><Pair><key>highlight</key><styleUrl>#icon-1899-E65100-nodesc-highlight</styleUrl></Pair></StyleMap><Style id="line-0288D1-5650-nodesc-normal"><LineStyle><color>ffd18802</color><width>5.65</width></LineStyle><BalloonStyle><text><![CDATA[<h3>$[name]</h3>]]></text></BalloonStyle></Style><Style id="line-0288D1-5650-nodesc-highlight"><LineStyle><color>ffd18802</color><width>8.475</width></LineStyle><BalloonStyle><text><![CDATA[<h3>$[name]</h3>]]></text></BalloonStyle></Style><StyleMap id="line-0288D1-5650-nodesc"><Pair><key>normal</key><styleUrl>#line-0288D1-5650-nodesc-normal</styleUrl></Pair><Pair><key>highlight</key><styleUrl>#line-0288D1-5650-nodesc-highlight</styleUrl></Pair></StyleMap><Folder><name>Untitled layer</name><Placemark><name>Course</name><styleUrl>#line-0288D1-5650-nodesc</styleUrl><LineString><tessellate>1</tessellate><coordinates>            -3.046716,56.211959,0            -3.046738,56.211201,0            -3.046496,56.211243,0            -3.046266,56.211106,0            -3.045874,56.211219,0            -3.045734,56.211189,0            -3.045761,56.210724,0            -3.045144,56.210658,0            -3.045761,56.210724,0            -3.045734,56.211189,0            -3.045874,56.211219,0            -3.045734,56.211616,0            -3.045686,56.21166,0            -3.045584,56.211693,0            -3.045611,56.211828,0            -3.04559,56.212093,0            -3.045563,56.212394,0            -3.04552,56.212651,0            -3.045429,56.212878,0            -3.045332,56.212937,0            -3.045193,56.213039,0            -3.045096,56.213116,0            -3.045,56.213268,0            -3.044726,56.212961,0            -3.044592,56.212806,0            -3.044522,56.21274,0            -3.04441,56.212529,0            -3.044281,56.212296,0            -3.044163,56.212057,0            -3.044056,56.211905,0            -3.043975,56.211801,0            -3.043771,56.211771,0            -3.043551,56.211857,0            -3.043337,56.211926,0            -3.043149,56.211974,0            -3.042961,56.212007,0            -3.042827,56.212069,0            -3.042773,56.212138,0            -3.042773,56.212206,0            -3.042859,56.212296,0            -3.043058,56.212499,0            -3.043208,56.212618,0            -3.043176,56.212806,0            -3.043165,56.21297,0            -3.043165,56.213039,0            -3.043192,56.213098,0            -3.043235,56.213104,0            -3.043331,56.213051,0            -3.043503,56.212952,0            -3.043685,56.212922,0            -3.04383,56.21291,0            -3.043932,56.212896,0            -3.044061,56.212866,0            -3.044147,56.212842,0            -3.044238,56.212815,0            -3.04434,56.212788,0            -3.044426,56.212779,0            -3.044506,56.212782,0            -3.044576,56.212803,0          </coordinates></LineString></Placemark><Placemark><name>Finish</name><styleUrl>#icon-1899-E65100-nodesc</styleUrl><Point><coordinates>            -3.045134,56.210658,0          </coordinates></Point></Placemark><Placemark><name>Start</name><styleUrl>#icon-1899-0F9D58-nodesc</styleUrl><Point><coordinates>            -3.046716,56.211959,0          </coordinates></Point></Placemark></Folder></Document></kml>