<?xml version="1.0" encoding="UTF-8"?><kml xmlns="http://www.opengis.net/kml/2.2"><Document><name>Cotsford Fields parkrun</name><description/><Style id="icon-1899-0F9D58-nodesc-normal"><IconStyle><color>ff589d0f</color><scale>1</scale><Icon><href>https://www.gstatic.com/mapspro/images/stock/503-wht-blank_maps.png</href></Icon><hotSpot x="32" xunits="pixels" y="64" yunits="insetPixels"/></IconStyle><LabelStyle><scale>0</scale></LabelStyle><BalloonStyle><text><![CDATA[<h3>$[name]</h3>]]></text></BalloonStyle></Style><Style id="icon-1899-0F9D58-nodesc-highlight"><IconStyle><color>ff589d0f</color><scale>1</scale><Icon><href>https://www.gstatic.com/mapspro/images/stock/503-wht-blank_maps.png</href></Icon><hotSpot x="32" xunits="pixels" y="64" yunits="insetPixels"/></IconStyle><LabelStyle><scale>1</scale></LabelStyle><BalloonStyle><text><![CDATA[<h3>$[name]</h3>]]></text></BalloonStyle></Style><StyleMap id="icon-1899-0F9D58-nodesc"><Pair><key>normal</key><styleUrl>#icon-1899-0F9D58-nodesc-normal</styleUrl></Pair><Pair><key>highlight</key><styleUrl>#icon-1899-0F9D58-nodesc-highlight</styleUrl></Pair></StyleMap><Style id="icon-1899-FF5252-nodesc-normal"><IconStyle><color>ff5252ff</color><scale>1</scale><Icon><href>https://www.gstatic.com/mapspro/images/stock/503-wht-blank_maps.png</href></Icon><hotSpot x="32" xunits="pixels" y="64" yunits="insetPixels"/></IconStyle><LabelStyle><scale>0</scale></LabelStyle><BalloonStyle><text><![CDATA[<h3>$[name]</h3>]]></text></BalloonStyle></Style><Style id="icon-1899-FF5252-nodesc-highlight"><IconStyle><color>ff5252ff</color><scale>1</scale><Icon><href>https://www.gstatic.com/mapspro/images/stock/503-wht-blank_maps.png</href></Icon><hotSpot x="32" xunits="pixels" y="64" yunits="insetPixels"/></IconStyle><LabelStyle><scale>1</scale></LabelStyle><BalloonStyle><text><![CDATA[<h3>$[name]</h3>]]></text></BalloonStyle></Style><StyleMap id="icon-1899-FF5252-nodesc"><Pair><key>normal</key><styleUrl>#icon-1899-FF5252-nodesc-normal</styleUrl></Pair><Pair><key>highlight</key><styleUrl>#icon-1899-FF5252-nodesc-highlight</styleUrl></Pair></StyleMap><Style id="line-0288D1-4875-nodesc-normal"><LineStyle><color>ffd18802</color><width>4.875</width></LineStyle><BalloonStyle><text><![CDATA[<h3>$[name]</h3>]]></text></BalloonStyle></Style><Style id="line-0288D1-4875-nodesc-highlight"><LineStyle><color>ffd18802</color><width>7.3125</width></LineStyle><BalloonStyle><text><![CDATA[<h3>$[name]</h3>]]></text></BalloonStyle></Style><StyleMap id="line-0288D1-4875-nodesc"><Pair><key>normal</key><styleUrl>#line-0288D1-4875-nodesc-normal</styleUrl></Pair><Pair><key>highlight</key><styleUrl>#line-0288D1-4875-nodesc-highlight</styleUrl></Pair></StyleMap><Folder><name>Untitled layer</name><Placemark><name>Course</name><styleUrl>#line-0288D1-4875-nodesc</styleUrl><LineString><tessellate>1</tessellate><coordinates>            -1.3029531,54.76423,0            -1.3029907,54.7644064,0            -1.3036767,54.7644314,0            -1.3041917,54.7642334,0            -1.3053507,54.7643824,0            -1.3057611,54.7644953,0            -1.3063914,54.7646856,0            -1.3058978,54.7651526,0            -1.3055223,54.7654869,0            -1.3050927,54.7658924,0            -1.3045357,54.7661154,0            -1.3039588,54.766041,0            -1.3032907,54.7659883,0            -1.3029047,54.7661394,0            -1.3029907,54.7667279,0            -1.3030337,54.7669074,0            -1.302996,54.767251,0            -1.3029907,54.7674274,0            -1.3025606,54.7674547,0            -1.302215,54.7671251,0            -1.3019176,54.7668574,0            -1.3016975,54.7665824,0            -1.3012093,54.7659696,0            -1.3007587,54.7654033,0            -1.3004798,54.7650288,0            -1.3002516,54.7647516,0            -1.3001146,54.7646044,0            -1.3000181,54.7645178,0            -1.2996454,54.7642906,0            -1.2992996,54.7640604,0            -1.2987416,54.7637384,0            -1.2985593,54.7634535,0            -1.2984256,54.7632833,0            -1.2982696,54.7630694,0            -1.2976635,54.7626023,0            -1.2973468,54.7623704,0            -1.2970408,54.7621199,0            -1.2966979,54.7617729,0            -1.2963652,54.7615623,0            -1.2960434,54.7613333,0            -1.2956946,54.7610884,0            -1.2961292,54.7608317,0            -1.2964511,54.7606647,0            -1.2968052,54.7604666,0            -1.2971324,54.7602933,0            -1.2974274,54.7600952,0            -1.297996,54.7598352,0            -1.2987416,54.7596034,0            -1.2994766,54.7595599,0            -1.3002062,54.7595813,0            -1.3007156,54.7596524,0            -1.3009787,54.7599281,0            -1.301322,54.7602933,0            -1.3017456,54.7606674,0            -1.3019657,54.7610857,0            -1.3022876,54.761649,0            -1.3024274,54.7618713,0            -1.302588,54.7625714,0            -1.3027704,54.7629644,0            -1.3027462,54.7631981,0            -1.3028508,54.7634194,0            -1.3028884,54.763633,0            -1.3029152,54.7638217,0            -1.3029531,54.76423,0          </coordinates></LineString></Placemark><Placemark><name>Finish</name><styleUrl>#icon-1899-FF5252-nodesc</styleUrl><Point><coordinates>            -1.300421,54.759402,0          </coordinates></Point></Placemark><Placemark><name>Start</name><styleUrl>#icon-1899-0F9D58-nodesc</styleUrl><Point><coordinates>            -1.300721,54.759476,0          </coordinates></Point></Placemark></Folder></Document></kml>