<?xml version="1.0" encoding="UTF-8"?><kml xmlns="http://www.opengis.net/kml/2.2"><Document><name>Coventry parkrun</name><description/><Style id="icon-1899-0F9D58-nodesc-normal"><IconStyle><color>ff589d0f</color><scale>1</scale><Icon><href>https://www.gstatic.com/mapspro/images/stock/503-wht-blank_maps.png</href></Icon><hotSpot x="32" xunits="pixels" y="64" yunits="insetPixels"/></IconStyle><LabelStyle><scale>0</scale></LabelStyle><BalloonStyle><text><![CDATA[<h3>$[name]</h3>]]></text></BalloonStyle></Style><Style id="icon-1899-0F9D58-nodesc-highlight"><IconStyle><color>ff589d0f</color><scale>1</scale><Icon><href>https://www.gstatic.com/mapspro/images/stock/503-wht-blank_maps.png</href></Icon><hotSpot x="32" xunits="pixels" y="64" yunits="insetPixels"/></IconStyle><LabelStyle><scale>1</scale></LabelStyle><BalloonStyle><text><![CDATA[<h3>$[name]</h3>]]></text></BalloonStyle></Style><StyleMap id="icon-1899-0F9D58-nodesc"><Pair><key>normal</key><styleUrl>#icon-1899-0F9D58-nodesc-normal</styleUrl></Pair><Pair><key>highlight</key><styleUrl>#icon-1899-0F9D58-nodesc-highlight</styleUrl></Pair></StyleMap><Style id="icon-1899-FF5252-nodesc-normal"><IconStyle><color>ff5252ff</color><scale>1</scale><Icon><href>https://www.gstatic.com/mapspro/images/stock/503-wht-blank_maps.png</href></Icon><hotSpot x="32" xunits="pixels" y="64" yunits="insetPixels"/></IconStyle><LabelStyle><scale>0</scale></LabelStyle><BalloonStyle><text><![CDATA[<h3>$[name]</h3>]]></text></BalloonStyle></Style><Style id="icon-1899-FF5252-nodesc-highlight"><IconStyle><color>ff5252ff</color><scale>1</scale><Icon><href>https://www.gstatic.com/mapspro/images/stock/503-wht-blank_maps.png</href></Icon><hotSpot x="32" xunits="pixels" y="64" yunits="insetPixels"/></IconStyle><LabelStyle><scale>1</scale></LabelStyle><BalloonStyle><text><![CDATA[<h3>$[name]</h3>]]></text></BalloonStyle></Style><StyleMap id="icon-1899-FF5252-nodesc"><Pair><key>normal</key><styleUrl>#icon-1899-FF5252-nodesc-normal</styleUrl></Pair><Pair><key>highlight</key><styleUrl>#icon-1899-FF5252-nodesc-highlight</styleUrl></Pair></StyleMap><Style id="line-4186F0-5456-nodesc-normal"><LineStyle><color>fff08641</color><width>5.456</width></LineStyle><BalloonStyle><text><![CDATA[<h3>$[name]</h3>]]></text></BalloonStyle></Style><Style id="line-4186F0-5456-nodesc-highlight"><LineStyle><color>fff08641</color><width>8.184</width></LineStyle><BalloonStyle><text><![CDATA[<h3>$[name]</h3>]]></text></BalloonStyle></Style><StyleMap id="line-4186F0-5456-nodesc"><Pair><key>normal</key><styleUrl>#line-4186F0-5456-nodesc-normal</styleUrl></Pair><Pair><key>highlight</key><styleUrl>#line-4186F0-5456-nodesc-highlight</styleUrl></Pair></StyleMap><Folder><name>Untitled layer</name><Placemark><name>Course</name><styleUrl>#line-4186F0-5456-nodesc</styleUrl><LineString><tessellate>1</tessellate><coordinates>            -1.524223,52.392474,0            -1.52411,52.392334,0            -1.524046,52.392209,0            -1.524046,52.391996,0            -1.52403,52.391707,0            -1.525408,52.391653,0            -1.525988,52.391635,0            -1.526481,52.391577,0            -1.527468,52.391487,0            -1.528241,52.391515,0            -1.528316,52.391302,0            -1.528632,52.391121,0            -1.528852,52.390942,0            -1.528723,52.390491,0            -1.528552,52.390054,0            -1.528418,52.389684,0            -1.528246,52.388634,0            -1.528125,52.388369,0            -1.527903,52.388176,0            -1.527364,52.388114,0            -1.526799,52.38805,0            -1.525959,52.388038,0            -1.525431,52.388054,0            -1.524491,52.388032,0            -1.524182,52.388025,0            -1.523814,52.388032,0            -1.523409,52.388127,0            -1.523037,52.388241,0            -1.51969,52.390795,0            -1.519582,52.391188,0            -1.519346,52.391579,0            -1.51934,52.391643,0            -1.519199,52.39169,0            -1.518166,52.391947,0            -1.51771,52.392167,0            -1.516635,52.392759,0            -1.516408,52.392866,0            -1.516256,52.393139,0            -1.516393,52.393902,0            -1.517379,52.393862,0            -1.518381,52.393807,0            -1.51851,52.393715,0            -1.518638,52.393679,0            -1.518783,52.393697,0            -1.51932,52.393198,0            -1.519676,52.393149,0            -1.520435,52.392966,0            -1.521559,52.392715,0            -1.521629,52.392623,0            -1.521833,52.392564,0            -1.522139,52.392436,0            -1.522505,52.392312,0            -1.52311,52.391936,0            -1.523488,52.391728,0            -1.52403,52.391707,0            -1.524046,52.392209,0            -1.52411,52.392334,0          </coordinates></LineString></Placemark><Placemark><name>Finish</name><styleUrl>#icon-1899-FF5252-nodesc</styleUrl><Point><coordinates>            -1.524196,52.392489,0          </coordinates></Point></Placemark><Placemark><name>Start</name><styleUrl>#icon-1899-0F9D58-nodesc</styleUrl><Point><coordinates>            -1.523978,52.392414,0          </coordinates></Point></Placemark></Folder></Document></kml>