<?xml version="1.0" encoding="UTF-8"?><kml xmlns="http://www.opengis.net/kml/2.2"><Document><name>Cranleigh Junior parkrun regular Course (from Sept 2024)</name><description/><Style id="icon-1899-0F9D58-nodesc-normal"><IconStyle><color>ff589d0f</color><scale>1</scale><Icon><href>https://www.gstatic.com/mapspro/images/stock/503-wht-blank_maps.png</href></Icon><hotSpot x="32" xunits="pixels" y="64" yunits="insetPixels"/></IconStyle><LabelStyle><scale>0</scale></LabelStyle><BalloonStyle><text><![CDATA[<h3>$[name]</h3>]]></text></BalloonStyle></Style><Style id="icon-1899-0F9D58-nodesc-highlight"><IconStyle><color>ff589d0f</color><scale>1</scale><Icon><href>https://www.gstatic.com/mapspro/images/stock/503-wht-blank_maps.png</href></Icon><hotSpot x="32" xunits="pixels" y="64" yunits="insetPixels"/></IconStyle><LabelStyle><scale>1</scale></LabelStyle><BalloonStyle><text><![CDATA[<h3>$[name]</h3>]]></text></BalloonStyle></Style><StyleMap id="icon-1899-0F9D58-nodesc"><Pair><key>normal</key><styleUrl>#icon-1899-0F9D58-nodesc-normal</styleUrl></Pair><Pair><key>highlight</key><styleUrl>#icon-1899-0F9D58-nodesc-highlight</styleUrl></Pair></StyleMap><Style id="icon-1899-FF5252-nodesc-normal"><IconStyle><color>ff5252ff</color><scale>1</scale><Icon><href>https://www.gstatic.com/mapspro/images/stock/503-wht-blank_maps.png</href></Icon><hotSpot x="32" xunits="pixels" y="64" yunits="insetPixels"/></IconStyle><LabelStyle><scale>0</scale></LabelStyle><BalloonStyle><text><![CDATA[<h3>$[name]</h3>]]></text></BalloonStyle></Style><Style id="icon-1899-FF5252-nodesc-highlight"><IconStyle><color>ff5252ff</color><scale>1</scale><Icon><href>https://www.gstatic.com/mapspro/images/stock/503-wht-blank_maps.png</href></Icon><hotSpot x="32" xunits="pixels" y="64" yunits="insetPixels"/></IconStyle><LabelStyle><scale>1</scale></LabelStyle><BalloonStyle><text><![CDATA[<h3>$[name]</h3>]]></text></BalloonStyle></Style><StyleMap id="icon-1899-FF5252-nodesc"><Pair><key>normal</key><styleUrl>#icon-1899-FF5252-nodesc-normal</styleUrl></Pair><Pair><key>highlight</key><styleUrl>#icon-1899-FF5252-nodesc-highlight</styleUrl></Pair></StyleMap><Style id="line-0288D1-4488-nodesc-normal"><LineStyle><color>ffd18802</color><width>4.488</width></LineStyle><BalloonStyle><text><![CDATA[<h3>$[name]</h3>]]></text></BalloonStyle></Style><Style id="line-0288D1-4488-nodesc-highlight"><LineStyle><color>ffd18802</color><width>6.732</width></LineStyle><BalloonStyle><text><![CDATA[<h3>$[name]</h3>]]></text></BalloonStyle></Style><StyleMap id="line-0288D1-4488-nodesc"><Pair><key>normal</key><styleUrl>#line-0288D1-4488-nodesc-normal</styleUrl></Pair><Pair><key>highlight</key><styleUrl>#line-0288D1-4488-nodesc-highlight</styleUrl></Pair></StyleMap><Folder><name>Untitled layer</name><Placemark><name>Start</name><styleUrl>#icon-1899-0F9D58-nodesc</styleUrl><Point><coordinates>            -0.494435,51.138487,0          </coordinates></Point></Placemark><Placemark><name>Finish </name><styleUrl>#icon-1899-FF5252-nodesc</styleUrl><Point><coordinates>            -0.49407,51.138467,0          </coordinates></Point></Placemark><Placemark><name>Route</name><styleUrl>#line-0288D1-4488-nodesc</styleUrl><LineString><tessellate>1</tessellate><coordinates>            -0.494156,51.13848,0            -0.495251,51.138548,0            -0.496141,51.138541,0            -0.49701,51.138554,0            -0.497536,51.138561,0            -0.497922,51.138541,0            -0.49804,51.138487,0            -0.498201,51.138453,0            -0.498373,51.138474,0            -0.498652,51.13846,0            -0.499703,51.138332,0            -0.4998,51.138622,0            -0.499875,51.138743,0            -0.4998,51.138898,0            -0.499682,51.138992,0            -0.499628,51.139059,0            -0.499317,51.139059,0            -0.499113,51.139106,0            -0.498759,51.139201,0            -0.49848,51.139268,0            -0.498072,51.139275,0            -0.497815,51.139281,0            -0.49759,51.139376,0            -0.497375,51.13945,0            -0.497171,51.139416,0            -0.496914,51.139409,0            -0.496881,51.139537,0            -0.496817,51.139645,0            -0.49671,51.139712,0            -0.496399,51.139672,0            -0.496163,51.139632,0            -0.495937,51.139632,0            -0.495701,51.139645,0            -0.495465,51.139611,0            -0.495208,51.139564,0            -0.494714,51.139557,0            -0.494317,51.139524,0            -0.494103,51.13949,0            -0.494049,51.139362,0            -0.494103,51.139214,0            -0.494188,51.1391,0            -0.494264,51.138952,0            -0.494199,51.138884,0            -0.494049,51.138837,0            -0.493974,51.138676,0            -0.49407,51.138467,0          </coordinates></LineString></Placemark></Folder></Document></kml>