<?xml version="1.0" encoding="UTF-8"?><kml xmlns="http://www.opengis.net/kml/2.2"><Document><name>Cusworth Hall parkrun (from Feb 2026)</name><description/><Style id="icon-1644-0288D1-nodesc-normal"><IconStyle><color>ffd18802</color><scale>1</scale><Icon><href>https://www.gstatic.com/mapspro/images/stock/503-wht-blank_maps.png</href></Icon></IconStyle><LabelStyle><scale>0</scale></LabelStyle><BalloonStyle><text><![CDATA[<h3>$[name]</h3>]]></text></BalloonStyle></Style><Style id="icon-1644-0288D1-nodesc-highlight"><IconStyle><color>ffd18802</color><scale>1</scale><Icon><href>https://www.gstatic.com/mapspro/images/stock/503-wht-blank_maps.png</href></Icon></IconStyle><LabelStyle><scale>1</scale></LabelStyle><BalloonStyle><text><![CDATA[<h3>$[name]</h3>]]></text></BalloonStyle></Style><StyleMap id="icon-1644-0288D1-nodesc"><Pair><key>normal</key><styleUrl>#icon-1644-0288D1-nodesc-normal</styleUrl></Pair><Pair><key>highlight</key><styleUrl>#icon-1644-0288D1-nodesc-highlight</styleUrl></Pair></StyleMap><Style id="icon-1899-0F9D58-nodesc-normal"><IconStyle><color>ff589d0f</color><scale>1</scale><Icon><href>https://www.gstatic.com/mapspro/images/stock/503-wht-blank_maps.png</href></Icon><hotSpot x="32" xunits="pixels" y="64" yunits="insetPixels"/></IconStyle><LabelStyle><scale>0</scale></LabelStyle><BalloonStyle><text><![CDATA[<h3>$[name]</h3>]]></text></BalloonStyle></Style><Style id="icon-1899-0F9D58-nodesc-highlight"><IconStyle><color>ff589d0f</color><scale>1</scale><Icon><href>https://www.gstatic.com/mapspro/images/stock/503-wht-blank_maps.png</href></Icon><hotSpot x="32" xunits="pixels" y="64" yunits="insetPixels"/></IconStyle><LabelStyle><scale>1</scale></LabelStyle><BalloonStyle><text><![CDATA[<h3>$[name]</h3>]]></text></BalloonStyle></Style><StyleMap id="icon-1899-0F9D58-nodesc"><Pair><key>normal</key><styleUrl>#icon-1899-0F9D58-nodesc-normal</styleUrl></Pair><Pair><key>highlight</key><styleUrl>#icon-1899-0F9D58-nodesc-highlight</styleUrl></Pair></StyleMap><Style id="icon-1899-FF5252-nodesc-normal"><IconStyle><color>ff5252ff</color><scale>1</scale><Icon><href>https://www.gstatic.com/mapspro/images/stock/503-wht-blank_maps.png</href></Icon><hotSpot x="32" xunits="pixels" y="64" yunits="insetPixels"/></IconStyle><LabelStyle><scale>0</scale></LabelStyle><BalloonStyle><text><![CDATA[<h3>$[name]</h3>]]></text></BalloonStyle></Style><Style id="icon-1899-FF5252-nodesc-highlight"><IconStyle><color>ff5252ff</color><scale>1</scale><Icon><href>https://www.gstatic.com/mapspro/images/stock/503-wht-blank_maps.png</href></Icon><hotSpot x="32" xunits="pixels" y="64" yunits="insetPixels"/></IconStyle><LabelStyle><scale>1</scale></LabelStyle><BalloonStyle><text><![CDATA[<h3>$[name]</h3>]]></text></BalloonStyle></Style><StyleMap id="icon-1899-FF5252-nodesc"><Pair><key>normal</key><styleUrl>#icon-1899-FF5252-nodesc-normal</styleUrl></Pair><Pair><key>highlight</key><styleUrl>#icon-1899-FF5252-nodesc-highlight</styleUrl></Pair></StyleMap><Style id="line-0288D1-5263-nodesc-normal"><LineStyle><color>ffd18802</color><width>5.263</width></LineStyle><BalloonStyle><text><![CDATA[<h3>$[name]</h3>]]></text></BalloonStyle></Style><Style id="line-0288D1-5263-nodesc-highlight"><LineStyle><color>ffd18802</color><width>7.8945</width></LineStyle><BalloonStyle><text><![CDATA[<h3>$[name]</h3>]]></text></BalloonStyle></Style><StyleMap id="line-0288D1-5263-nodesc"><Pair><key>normal</key><styleUrl>#line-0288D1-5263-nodesc-normal</styleUrl></Pair><Pair><key>highlight</key><styleUrl>#line-0288D1-5263-nodesc-highlight</styleUrl></Pair></StyleMap><Folder><name>Untitled layer</name><Placemark><name>Parkrun Car Park</name><styleUrl>#icon-1644-0288D1-nodesc</styleUrl><Point><coordinates>            -1.181458,53.529215,0          </coordinates></Point></Placemark><Placemark><name>Course</name><styleUrl>#line-0288D1-5263-nodesc</styleUrl><LineString><tessellate>1</tessellate><coordinates>            -1.173137,53.528678,0            -1.173114,53.528656,0            -1.173151,53.528611,0            -1.173181,53.528551,0            -1.173252,53.528456,0            -1.173349,53.528357,0            -1.173414,53.528292,0            -1.173544,53.528162,0            -1.173579,53.528122,0            -1.173628,53.528053,0            -1.173671,53.527985,0            -1.173696,53.527937,0            -1.173797,53.52776,0            -1.173893,53.52759,0            -1.173927,53.527523,0            -1.173977,53.527461,0            -1.174014,53.527422,0            -1.174058,53.527383,0            -1.174106,53.527344,0            -1.174164,53.527301,0            -1.174231,53.527252,0            -1.174286,53.527216,0            -1.174353,53.527173,0            -1.174435,53.527124,0            -1.174501,53.52708,0            -1.174541,53.527048,0            -1.174587,53.527001,0            -1.174652,53.526929,0            -1.174689,53.526891,0            -1.174723,53.526848,0            -1.174744,53.526808,0            -1.174749,53.526761,0            -1.174744,53.526716,0            -1.174723,53.526652,0            -1.174711,53.526614,0            -1.174716,53.526588,0            -1.174722,53.526565,0            -1.17474,53.526519,0            -1.174736,53.526492,0            -1.174713,53.526469,0            -1.174669,53.526445,0            -1.17461,53.526428,0            -1.174543,53.526422,0            -1.174458,53.526431,0            -1.174378,53.526445,0            -1.174305,53.526465,0            -1.174258,53.52649,0            -1.174182,53.52655,0            -1.17398,53.526705,0            -1.173872,53.526799,0            -1.173722,53.526929,0            -1.173668,53.526967,0            -1.173541,53.527049,0            -1.173504,53.527073,0            -1.173424,53.527129,0            -1.173361,53.527162,0            -1.17331,53.52718,0            -1.173223,53.527204,0            -1.173119,53.527226,0            -1.173035,53.527249,0            -1.172968,53.527274,0            -1.172893,53.527313,0            -1.17282,53.527363,0            -1.172754,53.527409,0            -1.172605,53.527519,0            -1.172537,53.527572,0            -1.172426,53.527663,0            -1.172368,53.52772,0            -1.172338,53.527743,0            -1.172286,53.527763,0            -1.17222,53.527787,0            -1.172143,53.527817,0            -1.172034,53.527858,0            -1.171947,53.527908,0            -1.17189,53.527964,0            -1.171872,53.52799,0            -1.171875,53.528012,0            -1.171827,53.528021,0            -1.171737,53.52803,0            -1.17165,53.528034,0            -1.171437,53.528146,0            -1.171335,53.528204,0            -1.171177,53.528313,0            -1.171086,53.528379,0            -1.170982,53.528452,0            -1.170929,53.52848,0            -1.170865,53.528511,0            -1.170801,53.528534,0            -1.170733,53.528558,0            -1.170629,53.52859,0            -1.170505,53.52862,0            -1.170397,53.52864,0            -1.170298,53.528653,0            -1.17018,53.528667,0            -1.170081,53.528674,0            -1.169989,53.528679,0            -1.169919,53.528683,0            -1.169845,53.528689,0            -1.16979,53.528702,0            -1.16976,53.528724,0            -1.16973,53.528768,0            -1.169686,53.528822,0            -1.169688,53.52887,0            -1.169695,53.528924,0            -1.169702,53.528929,0            -1.169719,53.52893,0            -1.169765,53.528927,0            -1.169839,53.528924,0            -1.169957,53.528923,0            -1.170105,53.528921,0            -1.170228,53.528921,0            -1.170388,53.528916,0            -1.170415,53.528924,0            -1.170435,53.528942,0            -1.170486,53.528974,0            -1.170522,53.528998,0            -1.170556,53.529025,0            -1.170604,53.529065,0            -1.170719,53.529162,0            -1.170752,53.529186,0            -1.170777,53.529202,0            -1.17081,53.529218,0            -1.170889,53.529254,0            -1.170961,53.529284,0            -1.17103,53.529314,0            -1.171098,53.529334,0            -1.171198,53.52936,0            -1.171286,53.529386,0            -1.171341,53.529405,0            -1.171414,53.529431,0            -1.171469,53.529456,0            -1.171532,53.529487,0            -1.171589,53.529523,0            -1.171633,53.529552,0            -1.171717,53.529636,0            -1.171773,53.529681,0            -1.171803,53.529665,0            -1.172279,53.529271,0            -1.172584,53.529014,0            -1.172794,53.528848,0            -1.172947,53.528728,0            -1.173035,53.528683,0            -1.173136,53.528663,0            -1.173182,53.528601,0            -1.173203,53.528556,0            -1.173258,53.528477,0            -1.173322,53.5284,0            -1.17337,53.528353,0            -1.173449,53.528274,0            -1.173558,53.528164,0            -1.17359,53.528127,0            -1.17364,53.528053,0            -1.173665,53.528016,0            -1.17373,53.527905,0            -1.173796,53.527788,0            -1.173908,53.527586,0            -1.173946,53.527521,0            -1.173973,53.527484,0            -1.173995,53.527458,0            -1.174028,53.527423,0            -1.174076,53.527382,0            -1.174122,53.527346,0            -1.174179,53.527303,0            -1.174227,53.527265,0            -1.174275,53.527234,0            -1.174323,53.527201,0            -1.174442,53.52713,0            -1.174499,53.527094,0            -1.174547,53.527061,0            -1.174587,53.527018,0            -1.174622,53.526981,0            -1.17472,53.526875,0            -1.174742,53.526841,0            -1.174757,53.526808,0            -1.17476,53.526759,0            -1.174756,53.526712,0            -1.174742,53.526676,0            -1.17473,53.526643,0            -1.174723,53.526612,0            -1.174729,53.526582,0            -1.17474,53.526549,0            -1.17475,53.526515,0            -1.174746,53.526494,0            -1.174728,53.526471,0            -1.174696,53.526453,0            -1.174668,53.526438,0            -1.17462,53.526424,0            -1.174555,53.526417,0            -1.174464,53.526425,0            -1.174387,53.526437,0            -1.174327,53.526453,0            -1.174288,53.526466,0            -1.17425,53.526484,0            -1.174178,53.52654,0            -1.174076,53.52662,0            -1.173966,53.526704,0            -1.173911,53.526751,0            -1.173858,53.526798,0            -1.173784,53.526863,0            -1.173708,53.526929,0            -1.173655,53.526966,0            -1.173592,53.527006,0            -1.173529,53.527048,0            -1.173485,53.527076,0            -1.173419,53.527123,0            -1.173349,53.52716,0            -1.173299,53.527177,0            -1.173214,53.527199,0            -1.173112,53.527221,0            -1.173022,53.527245,0            -1.172955,53.527272,0            -1.172882,53.527312,0            -1.172802,53.527366,0            -1.172741,53.527409,0            -1.172667,53.527464,0            -1.172592,53.527519,0            -1.172525,53.527572,0            -1.172469,53.527618,0            -1.172412,53.527664,0            -1.172356,53.527722,0            -1.172327,53.527743,0            -1.172269,53.527762,0            -1.172204,53.527784,0            -1.17213,53.527815,0            -1.172018,53.527856,0            -1.171937,53.527904,0            -1.171902,53.52794,0            -1.171874,53.527966,0            -1.171858,53.527991,0            -1.171862,53.528009,0            -1.171815,53.528017,0            -1.171728,53.528025,0            -1.171643,53.52803,0            -1.171568,53.528068,0            -1.171422,53.528146,0            -1.171319,53.528202,0            -1.171242,53.528258,0            -1.171163,53.528312,0            -1.171071,53.52838,0            -1.17102,53.528416,0            -1.170969,53.52845,0            -1.170918,53.528475,0            -1.170854,53.528507,0            -1.170794,53.52853,0            -1.170723,53.528553,0            -1.170619,53.528586,0            -1.170494,53.528615,0            -1.170387,53.528635,0            -1.17029,53.528648,0            -1.170224,53.528655,0            -1.170161,53.528662,0            -1.170108,53.528665,0            -1.170052,53.52867,0            -1.169958,53.528675,0            -1.169892,53.52868,0            -1.169828,53.528686,0            -1.169774,53.5287,0            -1.169748,53.528724,0            -1.169717,53.528768,0            -1.169673,53.528824,0            -1.16968,53.528877,0            -1.169687,53.528927,0            -1.169694,53.528931,0            -1.169707,53.528935,0            -1.169732,53.528934,0            -1.169787,53.528932,0            -1.169852,53.528929,0            -1.16997,53.528928,0            -1.170172,53.528927,0            -1.170272,53.528926,0            -1.170353,53.528923,0            -1.170384,53.528924,0            -1.170406,53.528933,0            -1.170444,53.528958,0            -1.170502,53.528996,0            -1.17055,53.529029,0            -1.170601,53.529073,0            -1.170658,53.529121,0            -1.170714,53.529168,0            -1.170745,53.529188,0            -1.170775,53.529208,0            -1.170812,53.529225,0            -1.170891,53.52926,0            -1.170976,53.529297,0            -1.17102,53.529316,0            -1.171053,53.529327,0            -1.171099,53.529341,0            -1.171148,53.529354,0            -1.171197,53.529367,0            -1.17124,53.529379,0            -1.171283,53.529392,0            -1.171342,53.529412,0            -1.171409,53.529437,0            -1.171466,53.529463,0            -1.171528,53.529495,0            -1.171584,53.529529,0            -1.171628,53.529559,0            -1.171668,53.529601,0            -1.171709,53.529643,0            -1.171764,53.529685,0            -1.17178,53.529688,0            -1.171807,53.529673,0            -1.171843,53.529643,0            -1.172047,53.529475,0            -1.172119,53.529416,0            -1.172292,53.529272,0            -1.1726,53.529014,0            -1.172752,53.528895,0            -1.172825,53.528838,0            -1.172952,53.528739,0            -1.172997,53.528714,0            -1.173044,53.528692,0            -1.173073,53.528684,0            -1.173183,53.528661,0            -1.173232,53.528655,0            -1.173319,53.528652,0            -1.173404,53.528653,0            -1.173488,53.528662,0            -1.173543,53.52868,0            -1.17361,53.528711,0            -1.173677,53.528747,0            -1.173733,53.528782,0            -1.173778,53.528829,0            -1.173817,53.528894,0            -1.173855,53.528945,0            -1.173887,53.528963,0            -1.173947,53.528979,0            -1.174031,53.528989,0            -1.174151,53.528999,0            -1.174427,53.529022,0            -1.174477,53.52902,0            -1.174574,53.529013,0            -1.174645,53.52901,0            -1.174745,53.529024,0            -1.174814,53.529036,0            -1.174898,53.529063,0            -1.174967,53.529091,0            -1.175034,53.529141,0            -1.17515,53.529254,0            -1.175222,53.529311,0            -1.175311,53.529366,0            -1.175458,53.529435,0            -1.175534,53.529464,0            -1.175637,53.529487,0            -1.175682,53.529496,0            -1.175777,53.529497,0            -1.17582,53.529493,0            -1.175914,53.529471,0            -1.176013,53.529417,0            -1.176082,53.529378,0            -1.176128,53.529343,0            -1.176157,53.52931,0            -1.176208,53.529217,0            -1.176247,53.529185,0            -1.176328,53.529116,0            -1.176369,53.52909,0            -1.176447,53.529068,0            -1.17666,53.528988,0            -1.177027,53.528844,0            -1.17719,53.528782,0            -1.177609,53.528624,0            -1.177817,53.52855,0            -1.17826,53.528421,0            -1.178326,53.528407,0            -1.178411,53.528393,0            -1.178492,53.528381,0            -1.178566,53.528379,0            -1.178654,53.528386,0            -1.178747,53.528393,0            -1.178846,53.528407,0            -1.178905,53.528418,0            -1.178975,53.528435,0            -1.179055,53.528458,0            -1.179167,53.528493,0            -1.179212,53.52852,0            -1.179253,53.528558,0            -1.179316,53.528612,0            -1.17938,53.52868,0            -1.17941,53.528735,0            -1.179455,53.528872,0            -1.179496,53.528997,0            -1.179596,53.529172,0            -1.179667,53.529224,0            -1.180077,53.52954,0            -1.18009,53.529542,0            -1.180393,53.529572,0            -1.180614,53.529592,0            -1.180814,53.529605,0            -1.180964,53.529641,0            -1.181084,53.529698,0            -1.181145,53.529732,0            -1.181185,53.529764,0            -1.181214,53.529812,0            -1.181209,53.529856,0            -1.181172,53.529888,0            -1.181109,53.529909,0            -1.180938,53.529941,0            -1.180585,53.529994,0            -1.179916,53.530071,0            -1.179043,53.530168,0            -1.179018,53.530163,0            -1.178997,53.530156,0            -1.178919,53.530098,0            -1.178886,53.530096,0            -1.178825,53.530119,0            -1.178692,53.530172,0            -1.178523,53.530173,0            -1.178451,53.530179,0            -1.17839,53.530192,0            -1.178067,53.5303068,0            -1.177702,53.530336,0            -1.177411,53.530284,0            -1.177265,53.530215,0            -1.177178,53.530129,0            -1.17721,53.529975,0            -1.17728,53.52982,0            -1.177296,53.529698,0            -1.177206,53.529534,0            -1.177281,53.529356,0            -1.177472,53.529293,0            -1.177502,53.529359,0            -1.17839,53.530192,0            -1.177502,53.529359,0            -1.177472,53.529293,0            -1.178083,53.529076,0            -1.1786901,53.5288001,0            -1.1791089,53.5285432,0            -1.179202,53.528524,0          </coordinates></LineString></Placemark><Placemark><name>Finish</name><styleUrl>#icon-1899-FF5252-nodesc</styleUrl><Point><coordinates>            -1.177643,53.529523,0          </coordinates></Point></Placemark><Placemark><name>Start</name><styleUrl>#icon-1899-0F9D58-nodesc</styleUrl><Point><coordinates>            -1.1787129,53.5288049,0          </coordinates></Point></Placemark></Folder></Document></kml>