<?xml version="1.0" encoding="UTF-8"?><kml xmlns="http://www.opengis.net/kml/2.2"><Document><name>Daventry parkrun</name><description/><Style id="icon-1899-0F9D58-nodesc-normal"><IconStyle><color>ff589d0f</color><scale>1</scale><Icon><href>https://www.gstatic.com/mapspro/images/stock/503-wht-blank_maps.png</href></Icon><hotSpot x="32" xunits="pixels" y="64" yunits="insetPixels"/></IconStyle><LabelStyle><scale>0</scale></LabelStyle><BalloonStyle><text><![CDATA[<h3>$[name]</h3>]]></text></BalloonStyle></Style><Style id="icon-1899-0F9D58-nodesc-highlight"><IconStyle><color>ff589d0f</color><scale>1</scale><Icon><href>https://www.gstatic.com/mapspro/images/stock/503-wht-blank_maps.png</href></Icon><hotSpot x="32" xunits="pixels" y="64" yunits="insetPixels"/></IconStyle><LabelStyle><scale>1</scale></LabelStyle><BalloonStyle><text><![CDATA[<h3>$[name]</h3>]]></text></BalloonStyle></Style><StyleMap id="icon-1899-0F9D58-nodesc"><Pair><key>normal</key><styleUrl>#icon-1899-0F9D58-nodesc-normal</styleUrl></Pair><Pair><key>highlight</key><styleUrl>#icon-1899-0F9D58-nodesc-highlight</styleUrl></Pair></StyleMap><Style id="icon-1899-FF5252-nodesc-normal"><IconStyle><color>ff5252ff</color><scale>1</scale><Icon><href>https://www.gstatic.com/mapspro/images/stock/503-wht-blank_maps.png</href></Icon><hotSpot x="32" xunits="pixels" y="64" yunits="insetPixels"/></IconStyle><LabelStyle><scale>0</scale></LabelStyle><BalloonStyle><text><![CDATA[<h3>$[name]</h3>]]></text></BalloonStyle></Style><Style id="icon-1899-FF5252-nodesc-highlight"><IconStyle><color>ff5252ff</color><scale>1</scale><Icon><href>https://www.gstatic.com/mapspro/images/stock/503-wht-blank_maps.png</href></Icon><hotSpot x="32" xunits="pixels" y="64" yunits="insetPixels"/></IconStyle><LabelStyle><scale>1</scale></LabelStyle><BalloonStyle><text><![CDATA[<h3>$[name]</h3>]]></text></BalloonStyle></Style><StyleMap id="icon-1899-FF5252-nodesc"><Pair><key>normal</key><styleUrl>#icon-1899-FF5252-nodesc-normal</styleUrl></Pair><Pair><key>highlight</key><styleUrl>#icon-1899-FF5252-nodesc-highlight</styleUrl></Pair></StyleMap><Style id="line-4186F0-5456-nodesc-normal"><LineStyle><color>fff08641</color><width>5.456</width></LineStyle><BalloonStyle><text><![CDATA[<h3>$[name]</h3>]]></text></BalloonStyle></Style><Style id="line-4186F0-5456-nodesc-highlight"><LineStyle><color>fff08641</color><width>8.184</width></LineStyle><BalloonStyle><text><![CDATA[<h3>$[name]</h3>]]></text></BalloonStyle></Style><StyleMap id="line-4186F0-5456-nodesc"><Pair><key>normal</key><styleUrl>#line-4186F0-5456-nodesc-normal</styleUrl></Pair><Pair><key>highlight</key><styleUrl>#line-4186F0-5456-nodesc-highlight</styleUrl></Pair></StyleMap><Folder><name>Untitled layer</name><Placemark><name>Course</name><styleUrl>#line-4186F0-5456-nodesc</styleUrl><LineString><tessellate>1</tessellate><coordinates>            -1.157298,52.262406,0            -1.157212,52.262589,0            -1.157491,52.263285,0            -1.157792,52.264126,0            -1.158178,52.265098,0            -1.158972,52.266463,0            -1.158972,52.266844,0            -1.158457,52.266976,0            -1.157985,52.266739,0            -1.157792,52.266332,0            -1.157663,52.265846,0            -1.157234,52.26519,0            -1.156547,52.264599,0            -1.156096,52.264139,0            -1.156011,52.263693,0            -1.156161,52.263075,0            -1.156268,52.262734,0            -1.156118,52.262314,0            -1.156268,52.262169,0            -1.15586,52.261933,0            -1.155281,52.261959,0            -1.154659,52.26209,0            -1.154015,52.262274,0            -1.154251,52.262734,0            -1.153522,52.263088,0            -1.153135,52.263167,0            -1.152663,52.26364,0            -1.152298,52.264349,0            -1.151998,52.264704,0            -1.151569,52.264927,0            -1.151118,52.265137,0            -1.150904,52.265321,0            -1.151054,52.265741,0            -1.151032,52.266135,0            -1.150796,52.266503,0            -1.150346,52.266805,0            -1.150002,52.267002,0            -1.149874,52.267278,0            -1.149981,52.267685,0            -1.150045,52.268026,0            -1.14996,52.268276,0            -1.149273,52.268774,0            -1.148629,52.269011,0            -1.147814,52.269221,0            -1.147192,52.269208,0            -1.146569,52.269602,0            -1.146355,52.269917,0            -1.146355,52.270101,0            -1.14702,52.270639,0            -1.147084,52.270889,0            -1.146548,52.271742,0            -1.146891,52.272005,0            -1.14732,52.271952,0            -1.1485,52.272267,0            -1.149938,52.272635,0            -1.152148,52.27316,0            -1.154723,52.272884,0            -1.156332,52.272701,0            -1.156204,52.272228,0            -1.155946,52.271913,0            -1.155775,52.271611,0            -1.155753,52.271309,0            -1.155474,52.270902,0            -1.155539,52.270495,0            -1.156397,52.270258,0            -1.156354,52.269681,0            -1.15659,52.269129,0            -1.15689,52.268906,0            -1.156483,52.268578,0            -1.156118,52.268157,0            -1.155517,52.268052,0            -1.155302,52.267934,0            -1.155131,52.26754,0            -1.154852,52.266779,0            -1.154337,52.266385,0            -1.154594,52.265991,0            -1.154852,52.265859,0            -1.155045,52.265623,0            -1.155732,52.265492,0            -1.156032,52.265255,0            -1.156139,52.264993,0            -1.155775,52.264612,0            -1.156032,52.264139,0            -1.156075,52.263929,0            -1.156011,52.263587,0            -1.15629,52.262773,0            -1.156096,52.2623,0            -1.156311,52.262143,0            -1.155839,52.261906,0            -1.156247,52.26192,0            -1.156633,52.262038,0            -1.157148,52.262025,0            -1.157706,52.262038,0            -1.158199,52.261959,0            -1.158457,52.262025,0            -1.15895,52.262537,0            -1.158972,52.262222,0            -1.158543,52.261604,0            -1.159294,52.261421,0          </coordinates></LineString></Placemark><Placemark><name>Finish</name><styleUrl>#icon-1899-FF5252-nodesc</styleUrl><Point><coordinates>            -1.159315,52.261145,0          </coordinates></Point></Placemark><Placemark><name>Start</name><styleUrl>#icon-1899-0F9D58-nodesc</styleUrl><Point><coordinates>            -1.157298,52.262406,0          </coordinates></Point></Placemark></Folder></Document></kml>