<?xml version="1.0" encoding="UTF-8"?><kml xmlns="http://www.opengis.net/kml/2.2"><Document><name>Dewsbury parkrun</name><description>Starting at the green pin, complete one complete anti-clockwise lap of the blue line. Continue to complete three complete anti-clockwise laps of the red line.</description><Style id="icon-123-nodesc-normal"><IconStyle><scale>1.1</scale><Icon><href>https://www.gstatic.com/mapspro/images/stock/123-red-dot.png</href></Icon><hotSpot x="16" xunits="pixels" y="32" yunits="insetPixels"/></IconStyle><LabelStyle><scale>0</scale></LabelStyle><BalloonStyle><text><![CDATA[<h3>$[name]</h3>]]></text></BalloonStyle></Style><Style id="icon-123-nodesc-highlight"><IconStyle><scale>1.1</scale><Icon><href>https://www.gstatic.com/mapspro/images/stock/123-red-dot.png</href></Icon><hotSpot x="16" xunits="pixels" y="32" yunits="insetPixels"/></IconStyle><LabelStyle><scale>1.1</scale></LabelStyle><BalloonStyle><text><![CDATA[<h3>$[name]</h3>]]></text></BalloonStyle></Style><StyleMap id="icon-123-nodesc"><Pair><key>normal</key><styleUrl>#icon-123-nodesc-normal</styleUrl></Pair><Pair><key>highlight</key><styleUrl>#icon-123-nodesc-highlight</styleUrl></Pair></StyleMap><Style id="icon-61-nodesc-normal"><IconStyle><scale>1.1</scale><Icon><href>https://www.gstatic.com/mapspro/images/stock/61-green-dot.png</href></Icon><hotSpot x="16" xunits="pixels" y="32" yunits="insetPixels"/></IconStyle><LabelStyle><scale>0</scale></LabelStyle><BalloonStyle><text><![CDATA[<h3>$[name]</h3>]]></text></BalloonStyle></Style><Style id="icon-61-nodesc-highlight"><IconStyle><scale>1.1</scale><Icon><href>https://www.gstatic.com/mapspro/images/stock/61-green-dot.png</href></Icon><hotSpot x="16" xunits="pixels" y="32" yunits="insetPixels"/></IconStyle><LabelStyle><scale>1.1</scale></LabelStyle><BalloonStyle><text><![CDATA[<h3>$[name]</h3>]]></text></BalloonStyle></Style><StyleMap id="icon-61-nodesc"><Pair><key>normal</key><styleUrl>#icon-61-nodesc-normal</styleUrl></Pair><Pair><key>highlight</key><styleUrl>#icon-61-nodesc-highlight</styleUrl></Pair></StyleMap><Style id="line-0000FF-8000-nodesc-normal"><LineStyle><color>ffff0000</color><width>8</width></LineStyle><BalloonStyle><text><![CDATA[<h3>$[name]</h3>]]></text></BalloonStyle></Style><Style id="line-0000FF-8000-nodesc-highlight"><LineStyle><color>ffff0000</color><width>12</width></LineStyle><BalloonStyle><text><![CDATA[<h3>$[name]</h3>]]></text></BalloonStyle></Style><StyleMap id="line-0000FF-8000-nodesc"><Pair><key>normal</key><styleUrl>#line-0000FF-8000-nodesc-normal</styleUrl></Pair><Pair><key>highlight</key><styleUrl>#line-0000FF-8000-nodesc-highlight</styleUrl></Pair></StyleMap><Style id="line-FF0000-6000-nodesc-normal"><LineStyle><color>ff0000ff</color><width>6</width></LineStyle><BalloonStyle><text><![CDATA[<h3>$[name]</h3>]]></text></BalloonStyle></Style><Style id="line-FF0000-6000-nodesc-highlight"><LineStyle><color>ff0000ff</color><width>9</width></LineStyle><BalloonStyle><text><![CDATA[<h3>$[name]</h3>]]></text></BalloonStyle></Style><StyleMap id="line-FF0000-6000-nodesc"><Pair><key>normal</key><styleUrl>#line-FF0000-6000-nodesc-normal</styleUrl></Pair><Pair><key>highlight</key><styleUrl>#line-FF0000-6000-nodesc-highlight</styleUrl></Pair></StyleMap><Folder><name>Untitled layer</name><Placemark><name>Start</name><styleUrl>#icon-61-nodesc</styleUrl><Point><coordinates>            -1.6464415,53.688414,0          </coordinates></Point></Placemark><Placemark><name>First lap</name><styleUrl>#line-0000FF-8000-nodesc</styleUrl><LineString><tessellate>1</tessellate><coordinates>            -1.646348,53.688251,0            -1.646632,53.68856,0            -1.646911,53.688869,0            -1.647083,53.68906,0            -1.64726,53.689251,0            -1.64752,53.689533,0            -1.64778,53.689808,0            -1.648266,53.690376,0            -1.64851,53.690601,0            -1.648585,53.690624,0            -1.648652,53.69062,0            -1.648722,53.69059,0            -1.648765,53.690552,0            -1.649282,53.689945,0            -1.649639,53.689514,0            -1.649982,53.689083,0            -1.649703,53.688843,0            -1.649382,53.688641,0            -1.64892,53.688828,0            -1.648427,53.688976,0            -1.648185,53.688908,0            -1.647949,53.68885,0            -1.647692,53.688725,0            -1.647568,53.688641,0            -1.647456,53.688499,0            -1.647488,53.68837,0            -1.647469,53.688236,0            -1.647354,53.688141,0            -1.64715,53.687969,0            -1.646898,53.687969,0            -1.646318,53.687992,0            -1.646211,53.688038,0            -1.646222,53.688103,0            -1.646262,53.688156,0            -1.64634,53.688244,0          </coordinates></LineString></Placemark><Placemark><name>Laps 2-4</name><styleUrl>#line-FF0000-6000-nodesc</styleUrl><LineString><tessellate>1</tessellate><coordinates>            -1.646263,53.688248,0            -1.646467,53.688465,0            -1.646718,53.688728,0            -1.646949,53.688972,0            -1.647276,53.689327,0            -1.647517,53.689594,0            -1.647748,53.689842,0            -1.647965,53.690094,0            -1.648142,53.690285,0            -1.648213,53.690369,0            -1.64823,53.690388,0            -1.648346,53.690521,0            -1.64848,53.690628,0            -1.64858,53.690647,0            -1.648604,53.690647,0            -1.648652,53.690643,0            -1.648684,53.690639,0            -1.648732,53.690624,0            -1.648762,53.690601,0            -1.648789,53.690575,0            -1.648952,53.690395,0            -1.649148,53.690174,0            -1.649339,53.690006,0            -1.649419,53.689896,0            -1.649607,53.689667,0            -1.64987,53.689377,0            -1.650025,53.689171,0            -1.650079,53.689091,0            -1.650025,53.689037,0            -1.649956,53.688976,0            -1.6498,53.68882,0            -1.649601,53.688705,0            -1.649414,53.68858,0            -1.648872,53.68877,0            -1.648448,53.688923,0            -1.648325,53.688904,0            -1.648223,53.688885,0            -1.648044,53.688831,0            -1.647859,53.688763,0            -1.647767,53.688698,0            -1.647638,53.688602,0            -1.647542,53.68848,0            -1.647536,53.688354,0            -1.647547,53.688232,0            -1.647204,53.687912,0            -1.646876,53.687927,0            -1.646324,53.687958,0            -1.646125,53.687981,0            -1.64597,53.68795,0            -1.645895,53.687916,0            -1.645785,53.687862,0            -1.645687,53.687775,0            -1.645685,53.687737,0            -1.645711,53.68766,0            -1.645763,53.687618,0            -1.645824,53.687595,0            -1.645966,53.687576,0            -1.646097,53.687546,0            -1.646235,53.687508,0            -1.64644,53.68742,0            -1.646591,53.687355,0            -1.646795,53.687252,0            -1.646898,53.687218,0            -1.647067,53.68718,0            -1.647137,53.687164,0            -1.647252,53.687157,0            -1.647458,53.687149,0            -1.64767,53.687202,0            -1.647764,53.687153,0            -1.647702,53.687084,0            -1.64745,53.686989,0            -1.647356,53.686981,0            -1.647153,53.687,0            -1.646815,53.687042,0            -1.646662,53.68708,0            -1.646538,53.687103,0            -1.646439,53.687122,0            -1.645828,53.687263,0            -1.645327,53.687389,0            -1.645125,53.687538,0            -1.645089,53.687592,0            -1.645133,53.687664,0            -1.645264,53.687733,0            -1.645486,53.687824,0            -1.645632,53.687881,0            -1.645771,53.687939,0            -1.645943,53.688015,0            -1.646139,53.688076,0            -1.646222,53.68819,0            -1.646263,53.688248,0          </coordinates></LineString></Placemark><Placemark><name>Finish</name><styleUrl>#icon-123-nodesc</styleUrl><Point><coordinates>            -1.6469141,53.6889237,0          </coordinates></Point></Placemark></Folder></Document></kml>