<?xml version="1.0" encoding="UTF-8"?><kml xmlns="http://www.opengis.net/kml/2.2"><Document><name>Drumpellier Country parkrun</name><description/><Style id="icon-1899-FFEA00-nodesc-normal"><IconStyle><color>ff00eaff</color><scale>1</scale><Icon><href>https://www.gstatic.com/mapspro/images/stock/503-wht-blank_maps.png</href></Icon><hotSpot x="32" xunits="pixels" y="64" yunits="insetPixels"/></IconStyle><LabelStyle><scale>0</scale></LabelStyle><BalloonStyle><text><![CDATA[<h3>$[name]</h3>]]></text></BalloonStyle></Style><Style id="icon-1899-FFEA00-nodesc-highlight"><IconStyle><color>ff00eaff</color><scale>1</scale><Icon><href>https://www.gstatic.com/mapspro/images/stock/503-wht-blank_maps.png</href></Icon><hotSpot x="32" xunits="pixels" y="64" yunits="insetPixels"/></IconStyle><LabelStyle><scale>1</scale></LabelStyle><BalloonStyle><text><![CDATA[<h3>$[name]</h3>]]></text></BalloonStyle></Style><StyleMap id="icon-1899-FFEA00-nodesc"><Pair><key>normal</key><styleUrl>#icon-1899-FFEA00-nodesc-normal</styleUrl></Pair><Pair><key>highlight</key><styleUrl>#icon-1899-FFEA00-nodesc-highlight</styleUrl></Pair></StyleMap><Style id="line-0288D1-5263-nodesc-normal"><LineStyle><color>ffd18802</color><width>5.263</width></LineStyle><BalloonStyle><text><![CDATA[<h3>$[name]</h3>]]></text></BalloonStyle></Style><Style id="line-0288D1-5263-nodesc-highlight"><LineStyle><color>ffd18802</color><width>7.8945</width></LineStyle><BalloonStyle><text><![CDATA[<h3>$[name]</h3>]]></text></BalloonStyle></Style><StyleMap id="line-0288D1-5263-nodesc"><Pair><key>normal</key><styleUrl>#line-0288D1-5263-nodesc-normal</styleUrl></Pair><Pair><key>highlight</key><styleUrl>#line-0288D1-5263-nodesc-highlight</styleUrl></Pair></StyleMap><Folder><name>Untitled layer</name><Placemark><name>Course</name><styleUrl>#line-0288D1-5263-nodesc</styleUrl><LineString><tessellate>1</tessellate><coordinates>            -4.06561,55.871613,0            -4.065106,55.871339,0            -4.064924,55.871192,0            -4.064832,55.870984,0            -4.0648,55.870786,0            -4.064827,55.870677,0            -4.06494,55.870551,0            -4.065128,55.870355,0            -4.065176,55.870286,0            -4.065165,55.870238,0            -4.065251,55.87016,0            -4.065374,55.870154,0            -4.065616,55.870102,0            -4.066013,55.870033,0            -4.066694,55.869958,0            -4.068051,55.869895,0            -4.068378,55.869907,0            -4.068706,55.86994,0            -4.069022,55.869994,0            -4.070851,55.870461,0            -4.071028,55.870506,0            -4.072117,55.870728,0            -4.07274,55.870846,0            -4.073775,55.868932,0            -4.074859,55.86696,0            -4.075036,55.866674,0            -4.076151,55.865316,0            -4.07613,55.86525,0            -4.07598,55.865265,0            -4.07481,55.865925,0            -4.073721,55.866569,0            -4.073405,55.866719,0            -4.073013,55.866834,0            -4.07252,55.866921,0            -4.072418,55.866936,0            -4.072042,55.866942,0            -4.071854,55.866984,0            -4.071474,55.867159,0            -4.071211,55.86736,0            -4.071184,55.867448,0            -4.071227,55.867565,0            -4.071291,55.867619,0            -4.071431,55.867706,0            -4.07156,55.867749,0            -4.071833,55.867857,0            -4.072214,55.868062,0            -4.072252,55.868128,0            -4.072155,55.868294,0            -4.07193,55.868387,0            -4.071484,55.868438,0            -4.071162,55.86842,0            -4.070701,55.868339,0            -4.070079,55.868426,0            -4.069886,55.868435,0            -4.06907,55.868306,0            -4.068931,55.868318,0            -4.068722,55.868357,0            -4.06862,55.868501,0            -4.068647,55.868733,0            -4.068711,55.868871,0            -4.068824,55.869004,0            -4.068781,55.869112,0            -4.068684,55.869202,0            -4.068362,55.869254,0            -4.067944,55.86929,0            -4.065884,55.869443,0            -4.065691,55.869434,0            -4.065573,55.869476,0            -4.064849,55.869512,0            -4.065203,55.870148,0            -4.065256,55.87016,0            -4.06516,55.870232,0            -4.065144,55.870316,0            -4.064822,55.870674,0            -4.0648,55.870795,0            -4.064832,55.871002,0            -4.06495,55.871237,0            -4.065289,55.871442,0            -4.065664,55.871646,0          </coordinates></LineString></Placemark><Placemark><name>Start/Finish</name><styleUrl>#icon-1899-FFEA00-nodesc</styleUrl><Point><coordinates>            -4.06561,55.871613,0          </coordinates></Point></Placemark></Folder></Document></kml>