<?xml version="1.0" encoding="UTF-8"?><kml xmlns="http://www.opengis.net/kml/2.2"><Document><name>Eastville junior parkrun</name><description/><Style id="icon-503-009D57-nodesc-normal"><IconStyle><color>ff579d00</color><scale>1.1</scale><Icon><href>https://www.gstatic.com/mapspro/images/stock/503-wht-blank_maps.png</href></Icon><hotSpot x="16" xunits="pixels" y="32" yunits="insetPixels"/></IconStyle><LabelStyle><scale>0</scale></LabelStyle><BalloonStyle><text><![CDATA[<h3>$[name]</h3>]]></text></BalloonStyle></Style><Style id="icon-503-009D57-nodesc-highlight"><IconStyle><color>ff579d00</color><scale>1.1</scale><Icon><href>https://www.gstatic.com/mapspro/images/stock/503-wht-blank_maps.png</href></Icon><hotSpot x="16" xunits="pixels" y="32" yunits="insetPixels"/></IconStyle><LabelStyle><scale>1.1</scale></LabelStyle><BalloonStyle><text><![CDATA[<h3>$[name]</h3>]]></text></BalloonStyle></Style><StyleMap id="icon-503-009D57-nodesc"><Pair><key>normal</key><styleUrl>#icon-503-009D57-nodesc-normal</styleUrl></Pair><Pair><key>highlight</key><styleUrl>#icon-503-009D57-nodesc-highlight</styleUrl></Pair></StyleMap><Style id="icon-503-DB4436-nodesc-normal"><IconStyle><color>ff3644db</color><scale>1.1</scale><Icon><href>https://www.gstatic.com/mapspro/images/stock/503-wht-blank_maps.png</href></Icon><hotSpot x="16" xunits="pixels" y="32" yunits="insetPixels"/></IconStyle><LabelStyle><scale>0</scale></LabelStyle><BalloonStyle><text><![CDATA[<h3>$[name]</h3>]]></text></BalloonStyle></Style><Style id="icon-503-DB4436-nodesc-highlight"><IconStyle><color>ff3644db</color><scale>1.1</scale><Icon><href>https://www.gstatic.com/mapspro/images/stock/503-wht-blank_maps.png</href></Icon><hotSpot x="16" xunits="pixels" y="32" yunits="insetPixels"/></IconStyle><LabelStyle><scale>1.1</scale></LabelStyle><BalloonStyle><text><![CDATA[<h3>$[name]</h3>]]></text></BalloonStyle></Style><StyleMap id="icon-503-DB4436-nodesc"><Pair><key>normal</key><styleUrl>#icon-503-DB4436-nodesc-normal</styleUrl></Pair><Pair><key>highlight</key><styleUrl>#icon-503-DB4436-nodesc-highlight</styleUrl></Pair></StyleMap><Style id="poly-0288D1-4201-0-nodesc-normal"><LineStyle><color>ffd18802</color><width>4.201</width></LineStyle><PolyStyle><color>00d18802</color><fill>1</fill><outline>1</outline></PolyStyle><BalloonStyle><text><![CDATA[<h3>$[name]</h3>]]></text></BalloonStyle></Style><Style id="poly-0288D1-4201-0-nodesc-highlight"><LineStyle><color>ffd18802</color><width>6.3015</width></LineStyle><PolyStyle><color>00d18802</color><fill>1</fill><outline>1</outline></PolyStyle><BalloonStyle><text><![CDATA[<h3>$[name]</h3>]]></text></BalloonStyle></Style><StyleMap id="poly-0288D1-4201-0-nodesc"><Pair><key>normal</key><styleUrl>#poly-0288D1-4201-0-nodesc-normal</styleUrl></Pair><Pair><key>highlight</key><styleUrl>#poly-0288D1-4201-0-nodesc-highlight</styleUrl></Pair></StyleMap><Folder><name>Untitled layer</name><Placemark><name>Course</name><styleUrl>#poly-0288D1-4201-0-nodesc</styleUrl><Polygon><outerBoundaryIs><LinearRing><tessellate>1</tessellate><coordinates>                -2.554954,51.476141,0                -2.555496,51.476198,0                -2.555743,51.476234,0                -2.556113,51.476288,0                -2.556558,51.476368,0                -2.55688,51.476435,0                -2.557186,51.476508,0                -2.557363,51.476545,0                -2.557578,51.476602,0                -2.557819,51.476652,0                -2.558286,51.476378,0                -2.558527,51.476231,0                -2.559053,51.475944,0                -2.55872,51.475606,0                -2.558098,51.474985,0                -2.557127,51.474504,0                -2.556462,51.474183,0                -2.55636,51.474126,0                -2.556295,51.474109,0                -2.556194,51.474113,0                -2.556081,51.474126,0                -2.555898,51.474166,0                -2.555764,51.474193,0                -2.555603,51.47422,0                -2.555458,51.474243,0                -2.55534,51.47426,0                -2.555233,51.47427,0                -2.555185,51.47429,0                -2.554718,51.474871,0                -2.554563,51.475098,0                -2.5543,51.475456,0                -2.554101,51.47574,0                -2.553956,51.475944,0                -2.553903,51.476027,0                -2.553919,51.476064,0                -2.554016,51.476074,0                -2.554268,51.476084,0                -2.554482,51.476094,0                -2.554643,51.476104,0                -2.554793,51.476121,0                -2.554954,51.476141,0              </coordinates></LinearRing></outerBoundaryIs></Polygon></Placemark><Placemark><name>Finish</name><styleUrl>#icon-503-DB4436-nodesc</styleUrl><Point><coordinates>            -2.554155,51.475653,0          </coordinates></Point></Placemark><Placemark><name>Start</name><styleUrl>#icon-503-009D57-nodesc</styleUrl><Point><coordinates>            -2.554439,51.475249,0          </coordinates></Point></Placemark></Folder></Document></kml>