<?xml version="1.0" encoding="UTF-8"?><kml xmlns="http://www.opengis.net/kml/2.2"><Document><name>East Brighton parkrun</name><description/><Style id="icon-1899-0F9D58-nodesc-normal"><IconStyle><color>ff589d0f</color><scale>1</scale><Icon><href>https://www.gstatic.com/mapspro/images/stock/503-wht-blank_maps.png</href></Icon><hotSpot x="32" xunits="pixels" y="64" yunits="insetPixels"/></IconStyle><LabelStyle><scale>0</scale></LabelStyle><BalloonStyle><text><![CDATA[<h3>$[name]</h3>]]></text></BalloonStyle></Style><Style id="icon-1899-0F9D58-nodesc-highlight"><IconStyle><color>ff589d0f</color><scale>1</scale><Icon><href>https://www.gstatic.com/mapspro/images/stock/503-wht-blank_maps.png</href></Icon><hotSpot x="32" xunits="pixels" y="64" yunits="insetPixels"/></IconStyle><LabelStyle><scale>1</scale></LabelStyle><BalloonStyle><text><![CDATA[<h3>$[name]</h3>]]></text></BalloonStyle></Style><StyleMap id="icon-1899-0F9D58-nodesc"><Pair><key>normal</key><styleUrl>#icon-1899-0F9D58-nodesc-normal</styleUrl></Pair><Pair><key>highlight</key><styleUrl>#icon-1899-0F9D58-nodesc-highlight</styleUrl></Pair></StyleMap><Style id="icon-1899-C2185B-nodesc-normal"><IconStyle><color>ff5b18c2</color><scale>1</scale><Icon><href>https://www.gstatic.com/mapspro/images/stock/503-wht-blank_maps.png</href></Icon><hotSpot x="32" xunits="pixels" y="64" yunits="insetPixels"/></IconStyle><LabelStyle><scale>0</scale></LabelStyle><BalloonStyle><text><![CDATA[<h3>$[name]</h3>]]></text></BalloonStyle></Style><Style id="icon-1899-C2185B-nodesc-highlight"><IconStyle><color>ff5b18c2</color><scale>1</scale><Icon><href>https://www.gstatic.com/mapspro/images/stock/503-wht-blank_maps.png</href></Icon><hotSpot x="32" xunits="pixels" y="64" yunits="insetPixels"/></IconStyle><LabelStyle><scale>1</scale></LabelStyle><BalloonStyle><text><![CDATA[<h3>$[name]</h3>]]></text></BalloonStyle></Style><StyleMap id="icon-1899-C2185B-nodesc"><Pair><key>normal</key><styleUrl>#icon-1899-C2185B-nodesc-normal</styleUrl></Pair><Pair><key>highlight</key><styleUrl>#icon-1899-C2185B-nodesc-highlight</styleUrl></Pair></StyleMap><Style id="line-0288D1-5069-nodesc-normal"><LineStyle><color>ffd18802</color><width>5.069</width></LineStyle><BalloonStyle><text><![CDATA[<h3>$[name]</h3>]]></text></BalloonStyle></Style><Style id="line-0288D1-5069-nodesc-highlight"><LineStyle><color>ffd18802</color><width>7.6035</width></LineStyle><BalloonStyle><text><![CDATA[<h3>$[name]</h3>]]></text></BalloonStyle></Style><StyleMap id="line-0288D1-5069-nodesc"><Pair><key>normal</key><styleUrl>#line-0288D1-5069-nodesc-normal</styleUrl></Pair><Pair><key>highlight</key><styleUrl>#line-0288D1-5069-nodesc-highlight</styleUrl></Pair></StyleMap><Folder><name>Untitled layer</name><Placemark><name>Course</name><styleUrl>#line-0288D1-5069-nodesc</styleUrl><LineString><tessellate>1</tessellate><coordinates>            -0.099128,50.818818,0            -0.098683,50.8189,0            -0.098287,50.818838,0            -0.0978922,50.8188639,0            -0.097655,50.818859,0            -0.097086,50.818659,0            -0.096956,50.81852,0            -0.097728,50.817944,0            -0.0985518,50.8175184,0            -0.0990872,50.8173848,0            -0.099821,50.817258,0            -0.1000433,50.8171271,0            -0.100355,50.81705,0            -0.103427,50.816972,0            -0.103488,50.817061,0            -0.100302,50.817132,0            -0.100042,50.817176,0            -0.099971,50.817271,0            -0.099975,50.817427,0            -0.100146,50.817483,0            -0.100243,50.817564,0            -0.100321,50.817694,0            -0.100423,50.817724,0            -0.100401,50.817212,0            -0.103352,50.817134,0            -0.103373,50.817768,0            -0.1008613,50.8178326,0            -0.100433,50.817853,0            -0.100326,50.817751,0            -0.100112,50.817754,0            -0.099977,50.817819,0            -0.0996974,50.818315,0            -0.099427,50.818763,0            -0.099128,50.818818,0            -0.098683,50.8189,0            -0.098287,50.818838,0            -0.0978327,50.8187933,0            -0.0976185,50.8186409,0            -0.097492,50.818469,0            -0.097471,50.81833,0            -0.097573,50.818192,0            -0.098243,50.817798,0            -0.098704,50.817588,0            -0.099118,50.8175005,0            -0.099681,50.817398,0            -0.099888,50.817347,0            -0.1000433,50.8171271,0          </coordinates></LineString></Placemark><Placemark><name>Start</name><styleUrl>#icon-1899-0F9D58-nodesc</styleUrl><Point><coordinates>            -0.099283,50.818791,0          </coordinates></Point></Placemark><Placemark><name>Finish</name><styleUrl>#icon-1899-C2185B-nodesc</styleUrl><Point><coordinates>            -0.098299,50.818839,0          </coordinates></Point></Placemark></Folder></Document></kml>