<?xml version="1.0" encoding="UTF-8"?><kml xmlns="http://www.opengis.net/kml/2.2"><Document><name>Ecos parkrun (from May 2024)</name><description/><Style id="icon-123-nodesc-normal"><IconStyle><scale>1.1</scale><Icon><href>https://www.gstatic.com/mapspro/images/stock/123-red-dot.png</href></Icon><hotSpot x="16" xunits="pixels" y="32" yunits="insetPixels"/></IconStyle><LabelStyle><scale>0</scale></LabelStyle><BalloonStyle><text><![CDATA[<h3>$[name]</h3>]]></text></BalloonStyle></Style><Style id="icon-123-nodesc-highlight"><IconStyle><scale>1.1</scale><Icon><href>https://www.gstatic.com/mapspro/images/stock/123-red-dot.png</href></Icon><hotSpot x="16" xunits="pixels" y="32" yunits="insetPixels"/></IconStyle><LabelStyle><scale>1.1</scale></LabelStyle><BalloonStyle><text><![CDATA[<h3>$[name]</h3>]]></text></BalloonStyle></Style><StyleMap id="icon-123-nodesc"><Pair><key>normal</key><styleUrl>#icon-123-nodesc-normal</styleUrl></Pair><Pair><key>highlight</key><styleUrl>#icon-123-nodesc-highlight</styleUrl></Pair></StyleMap><Style id="icon-61-nodesc-normal"><IconStyle><scale>1.1</scale><Icon><href>https://www.gstatic.com/mapspro/images/stock/61-green-dot.png</href></Icon><hotSpot x="16" xunits="pixels" y="32" yunits="insetPixels"/></IconStyle><LabelStyle><scale>0</scale></LabelStyle><BalloonStyle><text><![CDATA[<h3>$[name]</h3>]]></text></BalloonStyle></Style><Style id="icon-61-nodesc-highlight"><IconStyle><scale>1.1</scale><Icon><href>https://www.gstatic.com/mapspro/images/stock/61-green-dot.png</href></Icon><hotSpot x="16" xunits="pixels" y="32" yunits="insetPixels"/></IconStyle><LabelStyle><scale>1.1</scale></LabelStyle><BalloonStyle><text><![CDATA[<h3>$[name]</h3>]]></text></BalloonStyle></Style><StyleMap id="icon-61-nodesc"><Pair><key>normal</key><styleUrl>#icon-61-nodesc-normal</styleUrl></Pair><Pair><key>highlight</key><styleUrl>#icon-61-nodesc-highlight</styleUrl></Pair></StyleMap><Style id="line-0288D1-3713-nodesc-normal"><LineStyle><color>ffd18802</color><width>3.713</width></LineStyle><BalloonStyle><text><![CDATA[<h3>$[name]</h3>]]></text></BalloonStyle></Style><Style id="line-0288D1-3713-nodesc-highlight"><LineStyle><color>ffd18802</color><width>5.5695</width></LineStyle><BalloonStyle><text><![CDATA[<h3>$[name]</h3>]]></text></BalloonStyle></Style><StyleMap id="line-0288D1-3713-nodesc"><Pair><key>normal</key><styleUrl>#line-0288D1-3713-nodesc-normal</styleUrl></Pair><Pair><key>highlight</key><styleUrl>#line-0288D1-3713-nodesc-highlight</styleUrl></Pair></StyleMap><Folder><name>Untitled layer</name><Placemark><name>Start </name><styleUrl>#icon-61-nodesc</styleUrl><Point><coordinates>            -6.258871,54.866078,46          </coordinates></Point></Placemark><Placemark><name>End</name><styleUrl>#icon-123-nodesc</styleUrl><Point><coordinates>            -6.258897,54.865994,46          </coordinates></Point></Placemark><Placemark><name>Course</name><styleUrl>#line-0288D1-3713-nodesc</styleUrl><LineString><tessellate>1</tessellate><coordinates>            -6.258871,54.866078,46            -6.258673,54.865907,46            -6.258136,54.865581,46            -6.257844,54.865428,46            -6.257709,54.865339,47            -6.257643,54.865225,46            -6.257583,54.864985,45            -6.257518,54.864879,45            -6.257451,54.864817,45            -6.257281,54.864747,44            -6.257052,54.864682,44            -6.256971,54.864657,44            -6.256673,54.864562,44            -6.256372,54.864502,44            -6.256238,54.864491,44            -6.256084,54.86451,44            -6.255589,54.864735,44            -6.255494,54.864401,45            -6.25544,54.864353,45            -6.255549,54.864166,45            -6.255626,54.864032,45            -6.255769,54.863729,45            -6.255951,54.863365,45            -6.256174,54.863118,46            -6.256284,54.86296,46            -6.256403,54.862721,46            -6.256407,54.862538,47            -6.256427,54.862504,47            -6.256698,54.862435,47            -6.257118,54.862461,47            -6.257573,54.862441,47            -6.257777,54.862419,48            -6.258488,54.862278,49            -6.258773,54.862306,49            -6.259166,54.862275,47            -6.259235,54.862253,47            -6.259309,54.862331,46            -6.259583,54.862576,44            -6.259994,54.862929,45            -6.259852,54.862967,44            -6.259635,54.86306,44            -6.259412,54.863199,45            -6.259338,54.863283,45            -6.259294,54.863637,44            -6.259157,54.864014,44            -6.259187,54.864156,44            -6.25936,54.864434,44            -6.25944,54.864508,44            -6.259916,54.864826,44            -6.260009,54.864923,44            -6.260152,54.865169,44            -6.260265,54.865235,44            -6.261035,54.865424,44            -6.261416,54.865411,45            -6.261825,54.865452,45            -6.261915,54.865479,45            -6.262605,54.865688,45            -6.262832,54.865808,45            -6.262953,54.865969,45            -6.26324,54.86626,45            -6.263496,54.866559,45            -6.263713,54.866724,44            -6.263803,54.866834,44            -6.26382,54.866911,44            -6.263769,54.867141,44            -6.263504,54.867374,45            -6.263139,54.867578,45            -6.263114,54.867624,45            -6.263112,54.867814,45            -6.263089,54.867898,45            -6.262981,54.868016,45            -6.262914,54.86807,45            -6.26303,54.868111,45            -6.263233,54.868144,46            -6.263935,54.868223,47            -6.26382,54.868184,47            -6.263626,54.868117,47            -6.263429,54.868052,47            -6.263154,54.867963,45            -6.262783,54.867832,46            -6.262395,54.867639,46            -6.262259,54.867546,46            -6.262132,54.867425,46            -6.262131,54.867425,46            -6.261787,54.866938,46            -6.261548,54.86672,47            -6.261769,54.866701,47            -6.262137,54.866638,45            -6.262499,54.866327,45            -6.262542,54.86629,45            -6.262408,54.865869,44            -6.261632,54.866005,45            -6.261319,54.865968,45            -6.260895,54.865835,45            -6.26076,54.865606,44            -6.259909,54.865353,45            -6.259579,54.865323,45            -6.259552,54.865224,45            -6.259651,54.865054,44            -6.259645,54.864966,44            -6.259605,54.864908,44            -6.25939,54.864753,44            -6.259049,54.864508,44            -6.258915,54.864344,44            -6.257421,54.864612,44            -6.257281,54.864747,44            -6.257451,54.864817,45            -6.257518,54.864879,45            -6.257583,54.864985,45            -6.257643,54.865225,46            -6.257709,54.865339,47            -6.257966,54.865492,46            -6.258673,54.865907,46            -6.258739,54.865887,46            -6.258749,54.865893,46            -6.258885,54.865983,46            -6.25924,54.866334,46            -6.259421,54.866676,46            -6.259431,54.86696,46            -6.259346,54.867174,46            -6.259186,54.867413,46            -6.258914,54.867559,46            -6.25789,54.868,46            -6.257514,54.868233,46            -6.257254,54.868448,46            -6.257032,54.868724,46            -6.256979,54.868867,46            -6.256786,54.869161,46            -6.256785,54.869161,46            -6.256705,54.869321,46            -6.256656,54.869371,46            -6.256604,54.869388,46            -6.256219,54.869292,45            -6.256169,54.869297,45            -6.25532,54.870358,45            -6.254927,54.870294,45            -6.254558,54.870235,45            -6.254545,54.870365,45            -6.254071,54.870321,45            -6.253191,54.870098,45            -6.253106,54.870108,45            -6.251762,54.87065,46            -6.251085,54.870923,46            -6.25076,54.870713,46            -6.250874,54.870054,46            -6.250575,54.869818,46            -6.250582,54.869755,46            -6.250331,54.869625,46            -6.25037,54.869517,46            -6.250577,54.869357,46            -6.250726,54.869242,46            -6.250734,54.869205,46            -6.250339,54.868888,46            -6.250271,54.868783,46            -6.25029,54.868676,46            -6.250377,54.868543,46            -6.250419,54.868406,46            -6.250385,54.868288,46            -6.250142,54.867976,46            -6.250191,54.867733,46            -6.250161,54.867332,47            -6.250097,54.867039,47            -6.250195,54.86691,47            -6.250123,54.866569,46            -6.250161,54.866458,46            -6.250204,54.865872,46            -6.250268,54.865742,46            -6.250472,54.865594,46            -6.250804,54.865443,46            -6.251518,54.864945,45            -6.251652,54.864921,45            -6.251749,54.864921,45            -6.252399,54.865072,45            -6.252768,54.865118,45            -6.252913,54.865162,45            -6.253009,54.865211,45            -6.253095,54.865294,45            -6.253138,54.865368,45            -6.253165,54.865498,45            -6.253256,54.865705,46            -6.253326,54.865788,46            -6.253412,54.865828,46            -6.253476,54.865841,46            -6.253556,54.865831,46            -6.253744,54.865733,46            -6.254082,54.865495,45            -6.254345,54.865338,45            -6.254962,54.865115,45            -6.255058,54.865069,45            -6.255155,54.86497,45            -6.255547,54.864899,44            -6.255606,54.864837,44            -6.255589,54.864735,44            -6.256084,54.86451,44            -6.256238,54.864491,44            -6.256372,54.864502,44            -6.256673,54.864562,44            -6.256971,54.864657,44            -6.257052,54.864682,44            -6.257281,54.864747,44            -6.257451,54.864817,45            -6.257518,54.864879,45            -6.257583,54.864985,45            -6.257643,54.865225,46            -6.257709,54.865339,47            -6.258016,54.865519,46            -6.258673,54.865907,46            -6.258739,54.865887,46            -6.258897,54.865994,46          </coordinates></LineString></Placemark></Folder></Document></kml>