<?xml version="1.0" encoding="UTF-8"?><kml xmlns="http://www.opengis.net/kml/2.2"><Document><name>Eyemouth Primary Playing Fields junior parkrun Temporary (from Apr 2026)</name><description/><Style id="icon-1899-0F9D58-nodesc-normal"><IconStyle><color>ff589d0f</color><scale>1</scale><Icon><href>https://www.gstatic.com/mapspro/images/stock/503-wht-blank_maps.png</href></Icon><hotSpot x="32" xunits="pixels" y="64" yunits="insetPixels"/></IconStyle><LabelStyle><scale>0</scale></LabelStyle><BalloonStyle><text><![CDATA[<h3>$[name]</h3>]]></text></BalloonStyle></Style><Style id="icon-1899-0F9D58-nodesc-highlight"><IconStyle><color>ff589d0f</color><scale>1</scale><Icon><href>https://www.gstatic.com/mapspro/images/stock/503-wht-blank_maps.png</href></Icon><hotSpot x="32" xunits="pixels" y="64" yunits="insetPixels"/></IconStyle><LabelStyle><scale>1</scale></LabelStyle><BalloonStyle><text><![CDATA[<h3>$[name]</h3>]]></text></BalloonStyle></Style><StyleMap id="icon-1899-0F9D58-nodesc"><Pair><key>normal</key><styleUrl>#icon-1899-0F9D58-nodesc-normal</styleUrl></Pair><Pair><key>highlight</key><styleUrl>#icon-1899-0F9D58-nodesc-highlight</styleUrl></Pair></StyleMap><Style id="icon-1899-FF5252-nodesc-normal"><IconStyle><color>ff5252ff</color><scale>1</scale><Icon><href>https://www.gstatic.com/mapspro/images/stock/503-wht-blank_maps.png</href></Icon><hotSpot x="32" xunits="pixels" y="64" yunits="insetPixels"/></IconStyle><LabelStyle><scale>0</scale></LabelStyle><BalloonStyle><text><![CDATA[<h3>$[name]</h3>]]></text></BalloonStyle></Style><Style id="icon-1899-FF5252-nodesc-highlight"><IconStyle><color>ff5252ff</color><scale>1</scale><Icon><href>https://www.gstatic.com/mapspro/images/stock/503-wht-blank_maps.png</href></Icon><hotSpot x="32" xunits="pixels" y="64" yunits="insetPixels"/></IconStyle><LabelStyle><scale>1</scale></LabelStyle><BalloonStyle><text><![CDATA[<h3>$[name]</h3>]]></text></BalloonStyle></Style><StyleMap id="icon-1899-FF5252-nodesc"><Pair><key>normal</key><styleUrl>#icon-1899-FF5252-nodesc-normal</styleUrl></Pair><Pair><key>highlight</key><styleUrl>#icon-1899-FF5252-nodesc-highlight</styleUrl></Pair></StyleMap><Style id="line-0288D1-5650-nodesc-normal"><LineStyle><color>ffd18802</color><width>5.65</width></LineStyle><BalloonStyle><text><![CDATA[<h3>$[name]</h3>]]></text></BalloonStyle></Style><Style id="line-0288D1-5650-nodesc-highlight"><LineStyle><color>ffd18802</color><width>8.475</width></LineStyle><BalloonStyle><text><![CDATA[<h3>$[name]</h3>]]></text></BalloonStyle></Style><StyleMap id="line-0288D1-5650-nodesc"><Pair><key>normal</key><styleUrl>#line-0288D1-5650-nodesc-normal</styleUrl></Pair><Pair><key>highlight</key><styleUrl>#line-0288D1-5650-nodesc-highlight</styleUrl></Pair></StyleMap><Folder><name>Untitled layer</name><Placemark><name>Course</name><styleUrl>#line-0288D1-5650-nodesc</styleUrl><LineString><tessellate>1</tessellate><coordinates>            -2.09357816955707,55.86893279304,0            -2.0940010993396,55.8681735118488,0            -2.09339561214796,55.8680706680965,0            -2.09301644733998,55.8687819385407,0            -2.09357291481302,55.8689412080397,0            -2.09369228194922,55.868975372241,0            -2.09400777439195,55.8690306248942,0            -2.09462495339491,55.868031287896,0            -2.09508706814016,55.8680186519857,0            -2.09550426355483,55.8680544659379,0            -2.09556628954269,55.8681078715439,0            -2.09550537431898,55.8683789123548,0            -2.09555189130867,55.8685276876051,0            -2.09539255806158,55.8688275594914,0            -2.09537937834484,55.8688523256939,0            -2.09652698250793,55.8690482775563,0            -2.09673636185318,55.8690325674928,0            -2.09691695563678,55.8687084384004,0            -2.09586279156364,55.8685279257465,0            -2.09577281394244,55.8687358548469,0            -2.09593300039122,55.868818900989,0            -2.09646633628311,55.8689875169775,0            -2.09539255806158,55.8688275594914,0            -2.09539113092048,55.8688273468874,0            -2.09555189130867,55.8685276876051,0            -2.09550537431898,55.8683789123548,0            -2.09556628954269,55.8681078715439,0            -2.09550426355483,55.8680544659379,0            -2.09508706814016,55.8680186519857,0            -2.09462495339491,55.868031287896,0            -2.09427033316035,55.8680110431893,0            -2.09421622383543,55.8681317321638,0            -2.09369228194922,55.868975372241,0            -2.09400777439195,55.8690306248942,0            -2.09462495339491,55.868031287896,0            -2.09508706814016,55.8680186519857,0            -2.09550426355483,55.8680544659379,0            -2.09556628954269,55.8681078715439,0            -2.09550537431898,55.8683789123548,0            -2.09555189130867,55.8685276876051,0            -2.09539255806158,55.8688275594914,0            -2.09537937834484,55.8688523256939,0            -2.09652698250793,55.8690482775563,0            -2.09673636185318,55.8690325674928,0            -2.09691695563678,55.8687084384004,0            -2.09586279156364,55.8685279257465,0            -2.09577281394244,55.8687358548469,0            -2.09593300039122,55.868818900989,0            -2.09646633628311,55.8689875169775,0            -2.09539255806158,55.8688275594914,0            -2.09539113092048,55.8688273468874,0            -2.09555198265256,55.868527979749,0            -2.09550537431898,55.8683789123548,0            -2.09556628954269,55.8681078715439,0            -2.09550426355483,55.8680544659379,0            -2.09508706814016,55.8680186519857,0            -2.09462495339491,55.868031287896,0            -2.09427033316035,55.8680110431893,0            -2.09421622383543,55.8681317321638,0            -2.09369228194922,55.868975372241,0            -2.09357291481302,55.8689412080397,0            -2.0932241095174,55.8688440731657,0          </coordinates></LineString></Placemark><Placemark><name>Finish</name><styleUrl>#icon-1899-FF5252-nodesc</styleUrl><Point><coordinates>            -2.0932042,55.8688351,0          </coordinates></Point></Placemark><Placemark><name>Start</name><styleUrl>#icon-1899-0F9D58-nodesc</styleUrl><Point><coordinates>            -2.093593,55.868905,0          </coordinates></Point></Placemark></Folder></Document></kml>