<?xml version="1.0" encoding="UTF-8"?><kml xmlns="http://www.opengis.net/kml/2.2"><Document><name>Falls parkrun, Belfast</name><description/><Style id="icon-123-nodesc-normal"><IconStyle><scale>1.1</scale><Icon><href>https://www.gstatic.com/mapspro/images/stock/123-red-dot.png</href></Icon><hotSpot x="16" xunits="pixels" y="32" yunits="insetPixels"/></IconStyle><LabelStyle><scale>0</scale></LabelStyle><BalloonStyle><text><![CDATA[<h3>$[name]</h3>]]></text></BalloonStyle></Style><Style id="icon-123-nodesc-highlight"><IconStyle><scale>1.1</scale><Icon><href>https://www.gstatic.com/mapspro/images/stock/123-red-dot.png</href></Icon><hotSpot x="16" xunits="pixels" y="32" yunits="insetPixels"/></IconStyle><LabelStyle><scale>1.1</scale></LabelStyle><BalloonStyle><text><![CDATA[<h3>$[name]</h3>]]></text></BalloonStyle></Style><StyleMap id="icon-123-nodesc"><Pair><key>normal</key><styleUrl>#icon-123-nodesc-normal</styleUrl></Pair><Pair><key>highlight</key><styleUrl>#icon-123-nodesc-highlight</styleUrl></Pair></StyleMap><Style id="icon-61-nodesc-normal"><IconStyle><scale>1.1</scale><Icon><href>https://www.gstatic.com/mapspro/images/stock/61-green-dot.png</href></Icon><hotSpot x="16" xunits="pixels" y="32" yunits="insetPixels"/></IconStyle><LabelStyle><scale>0</scale></LabelStyle><BalloonStyle><text><![CDATA[<h3>$[name]</h3>]]></text></BalloonStyle></Style><Style id="icon-61-nodesc-highlight"><IconStyle><scale>1.1</scale><Icon><href>https://www.gstatic.com/mapspro/images/stock/61-green-dot.png</href></Icon><hotSpot x="16" xunits="pixels" y="32" yunits="insetPixels"/></IconStyle><LabelStyle><scale>1.1</scale></LabelStyle><BalloonStyle><text><![CDATA[<h3>$[name]</h3>]]></text></BalloonStyle></Style><StyleMap id="icon-61-nodesc"><Pair><key>normal</key><styleUrl>#icon-61-nodesc-normal</styleUrl></Pair><Pair><key>highlight</key><styleUrl>#icon-61-nodesc-highlight</styleUrl></Pair></StyleMap><Style id="line-0000FF-5000-nodesc-normal"><LineStyle><color>ffff0000</color><width>5</width></LineStyle><BalloonStyle><text><![CDATA[<h3>$[name]</h3>]]></text></BalloonStyle></Style><Style id="line-0000FF-5000-nodesc-highlight"><LineStyle><color>ffff0000</color><width>7.5</width></LineStyle><BalloonStyle><text><![CDATA[<h3>$[name]</h3>]]></text></BalloonStyle></Style><StyleMap id="line-0000FF-5000-nodesc"><Pair><key>normal</key><styleUrl>#line-0000FF-5000-nodesc-normal</styleUrl></Pair><Pair><key>highlight</key><styleUrl>#line-0000FF-5000-nodesc-highlight</styleUrl></Pair></StyleMap><Folder><name>Untitled layer</name><Placemark><name>course</name><styleUrl>#line-0000FF-5000-nodesc</styleUrl><LineString><tessellate>1</tessellate><coordinates>            -5.978858,54.586326,0            -5.978708,54.586239,0            -5.978537,54.586438,0            -5.979674,54.587408,0            -5.980339,54.587545,0            -5.980661,54.58711,0            -5.981648,54.586898,0            -5.982292,54.586513,0            -5.983429,54.586401,0            -5.984416,54.586227,0            -5.985382,54.586426,0            -5.985661,54.586649,0            -5.985317,54.58742,0            -5.985146,54.588403,0            -5.984094,54.588191,0            -5.983858,54.588179,0            -5.983365,54.588378,0            -5.983086,54.588353,0            -5.982399,54.588142,0            -5.98212,54.588166,0            -5.981584,54.588539,0            -5.981283,54.588465,0            -5.981133,54.588539,0            -5.980403,54.588266,0            -5.979803,54.58834,0            -5.978923,54.58798,0            -5.978472,54.587594,0            -5.973837,54.58599,0            -5.974224,54.585804,0            -5.978236,54.586127,0            -5.978537,54.586438,0            -5.978236,54.586127,0            -5.97815,54.585903,0          </coordinates></LineString></Placemark><Placemark><name>course</name><styleUrl>#line-0000FF-5000-nodesc</styleUrl><LineString><tessellate>1</tessellate><coordinates>            -5.980103,54.588291,0            -5.98021,54.588142,0            -5.980017,54.587495,0          </coordinates></LineString></Placemark><Placemark><name>Start</name><styleUrl>#icon-61-nodesc</styleUrl><Point><coordinates>            -5.978858,54.586289,0          </coordinates></Point></Placemark><Placemark><name>Finish</name><styleUrl>#icon-123-nodesc</styleUrl><Point><coordinates>            -5.978107,54.585879,0          </coordinates></Point></Placemark></Folder></Document></kml>