<?xml version="1.0" encoding="UTF-8"?><kml xmlns="http://www.opengis.net/kml/2.2"><Document><name>Fareham parkrun</name><description/><Style id="icon-1899-0F9D58-nodesc-normal"><IconStyle><color>ff589d0f</color><scale>1</scale><Icon><href>https://www.gstatic.com/mapspro/images/stock/503-wht-blank_maps.png</href></Icon><hotSpot x="32" xunits="pixels" y="64" yunits="insetPixels"/></IconStyle><LabelStyle><scale>0</scale></LabelStyle><BalloonStyle><text><![CDATA[<h3>$[name]</h3>]]></text></BalloonStyle></Style><Style id="icon-1899-0F9D58-nodesc-highlight"><IconStyle><color>ff589d0f</color><scale>1</scale><Icon><href>https://www.gstatic.com/mapspro/images/stock/503-wht-blank_maps.png</href></Icon><hotSpot x="32" xunits="pixels" y="64" yunits="insetPixels"/></IconStyle><LabelStyle><scale>1</scale></LabelStyle><BalloonStyle><text><![CDATA[<h3>$[name]</h3>]]></text></BalloonStyle></Style><StyleMap id="icon-1899-0F9D58-nodesc"><Pair><key>normal</key><styleUrl>#icon-1899-0F9D58-nodesc-normal</styleUrl></Pair><Pair><key>highlight</key><styleUrl>#icon-1899-0F9D58-nodesc-highlight</styleUrl></Pair></StyleMap><Style id="icon-1899-FF5252-nodesc-normal"><IconStyle><color>ff5252ff</color><scale>1</scale><Icon><href>https://www.gstatic.com/mapspro/images/stock/503-wht-blank_maps.png</href></Icon><hotSpot x="32" xunits="pixels" y="64" yunits="insetPixels"/></IconStyle><LabelStyle><scale>0</scale></LabelStyle><BalloonStyle><text><![CDATA[<h3>$[name]</h3>]]></text></BalloonStyle></Style><Style id="icon-1899-FF5252-nodesc-highlight"><IconStyle><color>ff5252ff</color><scale>1</scale><Icon><href>https://www.gstatic.com/mapspro/images/stock/503-wht-blank_maps.png</href></Icon><hotSpot x="32" xunits="pixels" y="64" yunits="insetPixels"/></IconStyle><LabelStyle><scale>1</scale></LabelStyle><BalloonStyle><text><![CDATA[<h3>$[name]</h3>]]></text></BalloonStyle></Style><StyleMap id="icon-1899-FF5252-nodesc"><Pair><key>normal</key><styleUrl>#icon-1899-FF5252-nodesc-normal</styleUrl></Pair><Pair><key>highlight</key><styleUrl>#icon-1899-FF5252-nodesc-highlight</styleUrl></Pair></StyleMap><Style id="line-4186F0-4875-nodesc-normal"><LineStyle><color>fff08641</color><width>4.875</width></LineStyle><BalloonStyle><text><![CDATA[<h3>$[name]</h3>]]></text></BalloonStyle></Style><Style id="line-4186F0-4875-nodesc-highlight"><LineStyle><color>fff08641</color><width>7.3125</width></LineStyle><BalloonStyle><text><![CDATA[<h3>$[name]</h3>]]></text></BalloonStyle></Style><StyleMap id="line-4186F0-4875-nodesc"><Pair><key>normal</key><styleUrl>#line-4186F0-4875-nodesc-normal</styleUrl></Pair><Pair><key>highlight</key><styleUrl>#line-4186F0-4875-nodesc-highlight</styleUrl></Pair></StyleMap><Folder><name>Untitled layer</name><Placemark><name>Course</name><styleUrl>#line-4186F0-4875-nodesc</styleUrl><LineString><tessellate>1</tessellate><coordinates>            -1.165164,50.841184,0            -1.1662135,50.8409429,0            -1.1671558,50.8406476,0            -1.1679222,50.8403994,0            -1.1696128,50.8403224,0            -1.17098,50.840131,0            -1.171566,50.840241,0            -1.1717585,50.840485,0            -1.1719731,50.8408306,0            -1.172206,50.840981,0            -1.172457,50.841341,0            -1.172939,50.841542,0            -1.173114,50.841801,0            -1.173216,50.842308,0            -1.173194,50.842709,0            -1.173141,50.843079,0            -1.1732498,50.8435235,0            -1.173491,50.84402,0            -1.1735717,50.8443128,0            -1.1742368,50.8453018,0            -1.174765,50.845962,0            -1.1752883,50.8461961,0            -1.175769,50.846677,0            -1.176354,50.84723,0            -1.1765029,50.84741,0            -1.176523,50.84759,0            -1.176343,50.847951,0            -1.1758569,50.848269,0            -1.1755707,50.8483254,0            -1.175399,50.84835,0            -1.175102,50.848314,0            -1.174186,50.847904,0            -1.1731425,50.8475441,0            -1.1722145,50.8474764,0            -1.1717049,50.8474425,0            -1.1709539,50.8474527,0            -1.1701814,50.8475983,0            -1.169189,50.847876,0            -1.168326,50.84825,0            -1.167847,50.848645,0            -1.166979,50.849225,0            -1.166108,50.849754,0            -1.1659661,50.8499057,0            -1.1659422,50.8500777,0            -1.166055,50.851361,0            -1.166041,50.851044,0            -1.166224,50.851431,0            -1.1660776,50.8518996,0          </coordinates></LineString></Placemark><Placemark><name>Finish</name><styleUrl>#icon-1899-FF5252-nodesc</styleUrl><Point><coordinates>            -1.166055,50.851361,5.9          </coordinates></Point></Placemark><Placemark><name>Start</name><styleUrl>#icon-1899-0F9D58-nodesc</styleUrl><Point><coordinates>            -1.166094,50.851854,4.9          </coordinates></Point></Placemark></Folder></Document></kml>