<?xml version="1.0" encoding="UTF-8"?><kml xmlns="http://www.opengis.net/kml/2.2"><Document><name>Fife Cycle Park junior parkrun</name><description/><Style id="icon-1899-FFEA00-nodesc-normal"><IconStyle><color>ff00eaff</color><scale>1</scale><Icon><href>https://www.gstatic.com/mapspro/images/stock/503-wht-blank_maps.png</href></Icon><hotSpot x="32" xunits="pixels" y="64" yunits="insetPixels"/></IconStyle><LabelStyle><scale>0</scale></LabelStyle><BalloonStyle><text><![CDATA[<h3>$[name]</h3>]]></text></BalloonStyle></Style><Style id="icon-1899-FFEA00-nodesc-highlight"><IconStyle><color>ff00eaff</color><scale>1</scale><Icon><href>https://www.gstatic.com/mapspro/images/stock/503-wht-blank_maps.png</href></Icon><hotSpot x="32" xunits="pixels" y="64" yunits="insetPixels"/></IconStyle><LabelStyle><scale>1</scale></LabelStyle><BalloonStyle><text><![CDATA[<h3>$[name]</h3>]]></text></BalloonStyle></Style><StyleMap id="icon-1899-FFEA00-nodesc"><Pair><key>normal</key><styleUrl>#icon-1899-FFEA00-nodesc-normal</styleUrl></Pair><Pair><key>highlight</key><styleUrl>#icon-1899-FFEA00-nodesc-highlight</styleUrl></Pair></StyleMap><Style id="line-0288D1-7000-nodesc-normal"><LineStyle><color>ffd18802</color><width>7</width></LineStyle><BalloonStyle><text><![CDATA[<h3>$[name]</h3>]]></text></BalloonStyle></Style><Style id="line-0288D1-7000-nodesc-highlight"><LineStyle><color>ffd18802</color><width>10.5</width></LineStyle><BalloonStyle><text><![CDATA[<h3>$[name]</h3>]]></text></BalloonStyle></Style><StyleMap id="line-0288D1-7000-nodesc"><Pair><key>normal</key><styleUrl>#line-0288D1-7000-nodesc-normal</styleUrl></Pair><Pair><key>highlight</key><styleUrl>#line-0288D1-7000-nodesc-highlight</styleUrl></Pair></StyleMap><Folder><name>Untitled layer</name><Placemark><name>Course</name><styleUrl>#line-0288D1-7000-nodesc</styleUrl><LineString><tessellate>1</tessellate><coordinates>            -3.32049,56.140436,0            -3.320769,56.140531,0            -3.321059,56.140687,0            -3.321284,56.140896,0            -3.321542,56.141147,0            -3.321627,56.141326,0            -3.321745,56.141548,0            -3.32182,56.141667,0            -3.321971,56.141721,0            -3.32211,56.141739,0            -3.322271,56.141745,0            -3.322454,56.141733,0            -3.322915,56.141637,0            -3.323129,56.141583,0            -3.323215,56.141458,0            -3.323204,56.141314,0            -3.323108,56.141177,0            -3.323001,56.141034,0            -3.322754,56.140794,0            -3.322121,56.140376,0            -3.320479,56.139246,0            -3.320147,56.139055,0            -3.319846,56.139013,0            -3.319632,56.139055,0            -3.319417,56.139085,0            -3.319235,56.139139,0            -3.318988,56.139162,0            -3.318795,56.13918,0            -3.318559,56.139168,0            -3.318344,56.139162,0            -3.318055,56.13915,0            -3.317883,56.13918,0            -3.31769,56.139276,0            -3.317626,56.139384,0            -3.317626,56.139503,0            -3.317711,56.139587,0            -3.317915,56.139647,0            -3.318033,56.139671,0            -3.318237,56.139665,0            -3.318484,56.139688,0            -3.318731,56.139766,0            -3.320297,56.140304,0            -3.320565,56.140382,0          </coordinates></LineString></Placemark><Placemark><name>Start/Finish</name><styleUrl>#icon-1899-FFEA00-nodesc</styleUrl><Point><coordinates>            -3.32049,56.140436,0          </coordinates></Point></Placemark></Folder></Document></kml>