<?xml version="1.0" encoding="UTF-8"?><kml xmlns="http://www.opengis.net/kml/2.2"><Document><name>Forest of Dean parkrun</name><description>Forest of Dean parkrun</description><Style id="icon-1899-0F9D58-nodesc-normal"><IconStyle><color>ff589d0f</color><scale>1</scale><Icon><href>https://www.gstatic.com/mapspro/images/stock/503-wht-blank_maps.png</href></Icon><hotSpot x="32" xunits="pixels" y="64" yunits="insetPixels"/></IconStyle><LabelStyle><scale>0</scale></LabelStyle><BalloonStyle><text><![CDATA[<h3>$[name]</h3>]]></text></BalloonStyle></Style><Style id="icon-1899-0F9D58-nodesc-highlight"><IconStyle><color>ff589d0f</color><scale>1</scale><Icon><href>https://www.gstatic.com/mapspro/images/stock/503-wht-blank_maps.png</href></Icon><hotSpot x="32" xunits="pixels" y="64" yunits="insetPixels"/></IconStyle><LabelStyle><scale>1</scale></LabelStyle><BalloonStyle><text><![CDATA[<h3>$[name]</h3>]]></text></BalloonStyle></Style><StyleMap id="icon-1899-0F9D58-nodesc"><Pair><key>normal</key><styleUrl>#icon-1899-0F9D58-nodesc-normal</styleUrl></Pair><Pair><key>highlight</key><styleUrl>#icon-1899-0F9D58-nodesc-highlight</styleUrl></Pair></StyleMap><Style id="icon-1899-E65100-nodesc-normal"><IconStyle><color>ff0051e6</color><scale>1</scale><Icon><href>https://www.gstatic.com/mapspro/images/stock/503-wht-blank_maps.png</href></Icon><hotSpot x="32" xunits="pixels" y="64" yunits="insetPixels"/></IconStyle><LabelStyle><scale>0</scale></LabelStyle><BalloonStyle><text><![CDATA[<h3>$[name]</h3>]]></text></BalloonStyle></Style><Style id="icon-1899-E65100-nodesc-highlight"><IconStyle><color>ff0051e6</color><scale>1</scale><Icon><href>https://www.gstatic.com/mapspro/images/stock/503-wht-blank_maps.png</href></Icon><hotSpot x="32" xunits="pixels" y="64" yunits="insetPixels"/></IconStyle><LabelStyle><scale>1</scale></LabelStyle><BalloonStyle><text><![CDATA[<h3>$[name]</h3>]]></text></BalloonStyle></Style><StyleMap id="icon-1899-E65100-nodesc"><Pair><key>normal</key><styleUrl>#icon-1899-E65100-nodesc-normal</styleUrl></Pair><Pair><key>highlight</key><styleUrl>#icon-1899-E65100-nodesc-highlight</styleUrl></Pair></StyleMap><Style id="icon-35-normal"><IconStyle><scale>1.1</scale><Icon><href>https://www.gstatic.com/mapspro/images/stock/35-coffeehouse.png</href></Icon></IconStyle><LabelStyle><scale>0</scale></LabelStyle></Style><Style id="icon-35-highlight"><IconStyle><scale>1.1</scale><Icon><href>https://www.gstatic.com/mapspro/images/stock/35-coffeehouse.png</href></Icon></IconStyle><LabelStyle><scale>1.1</scale></LabelStyle></Style><StyleMap id="icon-35"><Pair><key>normal</key><styleUrl>#icon-35-normal</styleUrl></Pair><Pair><key>highlight</key><styleUrl>#icon-35-highlight</styleUrl></Pair></StyleMap><Style id="icon-93-normal"><IconStyle><scale>1.1</scale><Icon><href>https://www.gstatic.com/mapspro/images/stock/93-parkinglot.png</href></Icon></IconStyle><LabelStyle><scale>0</scale></LabelStyle></Style><Style id="icon-93-highlight"><IconStyle><scale>1.1</scale><Icon><href>https://www.gstatic.com/mapspro/images/stock/93-parkinglot.png</href></Icon></IconStyle><LabelStyle><scale>1.1</scale></LabelStyle></Style><StyleMap id="icon-93"><Pair><key>normal</key><styleUrl>#icon-93-normal</styleUrl></Pair><Pair><key>highlight</key><styleUrl>#icon-93-highlight</styleUrl></Pair></StyleMap><Style id="line-4186F0-5000-nodesc-normal"><LineStyle><color>fff08641</color><width>5</width></LineStyle><BalloonStyle><text><![CDATA[<h3>$[name]</h3>]]></text></BalloonStyle></Style><Style id="line-4186F0-5000-nodesc-highlight"><LineStyle><color>fff08641</color><width>7.5</width></LineStyle><BalloonStyle><text><![CDATA[<h3>$[name]</h3>]]></text></BalloonStyle></Style><StyleMap id="line-4186F0-5000-nodesc"><Pair><key>normal</key><styleUrl>#line-4186F0-5000-nodesc-normal</styleUrl></Pair><Pair><key>highlight</key><styleUrl>#line-4186F0-5000-nodesc-highlight</styleUrl></Pair></StyleMap><Folder><name>Untitled layer</name><Placemark><name>Course</name><styleUrl>#line-4186F0-5000-nodesc</styleUrl><LineString><tessellate>1</tessellate><coordinates>            -2.6051763,51.8087276,0            -2.606356,51.809092,0            -2.605305,51.80948,0            -2.599382,51.810286,0            -2.5992,51.810107,0            -2.598074,51.809112,0            -2.597151,51.808807,0            -2.598803,51.806485,0            -2.599779,51.805683,0            -2.60176,51.80633,0            -2.6045,51.80756,0            -2.607086,51.807441,0            -2.608266,51.807812,0            -2.607826,51.808542,0            -2.605305,51.80948,0            -2.599382,51.810286,0            -2.600809,51.80947,0            -2.602,51.809086,0            -2.597977,51.807858,0            -2.601678,51.807898,0            -2.602483,51.808946,0            -2.6045,51.808497,0            -2.601861,51.807822,0            -2.599779,51.805683,0            -2.60176,51.80633,0            -2.6045,51.80756,0            -2.607086,51.807441,0            -2.607257,51.8075,0            -2.60464,51.808492,0            -2.6051763,51.8087276,0          </coordinates></LineString></Placemark><Placemark><name>Car Park</name><description>Car Park</description><styleUrl>#icon-93</styleUrl><Point><coordinates>            -2.60818,51.80947,0          </coordinates></Point></Placemark><Placemark><name><![CDATA[Tea, Coffee & Cake]]></name><description><![CDATA[Tea, Coffee and Cake at the Forest of Dean Athletic Club clubhouse<br><br>http://www.fodac.org.uk/]]></description><styleUrl>#icon-35</styleUrl><Point><coordinates>            -2.608706,51.80961,0          </coordinates></Point></Placemark><Placemark><name>Finish</name><styleUrl>#icon-1899-E65100-nodesc</styleUrl><Point><coordinates>            -2.605568,51.808814,0          </coordinates></Point></Placemark><Placemark><name>Start</name><styleUrl>#icon-1899-0F9D58-nodesc</styleUrl><Point><coordinates>            -2.605533,51.808877,0          </coordinates></Point></Placemark></Folder></Document></kml>