<?xml version="1.0" encoding="UTF-8"?><kml xmlns="http://www.opengis.net/kml/2.2"><Document><name>Forster Memorial Park junior parkrun</name><description/><Style id="icon-1899-0F9D58-nodesc-normal"><IconStyle><color>ff589d0f</color><scale>1</scale><Icon><href>https://www.gstatic.com/mapspro/images/stock/503-wht-blank_maps.png</href></Icon><hotSpot x="32" xunits="pixels" y="64" yunits="insetPixels"/></IconStyle><LabelStyle><scale>0</scale></LabelStyle><BalloonStyle><text><![CDATA[<h3>$[name]</h3>]]></text></BalloonStyle></Style><Style id="icon-1899-0F9D58-nodesc-highlight"><IconStyle><color>ff589d0f</color><scale>1</scale><Icon><href>https://www.gstatic.com/mapspro/images/stock/503-wht-blank_maps.png</href></Icon><hotSpot x="32" xunits="pixels" y="64" yunits="insetPixels"/></IconStyle><LabelStyle><scale>1</scale></LabelStyle><BalloonStyle><text><![CDATA[<h3>$[name]</h3>]]></text></BalloonStyle></Style><StyleMap id="icon-1899-0F9D58-nodesc"><Pair><key>normal</key><styleUrl>#icon-1899-0F9D58-nodesc-normal</styleUrl></Pair><Pair><key>highlight</key><styleUrl>#icon-1899-0F9D58-nodesc-highlight</styleUrl></Pair></StyleMap><Style id="icon-1899-FF5252-nodesc-normal"><IconStyle><color>ff5252ff</color><scale>1</scale><Icon><href>https://www.gstatic.com/mapspro/images/stock/503-wht-blank_maps.png</href></Icon><hotSpot x="32" xunits="pixels" y="64" yunits="insetPixels"/></IconStyle><LabelStyle><scale>0</scale></LabelStyle><BalloonStyle><text><![CDATA[<h3>$[name]</h3>]]></text></BalloonStyle></Style><Style id="icon-1899-FF5252-nodesc-highlight"><IconStyle><color>ff5252ff</color><scale>1</scale><Icon><href>https://www.gstatic.com/mapspro/images/stock/503-wht-blank_maps.png</href></Icon><hotSpot x="32" xunits="pixels" y="64" yunits="insetPixels"/></IconStyle><LabelStyle><scale>1</scale></LabelStyle><BalloonStyle><text><![CDATA[<h3>$[name]</h3>]]></text></BalloonStyle></Style><StyleMap id="icon-1899-FF5252-nodesc"><Pair><key>normal</key><styleUrl>#icon-1899-FF5252-nodesc-normal</styleUrl></Pair><Pair><key>highlight</key><styleUrl>#icon-1899-FF5252-nodesc-highlight</styleUrl></Pair></StyleMap><Style id="line-0288D1-5621-nodesc-normal"><LineStyle><color>ffd18802</color><width>5.621</width></LineStyle><BalloonStyle><text><![CDATA[<h3>$[name]</h3>]]></text></BalloonStyle></Style><Style id="line-0288D1-5621-nodesc-highlight"><LineStyle><color>ffd18802</color><width>8.4315</width></LineStyle><BalloonStyle><text><![CDATA[<h3>$[name]</h3>]]></text></BalloonStyle></Style><StyleMap id="line-0288D1-5621-nodesc"><Pair><key>normal</key><styleUrl>#line-0288D1-5621-nodesc-normal</styleUrl></Pair><Pair><key>highlight</key><styleUrl>#line-0288D1-5621-nodesc-highlight</styleUrl></Pair></StyleMap><Folder><name>Untitled layer</name><Placemark><name>Course</name><styleUrl>#line-0288D1-5621-nodesc</styleUrl><LineString><tessellate>1</tessellate><coordinates>            -0.0071882,51.4312913,0            -0.0071986,51.4312876,0            -0.0071882,51.4312913,0            -0.0071986,51.4312876,0            -0.0071882,51.4312913,0            -0.0071986,51.4312876,0            -0.0072746,51.4312536,0            -0.0075266,51.4311496,0            -0.0076386,51.4310796,0            -0.0076496,51.4310166,0            -0.0076446,51.4308656,0            -0.0076926,51.4308226,0            -0.0074946,51.4308526,0            -0.0072956,51.4309156,0            -0.0068666,51.4309626,0            -0.0064646,51.4309666,0            -0.0062126,51.4309766,0            -0.0057616,51.4309596,0            -0.0054396,51.4309456,0            -0.0051286,51.4309666,0            -0.0047636,51.4309966,0            -0.0044476,51.4310196,0            -0.0040556,51.4310396,0            -0.0038466,51.4310836,0            -0.0040236,51.4312206,0            -0.0039806,51.4313536,0            -0.0040716,51.4316386,0            -0.0041356,51.4320166,0            -0.0043076,51.4325816,0            -0.0044146,51.4326816,0            -0.0046456,51.4328086,0            -0.0049836,51.4330596,0            -0.0050316,51.4331596,0            -0.0052786,51.4331666,0            -0.0055036,51.4332136,0            -0.0057616,51.4332676,0            -0.0060136,51.4332836,0            -0.0061906,51.4332736,0            -0.0067596,51.4331836,0            -0.0068876,51.4331936,0            -0.0071826,51.4332166,0            -0.0073766,51.4332466,0            -0.0074346,51.4332506,0            -0.0073546,51.4331796,0            -0.0072746,51.4330636,0            -0.0071986,51.4329626,0            -0.0071726,51.4328156,0            -0.0071296,51.4326756,0            -0.0070976,51.4325816,0            -0.0070546,51.4324516,0            -0.0070596,51.4323406,0            -0.0070806,51.4322136,0            -0.0071136,51.4321236,0            -0.0071616,51.4319196,0            -0.0071986,51.4317926,0            -0.007195,51.4316011,0            -0.007199,51.4315079,0            -0.0072029,51.4313991,0            -0.0071986,51.4312876,0            -0.0070516,51.4312736,0            -0.0069366,51.4312936,0            -0.0068026,51.4313036,0            -0.0066626,51.4312976,0            -0.0064426,51.4312876,0            -0.0061426,51.4312606,0            -0.0059656,51.4312376,0            -0.0057886,51.4312006,0            -0.0056276,51.4311566,0            -0.0055036,51.4311596,0            -0.0052896,51.4311966,0            -0.0049086,51.4312806,0            -0.0047636,51.4313006,0            -0.0045866,51.4313006,0            -0.0044256,51.4312976,0            -0.0042806,51.4312876,0            -0.0041626,51.4312576,0            -0.0040236,51.4312206,0          </coordinates></LineString></Placemark><Placemark><name>Finish</name><styleUrl>#icon-1899-FF5252-nodesc</styleUrl><Point><coordinates>            -0.006152,51.431269,0          </coordinates></Point></Placemark><Placemark><name>Start</name><styleUrl>#icon-1899-0F9D58-nodesc</styleUrl><Point><coordinates>            -0.007117,51.432078,0          </coordinates></Point></Placemark></Folder></Document></kml>