<?xml version="1.0" encoding="UTF-8"?><kml xmlns="http://www.opengis.net/kml/2.2"><Document><name>Fountains Abbey parkrun</name><description/><Style id="icon-1197-nodesc-normal"><IconStyle><scale>1.1</scale><Icon><href>https://www.gstatic.com/mapspro/images/stock/1197-fac-headquarters.png</href></Icon></IconStyle><LabelStyle><scale>0</scale></LabelStyle><BalloonStyle><text><![CDATA[<h3>$[name]</h3>]]></text></BalloonStyle></Style><Style id="icon-1197-nodesc-highlight"><IconStyle><scale>1.1</scale><Icon><href>https://www.gstatic.com/mapspro/images/stock/1197-fac-headquarters.png</href></Icon></IconStyle><LabelStyle><scale>1.1</scale></LabelStyle><BalloonStyle><text><![CDATA[<h3>$[name]</h3>]]></text></BalloonStyle></Style><StyleMap id="icon-1197-nodesc"><Pair><key>normal</key><styleUrl>#icon-1197-nodesc-normal</styleUrl></Pair><Pair><key>highlight</key><styleUrl>#icon-1197-nodesc-highlight</styleUrl></Pair></StyleMap><Style id="icon-1211-nodesc-normal"><IconStyle><scale>1.1</scale><Icon><href>https://www.gstatic.com/mapspro/images/stock/1211-fac-poi.png</href></Icon></IconStyle><LabelStyle><scale>0</scale></LabelStyle><BalloonStyle><text><![CDATA[<h3>$[name]</h3>]]></text></BalloonStyle></Style><Style id="icon-1211-nodesc-highlight"><IconStyle><scale>1.1</scale><Icon><href>https://www.gstatic.com/mapspro/images/stock/1211-fac-poi.png</href></Icon></IconStyle><LabelStyle><scale>1.1</scale></LabelStyle><BalloonStyle><text><![CDATA[<h3>$[name]</h3>]]></text></BalloonStyle></Style><StyleMap id="icon-1211-nodesc"><Pair><key>normal</key><styleUrl>#icon-1211-nodesc-normal</styleUrl></Pair><Pair><key>highlight</key><styleUrl>#icon-1211-nodesc-highlight</styleUrl></Pair></StyleMap><Style id="icon-123-nodesc-normal"><IconStyle><scale>1.1</scale><Icon><href>https://www.gstatic.com/mapspro/images/stock/123-red-dot.png</href></Icon><hotSpot x="16" xunits="pixels" y="32" yunits="insetPixels"/></IconStyle><LabelStyle><scale>0</scale></LabelStyle><BalloonStyle><text><![CDATA[<h3>$[name]</h3>]]></text></BalloonStyle></Style><Style id="icon-123-nodesc-highlight"><IconStyle><scale>1.1</scale><Icon><href>https://www.gstatic.com/mapspro/images/stock/123-red-dot.png</href></Icon><hotSpot x="16" xunits="pixels" y="32" yunits="insetPixels"/></IconStyle><LabelStyle><scale>1.1</scale></LabelStyle><BalloonStyle><text><![CDATA[<h3>$[name]</h3>]]></text></BalloonStyle></Style><StyleMap id="icon-123-nodesc"><Pair><key>normal</key><styleUrl>#icon-123-nodesc-normal</styleUrl></Pair><Pair><key>highlight</key><styleUrl>#icon-123-nodesc-highlight</styleUrl></Pair></StyleMap><Style id="icon-141-nodesc-normal"><IconStyle><scale>1.1</scale><Icon><href>https://www.gstatic.com/mapspro/images/stock/141-toilets.png</href></Icon></IconStyle><LabelStyle><scale>0</scale></LabelStyle><BalloonStyle><text><![CDATA[<h3>$[name]</h3>]]></text></BalloonStyle></Style><Style id="icon-141-nodesc-highlight"><IconStyle><scale>1.1</scale><Icon><href>https://www.gstatic.com/mapspro/images/stock/141-toilets.png</href></Icon></IconStyle><LabelStyle><scale>1.1</scale></LabelStyle><BalloonStyle><text><![CDATA[<h3>$[name]</h3>]]></text></BalloonStyle></Style><StyleMap id="icon-141-nodesc"><Pair><key>normal</key><styleUrl>#icon-141-nodesc-normal</styleUrl></Pair><Pair><key>highlight</key><styleUrl>#icon-141-nodesc-highlight</styleUrl></Pair></StyleMap><Style id="icon-35-nodesc-normal"><IconStyle><scale>1.1</scale><Icon><href>https://www.gstatic.com/mapspro/images/stock/35-coffeehouse.png</href></Icon></IconStyle><LabelStyle><scale>0</scale></LabelStyle><BalloonStyle><text><![CDATA[<h3>$[name]</h3>]]></text></BalloonStyle></Style><Style id="icon-35-nodesc-highlight"><IconStyle><scale>1.1</scale><Icon><href>https://www.gstatic.com/mapspro/images/stock/35-coffeehouse.png</href></Icon></IconStyle><LabelStyle><scale>1.1</scale></LabelStyle><BalloonStyle><text><![CDATA[<h3>$[name]</h3>]]></text></BalloonStyle></Style><StyleMap id="icon-35-nodesc"><Pair><key>normal</key><styleUrl>#icon-35-nodesc-normal</styleUrl></Pair><Pair><key>highlight</key><styleUrl>#icon-35-nodesc-highlight</styleUrl></Pair></StyleMap><Style id="icon-61-nodesc-normal"><IconStyle><scale>1.1</scale><Icon><href>https://www.gstatic.com/mapspro/images/stock/61-green-dot.png</href></Icon><hotSpot x="16" xunits="pixels" y="32" yunits="insetPixels"/></IconStyle><LabelStyle><scale>0</scale></LabelStyle><BalloonStyle><text><![CDATA[<h3>$[name]</h3>]]></text></BalloonStyle></Style><Style id="icon-61-nodesc-highlight"><IconStyle><scale>1.1</scale><Icon><href>https://www.gstatic.com/mapspro/images/stock/61-green-dot.png</href></Icon><hotSpot x="16" xunits="pixels" y="32" yunits="insetPixels"/></IconStyle><LabelStyle><scale>1.1</scale></LabelStyle><BalloonStyle><text><![CDATA[<h3>$[name]</h3>]]></text></BalloonStyle></Style><StyleMap id="icon-61-nodesc"><Pair><key>normal</key><styleUrl>#icon-61-nodesc-normal</styleUrl></Pair><Pair><key>highlight</key><styleUrl>#icon-61-nodesc-highlight</styleUrl></Pair></StyleMap><Style id="icon-93-nodesc-normal"><IconStyle><scale>1.1</scale><Icon><href>https://www.gstatic.com/mapspro/images/stock/93-parkinglot.png</href></Icon></IconStyle><LabelStyle><scale>0</scale></LabelStyle><BalloonStyle><text><![CDATA[<h3>$[name]</h3>]]></text></BalloonStyle></Style><Style id="icon-93-nodesc-highlight"><IconStyle><scale>1.1</scale><Icon><href>https://www.gstatic.com/mapspro/images/stock/93-parkinglot.png</href></Icon></IconStyle><LabelStyle><scale>1.1</scale></LabelStyle><BalloonStyle><text><![CDATA[<h3>$[name]</h3>]]></text></BalloonStyle></Style><StyleMap id="icon-93-nodesc"><Pair><key>normal</key><styleUrl>#icon-93-nodesc-normal</styleUrl></Pair><Pair><key>highlight</key><styleUrl>#icon-93-nodesc-highlight</styleUrl></Pair></StyleMap><Style id="line-3333FF-5000-nodesc-normal"><LineStyle><color>ffff3333</color><width>5</width></LineStyle><BalloonStyle><text><![CDATA[<h3>$[name]</h3>]]></text></BalloonStyle></Style><Style id="line-3333FF-5000-nodesc-highlight"><LineStyle><color>ffff3333</color><width>7.5</width></LineStyle><BalloonStyle><text><![CDATA[<h3>$[name]</h3>]]></text></BalloonStyle></Style><StyleMap id="line-3333FF-5000-nodesc"><Pair><key>normal</key><styleUrl>#line-3333FF-5000-nodesc-normal</styleUrl></Pair><Pair><key>highlight</key><styleUrl>#line-3333FF-5000-nodesc-highlight</styleUrl></Pair></StyleMap><Folder><name>Untitled layer</name><Placemark><name>Course</name><styleUrl>#line-3333FF-5000-nodesc</styleUrl><LineString><tessellate>1</tessellate><coordinates>            -1.582104,54.110165,0            -1.582869,54.109913,0            -1.583547,54.109622,0            -1.583939,54.10929,0            -1.5837,54.108952,0            -1.583523,54.108784,0            -1.583375,54.108726,0            -1.583123,54.108704,0            -1.582909,54.108732,0            -1.582796,54.108729,0            -1.582673,54.108696,0            -1.582445,54.10857,0            -1.582201,54.108506,0            -1.581919,54.108677,0            -1.580514,54.10924,0            -1.578081,54.109971,0            -1.571968,54.110984,0            -1.571459,54.111037,0            -1.570842,54.110996,0            -1.570488,54.111088,0            -1.570107,54.111286,0            -1.569871,54.111481,0            -1.569737,54.111707,0            -1.569758,54.111896,0            -1.569828,54.112047,0            -1.57001,54.112223,0            -1.5702,54.112369,0            -1.57042,54.112443,0            -1.570833,54.112523,0            -1.571126,54.112558,0            -1.571579,54.112556,0            -1.571901,54.112509,0            -1.572322,54.112427,0            -1.57348,54.112048,0            -1.572298,54.112434,0            -1.572743,54.112484,0            -1.573741,54.113308,0            -1.573639,54.113471,0            -1.573178,54.11349,0            -1.572494,54.11366,0            -1.57204,54.114088,0            -1.571941,54.114455,0            -1.57196,54.114886,0            -1.572172,54.115193,0            -1.572384,54.115359,0            -1.572837,54.11543,0            -1.572808,54.115881,0            -1.572558,54.116411,0            -1.572561,54.11654,0            -1.572614,54.116609,0            -1.573111,54.116664,0            -1.573693,54.116507,0            -1.574369,54.115764,0            -1.574326,54.11546,0            -1.574682,54.114858,0            -1.57516,54.114108,0            -1.575195,54.113957,0            -1.575208,54.113886,0            -1.575197,54.113761,0            -1.575114,54.113614,0            -1.575015,54.113415,0            -1.574251,54.112726,0            -1.573636,54.112108,0            -1.573457,54.112033,0            -1.572899,54.111611,0            -1.574108,54.111184,0            -1.574479,54.111059,0            -1.574768,54.110974,0            -1.57502,54.110911,0            -1.575576,54.110806,0            -1.576045,54.110745,0            -1.576981,54.110641,0            -1.577847,54.110547,0            -1.578751,54.110448,0            -1.579089,54.110421,0            -1.58068,54.110385,0            -1.581034,54.110382,0            -1.581297,54.11035,0            -1.582104,54.110165,0          </coordinates></LineString></Placemark><Placemark><name>Start</name><styleUrl>#icon-61-nodesc</styleUrl><Point><coordinates>            -1.582047,54.110135,0          </coordinates></Point></Placemark><Placemark><name>Finish</name><styleUrl>#icon-123-nodesc</styleUrl><Point><coordinates>            -1.57877,54.109811,0          </coordinates></Point></Placemark><Placemark><name>Car Park</name><styleUrl>#icon-93-nodesc</styleUrl><Point><coordinates>            -1.586087,54.112993,0          </coordinates></Point></Placemark><Placemark><name>Cafe</name><styleUrl>#icon-35-nodesc</styleUrl><Point><coordinates>            -1.584614,54.112834,0          </coordinates></Point></Placemark><Placemark><name>Toilets</name><styleUrl>#icon-141-nodesc</styleUrl><Point><coordinates>            -1.584939,54.113086,0          </coordinates></Point></Placemark><Placemark><name>Main Entrance</name><styleUrl>#icon-1197-nodesc</styleUrl><Point><coordinates>            -1.585743,54.113811,0          </coordinates></Point></Placemark><Placemark><name>Footpath to parkrun course</name><styleUrl>#icon-1211-nodesc</styleUrl><Point><coordinates>            -1.584207,54.11288,0          </coordinates></Point></Placemark></Folder></Document></kml>