<?xml version="1.0" encoding="UTF-8"?><kml xmlns="http://www.opengis.net/kml/2.2"><Document><name>Fulbourn Hospital parkrun (from Nov 2023)</name><description/><Style id="icon-1899-0F9D58-nodesc-normal"><IconStyle><color>ff589d0f</color><scale>1</scale><Icon><href>https://www.gstatic.com/mapspro/images/stock/503-wht-blank_maps.png</href></Icon><hotSpot x="32" xunits="pixels" y="64" yunits="insetPixels"/></IconStyle><LabelStyle><scale>0</scale></LabelStyle><BalloonStyle><text><![CDATA[<h3>$[name]</h3>]]></text></BalloonStyle></Style><Style id="icon-1899-0F9D58-nodesc-highlight"><IconStyle><color>ff589d0f</color><scale>1</scale><Icon><href>https://www.gstatic.com/mapspro/images/stock/503-wht-blank_maps.png</href></Icon><hotSpot x="32" xunits="pixels" y="64" yunits="insetPixels"/></IconStyle><LabelStyle><scale>1</scale></LabelStyle><BalloonStyle><text><![CDATA[<h3>$[name]</h3>]]></text></BalloonStyle></Style><StyleMap id="icon-1899-0F9D58-nodesc"><Pair><key>normal</key><styleUrl>#icon-1899-0F9D58-nodesc-normal</styleUrl></Pair><Pair><key>highlight</key><styleUrl>#icon-1899-0F9D58-nodesc-highlight</styleUrl></Pair></StyleMap><Style id="icon-1899-FF5252-nodesc-normal"><IconStyle><color>ff5252ff</color><scale>1</scale><Icon><href>https://www.gstatic.com/mapspro/images/stock/503-wht-blank_maps.png</href></Icon><hotSpot x="32" xunits="pixels" y="64" yunits="insetPixels"/></IconStyle><LabelStyle><scale>0</scale></LabelStyle><BalloonStyle><text><![CDATA[<h3>$[name]</h3>]]></text></BalloonStyle></Style><Style id="icon-1899-FF5252-nodesc-highlight"><IconStyle><color>ff5252ff</color><scale>1</scale><Icon><href>https://www.gstatic.com/mapspro/images/stock/503-wht-blank_maps.png</href></Icon><hotSpot x="32" xunits="pixels" y="64" yunits="insetPixels"/></IconStyle><LabelStyle><scale>1</scale></LabelStyle><BalloonStyle><text><![CDATA[<h3>$[name]</h3>]]></text></BalloonStyle></Style><StyleMap id="icon-1899-FF5252-nodesc"><Pair><key>normal</key><styleUrl>#icon-1899-FF5252-nodesc-normal</styleUrl></Pair><Pair><key>highlight</key><styleUrl>#icon-1899-FF5252-nodesc-highlight</styleUrl></Pair></StyleMap><Style id="line-0288D1-2938-nodesc-normal"><LineStyle><color>ffd18802</color><width>2.938</width></LineStyle><BalloonStyle><text><![CDATA[<h3>$[name]</h3>]]></text></BalloonStyle></Style><Style id="line-0288D1-2938-nodesc-highlight"><LineStyle><color>ffd18802</color><width>4.407</width></LineStyle><BalloonStyle><text><![CDATA[<h3>$[name]</h3>]]></text></BalloonStyle></Style><StyleMap id="line-0288D1-2938-nodesc"><Pair><key>normal</key><styleUrl>#line-0288D1-2938-nodesc-normal</styleUrl></Pair><Pair><key>highlight</key><styleUrl>#line-0288D1-2938-nodesc-highlight</styleUrl></Pair></StyleMap><Folder><name>Morning_Walk.gpx</name><Placemark><name>Course</name><styleUrl>#line-0288D1-2938-nodesc</styleUrl><LineString><tessellate>1</tessellate><coordinates>            0.187124,52.1846177,0            0.1870268,52.1846577,0            0.1870039,52.1846884,0            0.1869818,52.184694,0            0.1869688,52.1847127,0            0.1869258,52.1848107,0            0.1868908,52.1849077,0            0.1868438,52.1849117,0            0.1866758,52.1848597,0            0.1865118,52.1848447,0            0.1864408,52.1848457,0            0.1863958,52.1848367,0            0.1863848,52.1847857,0            0.1864208,52.1847397,0            0.1864548,52.1847317,0            0.1866698,52.1847307,0            0.1867198,52.1846557,0            0.1867048,52.1846417,0            0.1866838,52.1846297,0            0.1865518,52.1845927,0            0.1864738,52.1845777,0            0.1863568,52.1845637,0            0.1863228,52.1845637,0            0.1861768,52.1845347,0            0.1861288,52.1845237,0            0.1860858,52.1845147,0            0.1859178,52.1844577,0            0.1859108,52.1844307,0            0.1859098,52.1843767,0            0.1859528,52.1843147,0            0.1860448,52.1842467,0            0.1860788,52.1842177,0            0.1861298,52.1841767,0            0.1861818,52.1841317,0            0.1863418,52.1839727,0            0.1865078,52.1838327,0            0.1865328,52.1838127,0            0.1865488,52.1838167,0            0.1865568,52.1838127,0            0.1866298,52.1837347,0            0.1868128,52.1835767,0            0.1868248,52.1835657,0            0.1869628,52.1834347,0            0.1871108,52.1833127,0            0.1871898,52.1832487,0            0.1871908,52.1832317,0            0.1871768,52.1831967,0            0.1871638,52.1830967,0            0.1871648,52.1830877,0            0.1872298,52.1829807,0            0.1873728,52.1829527,0            0.1875208,52.1829437,0            0.1875458,52.1829437,0            0.1877498,52.1829067,0            0.1878118,52.1828887,0            0.1878808,52.1828737,0            0.1879448,52.1828607,0            0.1881118,52.1828277,0            0.1882278,52.1827927,0            0.1882998,52.1827937,0            0.1883228,52.1827927,0            0.1884978,52.1828267,0            0.1887028,52.1828917,0            0.1888738,52.1829637,0            0.1889988,52.1830267,0            0.1890168,52.1830257,0            0.1891618,52.1830497,0            0.1891768,52.1830537,0            0.1892858,52.1830827,0            0.1893228,52.1830957,0            0.1894158,52.1831377,0            0.1894688,52.1831657,0            0.1894948,52.1831707,0            0.1896428,52.1832267,0            0.1896708,52.1832797,0            0.1896928,52.1833037,0            0.1897088,52.1833297,0            0.1897348,52.1833747,0            0.1897738,52.1834667,0            0.1897898,52.1834777,0            0.1899408,52.1835287,0            0.1900568,52.1835127,0            0.1900988,52.1835027,0            0.1901208,52.1835227,0            0.1901528,52.1835547,0            0.1902098,52.1836497,0            0.1902118,52.1836597,0            0.1902368,52.1837367,0            0.1902998,52.1838457,0            0.1903548,52.1839417,0            0.1903788,52.1839877,0            0.1904048,52.1840147,0            0.1904218,52.1840747,0            0.1904368,52.1840997,0            0.1904908,52.1841477,0            0.1905078,52.1841657,0            0.1905388,52.1842617,0            0.1904878,52.1843247,0            0.1904188,52.1843667,0            0.1903778,52.1843687,0            0.1903528,52.1843697,0            0.1902468,52.1843757,0            0.1902118,52.1843687,0            0.1901748,52.1843327,0            0.1901908,52.1842447,0            0.1902058,52.1842337,0            0.1902718,52.1841297,0            0.1902858,52.1841077,0            0.1902618,52.1840427,0            0.1901368,52.1839427,0            0.1899978,52.1838597,0            0.1898688,52.1838157,0            0.1898488,52.1838147,0            0.1896548,52.1838217,0            0.1894568,52.1838237,0            0.1893268,52.1838357,0            0.1892928,52.1838317,0            0.1892268,52.1838017,0            0.1892218,52.1837907,0            0.1892328,52.1836607,0            0.1892498,52.1835707,0            0.1892568,52.1835257,0            0.1892468,52.1833937,0            0.1892248,52.1833527,0            0.1892288,52.1833487,0            0.1892298,52.1833497,0            0.1892298,52.1833507,0            0.1892268,52.1833507,0            0.1891668,52.1832997,0            0.1891328,52.1832717,0            0.1890938,52.1832377,0            0.1890808,52.1832277,0            0.1890048,52.1831897,0            0.1889738,52.1831787,0            0.1888098,52.1830977,0            0.1886978,52.1830597,0            0.1885988,52.1829927,0            0.1884888,52.1829307,0            0.1884708,52.1829267,0            0.1884528,52.1829257,0            0.1884068,52.1829467,0            0.1883948,52.1829577,0            0.1883768,52.1829687,0            0.1882828,52.1830217,0            0.1882218,52.1830517,0            0.1881578,52.1831117,0            0.1881288,52.1831437,0            0.1881238,52.1832787,0            0.1881378,52.1833767,0            0.1881498,52.1834477,0            0.1881538,52.1835087,0            0.1881598,52.1835807,0            0.1881558,52.1836407,0            0.1881308,52.1836997,0            0.1880878,52.1838457,0            0.1880498,52.1839117,0            0.1880318,52.1839267,0            0.1879648,52.1839977,0            0.1879358,52.1840167,0            0.1879208,52.1840247,0            0.1877718,52.1841237,0            0.1876828,52.1841777,0            0.1876698,52.1841857,0            0.1876548,52.1841937,0            0.1875038,52.1842607,0            0.1873878,52.1843087,0            0.1873228,52.1843417,0            0.1871848,52.1843867,0            0.1871518,52.1844107,0            0.1870348,52.1844727,0            0.1869888,52.1845627,0            0.1869888,52.1846067,0            0.1869768,52.1846157,0            0.1869758,52.1846467,0            0.1869498,52.1847207,0            0.1868908,52.1848487,0            0.1868078,52.1849087,0            0.1867738,52.1849077,0            0.1866658,52.1848877,0            0.1865298,52.1848607,0            0.1865078,52.1848597,0            0.1863668,52.1848367,0            0.1863618,52.1848227,0            0.1863818,52.1847767,0            0.1863768,52.1847667,0            0.1864338,52.1847457,0            0.1864728,52.1847497,0            0.1866578,52.1847027,0            0.1866648,52.1846287,0            0.1866458,52.1846187,0            0.1864748,52.1845887,0            0.1863178,52.1845607,0            0.1861428,52.1845207,0            0.1859168,52.1844677,0            0.1858878,52.1844567,0            0.1858808,52.1844107,0            0.1859488,52.1842997,0            0.1860718,52.1842177,0            0.1862398,52.1841087,0            0.1863678,52.1839997,0            0.1864128,52.1839547,0            0.1864438,52.1839197,0            0.1864628,52.1838937,0            0.1865718,52.1838007,0            0.1865998,52.1837817,0            0.1867018,52.1836917,0            0.1868588,52.1835527,0            0.1869918,52.1834017,0            0.1870598,52.1833467,0            0.1870778,52.1833447,0            0.1870948,52.1833397,0            0.1871638,52.1832627,0            0.1871638,52.1831527,0            0.1871588,52.1830517,0            0.1871558,52.1830217,0            0.1871808,52.1829887,0            0.1872368,52.1829597,0            0.1872838,52.1829527,0            0.1874908,52.1829317,0            0.1875478,52.1829397,0            0.1876178,52.1829287,0            0.1876408,52.1829287,0            0.1877258,52.1829167,0            0.1877768,52.1829097,0            0.1879128,52.1828677,0            0.1881108,52.1828147,0            0.1881288,52.1828117,0            0.1882248,52.1827927,0            0.1882618,52.1827897,0            0.1882818,52.1827937,0            0.1884708,52.1828417,0            0.1884908,52.1828497,0            0.1885628,52.1828807,0            0.1885828,52.1828857,0            0.1886128,52.1829017,0            0.1886588,52.1829217,0            0.1887128,52.1829387,0            0.1887508,52.1829447,0            0.1887868,52.1829507,0            0.1889308,52.1830067,0            0.1889518,52.1830127,0            0.1889938,52.1830217,0            0.1890328,52.1830317,0            0.1890528,52.1830367,0            0.1891128,52.1830587,0            0.1891378,52.1830707,0            0.1891888,52.1830777,0            0.1891988,52.1830807,0            0.1892078,52.1830867,0            0.1893718,52.1831307,0            0.1895488,52.1831857,0            0.1896518,52.1832377,0            0.1897238,52.1833637,0            0.1898088,52.1834807,0            0.1899808,52.1835267,0            0.1900068,52.1835287,0            0.1900998,52.1835157,0            0.1901098,52.1835097,0            0.1901188,52.1835157,0            0.1901728,52.1835747,0            0.1901908,52.1836607,0            0.1902468,52.1838217,0            0.1903088,52.1839457,0            0.1903708,52.1840257,0            0.1904178,52.1841137,0            0.1904408,52.1841557,0            0.1904528,52.1841737,0            0.1904598,52.1841897,0            0.1905038,52.1842107,0            0.1905268,52.1842377,0            0.1905088,52.1842687,0            0.1904978,52.1842727,0            0.1904348,52.1843087,0            0.1903918,52.1843287,0            0.1903178,52.1843477,0            0.1902938,52.1843477,0            0.1901958,52.1843397,0            0.1901778,52.1843267,0            0.1901728,52.1843167,0            0.1901698,52.1842617,0            0.1901828,52.1842417,0            0.1901848,52.1842357,0            0.1901968,52.1842127,0            0.1902558,52.1841217,0            0.1902588,52.1840457,0            0.1902438,52.1840337,0            0.1901908,52.1839867,0            0.1901188,52.1839447,0            0.1900468,52.1839097,0            0.1899978,52.1838837,0            0.1899098,52.1838427,0            0.1898658,52.1838297,0            0.1896978,52.1838247,0            0.1895398,52.1838287,0            0.1892698,52.1838497,0            0.1892288,52.1838447,0            0.1891908,52.1838177,0            0.1892038,52.1837367,0            0.1892388,52.1836187,0            0.1892658,52.1835277,0            0.1892748,52.1834837,0            0.1892718,52.1833927,0            0.1892638,52.1833797,0            0.1891438,52.1833037,0            0.1890398,52.1832457,0            0.1889638,52.1832147,0            0.1889118,52.1831667,0            0.1888128,52.1831117,0            0.1887418,52.1830507,0            0.1887238,52.1830427,0            0.1885898,52.1829767,0            0.1885258,52.1829317,0            0.1884428,52.1829177,0            0.1884118,52.1829237,0            0.1883228,52.1829567,0            0.1882878,52.1829817,0            0.1881768,52.1831007,0            0.1881428,52.1831507,0            0.1880978,52.1831847,0            0.1881478,52.1833697,0            0.1881678,52.1834417,0            0.1881778,52.1834887,0            0.1881728,52.1835847,0            0.1881228,52.1836817,0            0.1880688,52.1838007,0            0.1879988,52.1839277,0            0.1879268,52.1840127,0            0.1878848,52.1840617,0            0.1877188,52.1842017,0            0.1876538,52.1842257,0            0.1875438,52.1842617,0            0.1874088,52.1843097,0            0.1873878,52.1843237,0            0.1873718,52.1843347,0            0.1872438,52.1843717,0            0.1870928,52.1844167,0            0.1870318,52.1844407,0            0.1870028,52.1844617,0            0.1870168,52.1845047,0            0.1870138,52.1845067,0            0.1870158,52.1845127,0            0.1870038,52.1845417,0            0.1870068,52.1845737,0            0.1870018,52.1847017,0            0.1869818,52.1847477,0            0.1869778,52.1847787,0            0.1869408,52.1848347,0            0.1869188,52.1848637,0            0.1868108,52.1849477,0            0.1867918,52.1849457,0            0.1866978,52.1849197,0            0.1864998,52.1848697,0            0.1863658,52.1848527,0            0.1863478,52.1848377,0            0.1863438,52.1848197,0            0.1863818,52.1847757,0            0.1864108,52.1847587,0            0.1864938,52.1847557,0            0.1866418,52.1847517,0            0.1866828,52.1846577,0            0.1866558,52.1846367,0            0.1866038,52.1846207,0            0.1865678,52.1846117,0            0.1865468,52.1846087,0            0.1864988,52.1846087,0            0.1864748,52.1846077,0            0.1863278,52.1845817,0            0.1861068,52.1845357,0            0.1858958,52.1844557,0            0.1858718,52.1843667,0            0.1859898,52.1842557,0            0.1860368,52.1842097,0            0.1860918,52.1841557,0            0.1862148,52.1840837,0            0.1863238,52.1839827,0            0.1863358,52.1839757,0            0.1863548,52.1839667,0            0.1864918,52.1838557,0            0.1866598,52.1837247,0            0.1868048,52.1836097,0            0.1868898,52.1835187,0            0.1869638,52.1834467,0            0.1870298,52.1833677,0            0.1870608,52.1833487,0            0.1871598,52.1832747,0            0.1871648,52.1832617,0            0.1871698,52.1831577,0            0.1871768,52.1831067,0            0.1871938,52.1830497,0            0.1872288,52.1829917,0            0.1872808,52.1829587,0            0.1874538,52.1829607,0            0.1875038,52.1829697,0            0.1876098,52.1829747,0            0.1878048,52.1829327,0            0.1879358,52.1828827,0            0.1879548,52.1828767,0            0.1880308,52.1828547,0            0.1880448,52.1828417,0            0.1880848,52.1828247,0            0.1881568,52.1828027,0            0.1882378,52.1827837,0            0.1883868,52.1828087,0            0.1885348,52.1828437,0            0.1886708,52.1828777,0            0.1888608,52.1829307,0            0.1890328,52.1829837,0            0.1891488,52.1830027,0            0.1891738,52.1830087,0            0.1891998,52.1830147,0            0.1892728,52.1830487,0            0.1894888,52.1831137,0            0.1896358,52.1831767,0            0.1896698,52.1832477,0            0.1897028,52.1833757,0            0.1897468,52.1834347,0            0.1897848,52.1834527,0            0.1898078,52.1834587,0            0.1899508,52.1834787,0            0.1900608,52.1834647,0            0.1900938,52.1834767,0            0.1901748,52.1836027,0            0.1901858,52.1836377,0            0.1902198,52.1837117,0            0.1902218,52.1837387,0            0.1902638,52.1838557,0            0.1903438,52.1839917,0            0.1903688,52.1840547,0            0.1904058,52.1841187,0            0.1904348,52.1841537,0            0.1904578,52.1841717,0            0.1904868,52.1842157,0            0.1904868,52.1842257,0            0.1904678,52.1842927,0            0.1903728,52.1843487,0            0.1903548,52.1843507,0            0.1902258,52.1843497,0            0.1901508,52.1843317,0            0.1901518,52.1842907,0            0.1902278,52.1842067,0            0.1902428,52.1841827,0            0.1902408,52.1841737,0            0.1902898,52.1841457,0            0.1903078,52.1841187,0            0.1902858,52.1840217,0            0.1901398,52.1839187,0            0.1899818,52.1838317,0            0.1899248,52.1838117,0            0.1898018,52.1837977,0            0.1897348,52.1837947,0            0.1895908,52.1837947,0            0.1894458,52.1838057,0            0.1893458,52.1838177,0            0.1891938,52.1837807,0            0.1892178,52.1836727,0            0.1892688,52.1835667,0            0.1892698,52.1835457,0            0.1892628,52.1834847,0            0.1892698,52.1833677,0            0.1892058,52.1832837,0            0.1891798,52.1832677,0            0.1891428,52.1832427,0            0.1889828,52.1831747,0            0.1888158,52.1830937,0            0.1887458,52.1830607,0            0.1886988,52.1830347,0            0.1885398,52.1829577,0            0.1884798,52.1829227,0            0.1884178,52.1829227,0            0.1884048,52.1829267,0            0.1883398,52.1829497,0            0.1882548,52.1830277,0            0.1881828,52.1831467,0            0.1881588,52.1833137,0            0.1881588,52.1833347,0            0.1881878,52.1834027,0            0.1882188,52.1835557,0            0.1881798,52.1836867,0            0.1881228,52.1838217,0            0.1880318,52.1839777,0            0.1878808,52.1841077,0            0.1877578,52.1842017,0            0.1876728,52.1842497,0            0.1876058,52.1842697,0            0.1874088,52.1843487,0            0.1871488,52.1844287,0            0.1870388,52.1844887,0            0.1870288,52.1845257,0            0.1870118,52.1845737,0            0.1870268,52.1846577,0            0.1870298,52.1846597,0            0.1870238,52.1846617,0            0.1870228,52.1847017,0            0.1870108,52.1847477,0            0.1869968,52.1847897,0            0.1869048,52.1848857,0            0.1868718,52.1849057,0            0.1868128,52.1848917,0            0.1866048,52.1848787,0            0.1864528,52.1848577,0            0.1863608,52.1848307,0            0.1863558,52.1848177,0            0.1864048,52.1847347,0            0.1865178,52.1847417,0            0.1865438,52.1847487,0            0.1866828,52.1847037,0            0.1867018,52.1846497,0            0.1866848,52.1846377,0            0.1865268,52.1846017,0            0.1863378,52.1845677,0            0.1860888,52.1844907,0            0.1859808,52.1844547,0            0.1859598,52.1844337,0            0.1859598,52.1843457,0            0.1860468,52.1842447,0            0.1861738,52.1841487,0            0.1863148,52.1840197,0            0.1863338,52.1840057,0            0.1864398,52.1839087,0            0.1864538,52.1839017,0            0.1864928,52.1838667,0            0.1865618,52.1837967,0            0.1866648,52.1837047,0            0.1867358,52.1836387,0            0.1868058,52.1835747,0            0.1869578,52.1834337,0            0.1870768,52.1833217,0            0.1871778,52.1832677,0            0.1871748,52.1832607,0            0.1871698,52.1832347,0            0.1871548,52.1831257,0            0.1871678,52.1830687,0            0.1872018,52.1830237,0            0.1872288,52.1829857,0            0.1872908,52.1829667,0            0.1873518,52.1829647,0            0.1874278,52.1829487,0            0.1874468,52.1829407,0            0.1874738,52.1829377,0            0.1875428,52.1829407,0            0.1877328,52.1829197,0            0.1879068,52.1828837,0            0.1880988,52.1828297,0            0.1882118,52.1827977,0            0.1882718,52.1827967,0            0.1884808,52.1828337,0            0.1886578,52.1828767,0            0.1887498,52.1828957,0            0.1888748,52.1829277,0            0.1891128,52.1830227,0            0.1891358,52.1830257,0            0.1891838,52.1830417,0            0.1892348,52.1830567,0            0.1892518,52.1830567,0            0.1893138,52.1830777,0            0.1893688,52.1830937,0            0.1894868,52.1831447,0            0.1895968,52.1831817,0            0.1896118,52.1831897,0            0.1896198,52.1832017,0            0.1896598,52.1832737,0            0.1897038,52.1833817,0            0.1898038,52.1835017,0            0.1898268,52.1835057,0            0.1899538,52.1835127,0            0.1900618,52.1835107,0            0.1900728,52.1835197,0            0.1901458,52.1836467,0            0.1901918,52.1837317,0            0.1902248,52.1837867,0            0.1902678,52.1839117,0            0.1902868,52.1839467,0            0.1903098,52.1839817,0            0.1903648,52.1840857,0            0.1904398,52.1841727,0            0.1904528,52.1841937,0            0.1904658,52.1842647,0            0.1904018,52.1843057,0            0.1903938,52.1843097,0            0.1903638,52.1843217,0            0.1902248,52.1843397,0            0.1901578,52.1843407,0            0.1901498,52.1843397,0            0.1901578,52.1842677,0            0.1902298,52.1842037,0            0.1902698,52.1841547,0            0.1902848,52.1840987,0            0.1902748,52.1840527,0            0.1902138,52.1839967,0            0.1901398,52.1839477,0            0.1899378,52.1838567,0            0.1896738,52.1838377,0            0.1895018,52.1838427,0            0.1893068,52.1838457,0            0.1892718,52.1838367,0            0.1892228,52.1837787,0            0.1892628,52.1836607,0            0.1892868,52.1835517,0            0.1892868,52.1835377,0            0.1892978,52.1834147,0            0.1892898,52.1833647,0            0.1892848,52.1833477,0            0.1892458,52.1833147,0            0.1891718,52.1832837,0            0.1891278,52.1832557,0            0.1890898,52.1832377,0            0.1889458,52.1831457,0            0.1887318,52.1830387,0            0.1885998,52.1829927,0            0.1885648,52.1829667,0            0.1885328,52.1829397,0            0.1885238,52.1829307,0            0.1885278,52.1829337,0            0.1884728,52.1829297,0            0.1884608,52.1829417,0            0.1883918,52.1829637,0            0.1882978,52.1830097,0            0.1882018,52.1831167,0            0.1881538,52.1832487,0            0.1882058,52.1833917,0            0.1882318,52.1835787,0            0.1881868,52.1837387,0            0.1881138,52.1838697,0            0.1880718,52.1839427,0            0.1880488,52.1839797,0            0.1880108,52.1840037,0            0.1878828,52.1841037,0            0.1878628,52.1841147,0            0.1876478,52.1842307,0            0.1875238,52.1842947,0            0.1874078,52.1843427,0            0.1873838,52.1843517,0            0.1872368,52.1844077,0            0.1870888,52.1844537,0            0.1870638,52.1844737,0            0.1870568,52.1844847,0            0.1870428,52.1845227,0            0.1870308,52.1846597,0            0.1870268,52.1846577,0            0.1870248,52.1846557,0            0.1870318,52.1846557,0            0.1870268,52.1846577,0            0.1870201,52.1846317,0            0.1870201,52.1846224,0            0.1870162,52.184612,0            0.1870518,52.1846187,0            0.1870098,52.1846397,0            0.1869718,52.1847347,0            0.1869458,52.1847747,0            0.1869388,52.1847877,0            0.1868588,52.1849047,0            0.1868388,52.1849057,0            0.1866878,52.1848837,0            0.1864828,52.1848527,0            0.1863448,52.1848277,0            0.1863388,52.1848197,0            0.1863378,52.1848087,0            0.1863418,52.1847937,0            0.1863578,52.1847687,0            0.1863968,52.1847407,0            0.1864348,52.1847467,0            0.1866278,52.1847287,0            0.1866478,52.1847047,0            0.1866368,52.1846637,0            0.1866218,52.1846537,0            0.1865778,52.1846377,0            0.1865408,52.1846237,0            0.1863788,52.1845837,0            0.1861948,52.1845517,0            0.1860398,52.1845167,0            0.1860208,52.1845107,0            0.1859658,52.1844837,0            0.1858868,52.1844507,0            0.1858768,52.1843527,0            0.1859678,52.1842657,0            0.1860898,52.1841567,0            0.1861108,52.1841477,0            0.1861568,52.1841207,0            0.1862268,52.1840737,0            0.1863358,52.1839957,0            0.1864878,52.1838647,0            0.1865508,52.1838087,0          </coordinates></LineString></Placemark><Placemark><name>Start</name><styleUrl>#icon-1899-0F9D58-nodesc</styleUrl><Point><coordinates>            0.186522,52.183821,0          </coordinates></Point></Placemark><Placemark><name>Finish</name><styleUrl>#icon-1899-FF5252-nodesc</styleUrl><Point><coordinates>            0.1871273,52.1846177,0          </coordinates></Point></Placemark></Folder></Document></kml>