<?xml version="1.0" encoding="UTF-8"?><kml xmlns="http://www.opengis.net/kml/2.2"><Document><name>Ganavan Sands parkrun</name><description/><Style id="icon-503-009D57-nodesc-normal"><IconStyle><color>ff579d00</color><scale>1.1</scale><Icon><href>https://www.gstatic.com/mapspro/images/stock/503-wht-blank_maps.png</href></Icon><hotSpot x="16" xunits="pixels" y="32" yunits="insetPixels"/></IconStyle><LabelStyle><scale>0</scale></LabelStyle><BalloonStyle><text><![CDATA[<h3>$[name]</h3>]]></text></BalloonStyle></Style><Style id="icon-503-009D57-nodesc-highlight"><IconStyle><color>ff579d00</color><scale>1.1</scale><Icon><href>https://www.gstatic.com/mapspro/images/stock/503-wht-blank_maps.png</href></Icon><hotSpot x="16" xunits="pixels" y="32" yunits="insetPixels"/></IconStyle><LabelStyle><scale>1.1</scale></LabelStyle><BalloonStyle><text><![CDATA[<h3>$[name]</h3>]]></text></BalloonStyle></Style><StyleMap id="icon-503-009D57-nodesc"><Pair><key>normal</key><styleUrl>#icon-503-009D57-nodesc-normal</styleUrl></Pair><Pair><key>highlight</key><styleUrl>#icon-503-009D57-nodesc-highlight</styleUrl></Pair></StyleMap><Style id="icon-503-4186F0-nodesc-normal"><IconStyle><color>fff08641</color><scale>1.1</scale><Icon><href>https://www.gstatic.com/mapspro/images/stock/503-wht-blank_maps.png</href></Icon><hotSpot x="16" xunits="pixels" y="32" yunits="insetPixels"/></IconStyle><LabelStyle><scale>0</scale></LabelStyle><BalloonStyle><text><![CDATA[<h3>$[name]</h3>]]></text></BalloonStyle></Style><Style id="icon-503-4186F0-nodesc-highlight"><IconStyle><color>fff08641</color><scale>1.1</scale><Icon><href>https://www.gstatic.com/mapspro/images/stock/503-wht-blank_maps.png</href></Icon><hotSpot x="16" xunits="pixels" y="32" yunits="insetPixels"/></IconStyle><LabelStyle><scale>1.1</scale></LabelStyle><BalloonStyle><text><![CDATA[<h3>$[name]</h3>]]></text></BalloonStyle></Style><StyleMap id="icon-503-4186F0-nodesc"><Pair><key>normal</key><styleUrl>#icon-503-4186F0-nodesc-normal</styleUrl></Pair><Pair><key>highlight</key><styleUrl>#icon-503-4186F0-nodesc-highlight</styleUrl></Pair></StyleMap><Style id="icon-503-DB4436-nodesc-normal"><IconStyle><color>ff3644db</color><scale>1.1</scale><Icon><href>https://www.gstatic.com/mapspro/images/stock/503-wht-blank_maps.png</href></Icon><hotSpot x="16" xunits="pixels" y="32" yunits="insetPixels"/></IconStyle><LabelStyle><scale>0</scale></LabelStyle><BalloonStyle><text><![CDATA[<h3>$[name]</h3>]]></text></BalloonStyle></Style><Style id="icon-503-DB4436-nodesc-highlight"><IconStyle><color>ff3644db</color><scale>1.1</scale><Icon><href>https://www.gstatic.com/mapspro/images/stock/503-wht-blank_maps.png</href></Icon><hotSpot x="16" xunits="pixels" y="32" yunits="insetPixels"/></IconStyle><LabelStyle><scale>1.1</scale></LabelStyle><BalloonStyle><text><![CDATA[<h3>$[name]</h3>]]></text></BalloonStyle></Style><StyleMap id="icon-503-DB4436-nodesc"><Pair><key>normal</key><styleUrl>#icon-503-DB4436-nodesc-normal</styleUrl></Pair><Pair><key>highlight</key><styleUrl>#icon-503-DB4436-nodesc-highlight</styleUrl></Pair></StyleMap><Style id="line-4186F0-4314-nodesc-normal"><LineStyle><color>fff08641</color><width>4.314</width></LineStyle><BalloonStyle><text><![CDATA[<h3>$[name]</h3>]]></text></BalloonStyle></Style><Style id="line-4186F0-4314-nodesc-highlight"><LineStyle><color>fff08641</color><width>6.471</width></LineStyle><BalloonStyle><text><![CDATA[<h3>$[name]</h3>]]></text></BalloonStyle></Style><StyleMap id="line-4186F0-4314-nodesc"><Pair><key>normal</key><styleUrl>#line-4186F0-4314-nodesc-normal</styleUrl></Pair><Pair><key>highlight</key><styleUrl>#line-4186F0-4314-nodesc-highlight</styleUrl></Pair></StyleMap><Folder><name>Untitled layer</name><Placemark><name>Course</name><styleUrl>#line-4186F0-4314-nodesc</styleUrl><LineString><tessellate>1</tessellate><coordinates>            -5.468981,56.437777,0            -5.468445,56.437658,0            -5.467994,56.437563,0            -5.467586,56.437468,0            -5.467286,56.437326,0            -5.466857,56.437207,0            -5.466299,56.437207,0            -5.465591,56.437172,0            -5.464776,56.437136,0            -5.464346,56.437029,0            -5.464218,56.436851,0            -5.46381,56.436816,0            -5.463424,56.436792,0            -5.46308,56.436673,0            -5.462716,56.436567,0            -5.46248,56.436804,0            -5.462308,56.437065,0            -5.461707,56.437385,0            -5.461214,56.437682,0            -5.461106,56.43786,0            -5.461192,56.438334,0            -5.461192,56.438631,0            -5.460742,56.438951,0            -5.460184,56.439164,0            -5.459733,56.439259,0            -5.458939,56.439248,0            -5.458274,56.439485,0            -5.457673,56.439888,0            -5.457265,56.440066,0            -5.457201,56.440422,0            -5.45615,56.440861,0            -5.455227,56.441359,0            -5.454497,56.441644,0            -5.453896,56.441952,0            -5.453596,56.442071,0            -5.45321,56.441762,0            -5.45291,56.441454,0            -5.452588,56.441383,0            -5.452223,56.441169,0            -5.451665,56.441015,0            -5.45115,56.441062,0            -5.450742,56.441312,0            -5.450463,56.44162,0            -5.450378,56.442035,0            -5.45042,56.442498,0            -5.449948,56.442877,0            -5.449455,56.443269,0            -5.449219,56.443553,0            -5.448704,56.443719,0            -5.44836,56.443897,0          </coordinates></LineString></Placemark><Placemark><name>Finish</name><styleUrl>#icon-503-DB4436-nodesc</styleUrl><Point><coordinates>            -5.468681,56.437741,0          </coordinates></Point></Placemark><Placemark><name>Start</name><styleUrl>#icon-503-009D57-nodesc</styleUrl><Point><coordinates>            -5.468981,56.437777,0          </coordinates></Point></Placemark><Placemark><name>Turn 1</name><styleUrl>#icon-503-4186F0-nodesc</styleUrl><Point><coordinates>            -5.44836,56.443897,0          </coordinates></Point></Placemark><Placemark><name>Turn 2</name><styleUrl>#icon-503-4186F0-nodesc</styleUrl><Point><coordinates>            -5.462737,56.436626,0          </coordinates></Point></Placemark><Placemark><name>Turn 3</name><styleUrl>#icon-503-4186F0-nodesc</styleUrl><Point><coordinates>            -5.457458,56.440054,0          </coordinates></Point></Placemark></Folder></Document></kml>