<?xml version="1.0" encoding="UTF-8"?><kml xmlns="http://www.opengis.net/kml/2.2"><Document><name>Gladstone parkrun (April 2024)</name><description/><Style id="icon-1899-0F9D58-nodesc-normal"><IconStyle><color>ff589d0f</color><scale>1</scale><Icon><href>https://www.gstatic.com/mapspro/images/stock/503-wht-blank_maps.png</href></Icon><hotSpot x="32" xunits="pixels" y="64" yunits="insetPixels"/></IconStyle><LabelStyle><scale>0</scale></LabelStyle><BalloonStyle><text><![CDATA[<h3>$[name]</h3>]]></text></BalloonStyle></Style><Style id="icon-1899-0F9D58-nodesc-highlight"><IconStyle><color>ff589d0f</color><scale>1</scale><Icon><href>https://www.gstatic.com/mapspro/images/stock/503-wht-blank_maps.png</href></Icon><hotSpot x="32" xunits="pixels" y="64" yunits="insetPixels"/></IconStyle><LabelStyle><scale>1</scale></LabelStyle><BalloonStyle><text><![CDATA[<h3>$[name]</h3>]]></text></BalloonStyle></Style><StyleMap id="icon-1899-0F9D58-nodesc"><Pair><key>normal</key><styleUrl>#icon-1899-0F9D58-nodesc-normal</styleUrl></Pair><Pair><key>highlight</key><styleUrl>#icon-1899-0F9D58-nodesc-highlight</styleUrl></Pair></StyleMap><Style id="icon-1899-FF5252-nodesc-normal"><IconStyle><color>ff5252ff</color><scale>1</scale><Icon><href>https://www.gstatic.com/mapspro/images/stock/503-wht-blank_maps.png</href></Icon><hotSpot x="32" xunits="pixels" y="64" yunits="insetPixels"/></IconStyle><LabelStyle><scale>0</scale></LabelStyle><BalloonStyle><text><![CDATA[<h3>$[name]</h3>]]></text></BalloonStyle></Style><Style id="icon-1899-FF5252-nodesc-highlight"><IconStyle><color>ff5252ff</color><scale>1</scale><Icon><href>https://www.gstatic.com/mapspro/images/stock/503-wht-blank_maps.png</href></Icon><hotSpot x="32" xunits="pixels" y="64" yunits="insetPixels"/></IconStyle><LabelStyle><scale>1</scale></LabelStyle><BalloonStyle><text><![CDATA[<h3>$[name]</h3>]]></text></BalloonStyle></Style><StyleMap id="icon-1899-FF5252-nodesc"><Pair><key>normal</key><styleUrl>#icon-1899-FF5252-nodesc-normal</styleUrl></Pair><Pair><key>highlight</key><styleUrl>#icon-1899-FF5252-nodesc-highlight</styleUrl></Pair></StyleMap><Style id="line-0288D1-3519-nodesc-normal"><LineStyle><color>ffd18802</color><width>3.519</width></LineStyle><BalloonStyle><text><![CDATA[<h3>$[name]</h3>]]></text></BalloonStyle></Style><Style id="line-0288D1-3519-nodesc-highlight"><LineStyle><color>ffd18802</color><width>5.2785</width></LineStyle><BalloonStyle><text><![CDATA[<h3>$[name]</h3>]]></text></BalloonStyle></Style><StyleMap id="line-0288D1-3519-nodesc"><Pair><key>normal</key><styleUrl>#line-0288D1-3519-nodesc-normal</styleUrl></Pair><Pair><key>highlight</key><styleUrl>#line-0288D1-3519-nodesc-highlight</styleUrl></Pair></StyleMap><Style id="line-0288D1-3713-nodesc-normal"><LineStyle><color>ffd18802</color><width>3.713</width></LineStyle><BalloonStyle><text><![CDATA[<h3>$[name]</h3>]]></text></BalloonStyle></Style><Style id="line-0288D1-3713-nodesc-highlight"><LineStyle><color>ffd18802</color><width>5.5695</width></LineStyle><BalloonStyle><text><![CDATA[<h3>$[name]</h3>]]></text></BalloonStyle></Style><StyleMap id="line-0288D1-3713-nodesc"><Pair><key>normal</key><styleUrl>#line-0288D1-3713-nodesc-normal</styleUrl></Pair><Pair><key>highlight</key><styleUrl>#line-0288D1-3713-nodesc-highlight</styleUrl></Pair></StyleMap><Style id="line-0288D1-4100-nodesc-normal"><LineStyle><color>ffd18802</color><width>4.1</width></LineStyle><BalloonStyle><text><![CDATA[<h3>$[name]</h3>]]></text></BalloonStyle></Style><Style id="line-0288D1-4100-nodesc-highlight"><LineStyle><color>ffd18802</color><width>6.15</width></LineStyle><BalloonStyle><text><![CDATA[<h3>$[name]</h3>]]></text></BalloonStyle></Style><StyleMap id="line-0288D1-4100-nodesc"><Pair><key>normal</key><styleUrl>#line-0288D1-4100-nodesc-normal</styleUrl></Pair><Pair><key>highlight</key><styleUrl>#line-0288D1-4100-nodesc-highlight</styleUrl></Pair></StyleMap><Folder><name>Gladstone parkrun</name><Placemark><name>Course</name><styleUrl>#line-0288D1-3519-nodesc</styleUrl><LineString><tessellate>1</tessellate><coordinates>            -0.23101,51.555992,0            -0.229868,51.555708,0          </coordinates></LineString></Placemark><Placemark><name>Finish</name><styleUrl>#icon-1899-FF5252-nodesc</styleUrl><Point><coordinates>            -0.229868,51.555708,0          </coordinates></Point></Placemark></Folder><Folder><name>Directions from Gladstone Park, South, 91 Kendal Rd, London NW10 1JE, UK to 9 Kendal Rd, London NW10 1JH, UK</name><Placemark><name>Course</name><styleUrl>#line-0288D1-3713-nodesc</styleUrl><LineString><tessellate>1</tessellate><coordinates>            -0.23098,51.55581,0            -0.23099,51.55585,0            -0.231,51.55587,0            -0.23101,51.5559,0            -0.23101,51.55594,0            -0.23101,51.55596,0            -0.23101,51.556,0            -0.231,51.55603,0            -0.23099,51.55605,0            -0.23092,51.55618,0            -0.2309,51.55619,0            -0.23082,51.55631,0            -0.23071,51.55645,0            -0.23069,51.55648,0            -0.23066,51.55653,0            -0.23063,51.55657,0            -0.23061,51.55661,0            -0.2306,51.55665,0            -0.23059,51.55669,0            -0.23058,51.55674,0            -0.23058,51.55679,0            -0.23059,51.55684,0            -0.2306,51.55686,0            -0.23061,51.5569,0            -0.23065,51.55695,0            -0.23072,51.55701,0            -0.23082,51.5571,0            -0.23094,51.5572,0            -0.23099,51.55724,0            -0.23122,51.55744,0            -0.23134,51.55753,0            -0.23141,51.55758,0            -0.23149,51.55763,0            -0.23152,51.55763,0            -0.23153,51.55763,0            -0.23156,51.55763,0            -0.23157,51.55763,0            -0.23158,51.55764,0            -0.23159,51.55765,0            -0.23162,51.55766,0            -0.23168,51.55768,0            -0.23174,51.5577,0            -0.23176,51.55771,0            -0.23186,51.55774,0            -0.2319,51.55774,0            -0.23195,51.55775,0            -0.23213,51.55789,0            -0.23231,51.55803,0            -0.23249,51.55818,0            -0.23263,51.55829,0            -0.23266,51.55832,0            -0.23284,51.55846,0            -0.23302,51.5586,0            -0.23356,51.55901,0            -0.23373,51.55916,0            -0.23381,51.55923,0            -0.2339,51.5593,0            -0.23395,51.55934,0            -0.23404,51.55939,0            -0.23411,51.55942,0            -0.23415,51.55944,0            -0.23433,51.55949,0            -0.23437,51.5595,0            -0.23443,51.55952,0            -0.2346,51.55955,0            -0.23465,51.55955,0            -0.23483,51.55957,0            -0.23494,51.55958,0            -0.2351,51.55959,0            -0.23522,51.55959,0            -0.23531,51.5596,0            -0.23531,51.55957,0            -0.23531,51.55942,0            -0.23531,51.55937,0            -0.23531,51.5593,0            -0.23531,51.55924,0            -0.2353,51.55912,0            -0.2353,51.55906,0            -0.23529,51.55896,0            -0.2353,51.55888,0            -0.23531,51.55871,0            -0.23532,51.5586,0            -0.23533,51.55853,0            -0.23533,51.55852,0            -0.2354,51.55836,0            -0.23552,51.55822,0            -0.23555,51.55819,0            -0.23564,51.55811,0            -0.23572,51.55805,0            -0.23583,51.55797,0            -0.23602,51.55798,0            -0.23631,51.558,0            -0.23643,51.558,0            -0.23717,51.55804,0            -0.23736,51.55805,0            -0.23746,51.55806,0            -0.23775,51.55808,0            -0.23796,51.5581,0            -0.23832,51.55814,0            -0.23856,51.55817,0            -0.23867,51.55818,0            -0.2387,51.55818,0            -0.23876,51.55819,0            -0.23884,51.55821,0            -0.23896,51.55824,0            -0.23897,51.55824,0            -0.23907,51.55828,0            -0.2391,51.55829,0            -0.23918,51.55832,0            -0.23921,51.55834,0            -0.23934,51.55839,0            -0.23936,51.5584,0            -0.2395,51.55846,0            -0.23959,51.55849,0            -0.2397,51.55852,0            -0.2398,51.55856,0            -0.23983,51.55858,0            -0.23986,51.5586,0            -0.23992,51.55864,0            -0.23999,51.5587,0            -0.24009,51.55878,0            -0.24015,51.55884,0            -0.24026,51.55895,0            -0.2404,51.55904,0            -0.24042,51.55906,0            -0.24048,51.55909,0            -0.24057,51.55913,0            -0.24065,51.55918,0            -0.24069,51.55921,0            -0.24074,51.55923,0            -0.24086,51.55931,0            -0.24089,51.55933,0            -0.24098,51.55939,0            -0.24106,51.55944,0            -0.2411,51.55946,0            -0.24123,51.55954,0            -0.2413,51.55959,0            -0.24135,51.55963,0            -0.24146,51.55971,0            -0.24166,51.55967,0            -0.24181,51.55962,0            -0.24198,51.55952,0            -0.24222,51.5594,0            -0.24229,51.55943,0            -0.2423,51.55941,0            -0.24231,51.5594,0            -0.24232,51.55939,0            -0.24233,51.55937,0            -0.24234,51.55936,0            -0.24235,51.55935,0            -0.24235,51.55934,0            -0.24238,51.55926,0            -0.24238,51.55923,0            -0.24239,51.55917,0            -0.2424,51.55905,0            -0.24241,51.55904,0            -0.24241,51.55899,0            -0.24241,51.55894,0            -0.24242,51.55887,0            -0.24242,51.55881,0            -0.24243,51.55869,0            -0.24243,51.55868,0            -0.24244,51.55863,0            -0.24244,51.55853,0            -0.24244,51.55851,0            -0.24244,51.55845,0            -0.24245,51.55834,0            -0.24245,51.55833,0            -0.24245,51.55827,0            -0.24245,51.55815,0            -0.24245,51.55806,0            -0.24245,51.55797,0            -0.24245,51.55773,0            -0.24245,51.5577,0            -0.24245,51.55761,0            -0.24245,51.55755,0            -0.24245,51.55743,0            -0.24245,51.55741,0            -0.24244,51.55725,0            -0.24244,51.55693,0            -0.24244,51.55689,0            -0.24244,51.55683,0            -0.24244,51.55673,0            -0.24241,51.55673,0            -0.24241,51.55667,0            -0.24239,51.5566,0            -0.24235,51.55654,0            -0.24232,51.55653,0            -0.24225,51.55651,0            -0.24216,51.5565,0            -0.24206,51.5565,0            -0.24188,51.55649,0            -0.24174,51.55646,0            -0.24159,51.55643,0            -0.24149,51.55641,0            -0.24135,51.5564,0            -0.24117,51.55638,0            -0.24109,51.55636,0            -0.24098,51.55634,0            -0.24092,51.55633,0            -0.24075,51.55631,0            -0.24059,51.5563,0            -0.24041,51.55628,0            -0.24024,51.55626,0            -0.24011,51.55624,0            -0.24004,51.55618,0            -0.23991,51.55614,0            -0.23985,51.55613,0            -0.23979,51.55612,0            -0.23965,51.55611,0            -0.23949,51.5561,0            -0.23933,51.55609,0            -0.2392,51.5561,0            -0.23916,51.5561,0            -0.23895,51.55613,0            -0.23892,51.55613,0            -0.23864,51.55616,0            -0.23863,51.55617,0            -0.23835,51.55621,0            -0.23822,51.55623,0            -0.2381,51.55625,0            -0.23807,51.55626,0            -0.23804,51.55626,0          </coordinates></LineString></Placemark><Placemark><name>Start</name><styleUrl>#icon-1899-0F9D58-nodesc</styleUrl><Point><coordinates>            -0.230982,51.555808,0          </coordinates></Point></Placemark></Folder><Folder><name>Directions from 9 Kendal Rd, London NW10 1JH, UK to Gladstone Park, South, 91 Kendal Rd, London NW10 1JE, UK</name><Placemark><name>Course</name><styleUrl>#line-0288D1-4100-nodesc</styleUrl><LineString><tessellate>1</tessellate><coordinates>            -0.23803,51.55628,0            -0.23799,51.5563,0            -0.23795,51.55632,0            -0.23789,51.55638,0            -0.23788,51.55639,0            -0.23773,51.55654,0            -0.23769,51.55659,0            -0.23759,51.55668,0            -0.23757,51.55669,0            -0.23748,51.55679,0            -0.23741,51.55684,0            -0.23738,51.55686,0            -0.23724,51.55695,0            -0.23721,51.55697,0            -0.23705,51.55708,0            -0.2368,51.55723,0            -0.23666,51.55732,0            -0.23662,51.55735,0            -0.23645,51.55746,0            -0.23627,51.55759,0            -0.23622,51.55763,0            -0.23614,51.55769,0            -0.23602,51.55779,0            -0.23593,51.55788,0            -0.23583,51.55797,0            -0.23569,51.55796,0            -0.23549,51.55795,0            -0.2354,51.55794,0            -0.23511,51.55792,0            -0.23482,51.5579,0            -0.23453,51.55788,0            -0.23439,51.55787,0            -0.23425,51.55787,0            -0.23404,51.55785,0            -0.23396,51.55785,0            -0.23382,51.55783,0            -0.23374,51.55783,0            -0.23367,51.55782,0            -0.23351,51.5578,0            -0.23339,51.55778,0            -0.23338,51.55778,0            -0.23326,51.55776,0            -0.23313,51.55775,0            -0.23311,51.55775,0            -0.23296,51.55775,0            -0.23292,51.55775,0            -0.23282,51.55776,0            -0.23275,51.55776,0            -0.23255,51.55777,0            -0.23253,51.55777,0            -0.23224,51.55777,0            -0.23215,51.55776,0            -0.23198,51.55775,0            -0.2319,51.55774,0            -0.23186,51.55774,0            -0.23176,51.55771,0            -0.23174,51.5577,0            -0.23168,51.55768,0            -0.23162,51.55766,0            -0.23159,51.55765,0            -0.23158,51.55764,0            -0.23157,51.55763,0            -0.23156,51.55763,0            -0.23153,51.55763,0            -0.23152,51.55763,0            -0.23149,51.55763,0            -0.23141,51.55758,0            -0.23134,51.55753,0            -0.23122,51.55744,0            -0.23099,51.55724,0            -0.23094,51.5572,0            -0.23082,51.5571,0            -0.23072,51.55701,0            -0.23065,51.55695,0            -0.23061,51.5569,0            -0.2306,51.55686,0            -0.23059,51.55684,0            -0.23058,51.55679,0            -0.23058,51.55674,0            -0.23059,51.55669,0            -0.2306,51.55665,0            -0.23061,51.55661,0            -0.23063,51.55657,0            -0.23066,51.55653,0            -0.23069,51.55648,0            -0.23071,51.55645,0            -0.23082,51.55631,0            -0.2309,51.55619,0            -0.23092,51.55618,0            -0.23097,51.55608,0          </coordinates></LineString></Placemark></Folder></Document></kml>