<?xml version="1.0" encoding="UTF-8"?><kml xmlns="http://www.opengis.net/kml/2.2"><Document><name>Gloucester City parkrun</name><description/><Style id="icon-1899-0F9D58-nodesc-normal"><IconStyle><color>ff589d0f</color><scale>1</scale><Icon><href>https://www.gstatic.com/mapspro/images/stock/503-wht-blank_maps.png</href></Icon><hotSpot x="32" xunits="pixels" y="64" yunits="insetPixels"/></IconStyle><LabelStyle><scale>0</scale></LabelStyle><BalloonStyle><text><![CDATA[<h3>$[name]</h3>]]></text></BalloonStyle></Style><Style id="icon-1899-0F9D58-nodesc-highlight"><IconStyle><color>ff589d0f</color><scale>1</scale><Icon><href>https://www.gstatic.com/mapspro/images/stock/503-wht-blank_maps.png</href></Icon><hotSpot x="32" xunits="pixels" y="64" yunits="insetPixels"/></IconStyle><LabelStyle><scale>1</scale></LabelStyle><BalloonStyle><text><![CDATA[<h3>$[name]</h3>]]></text></BalloonStyle></Style><StyleMap id="icon-1899-0F9D58-nodesc"><Pair><key>normal</key><styleUrl>#icon-1899-0F9D58-nodesc-normal</styleUrl></Pair><Pair><key>highlight</key><styleUrl>#icon-1899-0F9D58-nodesc-highlight</styleUrl></Pair></StyleMap><Style id="icon-1899-FF5252-nodesc-normal"><IconStyle><color>ff5252ff</color><scale>1</scale><Icon><href>https://www.gstatic.com/mapspro/images/stock/503-wht-blank_maps.png</href></Icon><hotSpot x="32" xunits="pixels" y="64" yunits="insetPixels"/></IconStyle><LabelStyle><scale>0</scale></LabelStyle><BalloonStyle><text><![CDATA[<h3>$[name]</h3>]]></text></BalloonStyle></Style><Style id="icon-1899-FF5252-nodesc-highlight"><IconStyle><color>ff5252ff</color><scale>1</scale><Icon><href>https://www.gstatic.com/mapspro/images/stock/503-wht-blank_maps.png</href></Icon><hotSpot x="32" xunits="pixels" y="64" yunits="insetPixels"/></IconStyle><LabelStyle><scale>1</scale></LabelStyle><BalloonStyle><text><![CDATA[<h3>$[name]</h3>]]></text></BalloonStyle></Style><StyleMap id="icon-1899-FF5252-nodesc"><Pair><key>normal</key><styleUrl>#icon-1899-FF5252-nodesc-normal</styleUrl></Pair><Pair><key>highlight</key><styleUrl>#icon-1899-FF5252-nodesc-highlight</styleUrl></Pair></StyleMap><Style id="line-0288D1-5000-nodesc-normal"><LineStyle><color>ffd18802</color><width>5</width></LineStyle><BalloonStyle><text><![CDATA[<h3>$[name]</h3>]]></text></BalloonStyle></Style><Style id="line-0288D1-5000-nodesc-highlight"><LineStyle><color>ffd18802</color><width>7.5</width></LineStyle><BalloonStyle><text><![CDATA[<h3>$[name]</h3>]]></text></BalloonStyle></Style><StyleMap id="line-0288D1-5000-nodesc"><Pair><key>normal</key><styleUrl>#line-0288D1-5000-nodesc-normal</styleUrl></Pair><Pair><key>highlight</key><styleUrl>#line-0288D1-5000-nodesc-highlight</styleUrl></Pair></StyleMap><Folder><name>parkrun_gloucester_city</name><Placemark><name>Course</name><styleUrl>#line-0288D1-5000-nodesc</styleUrl><LineString><tessellate>1</tessellate><coordinates>            -2.24487,51.85953,14            -2.24482,51.85962,14.1            -2.24473,51.85976,14.2            -2.24471,51.85978,14.2            -2.2446,51.85996,14.3            -2.24442,51.86018,14.2            -2.24424,51.8604,14            -2.24412,51.86055,14            -2.24402,51.86061,14.1            -2.2439,51.86066,14.2            -2.2438,51.86068,14.3            -2.2437,51.86068,14.4            -2.24356,51.86067,14.5            -2.2433,51.86062,14.7            -2.24321,51.86059,14.7            -2.243,51.8605,14.8            -2.24273,51.86038,14.9            -2.24257,51.8603,15            -2.24248,51.86026,15            -2.24239,51.86022,15.1            -2.24225,51.86012,15.2            -2.24212,51.86003,15.3            -2.24205,51.85996,15.4            -2.24196,51.85988,15.4            -2.24189,51.85977,15.4            -2.24183,51.85963,15.3            -2.2418,51.85954,15.3            -2.2418,51.8595,15.2            -2.2418,51.85947,15.2            -2.24184,51.85942,15.2            -2.24199,51.85925,15.1            -2.24217,51.85902,14.9            -2.24233,51.85883,14.8            -2.24245,51.85875,14.8            -2.24256,51.85867,14.7            -2.24273,51.85858,14.6            -2.24297,51.85841,14.3            -2.24333,51.85823,13.9            -2.24343,51.85818,13.7            -2.24369,51.85806,13.4            -2.24404,51.85794,13            -2.24436,51.85786,12.7            -2.24465,51.85781,12.5            -2.245,51.85776,12.5            -2.24534,51.85773,12.5            -2.24566,51.85773,12.6            -2.24588,51.85771,12.8            -2.24598,51.85784,12.6            -2.24597,51.85789,12.5            -2.24593,51.85799,12.5            -2.24593,51.858,12.5            -2.2458,51.85828,12.4            -2.24572,51.85847,12.4            -2.24567,51.85854,12.4            -2.24563,51.85857,12.4            -2.24554,51.85863,12.5            -2.2454,51.8587,12.6            -2.24523,51.85879,12.8            -2.24509,51.85884,13            -2.24505,51.8589,13.2            -2.24499,51.859,13.4            -2.24497,51.85914,13.7            -2.24496,51.85917,13.7            -2.24494,51.85931,13.8            -2.24493,51.85935,13.8            -2.24489,51.85949,14            -2.24482,51.85962,14.1            -2.24473,51.85976,14.2            -2.24471,51.85978,14.2            -2.2446,51.85996,14.3            -2.24442,51.86018,14.2            -2.24424,51.8604,14            -2.24412,51.86055,14            -2.24402,51.86061,14.1            -2.2439,51.86066,14.2            -2.2438,51.86068,14.3            -2.2437,51.86068,14.4            -2.24356,51.86067,14.5            -2.2433,51.86062,14.7            -2.24321,51.86059,14.8            -2.243,51.8605,14.8            -2.24283,51.86042,14.9            -2.24273,51.86038,14.9            -2.24257,51.8603,15            -2.24239,51.86022,15.1            -2.24225,51.86012,15.3            -2.24212,51.86003,15.3            -2.24205,51.85996,15.4            -2.24196,51.85988,15.4            -2.24189,51.85977,15.4            -2.24183,51.85963,15.3            -2.2418,51.85954,15.2            -2.2418,51.8595,15.2            -2.2418,51.85947,15.2            -2.24184,51.85942,15.2            -2.24199,51.85925,15.1            -2.24217,51.85902,14.9            -2.2422,51.85898,14.9            -2.24233,51.85883,14.8            -2.24245,51.85875,14.7            -2.24256,51.85867,14.7            -2.24273,51.85858,14.5            -2.24297,51.85841,14.3            -2.24333,51.85823,13.8            -2.24369,51.85806,13.4            -2.24404,51.85794,13            -2.24436,51.85786,12.7            -2.24465,51.85781,12.5            -2.245,51.85776,12.5            -2.24534,51.85773,12.5            -2.24566,51.85773,12.7            -2.24588,51.85771,12.8            -2.24619,51.8577,12.9            -2.24648,51.85772,12.9            -2.24672,51.85779,12.8            -2.24808,51.85817,12.2            -2.24842,51.85833,11.8            -2.24856,51.85858,11.9            -2.24827,51.85889,11.8            -2.24807,51.85912,12            -2.24805,51.85914,12            -2.24787,51.85932,12.1            -2.24766,51.85963,12.4            -2.24614,51.85913,12.3            -2.24574,51.859,12.6            -2.24523,51.85879,12.9            -2.24509,51.85884,13.1            -2.24505,51.8589,13.2            -2.24499,51.859,13.5            -2.24497,51.85914,13.7            -2.24496,51.85917,13.7            -2.24493,51.85935,13.9            -2.24489,51.85949,14            -2.24482,51.85962,14.1            -2.24473,51.85976,14.2            -2.24471,51.85978,14.2            -2.2446,51.85996,14.3            -2.24456,51.86001,14.3            -2.24442,51.86018,14.2            -2.24424,51.8604,14            -2.24412,51.86055,14            -2.24402,51.86061,14.1            -2.2439,51.86066,14.3            -2.2438,51.86068,14.4            -2.2437,51.86068,14.5            -2.24356,51.86067,14.6            -2.2433,51.86062,14.7            -2.24321,51.86059,14.8            -2.243,51.8605,14.8            -2.24273,51.86038,14.9            -2.24257,51.8603,15            -2.24239,51.86022,15.2            -2.24234,51.86018,15.2            -2.24225,51.86012,15.3            -2.24212,51.86003,15.4            -2.24205,51.85996,15.4            -2.24196,51.85988,15.4            -2.24189,51.85977,15.3            -2.24183,51.85963,15.3            -2.2418,51.85954,15.2            -2.2418,51.8595,15.2            -2.2418,51.85947,15.2            -2.24184,51.85942,15.2            -2.24199,51.85925,15.1            -2.24217,51.85902,14.9            -2.24233,51.85883,14.8            -2.24236,51.85881,14.8            -2.24245,51.85875,14.7            -2.24256,51.85867,14.6            -2.24273,51.85858,14.5            -2.24297,51.85841,14.2            -2.24333,51.85823,13.8            -2.24369,51.85806,13.3            -2.24404,51.85794,12.9            -2.24436,51.85786,12.7            -2.24465,51.85781,12.5            -2.245,51.85776,12.5            -2.24534,51.85773,12.5            -2.24558,51.85773,12.6            -2.24566,51.85773,12.7            -2.24588,51.85771,12.8            -2.24619,51.8577,12.9            -2.24648,51.85772,12.9            -2.24808,51.85817,12.1            -2.24824,51.85824,12            -2.24842,51.85833,11.8            -2.24856,51.85858,11.8            -2.24827,51.85889,11.8            -2.24805,51.85914,12            -2.24794,51.85925,12            -2.24787,51.85932,12.1            -2.24766,51.85963,12.5            -2.2459,51.85905,12.6            -2.24574,51.859,12.6            -2.24523,51.85879,12.9            -2.24509,51.85884,13.2            -2.24505,51.8589,13.3            -2.24499,51.859,13.5            -2.24497,51.85914,13.7            -2.24496,51.85917,13.7            -2.24493,51.85935,13.9            -2.24489,51.85949,14.1            -2.24482,51.85962,14.1            -2.24473,51.85976,14.2            -2.24471,51.85978,14.2            -2.2446,51.85996,14.3            -2.24442,51.86018,14.2            -2.24424,51.8604,14            -2.24412,51.86055,14.1            -2.24402,51.86061,14.2            -2.2439,51.86066,14.3            -2.2438,51.86068,14.4            -2.2437,51.86068,14.5            -2.24356,51.86067,14.6            -2.2433,51.86062,14.8            -2.24321,51.86059,14.8            -2.243,51.8605,14.8            -2.24273,51.86038,15            -2.24257,51.8603,15.1            -2.24239,51.86022,15.2            -2.24225,51.86012,15.3            -2.24212,51.86003,15.4            -2.24205,51.85996,15.4            -2.24196,51.85988,15.4            -2.24189,51.85977,15.3            -2.24183,51.85963,15.3            -2.2418,51.85954,15.2            -2.2418,51.8595,15.2            -2.2418,51.85947,15.2            -2.24184,51.85942,15.2            -2.24199,51.85925,15.1            -2.24217,51.85902,14.9            -2.24233,51.85883,14.8            -2.24245,51.85875,14.7            -2.24256,51.85867,14.6            -2.24273,51.85858,14.5            -2.2428,51.85854,14.4            -2.24297,51.85841,14.2            -2.24333,51.85823,13.7            -2.24369,51.85806,13.2            -2.24404,51.85794,12.9            -2.24436,51.85786,12.6            -2.24465,51.85781,12.5            -2.245,51.85776,12.5            -2.24534,51.85773,12.5            -2.24566,51.85773,12.7            -2.24588,51.85771,12.9            -2.24619,51.8577,12.9            -2.24648,51.85772,12.9            -2.24651,51.85773,12.9            -2.24808,51.85817,12.1            -2.24842,51.85833,11.8            -2.24856,51.85858,11.8            -2.2483,51.85885,11.8            -2.24827,51.85889,11.9            -2.24805,51.85914,12            -2.24787,51.85932,12.2            -2.24766,51.85963,12.4            -2.24649,51.85925,12.2            -2.24574,51.859,12.7            -2.24523,51.85879,13            -2.24509,51.85884,13.2            -2.24505,51.8589,13.4            -2.24499,51.859,13.6            -2.24497,51.85914,13.7            -2.24496,51.85917,13.8            -2.24493,51.85935,13.9            -2.24489,51.85949,14.1            -2.24482,51.85962,14.2            -2.24473,51.85976,14.2            -2.24471,51.85978,14.2            -2.2446,51.85996,14.3            -2.24451,51.86007,14.3          </coordinates></LineString></Placemark><Placemark><name>Start</name><styleUrl>#icon-1899-0F9D58-nodesc</styleUrl><Point><coordinates>            -2.24487,51.85953,14          </coordinates></Point></Placemark><Placemark><name>Finish</name><styleUrl>#icon-1899-FF5252-nodesc</styleUrl><Point><coordinates>            -2.24451,51.86007,14.3          </coordinates></Point></Placemark></Folder></Document></kml>