<?xml version="1.0" encoding="UTF-8"?><kml xmlns="http://www.opengis.net/kml/2.2"><Document><name>Grangemoor parkrun</name><description/><Style id="icon-1899-0F9D58-nodesc-normal"><IconStyle><color>ff589d0f</color><scale>1</scale><Icon><href>https://www.gstatic.com/mapspro/images/stock/503-wht-blank_maps.png</href></Icon><hotSpot x="32" xunits="pixels" y="64" yunits="insetPixels"/></IconStyle><LabelStyle><scale>0</scale></LabelStyle><BalloonStyle><text><![CDATA[<h3>$[name]</h3>]]></text></BalloonStyle></Style><Style id="icon-1899-0F9D58-nodesc-highlight"><IconStyle><color>ff589d0f</color><scale>1</scale><Icon><href>https://www.gstatic.com/mapspro/images/stock/503-wht-blank_maps.png</href></Icon><hotSpot x="32" xunits="pixels" y="64" yunits="insetPixels"/></IconStyle><LabelStyle><scale>1</scale></LabelStyle><BalloonStyle><text><![CDATA[<h3>$[name]</h3>]]></text></BalloonStyle></Style><StyleMap id="icon-1899-0F9D58-nodesc"><Pair><key>normal</key><styleUrl>#icon-1899-0F9D58-nodesc-normal</styleUrl></Pair><Pair><key>highlight</key><styleUrl>#icon-1899-0F9D58-nodesc-highlight</styleUrl></Pair></StyleMap><Style id="icon-1899-FF5252-nodesc-normal"><IconStyle><color>ff5252ff</color><scale>1</scale><Icon><href>https://www.gstatic.com/mapspro/images/stock/503-wht-blank_maps.png</href></Icon><hotSpot x="32" xunits="pixels" y="64" yunits="insetPixels"/></IconStyle><LabelStyle><scale>0</scale></LabelStyle><BalloonStyle><text><![CDATA[<h3>$[name]</h3>]]></text></BalloonStyle></Style><Style id="icon-1899-FF5252-nodesc-highlight"><IconStyle><color>ff5252ff</color><scale>1</scale><Icon><href>https://www.gstatic.com/mapspro/images/stock/503-wht-blank_maps.png</href></Icon><hotSpot x="32" xunits="pixels" y="64" yunits="insetPixels"/></IconStyle><LabelStyle><scale>1</scale></LabelStyle><BalloonStyle><text><![CDATA[<h3>$[name]</h3>]]></text></BalloonStyle></Style><StyleMap id="icon-1899-FF5252-nodesc"><Pair><key>normal</key><styleUrl>#icon-1899-FF5252-nodesc-normal</styleUrl></Pair><Pair><key>highlight</key><styleUrl>#icon-1899-FF5252-nodesc-highlight</styleUrl></Pair></StyleMap><Style id="line-0288D1-5456-nodesc-normal"><LineStyle><color>ffd18802</color><width>5.456</width></LineStyle><BalloonStyle><text><![CDATA[<h3>$[name]</h3>]]></text></BalloonStyle></Style><Style id="line-0288D1-5456-nodesc-highlight"><LineStyle><color>ffd18802</color><width>8.184</width></LineStyle><BalloonStyle><text><![CDATA[<h3>$[name]</h3>]]></text></BalloonStyle></Style><StyleMap id="line-0288D1-5456-nodesc"><Pair><key>normal</key><styleUrl>#line-0288D1-5456-nodesc-normal</styleUrl></Pair><Pair><key>highlight</key><styleUrl>#line-0288D1-5456-nodesc-highlight</styleUrl></Pair></StyleMap><Folder><name>Untitled layer</name><Placemark><name>Course</name><styleUrl>#line-0288D1-5456-nodesc</styleUrl><LineString><tessellate>1</tessellate><coordinates>            -3.192024,51.454062,0            -3.192096,51.454194,0            -3.192134,51.454246,0            -3.192238,51.454307,0            -3.192325,51.454366,0            -3.192381,51.454417,0            -3.192431,51.454463,0            -3.19248,51.454511,0            -3.192553,51.454582,0            -3.192611,51.454643,0            -3.192666,51.4547,0            -3.192721,51.45477,0            -3.192766,51.454823,0            -3.192943,51.455035,0            -3.193013,51.455121,0            -3.193065,51.455195,0            -3.193119,51.455269,0            -3.193163,51.455338,0            -3.193198,51.45542,0            -3.193225,51.455475,0            -3.193248,51.455537,0            -3.193254,51.45559,0            -3.193249,51.455643,0            -3.193233,51.455696,0            -3.19321,51.455753,0            -3.193178,51.455811,0            -3.193139,51.455875,0            -3.193073,51.45597,0            -3.192986,51.456096,0            -3.19293,51.456184,0            -3.192894,51.456251,0            -3.192832,51.45637,0            -3.192797,51.456445,0            -3.192768,51.456519,0            -3.192727,51.456621,0            -3.192647,51.456841,0            -3.192611,51.456966,0            -3.192566,51.457042,0            -3.192428,51.457254,0            -3.192366,51.457354,0            -3.192312,51.457405,0            -3.19223,51.457461,0            -3.192175,51.457484,0            -3.192051,51.457516,0            -3.191936,51.457548,0            -3.191825,51.457582,0            -3.191754,51.457614,0            -3.191675,51.457666,0            -3.191603,51.457728,0            -3.191524,51.457808,0            -3.191453,51.457878,0            -3.19127,51.45805,0            -3.19113,51.458185,0            -3.190953,51.458364,0            -3.190881,51.458444,0            -3.19083,51.458509,0            -3.190772,51.458587,0            -3.190675,51.458716,0            -3.190626,51.458772,0            -3.190575,51.458816,0            -3.190494,51.458878,0            -3.190407,51.458933,0            -3.190278,51.459008,0            -3.190099,51.459124,0            -3.189628,51.459454,0            -3.189467,51.459579,0            -3.189391,51.459672,0            -3.189334,51.45975,0            -3.189183,51.459866,0            -3.188646,51.460278,0            -3.187827,51.460901,0            -3.188236,51.460589,0            -3.188646,51.460278,0            -3.188914,51.460072,0            -3.189183,51.459866,0            -3.189259,51.459808,0            -3.189334,51.45975,0            -3.189362,51.459711,0            -3.189391,51.459672,0            -3.189429,51.459625,0            -3.189467,51.459579,0            -3.189548,51.459516,0            -3.189628,51.459454,0            -3.189864,51.459289,0            -3.190099,51.459124,0            -3.190189,51.459066,0            -3.190278,51.459008,0            -3.190343,51.45897,0            -3.190407,51.458933,0            -3.190451,51.458906,0            -3.190494,51.458878,0            -3.190535,51.458847,0            -3.190575,51.458816,0            -3.190626,51.458772,0            -3.190651,51.458743,0            -3.190675,51.458716,0            -3.190724,51.458651,0            -3.190772,51.458587,0            -3.190801,51.458548,0            -3.19083,51.458509,0            -3.190855,51.458476,0            -3.190881,51.458444,0            -3.190917,51.458404,0            -3.190953,51.458364,0            -3.191042,51.458274,0            -3.19113,51.458185,0            -3.191199,51.458117,0            -3.19127,51.45805,0            -3.191361,51.457964,0            -3.191453,51.457878,0            -3.191488,51.457843,0            -3.191524,51.457808,0            -3.191564,51.457768,0            -3.191603,51.457728,0            -3.191639,51.457697,0            -3.191675,51.457666,0            -3.191714,51.457639,0            -3.191754,51.457614,0            -3.191825,51.457582,0            -3.19188,51.457564,0            -3.191936,51.457548,0            -3.191994,51.457531,0            -3.192051,51.457516,0            -3.192113,51.4575,0            -3.192175,51.457498,0            -3.192235,51.457503,0            -3.192308,51.457512,0            -3.19237,51.45752,0            -3.192432,51.45753,0            -3.192495,51.457542,0            -3.192538,51.457551,0            -3.19258,51.457559,0            -3.192623,51.457573,0            -3.192645,51.457592,0            -3.192667,51.457621,0            -3.192766,51.457772,0            -3.19281,51.457838,0            -3.192832,51.457873,0            -3.192859,51.457907,0            -3.192901,51.457958,0            -3.192932,51.457988,0            -3.192963,51.458011,0            -3.192996,51.458032,0            -3.19304,51.458052,0            -3.193074,51.458064,0            -3.193122,51.458079,0            -3.193185,51.458093,0            -3.193267,51.458112,0            -3.19334,51.458126,0            -3.193507,51.458156,0            -3.193653,51.458178,0            -3.193759,51.458192,0            -3.193934,51.458208,0            -3.194011,51.458213,0            -3.19409,51.458222,0            -3.194162,51.458233,0            -3.194255,51.45825,0            -3.194548,51.458305,0            -3.194855,51.458367,0            -3.194943,51.458386,0            -3.195049,51.458402,0            -3.195129,51.458412,0            -3.195221,51.458418,0            -3.19532,51.458426,0            -3.195405,51.45843,0            -3.195513,51.458434,0            -3.195615,51.458434,0            -3.195714,51.458435,0            -3.19584,51.458435,0            -3.195949,51.458433,0            -3.196111,51.458431,0            -3.196201,51.458427,0            -3.196311,51.45842,0            -3.196396,51.458415,0            -3.196488,51.45841,0            -3.196593,51.458403,0            -3.196653,51.458398,0            -3.196706,51.458391,0            -3.196742,51.458383,0            -3.19678,51.458372,0            -3.19682,51.458359,0            -3.196861,51.458347,0            -3.196896,51.458337,0            -3.196937,51.458328,0            -3.196979,51.458323,0            -3.197018,51.458321,0            -3.197061,51.458319,0            -3.197434,51.458328,0            -3.197783,51.458388,0            -3.197434,51.458328,0            -3.197061,51.458319,0            -3.197018,51.458321,0            -3.196979,51.458323,0            -3.196937,51.458328,0            -3.196896,51.458337,0            -3.196861,51.458347,0            -3.19682,51.458359,0            -3.19678,51.458372,0            -3.196742,51.458383,0            -3.196706,51.458391,0            -3.196653,51.458398,0            -3.196593,51.458403,0            -3.19654,51.458406,0            -3.196488,51.45841,0            -3.196443,51.458412,0            -3.196396,51.458415,0            -3.196311,51.45842,0            -3.196256,51.458423,0            -3.196201,51.458427,0            -3.196111,51.458431,0            -3.19603,51.458432,0            -3.195949,51.458433,0            -3.195894,51.458434,0            -3.19584,51.458435,0            -3.195777,51.458435,0            -3.195714,51.458435,0            -3.195664,51.458434,0            -3.195615,51.458434,0            -3.195564,51.458434,0            -3.195513,51.458434,0            -3.195458,51.458432,0            -3.195405,51.45843,0            -3.19532,51.458426,0            -3.195269,51.458422,0            -3.195221,51.458418,0            -3.195175,51.458415,0            -3.195129,51.458412,0            -3.195049,51.458402,0            -3.194996,51.458394,0            -3.194943,51.458386,0            -3.194898,51.458377,0            -3.194855,51.458367,0            -3.194701,51.458336,0            -3.194548,51.458305,0            -3.194255,51.45825,0            -3.194208,51.458241,0            -3.194162,51.458233,0            -3.19409,51.458222,0            -3.194011,51.458213,0            -3.193934,51.458208,0            -3.193845,51.458199,0            -3.193759,51.458192,0            -3.193705,51.458185,0            -3.193653,51.458178,0            -3.193579,51.458168,0            -3.193507,51.458156,0            -3.193423,51.458141,0            -3.19334,51.458126,0            -3.193267,51.458112,0            -3.193185,51.458093,0            -3.193122,51.458079,0            -3.193074,51.458064,0            -3.19304,51.458052,0            -3.192996,51.458032,0            -3.192963,51.458011,0            -3.192932,51.457988,0            -3.192901,51.457958,0            -3.192879,51.457933,0            -3.192859,51.457907,0            -3.192832,51.457873,0            -3.19281,51.457838,0            -3.192766,51.457772,0            -3.192716,51.457696,0            -3.192667,51.457621,0            -3.192533,51.457454,0            -3.192456,51.45737,0            -3.192442,51.457341,0            -3.192434,51.457311,0            -3.192428,51.457276,0            -3.192428,51.457254,0            -3.192497,51.457148,0            -3.192566,51.457042,0            -3.192611,51.456966,0            -3.192647,51.456841,0            -3.192688,51.456731,0            -3.192727,51.456621,0            -3.192768,51.456519,0            -3.192797,51.456445,0            -3.192832,51.45637,0            -3.192894,51.456251,0            -3.19293,51.456184,0            -3.192986,51.456096,0            -3.193073,51.45597,0            -3.193139,51.455875,0            -3.193178,51.455811,0            -3.19321,51.455753,0            -3.193233,51.455696,0            -3.193249,51.455643,0            -3.193254,51.45559,0            -3.193248,51.455537,0            -3.193225,51.455475,0            -3.193198,51.45542,0            -3.193163,51.455338,0            -3.193119,51.455269,0            -3.193065,51.455195,0            -3.193013,51.455121,0            -3.192943,51.455035,0            -3.192854,51.454929,0            -3.192766,51.454823,0            -3.192721,51.45477,0            -3.192666,51.4547,0            -3.192611,51.454643,0            -3.192553,51.454582,0            -3.19248,51.454511,0            -3.192431,51.454463,0            -3.192381,51.454417,0            -3.192325,51.454366,0            -3.192238,51.454307,0            -3.192185,51.454276,0            -3.192037,51.454263,0          </coordinates></LineString></Placemark><Placemark><name>Finish</name><styleUrl>#icon-1899-FF5252-nodesc</styleUrl><Point><coordinates>            -3.192024,51.454062,0          </coordinates></Point></Placemark><Placemark><name>Start</name><styleUrl>#icon-1899-0F9D58-nodesc</styleUrl><Point><coordinates>            -3.193245,51.455628,0          </coordinates></Point></Placemark></Folder></Document></kml>