<?xml version="1.0" encoding="UTF-8"?><kml xmlns="http://www.opengis.net/kml/2.2"><Document><name>Great Wakering Rec junior parkrun</name><description/><Style id="icon-1899-097138-nodesc-normal"><IconStyle><color>ff387109</color><scale>1</scale><Icon><href>https://www.gstatic.com/mapspro/images/stock/503-wht-blank_maps.png</href></Icon><hotSpot x="32" xunits="pixels" y="64" yunits="insetPixels"/></IconStyle><LabelStyle><scale>0</scale></LabelStyle><BalloonStyle><text><![CDATA[<h3>$[name]</h3>]]></text></BalloonStyle></Style><Style id="icon-1899-097138-nodesc-highlight"><IconStyle><color>ff387109</color><scale>1</scale><Icon><href>https://www.gstatic.com/mapspro/images/stock/503-wht-blank_maps.png</href></Icon><hotSpot x="32" xunits="pixels" y="64" yunits="insetPixels"/></IconStyle><LabelStyle><scale>1</scale></LabelStyle><BalloonStyle><text><![CDATA[<h3>$[name]</h3>]]></text></BalloonStyle></Style><StyleMap id="icon-1899-097138-nodesc"><Pair><key>normal</key><styleUrl>#icon-1899-097138-nodesc-normal</styleUrl></Pair><Pair><key>highlight</key><styleUrl>#icon-1899-097138-nodesc-highlight</styleUrl></Pair></StyleMap><Style id="icon-1899-A52714-nodesc-normal"><IconStyle><color>ff1427a5</color><scale>1</scale><Icon><href>https://www.gstatic.com/mapspro/images/stock/503-wht-blank_maps.png</href></Icon><hotSpot x="32" xunits="pixels" y="64" yunits="insetPixels"/></IconStyle><LabelStyle><scale>0</scale></LabelStyle><BalloonStyle><text><![CDATA[<h3>$[name]</h3>]]></text></BalloonStyle></Style><Style id="icon-1899-A52714-nodesc-highlight"><IconStyle><color>ff1427a5</color><scale>1</scale><Icon><href>https://www.gstatic.com/mapspro/images/stock/503-wht-blank_maps.png</href></Icon><hotSpot x="32" xunits="pixels" y="64" yunits="insetPixels"/></IconStyle><LabelStyle><scale>1</scale></LabelStyle><BalloonStyle><text><![CDATA[<h3>$[name]</h3>]]></text></BalloonStyle></Style><StyleMap id="icon-1899-A52714-nodesc"><Pair><key>normal</key><styleUrl>#icon-1899-A52714-nodesc-normal</styleUrl></Pair><Pair><key>highlight</key><styleUrl>#icon-1899-A52714-nodesc-highlight</styleUrl></Pair></StyleMap><Style id="line-0288D1-5263-nodesc-normal"><LineStyle><color>ffd18802</color><width>5.263</width></LineStyle><BalloonStyle><text><![CDATA[<h3>$[name]</h3>]]></text></BalloonStyle></Style><Style id="line-0288D1-5263-nodesc-highlight"><LineStyle><color>ffd18802</color><width>7.8945</width></LineStyle><BalloonStyle><text><![CDATA[<h3>$[name]</h3>]]></text></BalloonStyle></Style><StyleMap id="line-0288D1-5263-nodesc"><Pair><key>normal</key><styleUrl>#line-0288D1-5263-nodesc-normal</styleUrl></Pair><Pair><key>highlight</key><styleUrl>#line-0288D1-5263-nodesc-highlight</styleUrl></Pair></StyleMap><Folder><name>Untitled layer</name><Placemark><name>Start</name><styleUrl>#icon-1899-097138-nodesc</styleUrl><Point><coordinates>            0.794846,51.554372,0          </coordinates></Point></Placemark><Placemark><name>Point 2</name><styleUrl>#icon-1899-A52714-nodesc</styleUrl><Point><coordinates>            0.795134,51.554157,0          </coordinates></Point></Placemark><Placemark><name>Course</name><styleUrl>#line-0288D1-5263-nodesc</styleUrl><LineString><tessellate>1</tessellate><coordinates>            0.793906,51.554594,0            0.7948955,51.554424,0            0.795633,51.554554,0            0.795488,51.555925,0            0.793069,51.555805,0            0.793144,51.554587,0            0.7938709,51.5545974,0            0.795134,51.554157,0          </coordinates></LineString></Placemark></Folder></Document></kml>