<?xml version="1.0" encoding="UTF-8"?><kml xmlns="http://www.opengis.net/kml/2.2"><Document><name>Greenfield Valley parkrun</name><description/><Style id="icon-1899-FFEA00-nodesc-normal"><IconStyle><color>ff00eaff</color><scale>1</scale><Icon><href>https://www.gstatic.com/mapspro/images/stock/503-wht-blank_maps.png</href></Icon><hotSpot x="32" xunits="pixels" y="64" yunits="insetPixels"/></IconStyle><LabelStyle><scale>0</scale></LabelStyle><BalloonStyle><text><![CDATA[<h3>$[name]</h3>]]></text></BalloonStyle></Style><Style id="icon-1899-FFEA00-nodesc-highlight"><IconStyle><color>ff00eaff</color><scale>1</scale><Icon><href>https://www.gstatic.com/mapspro/images/stock/503-wht-blank_maps.png</href></Icon><hotSpot x="32" xunits="pixels" y="64" yunits="insetPixels"/></IconStyle><LabelStyle><scale>1</scale></LabelStyle><BalloonStyle><text><![CDATA[<h3>$[name]</h3>]]></text></BalloonStyle></Style><StyleMap id="icon-1899-FFEA00-nodesc"><Pair><key>normal</key><styleUrl>#icon-1899-FFEA00-nodesc-normal</styleUrl></Pair><Pair><key>highlight</key><styleUrl>#icon-1899-FFEA00-nodesc-highlight</styleUrl></Pair></StyleMap><Style id="line-0288D1-5263-nodesc-normal"><LineStyle><color>ffd18802</color><width>5.263</width></LineStyle><BalloonStyle><text><![CDATA[<h3>$[name]</h3>]]></text></BalloonStyle></Style><Style id="line-0288D1-5263-nodesc-highlight"><LineStyle><color>ffd18802</color><width>7.8945</width></LineStyle><BalloonStyle><text><![CDATA[<h3>$[name]</h3>]]></text></BalloonStyle></Style><StyleMap id="line-0288D1-5263-nodesc"><Pair><key>normal</key><styleUrl>#line-0288D1-5263-nodesc-normal</styleUrl></Pair><Pair><key>highlight</key><styleUrl>#line-0288D1-5263-nodesc-highlight</styleUrl></Pair></StyleMap><Folder><name>Untitled layer</name><Placemark><name>Course</name><styleUrl>#line-0288D1-5263-nodesc</styleUrl><LineString><tessellate>1</tessellate><coordinates>            -3.220998,53.275096,0            -3.221476,53.275392,0            -3.221706,53.275514,0            -3.221842,53.275616,0            -3.221932,53.27566,0            -3.221991,53.275714,0            -3.222241,53.276188,0            -3.221135,53.278533,0            -3.216555,53.280451,0            -3.214632,53.283017,0            -3.213787,53.283922,0            -3.210323,53.286176,0            -3.209588,53.286461,0            -3.207361,53.287084,0            -3.206594,53.287358,0            -3.207056,53.287338,0            -3.208558,53.287568,0            -3.209355,53.287738,0            -3.209379,53.287802,0            -3.20895,53.287931,0            -3.208998,53.287664,0            -3.208437,53.287557,0            -3.207496,53.287403,0            -3.207114,53.287343,0            -3.206589,53.287367,0            -3.206152,53.287596,0            -3.20565,53.28797,0            -3.205078,53.288472,0            -3.204251,53.289308,0            -3.205078,53.288472,0            -3.20565,53.28797,0            -3.206152,53.287596,0            -3.20658,53.287363,0            -3.207311,53.287108,0            -3.208408,53.28678,0            -3.209588,53.286461,0            -3.209939,53.286327,0            -3.210251,53.286223,0            -3.213644,53.284083,0            -3.21377,53.28399,0            -3.214276,53.283442,0            -3.214332,53.283482,0            -3.213817,53.284032,0            -3.212908,53.284656,0            -3.212944,53.284699,0            -3.213087,53.284699,0            -3.213444,53.284524,0            -3.213653,53.284328,0            -3.213617,53.284164,0            -3.21382,53.284022,0            -3.214082,53.283751,0            -3.214344,53.283472,0            -3.214404,53.283297,0            -3.21463,53.28304,0            -3.215739,53.28154,0            -3.215988,53.281211,0            -3.215992,53.281207,0            -3.216555,53.280451,0            -3.218754,53.27951,0            -3.219977,53.278998,0            -3.221135,53.278533,0            -3.221626,53.27743,0            -3.221713,53.277308,0            -3.222241,53.276188,0            -3.221991,53.275714,0            -3.221932,53.27566,0            -3.221842,53.275616,0            -3.221752,53.275533,0            -3.221476,53.275392,0            -3.220998,53.275096,0          </coordinates></LineString></Placemark><Placemark><name>Start/Finish</name><styleUrl>#icon-1899-FFEA00-nodesc</styleUrl><Point><coordinates>            -3.220998,53.275096,0          </coordinates></Point></Placemark></Folder></Document></kml>