<?xml version="1.0" encoding="UTF-8"?><kml xmlns="http://www.opengis.net/kml/2.2"><Document><name>Greville Smyth Park junior parkrun</name><description/><Style id="icon-1899-FFEA00-nodesc-normal"><IconStyle><color>ff00eaff</color><scale>1</scale><Icon><href>https://www.gstatic.com/mapspro/images/stock/503-wht-blank_maps.png</href></Icon><hotSpot x="32" xunits="pixels" y="64" yunits="insetPixels"/></IconStyle><LabelStyle><scale>0</scale></LabelStyle><BalloonStyle><text><![CDATA[<h3>$[name]</h3>]]></text></BalloonStyle></Style><Style id="icon-1899-FFEA00-nodesc-highlight"><IconStyle><color>ff00eaff</color><scale>1</scale><Icon><href>https://www.gstatic.com/mapspro/images/stock/503-wht-blank_maps.png</href></Icon><hotSpot x="32" xunits="pixels" y="64" yunits="insetPixels"/></IconStyle><LabelStyle><scale>1</scale></LabelStyle><BalloonStyle><text><![CDATA[<h3>$[name]</h3>]]></text></BalloonStyle></Style><StyleMap id="icon-1899-FFEA00-nodesc"><Pair><key>normal</key><styleUrl>#icon-1899-FFEA00-nodesc-normal</styleUrl></Pair><Pair><key>highlight</key><styleUrl>#icon-1899-FFEA00-nodesc-highlight</styleUrl></Pair></StyleMap><Style id="line-0288D1-5814-nodesc-normal"><LineStyle><color>ffd18802</color><width>5.814</width></LineStyle><BalloonStyle><text><![CDATA[<h3>$[name]</h3>]]></text></BalloonStyle></Style><Style id="line-0288D1-5814-nodesc-highlight"><LineStyle><color>ffd18802</color><width>8.721</width></LineStyle><BalloonStyle><text><![CDATA[<h3>$[name]</h3>]]></text></BalloonStyle></Style><StyleMap id="line-0288D1-5814-nodesc"><Pair><key>normal</key><styleUrl>#line-0288D1-5814-nodesc-normal</styleUrl></Pair><Pair><key>highlight</key><styleUrl>#line-0288D1-5814-nodesc-highlight</styleUrl></Pair></StyleMap><Folder><name>Untitled layer</name><Placemark><name>Course</name><styleUrl>#line-0288D1-5814-nodesc</styleUrl><LineString><tessellate>1</tessellate><coordinates>            -2.621002,51.442976,0            -2.620997,51.443351,0            -2.621635,51.443585,0            -2.621474,51.443662,0            -2.62141,51.443782,0            -2.621361,51.443909,0            -2.621243,51.443973,0            -2.620959,51.44402,0            -2.62045,51.444066,0            -2.620852,51.443859,0            -2.620938,51.443779,0            -2.620991,51.443672,0            -2.621018,51.443525,0            -2.620997,51.443384,0            -2.621002,51.442823,0            -2.6209,51.442642,0            -2.620702,51.442455,0            -2.620342,51.442214,0            -2.620047,51.442094,0            -2.619908,51.44203,0            -2.61979,51.441927,0            -2.620031,51.441886,0            -2.620337,51.441729,0            -2.62193,51.441144,0            -2.622059,51.441134,0            -2.622134,51.441475,0            -2.622021,51.443073,0            -2.621962,51.443321,0            -2.621957,51.443538,0            -2.621973,51.443742,0            -2.62163,51.443578,0          </coordinates></LineString></Placemark><Placemark><name>Start/Finish</name><styleUrl>#icon-1899-FFEA00-nodesc</styleUrl><Point><coordinates>            -2.621007,51.442893,0          </coordinates></Point></Placemark></Folder></Document></kml>