<?xml version="1.0" encoding="UTF-8"?><kml xmlns="http://www.opengis.net/kml/2.2"><Document><name>Gunnersbury parkrun (from Mar 2023)</name><description/><Style id="icon-1453-normal"><IconStyle><scale>1.1</scale><Icon><href>https://www.gstatic.com/mapspro/images/stock/1453-trans-parking.png</href></Icon></IconStyle><LabelStyle><scale>0</scale></LabelStyle></Style><Style id="icon-1453-highlight"><IconStyle><scale>1.1</scale><Icon><href>https://www.gstatic.com/mapspro/images/stock/1453-trans-parking.png</href></Icon></IconStyle><LabelStyle><scale>1.1</scale></LabelStyle></Style><StyleMap id="icon-1453"><Pair><key>normal</key><styleUrl>#icon-1453-normal</styleUrl></Pair><Pair><key>highlight</key><styleUrl>#icon-1453-highlight</styleUrl></Pair></StyleMap><Style id="icon-1899-F4EB37-nodesc-normal"><IconStyle><color>ff37ebf4</color><scale>1</scale><Icon><href>https://www.gstatic.com/mapspro/images/stock/503-wht-blank_maps.png</href></Icon><hotSpot x="32" xunits="pixels" y="64" yunits="insetPixels"/></IconStyle><LabelStyle><scale>0</scale></LabelStyle><BalloonStyle><text><![CDATA[<h3>$[name]</h3>]]></text></BalloonStyle></Style><Style id="icon-1899-F4EB37-nodesc-highlight"><IconStyle><color>ff37ebf4</color><scale>1</scale><Icon><href>https://www.gstatic.com/mapspro/images/stock/503-wht-blank_maps.png</href></Icon><hotSpot x="32" xunits="pixels" y="64" yunits="insetPixels"/></IconStyle><LabelStyle><scale>1</scale></LabelStyle><BalloonStyle><text><![CDATA[<h3>$[name]</h3>]]></text></BalloonStyle></Style><StyleMap id="icon-1899-F4EB37-nodesc"><Pair><key>normal</key><styleUrl>#icon-1899-F4EB37-nodesc-normal</styleUrl></Pair><Pair><key>highlight</key><styleUrl>#icon-1899-F4EB37-nodesc-highlight</styleUrl></Pair></StyleMap><Style id="line-4186F0-4000-nodesc-normal"><LineStyle><color>fff08641</color><width>4</width></LineStyle><BalloonStyle><text><![CDATA[<h3>$[name]</h3>]]></text></BalloonStyle></Style><Style id="line-4186F0-4000-nodesc-highlight"><LineStyle><color>fff08641</color><width>6</width></LineStyle><BalloonStyle><text><![CDATA[<h3>$[name]</h3>]]></text></BalloonStyle></Style><StyleMap id="line-4186F0-4000-nodesc"><Pair><key>normal</key><styleUrl>#line-4186F0-4000-nodesc-normal</styleUrl></Pair><Pair><key>highlight</key><styleUrl>#line-4186F0-4000-nodesc-highlight</styleUrl></Pair></StyleMap><Folder><name>Untitled layer</name><Placemark><name>Parking</name><description>Parking</description><styleUrl>#icon-1453</styleUrl><Point><coordinates>            -0.290322,51.49948,0          </coordinates></Point></Placemark><Placemark><name>Course</name><styleUrl>#line-4186F0-4000-nodesc</styleUrl><LineString><tessellate>1</tessellate><coordinates>            -0.2946,51.50082,0            -0.29865,51.49946,0            -0.29691,51.49654,0            -0.2970193,51.4961862,0            -0.29493,51.49372,0            -0.2937233,51.4928337,0            -0.2931762,51.4930074,0            -0.2916956,51.4941697,0            -0.2906442,51.4942765,0            -0.29029,51.49455,0            -0.2906013,51.4953853,0            -0.2908802,51.4964407,0            -0.2918884,51.4979333,0            -0.2918667,51.4980632,0            -0.29104,51.49835,0            -0.29055,51.49864,0            -0.2899146,51.4989254,0            -0.28936,51.49932,0            -0.2880692,51.4993929,0            -0.28736,51.49936,0            -0.28657,51.49903,0            -0.2863526,51.4985647,0            -0.2863526,51.498351,0            -0.28606,51.49803,0            -0.28562,51.4978,0            -0.28486,51.49781,0            -0.28404,51.49811,0            -0.28334,51.49801,0            -0.2827477,51.4978968,0            -0.2822971,51.4970819,0            -0.28248,51.49659,0            -0.2831554,51.4963606,0            -0.2846146,51.4958529,0            -0.28626,51.49552,0            -0.2876616,51.4945838,0            -0.2887559,51.4939025,0            -0.2900219,51.4936486,0            -0.29092,51.49311,0            -0.2912664,51.4927669,0            -0.2920818,51.492473,0            -0.292844,51.492426,0            -0.293337,51.49248,0            -0.2937233,51.4928337,0          </coordinates></LineString></Placemark><Placemark><name>Start / Finish</name><styleUrl>#icon-1899-F4EB37-nodesc</styleUrl><Point><coordinates>            -0.2946,51.50082,0          </coordinates></Point></Placemark></Folder></Document></kml>