<?xml version="1.0" encoding="UTF-8"?><kml xmlns="http://www.opengis.net/kml/2.2"><Document><name>Gunpowder parkrun (from Jun 2025)</name><description>Gunpowder parkrun</description><Style id="icon-503-0F9D58-nodesc-normal"><IconStyle><color>ff589d0f</color><scale>1.1</scale><Icon><href>https://www.gstatic.com/mapspro/images/stock/503-wht-blank_maps.png</href></Icon><hotSpot x="16" xunits="pixels" y="32" yunits="insetPixels"/></IconStyle><LabelStyle><scale>0</scale></LabelStyle><BalloonStyle><text><![CDATA[<h3>$[name]</h3>]]></text></BalloonStyle></Style><Style id="icon-503-0F9D58-nodesc-highlight"><IconStyle><color>ff589d0f</color><scale>1.1</scale><Icon><href>https://www.gstatic.com/mapspro/images/stock/503-wht-blank_maps.png</href></Icon><hotSpot x="16" xunits="pixels" y="32" yunits="insetPixels"/></IconStyle><LabelStyle><scale>1.1</scale></LabelStyle><BalloonStyle><text><![CDATA[<h3>$[name]</h3>]]></text></BalloonStyle></Style><StyleMap id="icon-503-0F9D58-nodesc"><Pair><key>normal</key><styleUrl>#icon-503-0F9D58-nodesc-normal</styleUrl></Pair><Pair><key>highlight</key><styleUrl>#icon-503-0F9D58-nodesc-highlight</styleUrl></Pair></StyleMap><Style id="icon-503-FF5252-nodesc-normal"><IconStyle><color>ff5252ff</color><scale>1.1</scale><Icon><href>https://www.gstatic.com/mapspro/images/stock/503-wht-blank_maps.png</href></Icon><hotSpot x="16" xunits="pixels" y="32" yunits="insetPixels"/></IconStyle><LabelStyle><scale>0</scale></LabelStyle><BalloonStyle><text><![CDATA[<h3>$[name]</h3>]]></text></BalloonStyle></Style><Style id="icon-503-FF5252-nodesc-highlight"><IconStyle><color>ff5252ff</color><scale>1.1</scale><Icon><href>https://www.gstatic.com/mapspro/images/stock/503-wht-blank_maps.png</href></Icon><hotSpot x="16" xunits="pixels" y="32" yunits="insetPixels"/></IconStyle><LabelStyle><scale>1.1</scale></LabelStyle><BalloonStyle><text><![CDATA[<h3>$[name]</h3>]]></text></BalloonStyle></Style><StyleMap id="icon-503-FF5252-nodesc"><Pair><key>normal</key><styleUrl>#icon-503-FF5252-nodesc-normal</styleUrl></Pair><Pair><key>highlight</key><styleUrl>#icon-503-FF5252-nodesc-highlight</styleUrl></Pair></StyleMap><Style id="line-4186F0-5263-nodesc-normal"><LineStyle><color>fff08641</color><width>5.263</width></LineStyle><BalloonStyle><text><![CDATA[<h3>$[name]</h3>]]></text></BalloonStyle></Style><Style id="line-4186F0-5263-nodesc-highlight"><LineStyle><color>fff08641</color><width>7.8945</width></LineStyle><BalloonStyle><text><![CDATA[<h3>$[name]</h3>]]></text></BalloonStyle></Style><StyleMap id="line-4186F0-5263-nodesc"><Pair><key>normal</key><styleUrl>#line-4186F0-5263-nodesc-normal</styleUrl></Pair><Pair><key>highlight</key><styleUrl>#line-4186F0-5263-nodesc-highlight</styleUrl></Pair></StyleMap><Folder><name>Untitled layer</name><Placemark><name>Course</name><styleUrl>#line-4186F0-5263-nodesc</styleUrl><LineString><tessellate>1</tessellate><coordinates>            -0.001526,51.674497,0            -0.001463,51.67453,0            -0.001351,51.674548,0            -0.001225,51.674563,0            -0.001135,51.674579,0            -0.001034,51.674606,0            -0.000946,51.67464,0            -0.00082,51.674713,0            -0.000618,51.674845,0            -0.000275,51.675152,0            -0.000191,51.675221,0            -7.1e-05,51.675296,0            2.7e-05,51.675347,0            0.000212,51.675424,0            0.000469,51.675514,0            0.00069,51.67557,0            0.00087,51.675587,0            0.001136,51.675597,0            0.001275,51.675594,0            0.00135,51.675602,0            0.001533,51.675643,0            0.001601,51.675666,0            0.001651,51.675703,0            0.001715,51.675777,0            0.001785,51.675861,0            0.00179,51.675901,0            0.001781,51.675981,0            0.00174,51.676077,0            0.001734,51.676106,0            0.001719,51.676143,0            0.001706,51.676156,0            0.001688,51.676165,0            0.001653,51.676171,0            0.001635,51.676169,0            0.001609,51.676162,0            0.001568,51.676146,0            0.001529,51.676129,0            0.001487,51.676108,0            0.001433,51.676082,0            0.001364,51.676056,0            0.001239,51.676053,0            0.0008,51.676062,0            0.00059,51.676061,0            8.7e-05,51.676046,0            -0.000286,51.67603,0            -0.000639,51.676025,0            -0.001021,51.676036,0            -0.001371,51.676057,0            -0.001673,51.676086,0            -0.002133,51.676153,0            -0.002485,51.676205,0            -0.00272,51.676257,0            -0.003146,51.676321,0            -0.003523,51.676376,0            -0.00377,51.676411,0            -0.003928,51.676428,0            -0.004048,51.676424,0            -0.004199,51.676409,0            -0.004341,51.676387,0            -0.004476,51.676353,0            -0.004592,51.676308,0            -0.004749,51.676233,0            -0.004791,51.67621,0            -0.004816,51.6762,0            -0.004835,51.676199,0            -0.004856,51.6762,0            -0.004886,51.676203,0            -0.004909,51.676206,0            -0.004942,51.67622,0            -0.004965,51.676235,0            -0.004981,51.676253,0            -0.004992,51.676265,0            -0.005007,51.676278,0            -0.005029,51.676294,0            -0.005059,51.676306,0            -0.005103,51.676313,0            -0.005133,51.676318,0            -0.005165,51.676318,0            -0.005221,51.676317,0            -0.005332,51.676314,0            -0.005433,51.676308,0            -0.005523,51.676301,0            -0.005648,51.676292,0            -0.005831,51.676274,0            -0.006096,51.676242,0            -0.006251,51.676219,0            -0.006455,51.67617,0            -0.006678,51.676111,0            -0.006818,51.676083,0            -0.006991,51.676053,0            -0.007146,51.676033,0            -0.007262,51.676027,0            -0.007403,51.676027,0            -0.007557,51.676028,0            -0.007792,51.676044,0            -0.008059,51.676074,0            -0.008349,51.676124,0            -0.008602,51.67617,0            -0.008763,51.676196,0            -0.00908,51.676243,0            -0.009195,51.676251,0            -0.009248,51.676247,0            -0.009362,51.676222,0            -0.009443,51.676178,0            -0.009502,51.676136,0            -0.009565,51.676073,0            -0.009617,51.676021,0            -0.009655,51.67597,0            -0.009729,51.675859,0            -0.009816,51.675714,0            -0.009861,51.675617,0            -0.009892,51.675504,0            -0.009966,51.675272,0            -0.010005,51.675144,0            -0.010073,51.674922,0            -0.010102,51.674807,0            -0.010124,51.6747,0            -0.01013,51.674668,0            -0.010148,51.674644,0            -0.010166,51.674629,0            -0.010168,51.674609,0            -0.010154,51.674587,0            -0.010142,51.674551,0            -0.010162,51.674492,0            -0.01017,51.67445,0            -0.010237,51.674252,0            -0.010259,51.674029,0            -0.010232,51.67363,0            -0.01021,51.67327,0            -0.010098,51.673063,0            -0.010028,51.672989,0            -0.009919,51.672891,0            -0.009777,51.672826,0            -0.009561,51.672752,0            -0.009281,51.672692,0            -0.00922,51.672636,0            -0.009176,51.672549,0            -0.00914,51.672436,0            -0.009092,51.672236,0            -0.009072,51.67207,0            -0.009046,51.671983,0            -0.008998,51.671925,0            -0.008888,51.671852,0            -0.008782,51.671788,0            -0.008663,51.671732,0            -0.008524,51.67167,0            -0.008427,51.671638,0            -0.008329,51.671638,0            -0.008022,51.671654,0            -0.007681,51.67169,0            -0.007249,51.671781,0            -0.006961,51.671828,0            -0.006663,51.671853,0            -0.006459,51.671859,0            -0.006223,51.671849,0            -0.006111,51.671861,0            -0.005841,51.671904,0            -0.005683,51.671946,0            -0.005597,51.67198,0            -0.005491,51.672033,0            -0.005349,51.672114,0            -0.005203,51.672196,0            -0.005132,51.67226,0            -0.005105,51.672322,0            -0.005105,51.672416,0            -0.00514,51.672609,0            -0.005172,51.672822,0            -0.005185,51.672983,0            -0.005181,51.673121,0            -0.005153,51.673278,0            -0.005122,51.673394,0            -0.005071,51.673633,0            -0.00505,51.673768,0            -0.005044,51.673853,0            -0.005042,51.673999,0            -0.005043,51.674016,0            -0.00505,51.674033,0            -0.005056,51.674048,0            -0.005067,51.67406,0            -0.005068,51.674077,0            -0.00506,51.67409,0            -0.005046,51.6741,0            -0.005027,51.674109,0            -0.005008,51.674112,0            -0.004991,51.674112,0            -0.00495,51.674108,0            -0.004904,51.674102,0            -0.004849,51.674096,0            -0.004765,51.674089,0            -0.004661,51.674084,0            -0.004542,51.674088,0            -0.004387,51.674105,0            -0.004151,51.674132,0            -0.003823,51.674173,0            -0.003601,51.674203,0            -0.003353,51.67425,0            -0.003147,51.674297,0            -0.00279,51.674377,0            -0.002561,51.674417,0            -0.002306,51.674457,0            -0.002099,51.674481,0            -0.001635,51.674518,0            -0.001461,51.67453,0            -0.001406,51.67454,0            -0.001351,51.674548,0            -0.001287,51.674555,0            -0.001224,51.674564,0            -0.00113,51.674579,0            -0.001032,51.674607,0            -0.000946,51.674642,0            -0.00082,51.674714,0            -0.000619,51.674846,0            -0.000273,51.675153,0            -0.000183,51.675223,0            -7e-05,51.675297,0            8.1e-05,51.675376,0            0.00021,51.675424,0            0.000472,51.675514,0            0.000692,51.675569,0            0.000866,51.675587,0            0.001135,51.675598,0            0.00124,51.675589,0            0.001318,51.675565,0            0.001392,51.675533,0          </coordinates></LineString></Placemark><Placemark><name>Finish</name><styleUrl>#icon-503-FF5252-nodesc</styleUrl><Point><coordinates>            0.001392,51.675533,0          </coordinates></Point></Placemark><Placemark><name>Start</name><styleUrl>#icon-503-0F9D58-nodesc</styleUrl><Point><coordinates>            -0.001526,51.674497,0          </coordinates></Point></Placemark></Folder></Document></kml>