<?xml version="1.0" encoding="UTF-8"?><kml xmlns="http://www.opengis.net/kml/2.2"><Document><name>GWR Park junior parkrun</name><description/><Style id="icon-1899-0F9D58-nodesc-normal"><IconStyle><color>ff589d0f</color><scale>1</scale><Icon><href>https://www.gstatic.com/mapspro/images/stock/503-wht-blank_maps.png</href></Icon><hotSpot x="32" xunits="pixels" y="64" yunits="insetPixels"/></IconStyle><LabelStyle><scale>0</scale></LabelStyle><BalloonStyle><text><![CDATA[<h3>$[name]</h3>]]></text></BalloonStyle></Style><Style id="icon-1899-0F9D58-nodesc-highlight"><IconStyle><color>ff589d0f</color><scale>1</scale><Icon><href>https://www.gstatic.com/mapspro/images/stock/503-wht-blank_maps.png</href></Icon><hotSpot x="32" xunits="pixels" y="64" yunits="insetPixels"/></IconStyle><LabelStyle><scale>1</scale></LabelStyle><BalloonStyle><text><![CDATA[<h3>$[name]</h3>]]></text></BalloonStyle></Style><StyleMap id="icon-1899-0F9D58-nodesc"><Pair><key>normal</key><styleUrl>#icon-1899-0F9D58-nodesc-normal</styleUrl></Pair><Pair><key>highlight</key><styleUrl>#icon-1899-0F9D58-nodesc-highlight</styleUrl></Pair></StyleMap><Style id="icon-1899-E65100-nodesc-normal"><IconStyle><color>ff0051e6</color><scale>1</scale><Icon><href>https://www.gstatic.com/mapspro/images/stock/503-wht-blank_maps.png</href></Icon><hotSpot x="32" xunits="pixels" y="64" yunits="insetPixels"/></IconStyle><LabelStyle><scale>0</scale></LabelStyle><BalloonStyle><text><![CDATA[<h3>$[name]</h3>]]></text></BalloonStyle></Style><Style id="icon-1899-E65100-nodesc-highlight"><IconStyle><color>ff0051e6</color><scale>1</scale><Icon><href>https://www.gstatic.com/mapspro/images/stock/503-wht-blank_maps.png</href></Icon><hotSpot x="32" xunits="pixels" y="64" yunits="insetPixels"/></IconStyle><LabelStyle><scale>1</scale></LabelStyle><BalloonStyle><text><![CDATA[<h3>$[name]</h3>]]></text></BalloonStyle></Style><StyleMap id="icon-1899-E65100-nodesc"><Pair><key>normal</key><styleUrl>#icon-1899-E65100-nodesc-normal</styleUrl></Pair><Pair><key>highlight</key><styleUrl>#icon-1899-E65100-nodesc-highlight</styleUrl></Pair></StyleMap><Style id="line-0288D1-5043-nodesc-normal"><LineStyle><color>ffd18802</color><width>5.043</width></LineStyle><BalloonStyle><text><![CDATA[<h3>$[name]</h3>]]></text></BalloonStyle></Style><Style id="line-0288D1-5043-nodesc-highlight"><LineStyle><color>ffd18802</color><width>7.5645</width></LineStyle><BalloonStyle><text><![CDATA[<h3>$[name]</h3>]]></text></BalloonStyle></Style><StyleMap id="line-0288D1-5043-nodesc"><Pair><key>normal</key><styleUrl>#line-0288D1-5043-nodesc-normal</styleUrl></Pair><Pair><key>highlight</key><styleUrl>#line-0288D1-5043-nodesc-highlight</styleUrl></Pair></StyleMap><Folder><name>Untitled layer</name><Placemark><name>Course</name><styleUrl>#line-0288D1-5043-nodesc</styleUrl><LineString><tessellate>1</tessellate><coordinates>            -1.794626,51.560616,0            -1.793849,51.560826,0            -1.793087,51.559882,0            -1.793237,51.559619,0            -1.793366,51.559495,0            -1.793666,51.559295,0            -1.794068,51.559122,0            -1.794337,51.559035,0            -1.794669,51.558975,0            -1.794911,51.558938,0            -1.795115,51.558965,0            -1.796034,51.560202,0            -1.793846,51.560823,0            -1.793545,51.560463,0            -1.79362,51.560456,0            -1.793663,51.560406,0            -1.793674,51.560376,0            -1.793668,51.560346,0            -1.793749,51.560306,0            -1.793802,51.560286,0            -1.793878,51.560286,0            -1.793953,51.560312,0            -1.794028,51.560309,0            -1.794103,51.560286,0            -1.794151,51.560236,0            -1.794156,51.560189,0            -1.794119,51.560139,0          </coordinates></LineString></Placemark><Placemark><name>Start</name><styleUrl>#icon-1899-0F9D58-nodesc</styleUrl><Point><coordinates>            -1.794626,51.560616,0          </coordinates></Point></Placemark><Placemark><name>Finish</name><styleUrl>#icon-1899-E65100-nodesc</styleUrl><Point><coordinates>            -1.794119,51.560139,0          </coordinates></Point></Placemark></Folder></Document></kml>