<?xml version="1.0" encoding="UTF-8"?><kml xmlns="http://www.opengis.net/kml/2.2"><Document><name>Hafan yr Afon junior parkrun</name><description/><Style id="icon-1899-0288D1-nodesc-normal"><IconStyle><color>ffd18802</color><scale>1</scale><Icon><href>https://www.gstatic.com/mapspro/images/stock/503-wht-blank_maps.png</href></Icon><hotSpot x="32" xunits="pixels" y="64" yunits="insetPixels"/></IconStyle><LabelStyle><scale>0</scale></LabelStyle><BalloonStyle><text><![CDATA[<h3>$[name]</h3>]]></text></BalloonStyle></Style><Style id="icon-1899-0288D1-nodesc-highlight"><IconStyle><color>ffd18802</color><scale>1</scale><Icon><href>https://www.gstatic.com/mapspro/images/stock/503-wht-blank_maps.png</href></Icon><hotSpot x="32" xunits="pixels" y="64" yunits="insetPixels"/></IconStyle><LabelStyle><scale>1</scale></LabelStyle><BalloonStyle><text><![CDATA[<h3>$[name]</h3>]]></text></BalloonStyle></Style><StyleMap id="icon-1899-0288D1-nodesc"><Pair><key>normal</key><styleUrl>#icon-1899-0288D1-nodesc-normal</styleUrl></Pair><Pair><key>highlight</key><styleUrl>#icon-1899-0288D1-nodesc-highlight</styleUrl></Pair></StyleMap><Style id="icon-1899-0F9D58-nodesc-normal"><IconStyle><color>ff589d0f</color><scale>1</scale><Icon><href>https://www.gstatic.com/mapspro/images/stock/503-wht-blank_maps.png</href></Icon><hotSpot x="32" xunits="pixels" y="64" yunits="insetPixels"/></IconStyle><LabelStyle><scale>0</scale></LabelStyle><BalloonStyle><text><![CDATA[<h3>$[name]</h3>]]></text></BalloonStyle></Style><Style id="icon-1899-0F9D58-nodesc-highlight"><IconStyle><color>ff589d0f</color><scale>1</scale><Icon><href>https://www.gstatic.com/mapspro/images/stock/503-wht-blank_maps.png</href></Icon><hotSpot x="32" xunits="pixels" y="64" yunits="insetPixels"/></IconStyle><LabelStyle><scale>1</scale></LabelStyle><BalloonStyle><text><![CDATA[<h3>$[name]</h3>]]></text></BalloonStyle></Style><StyleMap id="icon-1899-0F9D58-nodesc"><Pair><key>normal</key><styleUrl>#icon-1899-0F9D58-nodesc-normal</styleUrl></Pair><Pair><key>highlight</key><styleUrl>#icon-1899-0F9D58-nodesc-highlight</styleUrl></Pair></StyleMap><Style id="icon-1899-FF5252-nodesc-normal"><IconStyle><color>ff5252ff</color><scale>1</scale><Icon><href>https://www.gstatic.com/mapspro/images/stock/503-wht-blank_maps.png</href></Icon><hotSpot x="32" xunits="pixels" y="64" yunits="insetPixels"/></IconStyle><LabelStyle><scale>0</scale></LabelStyle><BalloonStyle><text><![CDATA[<h3>$[name]</h3>]]></text></BalloonStyle></Style><Style id="icon-1899-FF5252-nodesc-highlight"><IconStyle><color>ff5252ff</color><scale>1</scale><Icon><href>https://www.gstatic.com/mapspro/images/stock/503-wht-blank_maps.png</href></Icon><hotSpot x="32" xunits="pixels" y="64" yunits="insetPixels"/></IconStyle><LabelStyle><scale>1</scale></LabelStyle><BalloonStyle><text><![CDATA[<h3>$[name]</h3>]]></text></BalloonStyle></Style><StyleMap id="icon-1899-FF5252-nodesc"><Pair><key>normal</key><styleUrl>#icon-1899-FF5252-nodesc-normal</styleUrl></Pair><Pair><key>highlight</key><styleUrl>#icon-1899-FF5252-nodesc-highlight</styleUrl></Pair></StyleMap><Style id="line-0288D1-5236-nodesc-normal"><LineStyle><color>ffd18802</color><width>5.236</width></LineStyle><BalloonStyle><text><![CDATA[<h3>$[name]</h3>]]></text></BalloonStyle></Style><Style id="line-0288D1-5236-nodesc-highlight"><LineStyle><color>ffd18802</color><width>7.854</width></LineStyle><BalloonStyle><text><![CDATA[<h3>$[name]</h3>]]></text></BalloonStyle></Style><StyleMap id="line-0288D1-5236-nodesc"><Pair><key>normal</key><styleUrl>#line-0288D1-5236-nodesc-normal</styleUrl></Pair><Pair><key>highlight</key><styleUrl>#line-0288D1-5236-nodesc-highlight</styleUrl></Pair></StyleMap><Folder><name>Untitled layer</name><Placemark><name>Course</name><styleUrl>#line-0288D1-5236-nodesc</styleUrl><LineString><tessellate>1</tessellate><coordinates>            -3.31898,52.514602,111            -3.319201,52.51452,110            -3.319491,52.514305,110            -3.319588,52.51408,110            -3.319602,52.514066,110            -3.31977,52.513908,110            -3.320086,52.513673,110            -3.320231,52.513565,110            -3.320467,52.513425,109            -3.320564,52.513415,108            -3.320682,52.51335,108            -3.320832,52.513307,108            -3.321154,52.513264,108            -3.321358,52.513243,108            -3.321804,52.513209,108            -3.322249,52.513175,109            -3.322691,52.513141,109            -3.322763,52.513136,109            -3.322892,52.513093,109            -3.322999,52.512846,110            -3.323225,52.512814,110            -3.323603,52.512816,110            -3.323979,52.512819,111            -3.324295,52.512821,111            -3.324791,52.512825,112            -3.325069,52.512838,112            -3.325345,52.512852,113            -3.325435,52.512857,113            -3.325778,52.513007,111            -3.325843,52.513028,111            -3.326102,52.512951,112            -3.32644,52.51285,112            -3.326776,52.512749,112            -3.32712,52.51266,112            -3.327464,52.51257,113            -3.327806,52.512481,113            -3.328208,52.512358,112            -3.328609,52.512235,112            -3.32875,52.512192,113            -3.328975,52.512095,113            -3.329235,52.512059,113            -3.329493,52.512024,113            -3.329523,52.51202,113            -3.329824,52.511907,113            -3.330123,52.511795,112            -3.330468,52.511671,112            -3.33081,52.511548,112            -3.330847,52.51153,112            -3.331146,52.511391,112            -3.331336,52.511301,112            -3.33144,52.511252,112            -3.331336,52.511301,112            -3.331146,52.511391,112            -3.330847,52.51153,112            -3.33081,52.511548,112            -3.330466,52.511671,112            -3.330123,52.511795,112            -3.329822,52.511907,113            -3.329523,52.51202,113            -3.329493,52.512024,113            -3.329233,52.51206,113            -3.328975,52.512095,113            -3.32875,52.512192,113            -3.328609,52.512235,112            -3.328207,52.512358,112            -3.327806,52.512481,113            -3.327462,52.512571,113            -3.327118,52.51266,112            -3.326776,52.512749,112            -3.326438,52.51285,112            -3.326102,52.512951,112            -3.325843,52.513028,111            -3.325778,52.513007,111            -3.325435,52.512857,113            -3.325345,52.512852,113            -3.325067,52.512838,112            -3.324791,52.512825,112            -3.324295,52.512821,111            -3.323979,52.512819,111            -3.323601,52.512816,110            -3.323225,52.512814,110            -3.322999,52.512846,110            -3.322892,52.513093,109            -3.322763,52.513136,109            -3.322691,52.513141,109            -3.322245,52.513175,109            -3.3218,52.513209,108            -3.321358,52.513243,108            -3.321154,52.513264,108            -3.320832,52.513307,108            -3.320682,52.51335,108            -3.320564,52.513415,108            -3.320467,52.513425,109            -3.320231,52.513565,110            -3.320086,52.513673,110            -3.31977,52.513908,110            -3.319602,52.514066,110            -3.319588,52.51408,110            -3.319491,52.514305,110            -3.319201,52.51452,110            -3.31898,52.514602,111          </coordinates></LineString></Placemark><Placemark><name>Finish</name><styleUrl>#icon-1899-FF5252-nodesc</styleUrl><Point><coordinates>            -3.319441,52.514374,0          </coordinates></Point></Placemark><Placemark><name>Turnaround </name><styleUrl>#icon-1899-0288D1-nodesc</styleUrl><Point><coordinates>            -3.33144,52.511252,0          </coordinates></Point></Placemark><Placemark><name>Start</name><styleUrl>#icon-1899-0F9D58-nodesc</styleUrl><Point><coordinates>            -3.31898,52.514602,0          </coordinates></Point></Placemark></Folder></Document></kml>