<?xml version="1.0" encoding="UTF-8"?><kml xmlns="http://www.opengis.net/kml/2.2"><Document><name>Harrow parkrun</name><description/><Style id="icon-503-62AF44-nodesc-normal"><IconStyle><color>ff44af62</color><scale>1.1</scale><Icon><href>https://www.gstatic.com/mapspro/images/stock/503-wht-blank_maps.png</href></Icon><hotSpot x="16" xunits="pixels" y="32" yunits="insetPixels"/></IconStyle><LabelStyle><scale>0</scale></LabelStyle><BalloonStyle><text><![CDATA[<h3>$[name]</h3>]]></text></BalloonStyle></Style><Style id="icon-503-62AF44-nodesc-highlight"><IconStyle><color>ff44af62</color><scale>1.1</scale><Icon><href>https://www.gstatic.com/mapspro/images/stock/503-wht-blank_maps.png</href></Icon><hotSpot x="16" xunits="pixels" y="32" yunits="insetPixels"/></IconStyle><LabelStyle><scale>1.1</scale></LabelStyle><BalloonStyle><text><![CDATA[<h3>$[name]</h3>]]></text></BalloonStyle></Style><StyleMap id="icon-503-62AF44-nodesc"><Pair><key>normal</key><styleUrl>#icon-503-62AF44-nodesc-normal</styleUrl></Pair><Pair><key>highlight</key><styleUrl>#icon-503-62AF44-nodesc-highlight</styleUrl></Pair></StyleMap><Style id="icon-503-DB4436-nodesc-normal"><IconStyle><color>ff3644db</color><scale>1.1</scale><Icon><href>https://www.gstatic.com/mapspro/images/stock/503-wht-blank_maps.png</href></Icon><hotSpot x="16" xunits="pixels" y="32" yunits="insetPixels"/></IconStyle><LabelStyle><scale>0</scale></LabelStyle><BalloonStyle><text><![CDATA[<h3>$[name]</h3>]]></text></BalloonStyle></Style><Style id="icon-503-DB4436-nodesc-highlight"><IconStyle><color>ff3644db</color><scale>1.1</scale><Icon><href>https://www.gstatic.com/mapspro/images/stock/503-wht-blank_maps.png</href></Icon><hotSpot x="16" xunits="pixels" y="32" yunits="insetPixels"/></IconStyle><LabelStyle><scale>1.1</scale></LabelStyle><BalloonStyle><text><![CDATA[<h3>$[name]</h3>]]></text></BalloonStyle></Style><StyleMap id="icon-503-DB4436-nodesc"><Pair><key>normal</key><styleUrl>#icon-503-DB4436-nodesc-normal</styleUrl></Pair><Pair><key>highlight</key><styleUrl>#icon-503-DB4436-nodesc-highlight</styleUrl></Pair></StyleMap><Style id="line-4186F0-4119-nodesc-normal"><LineStyle><color>fff08641</color><width>4.119</width></LineStyle><BalloonStyle><text><![CDATA[<h3>$[name]</h3>]]></text></BalloonStyle></Style><Style id="line-4186F0-4119-nodesc-highlight"><LineStyle><color>fff08641</color><width>6.1785</width></LineStyle><BalloonStyle><text><![CDATA[<h3>$[name]</h3>]]></text></BalloonStyle></Style><StyleMap id="line-4186F0-4119-nodesc"><Pair><key>normal</key><styleUrl>#line-4186F0-4119-nodesc-normal</styleUrl></Pair><Pair><key>highlight</key><styleUrl>#line-4186F0-4119-nodesc-highlight</styleUrl></Pair></StyleMap><Folder><name>Untitled layer</name><Placemark><name>Start</name><styleUrl>#icon-503-62AF44-nodesc</styleUrl><Point><coordinates>            -0.342743,51.581763,0          </coordinates></Point></Placemark><Placemark><name>Finish</name><styleUrl>#icon-503-DB4436-nodesc</styleUrl><Point><coordinates>            -0.34417,51.581757,0          </coordinates></Point></Placemark><Placemark><name>Course</name><styleUrl>#line-4186F0-4119-nodesc</styleUrl><LineString><tessellate>1</tessellate><coordinates>            -0.344546,51.584063,0            -0.344567,51.58417,0            -0.346155,51.584257,0            -0.346488,51.58409,0            -0.3465363,51.5839233,0            -0.346488,51.58373,0            -0.3463482,51.5835463,0            -0.345672,51.58349,0            -0.3455542,51.5836568,0            -0.345211,51.583937,0            -0.344546,51.584063,0            -0.344439,51.583903,0            -0.344449,51.583657,0            -0.344621,51.583397,0            -0.344524,51.583297,0            -0.343269,51.583137,0            -0.34314,51.583057,0            -0.3428829,51.5822766,0            -0.342711,51.581677,0            -0.342808,51.581537,0            -0.3430544,51.5815501,0            -0.34417,51.581757,0            -0.3454093,51.5817834,0            -0.345737,51.581863,0            -0.345962,51.5823299,0            -0.346413,51.583483,0            -0.3469813,51.5844233,0            -0.3469491,51.5855832,0            -0.347056,51.586503,0            -0.346981,51.58659,0            -0.346616,51.58675,0            -0.345479,51.587023,0            -0.345361,51.586996,0            -0.344986,51.586503,0            -0.3446853,51.5858899,0            -0.344471,51.58543,0            -0.344567,51.58417,0          </coordinates></LineString></Placemark></Folder></Document></kml>