<?xml version="1.0" encoding="UTF-8"?><kml xmlns="http://www.opengis.net/kml/2.2"><Document><name>Haverhill parkrun</name><description/><Style id="icon-1899-7CB342-nodesc-normal"><IconStyle><color>ff42b37c</color><scale>1</scale><Icon><href>https://www.gstatic.com/mapspro/images/stock/503-wht-blank_maps.png</href></Icon><hotSpot x="32" xunits="pixels" y="64" yunits="insetPixels"/></IconStyle><LabelStyle><scale>0</scale></LabelStyle><BalloonStyle><text><![CDATA[<h3>$[name]</h3>]]></text></BalloonStyle></Style><Style id="icon-1899-7CB342-nodesc-highlight"><IconStyle><color>ff42b37c</color><scale>1</scale><Icon><href>https://www.gstatic.com/mapspro/images/stock/503-wht-blank_maps.png</href></Icon><hotSpot x="32" xunits="pixels" y="64" yunits="insetPixels"/></IconStyle><LabelStyle><scale>1</scale></LabelStyle><BalloonStyle><text><![CDATA[<h3>$[name]</h3>]]></text></BalloonStyle></Style><StyleMap id="icon-1899-7CB342-nodesc"><Pair><key>normal</key><styleUrl>#icon-1899-7CB342-nodesc-normal</styleUrl></Pair><Pair><key>highlight</key><styleUrl>#icon-1899-7CB342-nodesc-highlight</styleUrl></Pair></StyleMap><Style id="icon-1899-FF5252-nodesc-normal"><IconStyle><color>ff5252ff</color><scale>1</scale><Icon><href>https://www.gstatic.com/mapspro/images/stock/503-wht-blank_maps.png</href></Icon><hotSpot x="32" xunits="pixels" y="64" yunits="insetPixels"/></IconStyle><LabelStyle><scale>0</scale></LabelStyle><BalloonStyle><text><![CDATA[<h3>$[name]</h3>]]></text></BalloonStyle></Style><Style id="icon-1899-FF5252-nodesc-highlight"><IconStyle><color>ff5252ff</color><scale>1</scale><Icon><href>https://www.gstatic.com/mapspro/images/stock/503-wht-blank_maps.png</href></Icon><hotSpot x="32" xunits="pixels" y="64" yunits="insetPixels"/></IconStyle><LabelStyle><scale>1</scale></LabelStyle><BalloonStyle><text><![CDATA[<h3>$[name]</h3>]]></text></BalloonStyle></Style><StyleMap id="icon-1899-FF5252-nodesc"><Pair><key>normal</key><styleUrl>#icon-1899-FF5252-nodesc-normal</styleUrl></Pair><Pair><key>highlight</key><styleUrl>#icon-1899-FF5252-nodesc-highlight</styleUrl></Pair></StyleMap><Style id="line-0288D1-5069-nodesc-normal"><LineStyle><color>ffd18802</color><width>5.069</width></LineStyle><BalloonStyle><text><![CDATA[<h3>$[name]</h3>]]></text></BalloonStyle></Style><Style id="line-0288D1-5069-nodesc-highlight"><LineStyle><color>ffd18802</color><width>7.6035</width></LineStyle><BalloonStyle><text><![CDATA[<h3>$[name]</h3>]]></text></BalloonStyle></Style><StyleMap id="line-0288D1-5069-nodesc"><Pair><key>normal</key><styleUrl>#line-0288D1-5069-nodesc-normal</styleUrl></Pair><Pair><key>highlight</key><styleUrl>#line-0288D1-5069-nodesc-highlight</styleUrl></Pair></StyleMap><Folder><name>Haverhill parkrun</name><Placemark><name>Course</name><styleUrl>#line-0288D1-5069-nodesc</styleUrl><LineString><tessellate>1</tessellate><coordinates>            0.422351,52.077185,0            0.422148,52.07735,0            0.422019,52.077317,0            0.419465,52.076328,0            0.419412,52.076255,0            0.419508,52.076163,0            0.419658,52.076137,0            0.421826,52.076941,0            0.419658,52.076137,0            0.419508,52.076163,0            0.419766,52.075912,0            0.419937,52.075932,0            0.42012,52.075813,0            0.420055,52.075682,0            0.420549,52.075266,0            0.420871,52.075405,0            0.422609,52.073888,0            0.423478,52.074204,0            0.426042,52.075213,0            0.425184,52.076031,0            0.42306,52.075299,0            0.422319,52.075398,0            0.421922,52.07551,0            0.421879,52.075688,0            0.421944,52.075807,0            0.421246,52.076414,0            0.422748,52.076948,0            0.422351,52.077185,0          </coordinates></LineString></Placemark><Placemark><name>Start</name><styleUrl>#icon-1899-7CB342-nodesc</styleUrl><Point><coordinates>            0.422351,52.077185,0          </coordinates></Point></Placemark><Placemark><name>Finish</name><styleUrl>#icon-1899-FF5252-nodesc</styleUrl><Point><coordinates>            0.421826,52.076941,0          </coordinates></Point></Placemark></Folder></Document></kml>