<?xml version="1.0" encoding="UTF-8"?><kml xmlns="http://www.opengis.net/kml/2.2"><Document><name>Haverfordwest parkrun</name><description/><Style id="icon-1899-0F9D58-nodesc-normal"><IconStyle><color>ff589d0f</color><scale>1</scale><Icon><href>https://www.gstatic.com/mapspro/images/stock/503-wht-blank_maps.png</href></Icon><hotSpot x="32" xunits="pixels" y="64" yunits="insetPixels"/></IconStyle><LabelStyle><scale>0</scale></LabelStyle><BalloonStyle><text><![CDATA[<h3>$[name]</h3>]]></text></BalloonStyle></Style><Style id="icon-1899-0F9D58-nodesc-highlight"><IconStyle><color>ff589d0f</color><scale>1</scale><Icon><href>https://www.gstatic.com/mapspro/images/stock/503-wht-blank_maps.png</href></Icon><hotSpot x="32" xunits="pixels" y="64" yunits="insetPixels"/></IconStyle><LabelStyle><scale>1</scale></LabelStyle><BalloonStyle><text><![CDATA[<h3>$[name]</h3>]]></text></BalloonStyle></Style><StyleMap id="icon-1899-0F9D58-nodesc"><Pair><key>normal</key><styleUrl>#icon-1899-0F9D58-nodesc-normal</styleUrl></Pair><Pair><key>highlight</key><styleUrl>#icon-1899-0F9D58-nodesc-highlight</styleUrl></Pair></StyleMap><Style id="icon-1899-FF5252-nodesc-normal"><IconStyle><color>ff5252ff</color><scale>1</scale><Icon><href>https://www.gstatic.com/mapspro/images/stock/503-wht-blank_maps.png</href></Icon><hotSpot x="32" xunits="pixels" y="64" yunits="insetPixels"/></IconStyle><LabelStyle><scale>0</scale></LabelStyle><BalloonStyle><text><![CDATA[<h3>$[name]</h3>]]></text></BalloonStyle></Style><Style id="icon-1899-FF5252-nodesc-highlight"><IconStyle><color>ff5252ff</color><scale>1</scale><Icon><href>https://www.gstatic.com/mapspro/images/stock/503-wht-blank_maps.png</href></Icon><hotSpot x="32" xunits="pixels" y="64" yunits="insetPixels"/></IconStyle><LabelStyle><scale>1</scale></LabelStyle><BalloonStyle><text><![CDATA[<h3>$[name]</h3>]]></text></BalloonStyle></Style><StyleMap id="icon-1899-FF5252-nodesc"><Pair><key>normal</key><styleUrl>#icon-1899-FF5252-nodesc-normal</styleUrl></Pair><Pair><key>highlight</key><styleUrl>#icon-1899-FF5252-nodesc-highlight</styleUrl></Pair></StyleMap><Style id="line-0288D1-5000-nodesc-normal"><LineStyle><color>ffd18802</color><width>5</width></LineStyle><BalloonStyle><text><![CDATA[<h3>$[name]</h3>]]></text></BalloonStyle></Style><Style id="line-0288D1-5000-nodesc-highlight"><LineStyle><color>ffd18802</color><width>7.5</width></LineStyle><BalloonStyle><text><![CDATA[<h3>$[name]</h3>]]></text></BalloonStyle></Style><StyleMap id="line-0288D1-5000-nodesc"><Pair><key>normal</key><styleUrl>#line-0288D1-5000-nodesc-normal</styleUrl></Pair><Pair><key>highlight</key><styleUrl>#line-0288D1-5000-nodesc-highlight</styleUrl></Pair></StyleMap><Folder><name>Untitled layer</name><Placemark><name>Course</name><styleUrl>#line-0288D1-5000-nodesc</styleUrl><LineString><tessellate>1</tessellate><coordinates>            -4.993166,51.797775,0            -4.993582,51.797918,0            -4.994041,51.798001,0            -4.996981,51.798213,0            -4.999802,51.79822,0            -5.001991,51.798213,0            -5.00359,51.79822,0            -5.004416,51.798233,0            -5.004834,51.798154,0            -5.005059,51.798054,0            -5.005306,51.797828,0            -5.005424,51.797649,0            -5.005467,51.797364,0            -5.005328,51.797278,0            -5.004845,51.797065,0            -5.001454,51.796329,0            -4.996841,51.795206,0            -4.996825,51.795232,0            -4.995915,51.795074,0            -4.993359,51.796246,0            -4.995915,51.795074,0            -4.99845,51.795737,0            -4.998531,51.795796,0            -4.998332,51.796052,0            -4.998354,51.796128,0            -4.99907,51.796302,0            -5.00011,51.796424,0            -5.001016,51.796544,0            -5.001896,51.796768,0            -5.002186,51.796864,0            -5.002462,51.79698,0            -5.002671,51.797008,0            -5.00305,51.797063,0            -5.003275,51.797111,0            -5.003532,51.797216,0            -5.003784,51.797333,0            -5.004096,51.797458,0            -5.0043,51.797504,0            -5.004568,51.797552,0            -5.004707,51.797597,0            -5.004809,51.797687,0            -5.004836,51.797738,0            -5.00474,51.797811,0            -5.004333,51.798003,0            -5.004086,51.798076,0            -5.003303,51.79809,0            -5.00282,51.798056,0            -5.002477,51.79797,0            -5.002123,51.798003,0            -5.001768,51.79807,0            -5.00106,51.798056,0            -5.000857,51.798056,0            -5.000696,51.798076,0            -5.000106,51.79805,0            -4.999784,51.798076,0            -4.999322,51.798056,0            -4.998818,51.798073,0            -4.998384,51.79807,0            -4.99796,51.798083,0            -4.997761,51.79807,0            -4.997547,51.798076,0            -4.997257,51.79807,0            -4.996946,51.798033,0            -4.996737,51.798027,0            -4.996275,51.798023,0            -4.995825,51.797987,0            -4.995546,51.797967,0            -4.995186,51.797934,0            -4.994977,51.797917,0            -4.994628,51.797904,0            -4.994328,51.797864,0            -4.994038,51.797851,0            -4.993781,51.797824,0            -4.993513,51.797741,0            -4.993277,51.797658,0            -4.993156,51.797775,0          </coordinates></LineString></Placemark><Placemark><name>Finish</name><styleUrl>#icon-1899-FF5252-nodesc</styleUrl><Point><coordinates>            -4.993359,51.796246,0          </coordinates></Point></Placemark><Placemark><name>Start</name><styleUrl>#icon-1899-0F9D58-nodesc</styleUrl><Point><coordinates>            -4.993166,51.797775,0          </coordinates></Point></Placemark></Folder></Document></kml>