<?xml version="1.0" encoding="UTF-8"?><kml xmlns="http://www.opengis.net/kml/2.2"><Document><name>Hay Lodge parkrun</name><description/><Style id="icon-1899-0F9D58-nodesc-normal"><IconStyle><color>ff589d0f</color><scale>1</scale><Icon><href>https://www.gstatic.com/mapspro/images/stock/503-wht-blank_maps.png</href></Icon><hotSpot x="32" xunits="pixels" y="64" yunits="insetPixels"/></IconStyle><LabelStyle><scale>0</scale></LabelStyle><BalloonStyle><text><![CDATA[<h3>$[name]</h3>]]></text></BalloonStyle></Style><Style id="icon-1899-0F9D58-nodesc-highlight"><IconStyle><color>ff589d0f</color><scale>1</scale><Icon><href>https://www.gstatic.com/mapspro/images/stock/503-wht-blank_maps.png</href></Icon><hotSpot x="32" xunits="pixels" y="64" yunits="insetPixels"/></IconStyle><LabelStyle><scale>1</scale></LabelStyle><BalloonStyle><text><![CDATA[<h3>$[name]</h3>]]></text></BalloonStyle></Style><StyleMap id="icon-1899-0F9D58-nodesc"><Pair><key>normal</key><styleUrl>#icon-1899-0F9D58-nodesc-normal</styleUrl></Pair><Pair><key>highlight</key><styleUrl>#icon-1899-0F9D58-nodesc-highlight</styleUrl></Pair></StyleMap><Style id="icon-1899-FF5252-nodesc-normal"><IconStyle><color>ff5252ff</color><scale>1</scale><Icon><href>https://www.gstatic.com/mapspro/images/stock/503-wht-blank_maps.png</href></Icon><hotSpot x="32" xunits="pixels" y="64" yunits="insetPixels"/></IconStyle><LabelStyle><scale>0</scale></LabelStyle><BalloonStyle><text><![CDATA[<h3>$[name]</h3>]]></text></BalloonStyle></Style><Style id="icon-1899-FF5252-nodesc-highlight"><IconStyle><color>ff5252ff</color><scale>1</scale><Icon><href>https://www.gstatic.com/mapspro/images/stock/503-wht-blank_maps.png</href></Icon><hotSpot x="32" xunits="pixels" y="64" yunits="insetPixels"/></IconStyle><LabelStyle><scale>1</scale></LabelStyle><BalloonStyle><text><![CDATA[<h3>$[name]</h3>]]></text></BalloonStyle></Style><StyleMap id="icon-1899-FF5252-nodesc"><Pair><key>normal</key><styleUrl>#icon-1899-FF5252-nodesc-normal</styleUrl></Pair><Pair><key>highlight</key><styleUrl>#icon-1899-FF5252-nodesc-highlight</styleUrl></Pair></StyleMap><Style id="line-0288D1-4875-nodesc-normal"><LineStyle><color>ffd18802</color><width>4.875</width></LineStyle><BalloonStyle><text><![CDATA[<h3>$[name]</h3>]]></text></BalloonStyle></Style><Style id="line-0288D1-4875-nodesc-highlight"><LineStyle><color>ffd18802</color><width>7.3125</width></LineStyle><BalloonStyle><text><![CDATA[<h3>$[name]</h3>]]></text></BalloonStyle></Style><StyleMap id="line-0288D1-4875-nodesc"><Pair><key>normal</key><styleUrl>#line-0288D1-4875-nodesc-normal</styleUrl></Pair><Pair><key>highlight</key><styleUrl>#line-0288D1-4875-nodesc-highlight</styleUrl></Pair></StyleMap><Folder><name>Untitled layer</name><Placemark><name>Course</name><styleUrl>#line-0288D1-4875-nodesc</styleUrl><LineString><tessellate>1</tessellate><coordinates>            -3.199584,55.651609,0            -3.2003002,55.6516333,0            -3.2011585,55.6516394,0            -3.2017378,55.6516424,0            -3.2024084,55.6516424,0            -3.2029073,55.6516363,0            -3.203565,55.651633,0            -3.2037924,55.6515728,0            -3.203908,55.651524,0            -3.2040713,55.6514547,0            -3.2043396,55.651373,0            -3.2044683,55.6513337,0            -3.204906,55.651276,0            -3.205303,55.651234,0            -3.205442,55.651197,0            -3.205732,55.651222,0            -3.2061045,55.6511672,0            -3.206311,55.651137,0            -3.2065391,55.6510764,0            -3.2067858,55.6510098,0            -3.207052,55.650961,0            -3.207245,55.650925,0            -3.207448,55.650828,0            -3.20762,55.650768,0            -3.207813,55.650774,0            -3.207963,55.650792,0            -3.208178,55.65087,0            -3.2083522,55.6509129,0            -3.208639,55.651094,0            -3.2089208,55.6512671,0            -3.2089745,55.6513125,0            -3.209015,55.651349,0            -3.208859,55.651373,0            -3.2085131,55.6513549,0            -3.20813,55.651349,0            -3.2077138,55.651367,0            -3.20754,55.651367,0            -3.207389,55.651385,0            -3.206971,55.651391,0            -3.20648,55.6514154,0            -3.206091,55.651446,0            -3.2058363,55.6514547,0            -3.205684,55.651482,0            -3.2046776,55.6515364,0            -3.2044254,55.6515546,0            -3.204199,55.6515683,0            -3.2040959,55.6515699,0            -3.2039667,55.6515758,0            -3.203792,55.6515894,0            -3.203704,55.651597,0            -3.2046776,55.6515364,0            -3.204997,55.651518,0            -3.2051282,55.6515213,0            -3.205169,55.651542,0            -3.205265,55.651512,0            -3.205169,55.651542,0            -3.2051657,55.6515849,0            -3.2051603,55.6517877,0            -3.2051872,55.6518951,0            -3.205136,55.65199,0            -3.204804,55.652136,0            -3.204643,55.65219,0            -3.204536,55.652257,0            -3.204396,55.652299,0            -3.204289,55.652348,0            -3.2041679,55.6524157,0            -3.203935,55.652493,0            -3.203634,55.652566,0            -3.2033847,55.6526019,0            -3.203055,55.652662,0            -3.202991,55.652717,0            -3.20298,55.652765,0            -3.202787,55.652771,0            -3.2024567,55.6527623,0            -3.2019739,55.6527381,0            -3.201231,55.652693,0            -3.2006033,55.6525988,0            -3.200072,55.652523,0            -3.19975,55.652444,0            -3.199847,55.652354,0            -3.199879,55.652299,0            -3.199879,55.652257,0            -3.1997798,55.6521872,0            -3.199665,55.652087,0            -3.199654,55.652027,0            -3.199729,55.651978,0            -3.199812,55.6518966,0            -3.199815,55.651863,0            -3.199772,55.651742,0            -3.199654,55.651712,0            -3.199509,55.651627,0            -3.199584,55.651609,0          </coordinates></LineString></Placemark><Placemark><name>Finish</name><styleUrl>#icon-1899-FF5252-nodesc</styleUrl><Point><coordinates>            -3.202218,55.651664,0          </coordinates></Point></Placemark><Placemark><name>Start</name><styleUrl>#icon-1899-0F9D58-nodesc</styleUrl><Point><coordinates>            -3.199509,55.651627,0          </coordinates></Point></Placemark></Folder></Document></kml>