<?xml version="1.0" encoding="UTF-8"?><kml xmlns="http://www.opengis.net/kml/2.2"><Document><name>Heritage Coastal Path parkrun, Easington </name><description/><Style id="icon-1899-0F9D58-nodesc-normal"><IconStyle><color>ff589d0f</color><scale>1</scale><Icon><href>https://www.gstatic.com/mapspro/images/stock/503-wht-blank_maps.png</href></Icon><hotSpot x="32" xunits="pixels" y="64" yunits="insetPixels"/></IconStyle><LabelStyle><scale>0</scale></LabelStyle><BalloonStyle><text><![CDATA[<h3>$[name]</h3>]]></text></BalloonStyle></Style><Style id="icon-1899-0F9D58-nodesc-highlight"><IconStyle><color>ff589d0f</color><scale>1</scale><Icon><href>https://www.gstatic.com/mapspro/images/stock/503-wht-blank_maps.png</href></Icon><hotSpot x="32" xunits="pixels" y="64" yunits="insetPixels"/></IconStyle><LabelStyle><scale>1</scale></LabelStyle><BalloonStyle><text><![CDATA[<h3>$[name]</h3>]]></text></BalloonStyle></Style><StyleMap id="icon-1899-0F9D58-nodesc"><Pair><key>normal</key><styleUrl>#icon-1899-0F9D58-nodesc-normal</styleUrl></Pair><Pair><key>highlight</key><styleUrl>#icon-1899-0F9D58-nodesc-highlight</styleUrl></Pair></StyleMap><Style id="icon-1899-FF5252-nodesc-normal"><IconStyle><color>ff5252ff</color><scale>1</scale><Icon><href>https://www.gstatic.com/mapspro/images/stock/503-wht-blank_maps.png</href></Icon><hotSpot x="32" xunits="pixels" y="64" yunits="insetPixels"/></IconStyle><LabelStyle><scale>0</scale></LabelStyle><BalloonStyle><text><![CDATA[<h3>$[name]</h3>]]></text></BalloonStyle></Style><Style id="icon-1899-FF5252-nodesc-highlight"><IconStyle><color>ff5252ff</color><scale>1</scale><Icon><href>https://www.gstatic.com/mapspro/images/stock/503-wht-blank_maps.png</href></Icon><hotSpot x="32" xunits="pixels" y="64" yunits="insetPixels"/></IconStyle><LabelStyle><scale>1</scale></LabelStyle><BalloonStyle><text><![CDATA[<h3>$[name]</h3>]]></text></BalloonStyle></Style><StyleMap id="icon-1899-FF5252-nodesc"><Pair><key>normal</key><styleUrl>#icon-1899-FF5252-nodesc-normal</styleUrl></Pair><Pair><key>highlight</key><styleUrl>#icon-1899-FF5252-nodesc-highlight</styleUrl></Pair></StyleMap><Style id="line-0288D1-5650-nodesc-normal"><LineStyle><color>ffd18802</color><width>5.65</width></LineStyle><BalloonStyle><text><![CDATA[<h3>$[name]</h3>]]></text></BalloonStyle></Style><Style id="line-0288D1-5650-nodesc-highlight"><LineStyle><color>ffd18802</color><width>8.475</width></LineStyle><BalloonStyle><text><![CDATA[<h3>$[name]</h3>]]></text></BalloonStyle></Style><StyleMap id="line-0288D1-5650-nodesc"><Pair><key>normal</key><styleUrl>#line-0288D1-5650-nodesc-normal</styleUrl></Pair><Pair><key>highlight</key><styleUrl>#line-0288D1-5650-nodesc-highlight</styleUrl></Pair></StyleMap><Folder><name>Untitled layer</name><Placemark><name>Course</name><styleUrl>#line-0288D1-5650-nodesc</styleUrl><LineString><tessellate>1</tessellate><coordinates>            -1.3188122,54.7894436,0            -1.3191342,54.7888719,0            -1.3182519,54.7887236,0            -1.3167891,54.7887403,0            -1.3177744,54.7890793,0            -1.3182767,54.7891343,0            -1.3177744,54.7890793,0            -1.3167891,54.7887403,0            -1.315787,54.788529,0            -1.3136193,54.7884762,0            -1.312782,54.788281,0            -1.3119775,54.7877647,0            -1.311409,54.787168,0            -1.311275,54.7866948,0            -1.311066,54.7865,0            -1.3102885,54.7862701,0            -1.309921,54.7862363,0            -1.309693,54.786153,0            -1.3096388,54.785807,0            -1.3109746,54.7855126,0            -1.3119132,54.7854729,0            -1.312482,54.785287,0            -1.314542,54.785064,0            -1.315782,54.78444,0            -1.316554,54.78449,0            -1.3158002,54.7850495,0            -1.315477,54.785753,0            -1.3154005,54.7865802,0            -1.3158187,54.7875152,0            -1.315787,54.788529,0            -1.313587,54.7884737,0            -1.314065,54.788721,0            -1.31355,54.788944,0            -1.313292,54.789612,0            -1.313207,54.79033,0            -1.313378,54.79127,0            -1.312906,54.791963,0            -1.3130188,54.7926493,0            -1.3130095,54.7946966,0            -1.3130316,54.795227,0            -1.3129787,54.795612,0            -1.3130565,54.7956954,0            -1.3127308,54.7967166,0            -1.3124186,54.7968892,0            -1.3122567,54.7971112,0            -1.3113535,54.7976419,0            -1.3113917,54.7978943,0            -1.3110353,54.7981411,0            -1.3108506,54.7985858,0            -1.3110063,54.7988059,0            -1.3110226,54.798995,0            -1.3111515,54.799116,0            -1.3113448,54.7991938,0            -1.3116781,54.7991772,0            -1.3122976,54.7994679,0            -1.3129279,54.7998329,0            -1.3135286,54.8003309,0            -1.3151594,54.7963136,0            -1.3158729,54.7947472,0            -1.3164147,54.7931807,0            -1.3164375,54.7920348,0            -1.3162993,54.7904559,0            -1.315787,54.788529,0          </coordinates></LineString></Placemark><Placemark><name>Finish</name><styleUrl>#icon-1899-FF5252-nodesc</styleUrl><Point><coordinates>            -1.3183024,54.7891608,0          </coordinates></Point></Placemark><Placemark><name>Start</name><styleUrl>#icon-1899-0F9D58-nodesc</styleUrl><Point><coordinates>            -1.3188122,54.7894653,0          </coordinates></Point></Placemark></Folder></Document></kml>