<?xml version="1.0" encoding="UTF-8"?><kml xmlns="http://www.opengis.net/kml/2.2"><Document><name>Heslington parkrun</name><description/><Style id="icon-1644-0288D1-nodesc-normal"><IconStyle><color>ffd18802</color><scale>1</scale><Icon><href>https://www.gstatic.com/mapspro/images/stock/503-wht-blank_maps.png</href></Icon></IconStyle><LabelStyle><scale>0</scale></LabelStyle><BalloonStyle><text><![CDATA[<h3>$[name]</h3>]]></text></BalloonStyle></Style><Style id="icon-1644-0288D1-nodesc-highlight"><IconStyle><color>ffd18802</color><scale>1</scale><Icon><href>https://www.gstatic.com/mapspro/images/stock/503-wht-blank_maps.png</href></Icon></IconStyle><LabelStyle><scale>1</scale></LabelStyle><BalloonStyle><text><![CDATA[<h3>$[name]</h3>]]></text></BalloonStyle></Style><StyleMap id="icon-1644-0288D1-nodesc"><Pair><key>normal</key><styleUrl>#icon-1644-0288D1-nodesc-normal</styleUrl></Pair><Pair><key>highlight</key><styleUrl>#icon-1644-0288D1-nodesc-highlight</styleUrl></Pair></StyleMap><Style id="icon-1898-E65100-nodesc-normal"><IconStyle><color>ff0051e6</color><scale>1</scale><Icon><href>https://www.gstatic.com/mapspro/images/stock/503-wht-blank_maps.png</href></Icon></IconStyle><LabelStyle><scale>0</scale></LabelStyle><BalloonStyle><text><![CDATA[<h3>$[name]</h3>]]></text></BalloonStyle></Style><Style id="icon-1898-E65100-nodesc-highlight"><IconStyle><color>ff0051e6</color><scale>1</scale><Icon><href>https://www.gstatic.com/mapspro/images/stock/503-wht-blank_maps.png</href></Icon></IconStyle><LabelStyle><scale>1</scale></LabelStyle><BalloonStyle><text><![CDATA[<h3>$[name]</h3>]]></text></BalloonStyle></Style><StyleMap id="icon-1898-E65100-nodesc"><Pair><key>normal</key><styleUrl>#icon-1898-E65100-nodesc-normal</styleUrl></Pair><Pair><key>highlight</key><styleUrl>#icon-1898-E65100-nodesc-highlight</styleUrl></Pair></StyleMap><Style id="icon-1899-0F9D58-nodesc-normal"><IconStyle><color>ff589d0f</color><scale>1</scale><Icon><href>https://www.gstatic.com/mapspro/images/stock/503-wht-blank_maps.png</href></Icon><hotSpot x="32" xunits="pixels" y="64" yunits="insetPixels"/></IconStyle><LabelStyle><scale>0</scale></LabelStyle><BalloonStyle><text><![CDATA[<h3>$[name]</h3>]]></text></BalloonStyle></Style><Style id="icon-1899-0F9D58-nodesc-highlight"><IconStyle><color>ff589d0f</color><scale>1</scale><Icon><href>https://www.gstatic.com/mapspro/images/stock/503-wht-blank_maps.png</href></Icon><hotSpot x="32" xunits="pixels" y="64" yunits="insetPixels"/></IconStyle><LabelStyle><scale>1</scale></LabelStyle><BalloonStyle><text><![CDATA[<h3>$[name]</h3>]]></text></BalloonStyle></Style><StyleMap id="icon-1899-0F9D58-nodesc"><Pair><key>normal</key><styleUrl>#icon-1899-0F9D58-nodesc-normal</styleUrl></Pair><Pair><key>highlight</key><styleUrl>#icon-1899-0F9D58-nodesc-highlight</styleUrl></Pair></StyleMap><Style id="icon-1899-FF5252-nodesc-normal"><IconStyle><color>ff5252ff</color><scale>1</scale><Icon><href>https://www.gstatic.com/mapspro/images/stock/503-wht-blank_maps.png</href></Icon><hotSpot x="32" xunits="pixels" y="64" yunits="insetPixels"/></IconStyle><LabelStyle><scale>0</scale></LabelStyle><BalloonStyle><text><![CDATA[<h3>$[name]</h3>]]></text></BalloonStyle></Style><Style id="icon-1899-FF5252-nodesc-highlight"><IconStyle><color>ff5252ff</color><scale>1</scale><Icon><href>https://www.gstatic.com/mapspro/images/stock/503-wht-blank_maps.png</href></Icon><hotSpot x="32" xunits="pixels" y="64" yunits="insetPixels"/></IconStyle><LabelStyle><scale>1</scale></LabelStyle><BalloonStyle><text><![CDATA[<h3>$[name]</h3>]]></text></BalloonStyle></Style><StyleMap id="icon-1899-FF5252-nodesc"><Pair><key>normal</key><styleUrl>#icon-1899-FF5252-nodesc-normal</styleUrl></Pair><Pair><key>highlight</key><styleUrl>#icon-1899-FF5252-nodesc-highlight</styleUrl></Pair></StyleMap><Style id="line-0288D1-5263-nodesc-normal"><LineStyle><color>ffd18802</color><width>5.263</width></LineStyle><BalloonStyle><text><![CDATA[<h3>$[name]</h3>]]></text></BalloonStyle></Style><Style id="line-0288D1-5263-nodesc-highlight"><LineStyle><color>ffd18802</color><width>7.8945</width></LineStyle><BalloonStyle><text><![CDATA[<h3>$[name]</h3>]]></text></BalloonStyle></Style><StyleMap id="line-0288D1-5263-nodesc"><Pair><key>normal</key><styleUrl>#line-0288D1-5263-nodesc-normal</styleUrl></Pair><Pair><key>highlight</key><styleUrl>#line-0288D1-5263-nodesc-highlight</styleUrl></Pair></StyleMap><Folder><name>Untitled layer</name><Placemark><name>Course</name><styleUrl>#line-0288D1-5263-nodesc</styleUrl><LineString><tessellate>1</tessellate><coordinates>            -1.017349,53.949078,0            -1.018385,53.949514,0            -1.018653,53.949508,0            -1.018889,53.949394,0            -1.019066,53.948557,0            -1.018985,53.948434,0            -1.018755,53.94839,0            -1.017124,53.948728,0            -1.016909,53.948725,0            -1.016335,53.948649,0            -1.015879,53.948658,0            -1.015407,53.948958,0            -1.014924,53.949533,0            -1.014758,53.949858,0            -1.014935,53.950265,0            -1.015187,53.950666,0            -1.015391,53.950691,0            -1.015525,53.950587,0            -1.01544,53.950385,0            -1.015359,53.949972,0            -1.0153,53.94934,0            -1.015552,53.949034,0            -1.016019,53.948864,0            -1.016443,53.948819,0            -1.01684,53.94887,0            -1.017349,53.949078,0          </coordinates></LineString></Placemark><Placemark><name>Finish</name><styleUrl>#icon-1899-FF5252-nodesc</styleUrl><Point><coordinates>            -1.017253,53.949031,0          </coordinates></Point></Placemark><Placemark><name>Start</name><styleUrl>#icon-1899-0F9D58-nodesc</styleUrl><Point><coordinates>            -1.017349,53.949078,0          </coordinates></Point></Placemark><Placemark><name>Parking</name><styleUrl>#icon-1644-0288D1-nodesc</styleUrl><Point><coordinates>            -1.0251282,53.9501816,0          </coordinates></Point></Placemark><Placemark><name>Carpark not available</name><styleUrl>#icon-1898-E65100-nodesc</styleUrl><Point><coordinates>            -1.0184719,53.951622,0          </coordinates></Point></Placemark></Folder></Document></kml>