<?xml version="1.0" encoding="UTF-8"?><kml xmlns="http://www.opengis.net/kml/2.2"><Document><name>Hilly Fields parkrun</name><description/><Style id="icon-157-nodesc-normal"><IconStyle><scale>1.1</scale><Icon><href>https://www.gstatic.com/mapspro/images/stock/157-yellow-dot.png</href></Icon><hotSpot x="16" xunits="pixels" y="32" yunits="insetPixels"/></IconStyle><LabelStyle><scale>0</scale></LabelStyle><BalloonStyle><text><![CDATA[<h3>$[name]</h3>]]></text></BalloonStyle></Style><Style id="icon-157-nodesc-highlight"><IconStyle><scale>1.1</scale><Icon><href>https://www.gstatic.com/mapspro/images/stock/157-yellow-dot.png</href></Icon><hotSpot x="16" xunits="pixels" y="32" yunits="insetPixels"/></IconStyle><LabelStyle><scale>1.1</scale></LabelStyle><BalloonStyle><text><![CDATA[<h3>$[name]</h3>]]></text></BalloonStyle></Style><StyleMap id="icon-157-nodesc"><Pair><key>normal</key><styleUrl>#icon-157-nodesc-normal</styleUrl></Pair><Pair><key>highlight</key><styleUrl>#icon-157-nodesc-highlight</styleUrl></Pair></StyleMap><Style id="line-0000FF-5000-nodesc-normal"><LineStyle><color>ffff0000</color><width>5</width></LineStyle><BalloonStyle><text><![CDATA[<h3>$[name]</h3>]]></text></BalloonStyle></Style><Style id="line-0000FF-5000-nodesc-highlight"><LineStyle><color>ffff0000</color><width>7.5</width></LineStyle><BalloonStyle><text><![CDATA[<h3>$[name]</h3>]]></text></BalloonStyle></Style><StyleMap id="line-0000FF-5000-nodesc"><Pair><key>normal</key><styleUrl>#line-0000FF-5000-nodesc-normal</styleUrl></Pair><Pair><key>highlight</key><styleUrl>#line-0000FF-5000-nodesc-highlight</styleUrl></Pair></StyleMap><Folder><name>Untitled layer</name><Placemark><name>Start / Finish</name><styleUrl>#icon-157-nodesc</styleUrl><Point><coordinates>            -0.02502,51.460131,0          </coordinates></Point></Placemark><Placemark><name>Course</name><styleUrl>#line-0000FF-5000-nodesc</styleUrl><LineString><tessellate>1</tessellate><coordinates>            -0.024912,51.460131,0            -0.024247,51.46001,0            -0.023882,51.45985,0            -0.023539,51.459422,0            -0.023088,51.459128,0            -0.022616,51.459061,0            -0.022252,51.459034,0            -0.021994,51.459181,0            -0.021865,51.459489,0            -0.02193,51.459756,0            -0.022058,51.459983,0            -0.02238,51.460104,0            -0.02223,51.460291,0            -0.022552,51.460839,0            -0.022895,51.461093,0            -0.023625,51.461401,0            -0.024226,51.461655,0            -0.024419,51.461762,0            -0.024698,51.462109,0            -0.024827,51.462283,0            -0.02517,51.462323,0            -0.025513,51.462336,0            -0.025964,51.46247,0            -0.026286,51.462524,0            -0.026844,51.46251,0            -0.027444,51.46227,0            -0.027874,51.462069,0            -0.028389,51.461949,0            -0.028753,51.461882,0            -0.028989,51.461909,0            -0.028861,51.461695,0            -0.028625,51.461414,0            -0.028389,51.461147,0            -0.028067,51.460893,0            -0.027916,51.460745,0            -0.02723,51.460532,0            -0.026565,51.460344,0            -0.025899,51.460211,0            -0.024912,51.460131,0          </coordinates></LineString></Placemark><Placemark><name>Course</name><styleUrl>#line-0000FF-5000-nodesc</styleUrl><LineString><tessellate>1</tessellate><coordinates>            -0.027906,51.460725,0            -0.029215,51.459669,0            -0.028667,51.459469,0            -0.028421,51.459495,0            -0.027884,51.459449,0            -0.027519,51.459462,0            -0.026511,51.459796,0            -0.026039,51.459816,0            -0.025781,51.460044,0            -0.025535,51.460184,0          </coordinates></LineString></Placemark></Folder></Document></kml>