<?xml version="1.0" encoding="UTF-8"?><kml xmlns="http://www.opengis.net/kml/2.2"><Document><name>Hiltingbury Rec Ground junior parkrun</name><description/><Style id="icon-1899-FFEA00-nodesc-normal"><IconStyle><color>ff00eaff</color><scale>1</scale><Icon><href>https://www.gstatic.com/mapspro/images/stock/503-wht-blank_maps.png</href></Icon><hotSpot x="32" xunits="pixels" y="64" yunits="insetPixels"/></IconStyle><LabelStyle><scale>0</scale></LabelStyle><BalloonStyle><text><![CDATA[<h3>$[name]</h3>]]></text></BalloonStyle></Style><Style id="icon-1899-FFEA00-nodesc-highlight"><IconStyle><color>ff00eaff</color><scale>1</scale><Icon><href>https://www.gstatic.com/mapspro/images/stock/503-wht-blank_maps.png</href></Icon><hotSpot x="32" xunits="pixels" y="64" yunits="insetPixels"/></IconStyle><LabelStyle><scale>1</scale></LabelStyle><BalloonStyle><text><![CDATA[<h3>$[name]</h3>]]></text></BalloonStyle></Style><StyleMap id="icon-1899-FFEA00-nodesc"><Pair><key>normal</key><styleUrl>#icon-1899-FFEA00-nodesc-normal</styleUrl></Pair><Pair><key>highlight</key><styleUrl>#icon-1899-FFEA00-nodesc-highlight</styleUrl></Pair></StyleMap><Style id="line-0288D1-6000-nodesc-normal"><LineStyle><color>ffd18802</color><width>6</width></LineStyle><BalloonStyle><text><![CDATA[<h3>$[name]</h3>]]></text></BalloonStyle></Style><Style id="line-0288D1-6000-nodesc-highlight"><LineStyle><color>ffd18802</color><width>9</width></LineStyle><BalloonStyle><text><![CDATA[<h3>$[name]</h3>]]></text></BalloonStyle></Style><StyleMap id="line-0288D1-6000-nodesc"><Pair><key>normal</key><styleUrl>#line-0288D1-6000-nodesc-normal</styleUrl></Pair><Pair><key>highlight</key><styleUrl>#line-0288D1-6000-nodesc-highlight</styleUrl></Pair></StyleMap><Folder><name>Untitled layer</name><Placemark><name>Course</name><styleUrl>#line-0288D1-6000-nodesc</styleUrl><LineString><tessellate>1</tessellate><coordinates>            -1.385517,50.996354,0            -1.385882,50.996474,0            -1.386021,50.996547,0            -1.386163,50.996626,0            -1.386308,50.996693,0            -1.386461,50.996742,0            -1.38659,50.996814,0            -1.386819,50.996946,0            -1.387036,50.997042,0            -1.387176,50.997077,0            -1.387344,50.997117,0            -1.387491,50.997178,0            -1.387842,50.997348,0            -1.388084,50.997457,0            -1.388189,50.997452,0            -1.388357,50.997431,0            -1.388457,50.997423,0            -1.388574,50.997442,0            -1.388632,50.997493,0            -1.388698,50.997548,0            -1.388739,50.997605,0            -1.388801,50.997642,0            -1.388882,50.997668,0            -1.389016,50.997658,0            -1.389118,50.997626,0            -1.389232,50.997586,0            -1.389378,50.997583,0            -1.389522,50.997603,0            -1.389714,50.99764,0            -1.389813,50.997658,0            -1.389918,50.997667,0            -1.390101,50.998277,0            -1.389975,50.998738,0            -1.389862,50.998894,0            -1.38978,50.999068,0            -1.389681,50.99917,0            -1.38961,50.999179,0            -1.389551,50.999186,0            -1.389506,50.999177,0            -1.389485,50.999174,0            -1.389457,50.999166,0            -1.389371,50.999095,0            -1.389267,50.998987,0            -1.389184,50.998907,0            -1.388874,50.99879,0            -1.38794,50.998437,0            -1.387796,50.998385,0            -1.387646,50.998348,0            -1.387343,50.998275,0            -1.387225,50.998246,0            -1.387118,50.998234,0            -1.38654,50.998128,0            -1.385982,50.997993,0            -1.386048,50.997818,0            -1.385973,50.997752,0            -1.385916,50.997659,0            -1.385914,50.997602,0            -1.38595,50.997471,0            -1.38601,50.997397,0            -1.385978,50.997314,0            -1.385885,50.99725,0            -1.386075,50.997106,0            -1.386273,50.996921,0            -1.386301,50.996841,0            -1.386266,50.996817,0            -1.386184,50.996779,0            -1.386165,50.996733,0            -1.386229,50.996702,0            -1.386308,50.996693,0          </coordinates></LineString></Placemark><Placemark><name>Start/Finish</name><styleUrl>#icon-1899-FFEA00-nodesc</styleUrl><Point><coordinates>            -1.385517,50.99634,0          </coordinates></Point></Placemark></Folder></Document></kml>