<?xml version="1.0" encoding="UTF-8"?><kml xmlns="http://www.opengis.net/kml/2.2"><Document><name>Hockley Woods parkrun</name><description/><Style id="icon-503-009D57-nodesc-normal"><IconStyle><color>ff579d00</color><scale>1.1</scale><Icon><href>https://www.gstatic.com/mapspro/images/stock/503-wht-blank_maps.png</href></Icon><hotSpot x="16" xunits="pixels" y="32" yunits="insetPixels"/></IconStyle><LabelStyle><scale>0</scale></LabelStyle><BalloonStyle><text><![CDATA[<h3>$[name]</h3>]]></text></BalloonStyle></Style><Style id="icon-503-009D57-nodesc-highlight"><IconStyle><color>ff579d00</color><scale>1.1</scale><Icon><href>https://www.gstatic.com/mapspro/images/stock/503-wht-blank_maps.png</href></Icon><hotSpot x="16" xunits="pixels" y="32" yunits="insetPixels"/></IconStyle><LabelStyle><scale>1.1</scale></LabelStyle><BalloonStyle><text><![CDATA[<h3>$[name]</h3>]]></text></BalloonStyle></Style><StyleMap id="icon-503-009D57-nodesc"><Pair><key>normal</key><styleUrl>#icon-503-009D57-nodesc-normal</styleUrl></Pair><Pair><key>highlight</key><styleUrl>#icon-503-009D57-nodesc-highlight</styleUrl></Pair></StyleMap><Style id="icon-503-DB4436-nodesc-normal"><IconStyle><color>ff3644db</color><scale>1.1</scale><Icon><href>https://www.gstatic.com/mapspro/images/stock/503-wht-blank_maps.png</href></Icon><hotSpot x="16" xunits="pixels" y="32" yunits="insetPixels"/></IconStyle><LabelStyle><scale>0</scale></LabelStyle><BalloonStyle><text><![CDATA[<h3>$[name]</h3>]]></text></BalloonStyle></Style><Style id="icon-503-DB4436-nodesc-highlight"><IconStyle><color>ff3644db</color><scale>1.1</scale><Icon><href>https://www.gstatic.com/mapspro/images/stock/503-wht-blank_maps.png</href></Icon><hotSpot x="16" xunits="pixels" y="32" yunits="insetPixels"/></IconStyle><LabelStyle><scale>1.1</scale></LabelStyle><BalloonStyle><text><![CDATA[<h3>$[name]</h3>]]></text></BalloonStyle></Style><StyleMap id="icon-503-DB4436-nodesc"><Pair><key>normal</key><styleUrl>#icon-503-DB4436-nodesc-normal</styleUrl></Pair><Pair><key>highlight</key><styleUrl>#icon-503-DB4436-nodesc-highlight</styleUrl></Pair></StyleMap><Style id="poly-106408-3000-15-nodesc-normal"><LineStyle><color>ff086410</color><width>3</width></LineStyle><PolyStyle><color>0f086410</color><fill>1</fill><outline>1</outline></PolyStyle><BalloonStyle><text><![CDATA[<h3>$[name]</h3>]]></text></BalloonStyle></Style><Style id="poly-106408-3000-15-nodesc-highlight"><LineStyle><color>ff086410</color><width>4.5</width></LineStyle><PolyStyle><color>0f086410</color><fill>1</fill><outline>1</outline></PolyStyle><BalloonStyle><text><![CDATA[<h3>$[name]</h3>]]></text></BalloonStyle></Style><StyleMap id="poly-106408-3000-15-nodesc"><Pair><key>normal</key><styleUrl>#poly-106408-3000-15-nodesc-normal</styleUrl></Pair><Pair><key>highlight</key><styleUrl>#poly-106408-3000-15-nodesc-highlight</styleUrl></Pair></StyleMap><Folder><name>Untitled layer</name><Placemark><name>Course</name><styleUrl>#poly-106408-3000-15-nodesc</styleUrl><Polygon><outerBoundaryIs><LinearRing><tessellate>1</tessellate><coordinates>                0.649137,51.596028,0                0.64918,51.597094,0                0.648923,51.598028,0                0.648708,51.598774,0                0.647936,51.599654,0                0.647474,51.599894,0                0.646884,51.600007,0                0.646155,51.59988,0                0.645533,51.599574,0                0.644546,51.598534,0                0.64373,51.597361,0                0.643387,51.596828,0                0.643601,51.596268,0                0.642936,51.594668,0                0.643795,51.593242,0                0.643601,51.593016,0                0.643408,51.592216,0                0.642657,51.590709,0                0.643666,51.590483,0                0.64506,51.590256,0                0.646455,51.590576,0                0.646477,51.592109,0                0.647678,51.593455,0                0.647807,51.593735,0                0.648322,51.593842,0                0.648172,51.594215,0                0.649137,51.596028,0              </coordinates></LinearRing></outerBoundaryIs></Polygon></Placemark><Placemark><name>Start</name><styleUrl>#icon-503-009D57-nodesc</styleUrl><Point><coordinates>            0.649138,51.596028,0          </coordinates></Point></Placemark><Placemark><name>Finish</name><styleUrl>#icon-503-DB4436-nodesc</styleUrl><Point><coordinates>            0.646884,51.600007,0          </coordinates></Point></Placemark></Folder></Document></kml>