<?xml version="1.0" encoding="UTF-8"?><kml xmlns="http://www.opengis.net/kml/2.2"><Document><name>Hogmoor Inclosure junior parkrun (from Nov 2025)</name><description/><Style id="icon-1899-0F9D58-nodesc-normal"><IconStyle><color>ff589d0f</color><scale>1</scale><Icon><href>https://www.gstatic.com/mapspro/images/stock/503-wht-blank_maps.png</href></Icon><hotSpot x="32" xunits="pixels" y="64" yunits="insetPixels"/></IconStyle><LabelStyle><scale>0</scale></LabelStyle><BalloonStyle><text><![CDATA[<h3>$[name]</h3>]]></text></BalloonStyle></Style><Style id="icon-1899-0F9D58-nodesc-highlight"><IconStyle><color>ff589d0f</color><scale>1</scale><Icon><href>https://www.gstatic.com/mapspro/images/stock/503-wht-blank_maps.png</href></Icon><hotSpot x="32" xunits="pixels" y="64" yunits="insetPixels"/></IconStyle><LabelStyle><scale>1</scale></LabelStyle><BalloonStyle><text><![CDATA[<h3>$[name]</h3>]]></text></BalloonStyle></Style><StyleMap id="icon-1899-0F9D58-nodesc"><Pair><key>normal</key><styleUrl>#icon-1899-0F9D58-nodesc-normal</styleUrl></Pair><Pair><key>highlight</key><styleUrl>#icon-1899-0F9D58-nodesc-highlight</styleUrl></Pair></StyleMap><Style id="icon-1899-FF5252-nodesc-normal"><IconStyle><color>ff5252ff</color><scale>1</scale><Icon><href>https://www.gstatic.com/mapspro/images/stock/503-wht-blank_maps.png</href></Icon><hotSpot x="32" xunits="pixels" y="64" yunits="insetPixels"/></IconStyle><LabelStyle><scale>0</scale></LabelStyle><BalloonStyle><text><![CDATA[<h3>$[name]</h3>]]></text></BalloonStyle></Style><Style id="icon-1899-FF5252-nodesc-highlight"><IconStyle><color>ff5252ff</color><scale>1</scale><Icon><href>https://www.gstatic.com/mapspro/images/stock/503-wht-blank_maps.png</href></Icon><hotSpot x="32" xunits="pixels" y="64" yunits="insetPixels"/></IconStyle><LabelStyle><scale>1</scale></LabelStyle><BalloonStyle><text><![CDATA[<h3>$[name]</h3>]]></text></BalloonStyle></Style><StyleMap id="icon-1899-FF5252-nodesc"><Pair><key>normal</key><styleUrl>#icon-1899-FF5252-nodesc-normal</styleUrl></Pair><Pair><key>highlight</key><styleUrl>#icon-1899-FF5252-nodesc-highlight</styleUrl></Pair></StyleMap><Style id="line-0288D1-5069-nodesc-normal"><LineStyle><color>ffd18802</color><width>5.069</width></LineStyle><BalloonStyle><text><![CDATA[<h3>$[name]</h3>]]></text></BalloonStyle></Style><Style id="line-0288D1-5069-nodesc-highlight"><LineStyle><color>ffd18802</color><width>7.6035</width></LineStyle><BalloonStyle><text><![CDATA[<h3>$[name]</h3>]]></text></BalloonStyle></Style><StyleMap id="line-0288D1-5069-nodesc"><Pair><key>normal</key><styleUrl>#line-0288D1-5069-nodesc-normal</styleUrl></Pair><Pair><key>highlight</key><styleUrl>#line-0288D1-5069-nodesc-highlight</styleUrl></Pair></StyleMap><Folder><name>Untitled layer</name><Placemark><name>Course</name><styleUrl>#line-0288D1-5069-nodesc</styleUrl><LineString><tessellate>1</tessellate><coordinates>            -0.876798,51.111378,0            -0.876645,51.11139,0            -0.876551,51.111489,0            -0.876455,51.111548,0            -0.876342,51.1116,0            -0.876251,51.111636,0            -0.876106,51.111666,0            -0.875956,51.111674,0            -0.875789,51.111671,0            -0.87557,51.111642,0            -0.875366,51.11159,0            -0.875111,51.111504,0            -0.874864,51.111398,0            -0.874695,51.111331,0            -0.874607,51.11127,0            -0.874556,51.111205,0            -0.874542,51.111146,0            -0.874526,51.110981,0            -0.87451,51.110784,0            -0.874497,51.110666,0            -0.874478,51.1106,0            -0.874424,51.110469,0            -0.874354,51.110316,0            -0.87429,51.110188,0            -0.87422,51.110046,0            -0.874156,51.109925,0            -0.874097,51.109829,0            -0.873974,51.109647,0            -0.873842,51.109463,0            -0.873703,51.109303,0            -0.873644,51.109218,0            -0.873636,51.109159,0            -0.873705,51.109122,0            -0.873869,51.109068,0            -0.873974,51.109022,0            -0.874057,51.108975,0            -0.874118,51.10896,0            -0.874188,51.108987,0            -0.874282,51.109069,0            -0.874397,51.109182,0            -0.874489,51.109307,0            -0.874593,51.109425,0            -0.874674,51.109512,0            -0.874802,51.1096,0            -0.874915,51.109669,0            -0.874966,51.109701,0            -0.874934,51.109728,0            -0.874824,51.109674,0            -0.874609,51.109549,0            -0.874483,51.10946,0            -0.87432,51.10933,0            -0.874255,51.109288,0            -0.874134,51.109229,0            -0.874035,51.109244,0            -0.873901,51.109297,0            -0.873815,51.109364,0            -0.873925,51.109509,0            -0.874019,51.10964,0            -0.874126,51.109814,0            -0.874212,51.109964,0            -0.87433,51.110211,0            -0.874435,51.110433,0            -0.874488,51.11056,0            -0.874521,51.110657,0            -0.874542,51.11087,0            -0.874569,51.111077,0            -0.874636,51.111174,0            -0.87473,51.11127,0            -0.874829,51.111326,0            -0.874958,51.111353,0            -0.875146,51.111366,0            -0.875521,51.111386,0            -0.875754,51.1114,0            -0.876044,51.111413,0            -0.876264,51.111413,0            -0.876446,51.1114,0            -0.87665,51.11139,0          </coordinates></LineString></Placemark><Placemark><name>Start</name><styleUrl>#icon-1899-0F9D58-nodesc</styleUrl><Point><coordinates>            -0.876393,51.111581,0          </coordinates></Point></Placemark><Placemark><name>Finish</name><styleUrl>#icon-1899-FF5252-nodesc</styleUrl><Point><coordinates>            -0.876798,51.111378,0          </coordinates></Point></Placemark></Folder></Document></kml>