<?xml version="1.0" encoding="UTF-8"?><kml xmlns="http://www.opengis.net/kml/2.2"><Document><name>Horsham parkrun</name><description/><Style id="icon-503-009D57-nodesc-normal"><IconStyle><color>ff579d00</color><scale>1.1</scale><Icon><href>https://www.gstatic.com/mapspro/images/stock/503-wht-blank_maps.png</href></Icon><hotSpot x="16" xunits="pixels" y="32" yunits="insetPixels"/></IconStyle><LabelStyle><scale>0</scale></LabelStyle><BalloonStyle><text><![CDATA[<h3>$[name]</h3>]]></text></BalloonStyle></Style><Style id="icon-503-009D57-nodesc-highlight"><IconStyle><color>ff579d00</color><scale>1.1</scale><Icon><href>https://www.gstatic.com/mapspro/images/stock/503-wht-blank_maps.png</href></Icon><hotSpot x="16" xunits="pixels" y="32" yunits="insetPixels"/></IconStyle><LabelStyle><scale>1.1</scale></LabelStyle><BalloonStyle><text><![CDATA[<h3>$[name]</h3>]]></text></BalloonStyle></Style><StyleMap id="icon-503-009D57-nodesc"><Pair><key>normal</key><styleUrl>#icon-503-009D57-nodesc-normal</styleUrl></Pair><Pair><key>highlight</key><styleUrl>#icon-503-009D57-nodesc-highlight</styleUrl></Pair></StyleMap><Style id="icon-503-DB4436-nodesc-normal"><IconStyle><color>ff3644db</color><scale>1.1</scale><Icon><href>https://www.gstatic.com/mapspro/images/stock/503-wht-blank_maps.png</href></Icon><hotSpot x="16" xunits="pixels" y="32" yunits="insetPixels"/></IconStyle><LabelStyle><scale>0</scale></LabelStyle><BalloonStyle><text><![CDATA[<h3>$[name]</h3>]]></text></BalloonStyle></Style><Style id="icon-503-DB4436-nodesc-highlight"><IconStyle><color>ff3644db</color><scale>1.1</scale><Icon><href>https://www.gstatic.com/mapspro/images/stock/503-wht-blank_maps.png</href></Icon><hotSpot x="16" xunits="pixels" y="32" yunits="insetPixels"/></IconStyle><LabelStyle><scale>1.1</scale></LabelStyle><BalloonStyle><text><![CDATA[<h3>$[name]</h3>]]></text></BalloonStyle></Style><StyleMap id="icon-503-DB4436-nodesc"><Pair><key>normal</key><styleUrl>#icon-503-DB4436-nodesc-normal</styleUrl></Pair><Pair><key>highlight</key><styleUrl>#icon-503-DB4436-nodesc-highlight</styleUrl></Pair></StyleMap><Style id="line-4186F0-4509-nodesc-normal"><LineStyle><color>fff08641</color><width>4.509</width></LineStyle><BalloonStyle><text><![CDATA[<h3>$[name]</h3>]]></text></BalloonStyle></Style><Style id="line-4186F0-4509-nodesc-highlight"><LineStyle><color>fff08641</color><width>6.7635</width></LineStyle><BalloonStyle><text><![CDATA[<h3>$[name]</h3>]]></text></BalloonStyle></Style><StyleMap id="line-4186F0-4509-nodesc"><Pair><key>normal</key><styleUrl>#line-4186F0-4509-nodesc-normal</styleUrl></Pair><Pair><key>highlight</key><styleUrl>#line-4186F0-4509-nodesc-highlight</styleUrl></Pair></StyleMap><Folder><name>Untitled layer</name><Placemark><name>Course</name><styleUrl>#line-4186F0-4509-nodesc</styleUrl><LineString><tessellate>1</tessellate><coordinates>            -0.327787,51.066509,0            -0.3265,51.066252,0            -0.325942,51.066037,0            -0.32547,51.066023,0            -0.324719,51.066765,0            -0.324633,51.067008,0            -0.32414,51.067399,0            -0.324805,51.067763,0            -0.32532,51.067587,0            -0.325599,51.067682,0            -0.325749,51.067884,0            -0.325084,51.068316,0            -0.325084,51.068572,0            -0.325642,51.069044,0            -0.325212,51.06934,0            -0.326071,51.069812,0            -0.326607,51.069974,0            -0.326908,51.07019,0            -0.327187,51.070298,0            -0.327637,51.07019,0            -0.327659,51.069907,0            -0.328453,51.067264,0            -0.328174,51.067008,0            -0.328217,51.066657,0            -0.328453,51.066563,0            -0.32886,51.066428,0            -0.328453,51.065565,0            -0.328088,51.065268,0            -0.328324,51.064944,0            -0.327401,51.064526,0            -0.326436,51.065187,0            -0.325406,51.066104,0            -0.325277,51.066266,0            -0.325599,51.066536,0            -0.326071,51.066697,0          </coordinates></LineString></Placemark><Placemark><name>Start</name><styleUrl>#icon-503-009D57-nodesc</styleUrl><Point><coordinates>            -0.327787,51.066509,0          </coordinates></Point></Placemark><Placemark><name>Finish</name><styleUrl>#icon-503-DB4436-nodesc</styleUrl><Point><coordinates>            -0.326071,51.066697,0          </coordinates></Point></Placemark></Folder></Document></kml>