<?xml version="1.0" encoding="UTF-8"?><kml xmlns="http://www.opengis.net/kml/2.2"><Document><name>Hucknall junior parkrun</name><description/><Style id="icon-1219-nodesc-normal"><IconStyle><scale>1.1</scale><Icon><href>https://www.gstatic.com/mapspro/images/stock/1219-fac-wc-unisex.png</href></Icon></IconStyle><LabelStyle><scale>0</scale></LabelStyle><BalloonStyle><text><![CDATA[<h3>$[name]</h3>]]></text></BalloonStyle></Style><Style id="icon-1219-nodesc-highlight"><IconStyle><scale>1.1</scale><Icon><href>https://www.gstatic.com/mapspro/images/stock/1219-fac-wc-unisex.png</href></Icon></IconStyle><LabelStyle><scale>1.1</scale></LabelStyle><BalloonStyle><text><![CDATA[<h3>$[name]</h3>]]></text></BalloonStyle></Style><StyleMap id="icon-1219-nodesc"><Pair><key>normal</key><styleUrl>#icon-1219-nodesc-normal</styleUrl></Pair><Pair><key>highlight</key><styleUrl>#icon-1219-nodesc-highlight</styleUrl></Pair></StyleMap><Style id="icon-1453-nodesc-normal"><IconStyle><scale>1.1</scale><Icon><href>https://www.gstatic.com/mapspro/images/stock/1453-trans-parking.png</href></Icon></IconStyle><LabelStyle><scale>0</scale></LabelStyle><BalloonStyle><text><![CDATA[<h3>$[name]</h3>]]></text></BalloonStyle></Style><Style id="icon-1453-nodesc-highlight"><IconStyle><scale>1.1</scale><Icon><href>https://www.gstatic.com/mapspro/images/stock/1453-trans-parking.png</href></Icon></IconStyle><LabelStyle><scale>1.1</scale></LabelStyle><BalloonStyle><text><![CDATA[<h3>$[name]</h3>]]></text></BalloonStyle></Style><StyleMap id="icon-1453-nodesc"><Pair><key>normal</key><styleUrl>#icon-1453-nodesc-normal</styleUrl></Pair><Pair><key>highlight</key><styleUrl>#icon-1453-nodesc-highlight</styleUrl></Pair></StyleMap><Style id="icon-503-009D57-nodesc-normal"><IconStyle><color>ff579d00</color><scale>1.1</scale><Icon><href>https://www.gstatic.com/mapspro/images/stock/503-wht-blank_maps.png</href></Icon><hotSpot x="16" xunits="pixels" y="32" yunits="insetPixels"/></IconStyle><LabelStyle><scale>0</scale></LabelStyle><BalloonStyle><text><![CDATA[<h3>$[name]</h3>]]></text></BalloonStyle></Style><Style id="icon-503-009D57-nodesc-highlight"><IconStyle><color>ff579d00</color><scale>1.1</scale><Icon><href>https://www.gstatic.com/mapspro/images/stock/503-wht-blank_maps.png</href></Icon><hotSpot x="16" xunits="pixels" y="32" yunits="insetPixels"/></IconStyle><LabelStyle><scale>1.1</scale></LabelStyle><BalloonStyle><text><![CDATA[<h3>$[name]</h3>]]></text></BalloonStyle></Style><StyleMap id="icon-503-009D57-nodesc"><Pair><key>normal</key><styleUrl>#icon-503-009D57-nodesc-normal</styleUrl></Pair><Pair><key>highlight</key><styleUrl>#icon-503-009D57-nodesc-highlight</styleUrl></Pair></StyleMap><Style id="icon-503-DB4436-nodesc-normal"><IconStyle><color>ff3644db</color><scale>1.1</scale><Icon><href>https://www.gstatic.com/mapspro/images/stock/503-wht-blank_maps.png</href></Icon><hotSpot x="16" xunits="pixels" y="32" yunits="insetPixels"/></IconStyle><LabelStyle><scale>0</scale></LabelStyle><BalloonStyle><text><![CDATA[<h3>$[name]</h3>]]></text></BalloonStyle></Style><Style id="icon-503-DB4436-nodesc-highlight"><IconStyle><color>ff3644db</color><scale>1.1</scale><Icon><href>https://www.gstatic.com/mapspro/images/stock/503-wht-blank_maps.png</href></Icon><hotSpot x="16" xunits="pixels" y="32" yunits="insetPixels"/></IconStyle><LabelStyle><scale>1.1</scale></LabelStyle><BalloonStyle><text><![CDATA[<h3>$[name]</h3>]]></text></BalloonStyle></Style><StyleMap id="icon-503-DB4436-nodesc"><Pair><key>normal</key><styleUrl>#icon-503-DB4436-nodesc-normal</styleUrl></Pair><Pair><key>highlight</key><styleUrl>#icon-503-DB4436-nodesc-highlight</styleUrl></Pair></StyleMap><Style id="icon-991-nodesc-normal"><IconStyle><scale>1.1</scale><Icon><href>https://www.gstatic.com/mapspro/images/stock/991-biz-cafe.png</href></Icon></IconStyle><LabelStyle><scale>0</scale></LabelStyle><BalloonStyle><text><![CDATA[<h3>$[name]</h3>]]></text></BalloonStyle></Style><Style id="icon-991-nodesc-highlight"><IconStyle><scale>1.1</scale><Icon><href>https://www.gstatic.com/mapspro/images/stock/991-biz-cafe.png</href></Icon></IconStyle><LabelStyle><scale>1.1</scale></LabelStyle><BalloonStyle><text><![CDATA[<h3>$[name]</h3>]]></text></BalloonStyle></Style><StyleMap id="icon-991-nodesc"><Pair><key>normal</key><styleUrl>#icon-991-nodesc-normal</styleUrl></Pair><Pair><key>highlight</key><styleUrl>#icon-991-nodesc-highlight</styleUrl></Pair></StyleMap><Style id="line-4186F0-4681-nodesc-normal"><LineStyle><color>fff08641</color><width>4.681</width></LineStyle><BalloonStyle><text><![CDATA[<h3>$[name]</h3>]]></text></BalloonStyle></Style><Style id="line-4186F0-4681-nodesc-highlight"><LineStyle><color>fff08641</color><width>7.0215</width></LineStyle><BalloonStyle><text><![CDATA[<h3>$[name]</h3>]]></text></BalloonStyle></Style><StyleMap id="line-4186F0-4681-nodesc"><Pair><key>normal</key><styleUrl>#line-4186F0-4681-nodesc-normal</styleUrl></Pair><Pair><key>highlight</key><styleUrl>#line-4186F0-4681-nodesc-highlight</styleUrl></Pair></StyleMap><Folder><name>Hucknall junior parkrun</name><Placemark><name>course</name><styleUrl>#line-4186F0-4681-nodesc</styleUrl><LineString><tessellate>1</tessellate><coordinates>            -1.203518,53.029271,0            -1.202815,53.03,0            -1.203142,53.030165,0            -1.203352,53.030316,0            -1.203427,53.030449,0            -1.203411,53.030597,0            -1.203325,53.030746,0            -1.203185,53.030865,0            -1.203062,53.030933,0            -1.20303,53.030991,0            -1.20303,53.031142,0            -1.202821,53.031249,0            -1.202563,53.031372,0            -1.202413,53.031449,0            -1.202247,53.031633,0            -1.202204,53.031707,0            -1.202236,53.031839,0            -1.202273,53.031946,0            -1.202225,53.031949,0            -1.202139,53.031933,0            -1.202048,53.031917,0            -1.201917,53.031876,0            -1.201764,53.031836,0            -1.201683,53.031817,0            -1.201576,53.031791,0            -1.201455,53.031759,0            -1.20134,53.031736,0            -1.201136,53.031681,0            -1.200986,53.031642,0            -1.200809,53.031594,0            -1.200723,53.031562,0            -1.20061,53.031533,0            -1.200541,53.0315,0            -1.200573,53.03141,0            -1.200487,53.031291,0            -1.200562,53.031142,0            -1.200798,53.030923,0            -1.200911,53.030804,0            -1.201174,53.030668,0            -1.201088,53.030546,0            -1.200964,53.030371,0            -1.200981,53.030181,0            -1.201088,53.030007,0            -1.201276,53.029891,0            -1.201442,53.029765,0            -1.201614,53.029591,0            -1.201662,53.029442,0            -1.201892,53.029171,0            -1.202037,53.029016,0            -1.202236,53.02872,0            -1.20244,53.028468,0            -1.203845,53.028852,0            -1.203539,53.029246,0          </coordinates></LineString></Placemark><Placemark><name>Start</name><styleUrl>#icon-503-009D57-nodesc</styleUrl><Point><coordinates>            -1.203631,53.029126,0          </coordinates></Point></Placemark><Placemark><name>Finish</name><styleUrl>#icon-503-DB4436-nodesc</styleUrl><Point><coordinates>            -1.203604,53.029152,0          </coordinates></Point></Placemark><Placemark><name>Toilets</name><styleUrl>#icon-1219-nodesc</styleUrl><Point><coordinates>            -1.203373,53.030078,0          </coordinates></Point></Placemark><Placemark><name>Cafe</name><styleUrl>#icon-991-nodesc</styleUrl><Point><coordinates>            -1.203303,53.030004,0          </coordinates></Point></Placemark><Placemark><name>Parking</name><styleUrl>#icon-1453-nodesc</styleUrl><Point><coordinates>            -1.199999,53.032407,0          </coordinates></Point></Placemark><Placemark><name>Parking</name><styleUrl>#icon-1453-nodesc</styleUrl><Point><coordinates>            -1.204003,53.029828,0          </coordinates></Point></Placemark></Folder></Document></kml>