<?xml version="1.0" encoding="UTF-8"?><kml xmlns="http://www.opengis.net/kml/2.2"><Document><name>Irchester Country parkrun</name><description/><Style id="icon-1899-0F9D58-nodesc-normal"><IconStyle><color>ff589d0f</color><scale>1</scale><Icon><href>https://www.gstatic.com/mapspro/images/stock/503-wht-blank_maps.png</href></Icon><hotSpot x="32" xunits="pixels" y="64" yunits="insetPixels"/></IconStyle><LabelStyle><scale>0</scale></LabelStyle><BalloonStyle><text><![CDATA[<h3>$[name]</h3>]]></text></BalloonStyle></Style><Style id="icon-1899-0F9D58-nodesc-highlight"><IconStyle><color>ff589d0f</color><scale>1</scale><Icon><href>https://www.gstatic.com/mapspro/images/stock/503-wht-blank_maps.png</href></Icon><hotSpot x="32" xunits="pixels" y="64" yunits="insetPixels"/></IconStyle><LabelStyle><scale>1</scale></LabelStyle><BalloonStyle><text><![CDATA[<h3>$[name]</h3>]]></text></BalloonStyle></Style><StyleMap id="icon-1899-0F9D58-nodesc"><Pair><key>normal</key><styleUrl>#icon-1899-0F9D58-nodesc-normal</styleUrl></Pair><Pair><key>highlight</key><styleUrl>#icon-1899-0F9D58-nodesc-highlight</styleUrl></Pair></StyleMap><Style id="icon-1899-FF5252-nodesc-normal"><IconStyle><color>ff5252ff</color><scale>1</scale><Icon><href>https://www.gstatic.com/mapspro/images/stock/503-wht-blank_maps.png</href></Icon><hotSpot x="32" xunits="pixels" y="64" yunits="insetPixels"/></IconStyle><LabelStyle><scale>0</scale></LabelStyle><BalloonStyle><text><![CDATA[<h3>$[name]</h3>]]></text></BalloonStyle></Style><Style id="icon-1899-FF5252-nodesc-highlight"><IconStyle><color>ff5252ff</color><scale>1</scale><Icon><href>https://www.gstatic.com/mapspro/images/stock/503-wht-blank_maps.png</href></Icon><hotSpot x="32" xunits="pixels" y="64" yunits="insetPixels"/></IconStyle><LabelStyle><scale>1</scale></LabelStyle><BalloonStyle><text><![CDATA[<h3>$[name]</h3>]]></text></BalloonStyle></Style><StyleMap id="icon-1899-FF5252-nodesc"><Pair><key>normal</key><styleUrl>#icon-1899-FF5252-nodesc-normal</styleUrl></Pair><Pair><key>highlight</key><styleUrl>#icon-1899-FF5252-nodesc-highlight</styleUrl></Pair></StyleMap><Style id="line-0288D1-5000-nodesc-normal"><LineStyle><color>ffd18802</color><width>5</width></LineStyle><BalloonStyle><text><![CDATA[<h3>$[name]</h3>]]></text></BalloonStyle></Style><Style id="line-0288D1-5000-nodesc-highlight"><LineStyle><color>ffd18802</color><width>7.5</width></LineStyle><BalloonStyle><text><![CDATA[<h3>$[name]</h3>]]></text></BalloonStyle></Style><StyleMap id="line-0288D1-5000-nodesc"><Pair><key>normal</key><styleUrl>#line-0288D1-5000-nodesc-normal</styleUrl></Pair><Pair><key>highlight</key><styleUrl>#line-0288D1-5000-nodesc-highlight</styleUrl></Pair></StyleMap><Folder><name>Untitled layer</name><Placemark><name>Course</name><styleUrl>#line-0288D1-5000-nodesc</styleUrl><LineString><tessellate>1</tessellate><coordinates>            -0.67358,52.28507,0            -0.67271,52.28493,0            -0.67169,52.2847,0            -0.67024,52.28464,0            -0.66916,52.28472,0            -0.66917,52.28484,0            -0.66913,52.28492,0            -0.66902,52.28504,0            -0.66884,52.2851,0            -0.66866,52.28526,0            -0.66807,52.28562,0            -0.66724,52.28607,0            -0.66693,52.28654,0            -0.66674,52.28688,0            -0.66661,52.28694,0            -0.66548,52.28681,0            -0.66522,52.28669,0            -0.6648,52.28648,0            -0.664418,52.286127,0            -0.66429,52.28612,0            -0.66342,52.28643,0            -0.66314,52.28662,0            -0.662655,52.28705,0            -0.66217,52.28748,0            -0.66192,52.28783,0            -0.66129,52.28774,0            -0.66081,52.28756,0            -0.66056,52.28741,0            -0.66026,52.286665,0            -0.65996,52.28592,0            -0.659873,52.285227,0            -0.659787,52.284533,0            -0.6597,52.28384,0            -0.65968,52.28339,0            -0.65979,52.28287,0            -0.6599,52.28235,0            -0.66007,52.28207,0            -0.65976,52.28205,0            -0.6587,52.282103,0            -0.65764,52.282157,0            -0.65658,52.28221,0            -0.6559,52.28238,0            -0.65595,52.28259,0            -0.656165,52.28319,0            -0.65638,52.28379,0            -0.656565,52.284375,0            -0.65675,52.28496,0            -0.657045,52.28546,0            -0.65734,52.28596,0            -0.656195,52.286265,0            -0.65505,52.28657,0            -0.65411,52.2863,0            -0.6543,52.28603,0            -0.65395,52.2852,0            -0.65381,52.28494,0            -0.65395,52.28423,0            -0.65409,52.28392,0            -0.65476,52.28331,0            -0.65493,52.28308,0            -0.65498,52.28289,0            -0.65512,52.28276,0            -0.65541,52.28259,0            -0.6559,52.28238,0            -0.65658,52.28221,0            -0.65764,52.282157,0            -0.6587,52.282103,0            -0.65976,52.28205,0            -0.66007,52.28207,0            -0.66,52.28218,0            -0.6599,52.28235,0            -0.65979,52.28287,0            -0.65968,52.28339,0            -0.6597,52.28384,0            -0.659787,52.284533,0            -0.659873,52.285227,0            -0.65996,52.28592,0            -0.66026,52.286665,0            -0.66056,52.28741,0            -0.66081,52.28756,0            -0.66129,52.28774,0            -0.66192,52.28783,0            -0.66217,52.28748,0            -0.662655,52.28705,0            -0.66314,52.28662,0            -0.66342,52.28643,0            -0.66429,52.28612,0            -0.664418,52.286127,0            -0.6648,52.28648,0            -0.66522,52.28669,0            -0.66548,52.28681,0            -0.66661,52.28694,0            -0.66674,52.28688,0            -0.66693,52.28654,0            -0.66724,52.28607,0            -0.66807,52.28562,0            -0.66866,52.28526,0            -0.66884,52.2851,0            -0.66902,52.28504,0            -0.66913,52.28492,0            -0.66917,52.28484,0            -0.66916,52.28472,0            -0.669769,52.28469,0            -0.669968,52.284712,0            -0.670161,52.284704,0          </coordinates></LineString></Placemark><Placemark><name>Finish</name><styleUrl>#icon-1899-FF5252-nodesc</styleUrl><Point><coordinates>            -0.670403,52.284764,0          </coordinates></Point></Placemark><Placemark><name>Start</name><styleUrl>#icon-1899-0F9D58-nodesc</styleUrl><Point><coordinates>            -0.673557,52.28512,0          </coordinates></Point></Placemark></Folder></Document></kml>