<?xml version="1.0" encoding="UTF-8"?><kml xmlns="http://www.opengis.net/kml/2.2"><Document><name>Jacks Road junior parkrun</name><description/><Style id="icon-1899-0F9D58-nodesc-normal"><IconStyle><color>ff589d0f</color><scale>1</scale><Icon><href>https://www.gstatic.com/mapspro/images/stock/503-wht-blank_maps.png</href></Icon><hotSpot x="32" xunits="pixels" y="64" yunits="insetPixels"/></IconStyle><LabelStyle><scale>0</scale></LabelStyle><BalloonStyle><text><![CDATA[<h3>$[name]</h3>]]></text></BalloonStyle></Style><Style id="icon-1899-0F9D58-nodesc-highlight"><IconStyle><color>ff589d0f</color><scale>1</scale><Icon><href>https://www.gstatic.com/mapspro/images/stock/503-wht-blank_maps.png</href></Icon><hotSpot x="32" xunits="pixels" y="64" yunits="insetPixels"/></IconStyle><LabelStyle><scale>1</scale></LabelStyle><BalloonStyle><text><![CDATA[<h3>$[name]</h3>]]></text></BalloonStyle></Style><StyleMap id="icon-1899-0F9D58-nodesc"><Pair><key>normal</key><styleUrl>#icon-1899-0F9D58-nodesc-normal</styleUrl></Pair><Pair><key>highlight</key><styleUrl>#icon-1899-0F9D58-nodesc-highlight</styleUrl></Pair></StyleMap><Style id="icon-1899-FF5252-nodesc-normal"><IconStyle><color>ff5252ff</color><scale>1</scale><Icon><href>https://www.gstatic.com/mapspro/images/stock/503-wht-blank_maps.png</href></Icon><hotSpot x="32" xunits="pixels" y="64" yunits="insetPixels"/></IconStyle><LabelStyle><scale>0</scale></LabelStyle><BalloonStyle><text><![CDATA[<h3>$[name]</h3>]]></text></BalloonStyle></Style><Style id="icon-1899-FF5252-nodesc-highlight"><IconStyle><color>ff5252ff</color><scale>1</scale><Icon><href>https://www.gstatic.com/mapspro/images/stock/503-wht-blank_maps.png</href></Icon><hotSpot x="32" xunits="pixels" y="64" yunits="insetPixels"/></IconStyle><LabelStyle><scale>1</scale></LabelStyle><BalloonStyle><text><![CDATA[<h3>$[name]</h3>]]></text></BalloonStyle></Style><StyleMap id="icon-1899-FF5252-nodesc"><Pair><key>normal</key><styleUrl>#icon-1899-FF5252-nodesc-normal</styleUrl></Pair><Pair><key>highlight</key><styleUrl>#icon-1899-FF5252-nodesc-highlight</styleUrl></Pair></StyleMap><Style id="line-0288D1-4294-nodesc-normal"><LineStyle><color>ffd18802</color><width>4.294</width></LineStyle><BalloonStyle><text><![CDATA[<h3>$[name]</h3>]]></text></BalloonStyle></Style><Style id="line-0288D1-4294-nodesc-highlight"><LineStyle><color>ffd18802</color><width>6.441</width></LineStyle><BalloonStyle><text><![CDATA[<h3>$[name]</h3>]]></text></BalloonStyle></Style><StyleMap id="line-0288D1-4294-nodesc"><Pair><key>normal</key><styleUrl>#line-0288D1-4294-nodesc-normal</styleUrl></Pair><Pair><key>highlight</key><styleUrl>#line-0288D1-4294-nodesc-highlight</styleUrl></Pair></StyleMap><Folder><name>Jacks Road Junior Parkrun</name><Placemark><name>Course</name><styleUrl>#line-0288D1-4294-nodesc</styleUrl><LineString><tessellate>1</tessellate><coordinates>            -4.794592,55.642895,0            -4.794438,55.642863,0            -4.794375,55.642854,0            -4.794162,55.642807,0            -4.7938,55.642738,0            -4.793641,55.642691,0            -4.793511,55.642639,0            -4.793424,55.642585,0            -4.793342,55.642497,0            -4.793318,55.642419,0            -4.793326,55.642326,0            -4.793378,55.64223,0            -4.793452,55.642171,0            -4.793547,55.642115,0            -4.793739,55.642055,0            -4.793948,55.642032,0            -4.794108,55.642035,0            -4.795524,55.64233,0            -4.795707,55.642422,0            -4.795788,55.642512,0            -4.79582,55.642632,0            -4.7958,55.642698,0            -4.79577,55.642762,0            -4.795714,55.642831,0            -4.795615,55.64289,0            -4.795443,55.642955,0            -4.795239,55.642985,0            -4.795141,55.64298,0            -4.795,55.642956,0            -4.793757,55.642707,0            -4.793643,55.64286,0            -4.795347,55.643195,0            -4.795422,55.643074,0            -4.79568,55.643019,0            -4.795862,55.642886,0            -4.795959,55.642686,0            -4.795884,55.642402,0            -4.796398,55.642199,0            -4.796538,55.64239,0            -4.796034,55.642928,0            -4.79569,55.643268,0            -4.795229,55.643843,0            -4.794784,55.644362,0            -4.794237,55.644303,0            -4.791249,55.643879,0            -4.790044,55.643632,0            -4.790441,55.642983,0            -4.790809,55.642844,0            -4.791007,55.64258,0            -4.791022,55.642481,0            -4.791084,55.64238,0            -4.791116,55.642342,0            -4.793609,55.64285,0            -4.793749,55.642692,0            -4.79359,55.642656,0            -4.79345,55.642579,0            -4.793368,55.642495,0            -4.793336,55.642405,0            -4.793352,55.642322,0            -4.793378,55.642261,0            -4.793443,55.642191,0            -4.793542,55.642132,0            -4.793688,55.642075,0            -4.793852,55.642049,0            -4.794088,55.642051,0            -4.795513,55.642347,0            -4.795642,55.642408,0            -4.795712,55.642461,0            -4.795755,55.64253,0            -4.795787,55.642598,0            -4.795784,55.642673,0            -4.795755,55.642738,0            -4.795712,55.642795,0            -4.795658,55.642845,0            -4.795562,55.642891,0            -4.795436,55.642939,0            -4.795336,55.642956,0            -4.795226,55.642971,0            -4.795094,55.642959,0            -4.795008,55.642941,0            -4.794634,55.642876,0          </coordinates></LineString></Placemark><Placemark><name>Finish</name><styleUrl>#icon-1899-FF5252-nodesc</styleUrl><Point><coordinates>            -4.794598,55.642891,0          </coordinates></Point></Placemark><Placemark><name>Start</name><styleUrl>#icon-1899-0F9D58-nodesc</styleUrl><Point><coordinates>            -4.794632,55.642868,0          </coordinates></Point></Placemark></Folder></Document></kml>