<?xml version="1.0" encoding="UTF-8"?><kml xmlns="http://www.opengis.net/kml/2.2"><Document><name>Kennington Park junior parkrun</name><description/><Style id="icon-1899-0F9D58-nodesc-normal"><IconStyle><color>ff589d0f</color><scale>1</scale><Icon><href>https://www.gstatic.com/mapspro/images/stock/503-wht-blank_maps.png</href></Icon><hotSpot x="32" xunits="pixels" y="64" yunits="insetPixels"/></IconStyle><LabelStyle><scale>0</scale></LabelStyle><BalloonStyle><text><![CDATA[<h3>$[name]</h3>]]></text></BalloonStyle></Style><Style id="icon-1899-0F9D58-nodesc-highlight"><IconStyle><color>ff589d0f</color><scale>1</scale><Icon><href>https://www.gstatic.com/mapspro/images/stock/503-wht-blank_maps.png</href></Icon><hotSpot x="32" xunits="pixels" y="64" yunits="insetPixels"/></IconStyle><LabelStyle><scale>1</scale></LabelStyle><BalloonStyle><text><![CDATA[<h3>$[name]</h3>]]></text></BalloonStyle></Style><StyleMap id="icon-1899-0F9D58-nodesc"><Pair><key>normal</key><styleUrl>#icon-1899-0F9D58-nodesc-normal</styleUrl></Pair><Pair><key>highlight</key><styleUrl>#icon-1899-0F9D58-nodesc-highlight</styleUrl></Pair></StyleMap><Style id="icon-1899-FF5252-nodesc-normal"><IconStyle><color>ff5252ff</color><scale>1</scale><Icon><href>https://www.gstatic.com/mapspro/images/stock/503-wht-blank_maps.png</href></Icon><hotSpot x="32" xunits="pixels" y="64" yunits="insetPixels"/></IconStyle><LabelStyle><scale>0</scale></LabelStyle><BalloonStyle><text><![CDATA[<h3>$[name]</h3>]]></text></BalloonStyle></Style><Style id="icon-1899-FF5252-nodesc-highlight"><IconStyle><color>ff5252ff</color><scale>1</scale><Icon><href>https://www.gstatic.com/mapspro/images/stock/503-wht-blank_maps.png</href></Icon><hotSpot x="32" xunits="pixels" y="64" yunits="insetPixels"/></IconStyle><LabelStyle><scale>1</scale></LabelStyle><BalloonStyle><text><![CDATA[<h3>$[name]</h3>]]></text></BalloonStyle></Style><StyleMap id="icon-1899-FF5252-nodesc"><Pair><key>normal</key><styleUrl>#icon-1899-FF5252-nodesc-normal</styleUrl></Pair><Pair><key>highlight</key><styleUrl>#icon-1899-FF5252-nodesc-highlight</styleUrl></Pair></StyleMap><Style id="line-0288D1-5844-nodesc-normal"><LineStyle><color>ffd18802</color><width>5.844</width></LineStyle><BalloonStyle><text><![CDATA[<h3>$[name]</h3>]]></text></BalloonStyle></Style><Style id="line-0288D1-5844-nodesc-highlight"><LineStyle><color>ffd18802</color><width>8.766</width></LineStyle><BalloonStyle><text><![CDATA[<h3>$[name]</h3>]]></text></BalloonStyle></Style><StyleMap id="line-0288D1-5844-nodesc"><Pair><key>normal</key><styleUrl>#line-0288D1-5844-nodesc-normal</styleUrl></Pair><Pair><key>highlight</key><styleUrl>#line-0288D1-5844-nodesc-highlight</styleUrl></Pair></StyleMap><Folder><name>Untitled layer</name><Placemark><name>Course</name><styleUrl>#line-0288D1-5844-nodesc</styleUrl><LineString><tessellate>1</tessellate><coordinates>            -0.10875,51.48269,0            -0.10894,51.48269,0            -0.10923,51.4827,0            -0.10959,51.48269,0            -0.10966,51.48269,0            -0.10973,51.48268,0            -0.10985,51.48267,0            -0.11004,51.48265,0            -0.11016,51.48262,0            -0.11022,51.48253,0            -0.11026,51.48248,0            -0.1103,51.48242,0            -0.11033,51.48237,0            -0.11037,51.48224,0            -0.11039,51.48219,0            -0.11042,51.48208,0            -0.11046,51.48186,0            -0.11047,51.48183,0            -0.1105,51.48173,0            -0.11051,51.48171,0            -0.11053,51.48168,0            -0.11055,51.48166,0            -0.1106,51.48169,0            -0.11066,51.48179,0            -0.1109,51.48219,0            -0.11096,51.48232,0            -0.11096,51.48234,0            -0.11097,51.48243,0            -0.11096,51.4825,0            -0.11091,51.48259,0            -0.11076,51.48281,0            -0.11072,51.48285,0            -0.11024,51.48337,0            -0.11021,51.4834,0            -0.11008,51.48353,0            -0.10948,51.48413,0            -0.10931,51.48428,0            -0.1092,51.48439,0            -0.10905,51.48454,0            -0.1089,51.48469,0            -0.10875,51.48484,0            -0.10864,51.48494,0            -0.10863,51.48496,0            -0.10842,51.48515,0            -0.10839,51.4852,0            -0.10837,51.48524,0            -0.10835,51.4853,0            -0.10834,51.48534,0            -0.10834,51.48536,0            -0.10834,51.48539,0            -0.10834,51.48544,0            -0.10833,51.48546,0            -0.10832,51.48549,0            -0.10827,51.48546,0            -0.10823,51.48544,0            -0.10819,51.48541,0            -0.10815,51.48537,0            -0.10813,51.48536,0            -0.10806,51.48532,0            -0.10801,51.48529,0            -0.10796,51.48525,0            -0.10793,51.48524,0            -0.10789,51.48522,0            -0.10786,51.48522,0            -0.1078,51.48521,0            -0.10773,51.4852,0            -0.10766,51.48519,0            -0.10765,51.48519,0            -0.10758,51.48518,0            -0.10752,51.48515,0            -0.10745,51.48512,0            -0.10741,51.4851,0            -0.10738,51.48508,0            -0.10732,51.48505,0            -0.10728,51.48502,0            -0.10722,51.48497,0            -0.10722,51.48496,0            -0.10717,51.4849,0            -0.10715,51.48486,0            -0.10713,51.4848,0            -0.10712,51.48474,0            -0.10709,51.48465,0            -0.10785,51.48394,0            -0.10811,51.48397,0            -0.10812,51.48388,0            -0.10815,51.48375,0            -0.10816,51.48365,0            -0.10817,51.48362,0            -0.10821,51.48352,0            -0.10825,51.48348,0            -0.10828,51.48345,0            -0.10834,51.4834,0            -0.1085,51.48329,0            -0.10857,51.48323,0            -0.10865,51.48315,0            -0.10867,51.48313,0            -0.1088,51.48298,0            -0.10888,51.48292,0            -0.10895,51.48286,0            -0.10899,51.48284,0            -0.10902,51.48281,0            -0.10905,51.48278,0            -0.1091,51.48275,0            -0.10923,51.4827,0            -0.10959,51.48269,0            -0.10966,51.48269,0            -0.10973,51.48268,0            -0.10985,51.48267,0            -0.11004,51.48265,0            -0.11016,51.48262,0            -0.11022,51.48253,0            -0.11026,51.48248,0            -0.1103,51.48242,0            -0.11033,51.48237,0            -0.11037,51.48224,0            -0.11039,51.48219,0            -0.11042,51.48208,0            -0.11046,51.48186,0            -0.11047,51.48183,0            -0.1105,51.48173,0            -0.11051,51.48171,0            -0.11053,51.48168,0            -0.11055,51.48166,0            -0.1106,51.48169,0            -0.11066,51.48179,0            -0.1109,51.48219,0            -0.11096,51.48232,0            -0.11096,51.48234,0            -0.11097,51.48243,0            -0.11096,51.4825,0            -0.11091,51.48259,0            -0.11076,51.48281,0            -0.11072,51.48285,0            -0.11024,51.48337,0            -0.11021,51.4834,0            -0.11008,51.48353,0            -0.10948,51.48413,0            -0.10931,51.48428,0            -0.1092,51.48439,0            -0.10905,51.48454,0            -0.1089,51.48469,0            -0.10875,51.48484,0            -0.10864,51.48494,0            -0.10863,51.48496,0            -0.10842,51.48515,0            -0.10839,51.4852,0            -0.10837,51.48524,0            -0.10835,51.4853,0            -0.10834,51.48534,0            -0.10834,51.48536,0            -0.10834,51.48539,0            -0.10834,51.48544,0            -0.10833,51.48546,0            -0.10832,51.48549,0            -0.10827,51.48546,0            -0.10823,51.48544,0            -0.10819,51.48541,0            -0.10815,51.48537,0            -0.10813,51.48536,0            -0.10806,51.48532,0            -0.10801,51.48529,0            -0.10796,51.48525,0            -0.10793,51.48524,0            -0.10789,51.48522,0            -0.10786,51.48522,0            -0.1078,51.48521,0            -0.10773,51.4852,0            -0.10766,51.48519,0            -0.10765,51.48519,0            -0.10758,51.48518,0            -0.10752,51.48515,0            -0.10745,51.48512,0            -0.10741,51.4851,0            -0.10738,51.48508,0            -0.10732,51.48505,0            -0.10728,51.48502,0            -0.10722,51.48497,0            -0.10722,51.48496,0            -0.10717,51.4849,0            -0.10715,51.48486,0            -0.10713,51.4848,0            -0.10712,51.48474,0            -0.10709,51.48465,0            -0.10785,51.48394,0            -0.10811,51.48397,0            -0.10812,51.48388,0            -0.10815,51.48375,0            -0.10816,51.48365,0            -0.10817,51.48362,0          </coordinates></LineString></Placemark><Placemark><name>Start</name><styleUrl>#icon-1899-0F9D58-nodesc</styleUrl><Point><coordinates>            -0.108748,51.482689,0          </coordinates></Point></Placemark><Placemark><name>Finish</name><styleUrl>#icon-1899-FF5252-nodesc</styleUrl><Point><coordinates>            -0.108172,51.483622,0          </coordinates></Point></Placemark></Folder></Document></kml>