<?xml version="1.0" encoding="UTF-8"?><kml xmlns="http://www.opengis.net/kml/2.2"><Document><name>Kingsway Park parkrun, Urmston</name><description/><Style id="icon-1899-FFEA00-nodesc-normal"><IconStyle><color>ff00eaff</color><scale>1</scale><Icon><href>https://www.gstatic.com/mapspro/images/stock/503-wht-blank_maps.png</href></Icon><hotSpot x="32" xunits="pixels" y="64" yunits="insetPixels"/></IconStyle><LabelStyle><scale>0</scale></LabelStyle><BalloonStyle><text><![CDATA[<h3>$[name]</h3>]]></text></BalloonStyle></Style><Style id="icon-1899-FFEA00-nodesc-highlight"><IconStyle><color>ff00eaff</color><scale>1</scale><Icon><href>https://www.gstatic.com/mapspro/images/stock/503-wht-blank_maps.png</href></Icon><hotSpot x="32" xunits="pixels" y="64" yunits="insetPixels"/></IconStyle><LabelStyle><scale>1</scale></LabelStyle><BalloonStyle><text><![CDATA[<h3>$[name]</h3>]]></text></BalloonStyle></Style><StyleMap id="icon-1899-FFEA00-nodesc"><Pair><key>normal</key><styleUrl>#icon-1899-FFEA00-nodesc-normal</styleUrl></Pair><Pair><key>highlight</key><styleUrl>#icon-1899-FFEA00-nodesc-highlight</styleUrl></Pair></StyleMap><Style id="line-0288D1-5456-nodesc-normal"><LineStyle><color>ffd18802</color><width>5.456</width></LineStyle><BalloonStyle><text><![CDATA[<h3>$[name]</h3>]]></text></BalloonStyle></Style><Style id="line-0288D1-5456-nodesc-highlight"><LineStyle><color>ffd18802</color><width>8.184</width></LineStyle><BalloonStyle><text><![CDATA[<h3>$[name]</h3>]]></text></BalloonStyle></Style><StyleMap id="line-0288D1-5456-nodesc"><Pair><key>normal</key><styleUrl>#line-0288D1-5456-nodesc-normal</styleUrl></Pair><Pair><key>highlight</key><styleUrl>#line-0288D1-5456-nodesc-highlight</styleUrl></Pair></StyleMap><Folder><name>Untitled layer</name><Placemark><name>Course</name><styleUrl>#line-0288D1-5456-nodesc</styleUrl><LineString><tessellate>1</tessellate><coordinates>            -2.3459305,53.4582853,0            -2.3459886,53.4582627,0            -2.34634,53.4582324,0            -2.3466377,53.4583234,0            -2.34681,53.45837,0            -2.346753,53.45878,0            -2.346716,53.459217,0            -2.346593,53.459503,0            -2.346525,53.45957,0            -2.346822,53.45985,0            -2.347288,53.459938,0            -2.3480378,53.4598437,0            -2.348348,53.459663,0            -2.3485045,53.4595052,0            -2.3484723,53.4587291,0            -2.348499,53.45868,0            -2.348802,53.45862,0            -2.350503,53.45886,0            -2.3521255,53.4586492,0            -2.35283,53.45859,0            -2.353125,53.459103,0            -2.353885,53.4592145,0            -2.3545771,53.459684,0            -2.3552262,53.4598086,0            -2.355475,53.459724,0            -2.355691,53.459396,0            -2.3530589,53.458761,0            -2.3528765,53.4584448,0            -2.352534,53.458427,0            -2.350876,53.458744,0            -2.3502158,53.4585119,0            -2.3494433,53.4584895,0            -2.3490463,53.4585087,0            -2.3482417,53.4582787,0            -2.3471688,53.4581637,0            -2.346853,53.45823,0            -2.34681,53.45837,0            -2.346853,53.45823,0            -2.3471688,53.4581637,0            -2.3459242,53.4582052,0          </coordinates></LineString></Placemark><Placemark><name>Start/Finish</name><styleUrl>#icon-1899-FFEA00-nodesc</styleUrl><Point><coordinates>            -2.3459433,53.4582,0          </coordinates></Point></Placemark></Folder></Document></kml>