<?xml version="1.0" encoding="UTF-8"?><kml xmlns="http://www.opengis.net/kml/2.2"><Document><name>Kirkwall parkrun</name><description/><Style id="icon-1502-0288D1-nodesc-normal"><IconStyle><color>ffd18802</color><scale>1</scale><Icon><href>https://www.gstatic.com/mapspro/images/stock/503-wht-blank_maps.png</href></Icon></IconStyle><LabelStyle><scale>0</scale></LabelStyle><BalloonStyle><text><![CDATA[<h3>$[name]</h3>]]></text></BalloonStyle></Style><Style id="icon-1502-0288D1-nodesc-highlight"><IconStyle><color>ffd18802</color><scale>1</scale><Icon><href>https://www.gstatic.com/mapspro/images/stock/503-wht-blank_maps.png</href></Icon></IconStyle><LabelStyle><scale>1</scale></LabelStyle><BalloonStyle><text><![CDATA[<h3>$[name]</h3>]]></text></BalloonStyle></Style><StyleMap id="icon-1502-0288D1-nodesc"><Pair><key>normal</key><styleUrl>#icon-1502-0288D1-nodesc-normal</styleUrl></Pair><Pair><key>highlight</key><styleUrl>#icon-1502-0288D1-nodesc-highlight</styleUrl></Pair></StyleMap><Style id="icon-1899-FFEA00-nodesc-normal"><IconStyle><color>ff00eaff</color><scale>1</scale><Icon><href>https://www.gstatic.com/mapspro/images/stock/503-wht-blank_maps.png</href></Icon><hotSpot x="32" xunits="pixels" y="64" yunits="insetPixels"/></IconStyle><LabelStyle><scale>0</scale></LabelStyle><BalloonStyle><text><![CDATA[<h3>$[name]</h3>]]></text></BalloonStyle></Style><Style id="icon-1899-FFEA00-nodesc-highlight"><IconStyle><color>ff00eaff</color><scale>1</scale><Icon><href>https://www.gstatic.com/mapspro/images/stock/503-wht-blank_maps.png</href></Icon><hotSpot x="32" xunits="pixels" y="64" yunits="insetPixels"/></IconStyle><LabelStyle><scale>1</scale></LabelStyle><BalloonStyle><text><![CDATA[<h3>$[name]</h3>]]></text></BalloonStyle></Style><StyleMap id="icon-1899-FFEA00-nodesc"><Pair><key>normal</key><styleUrl>#icon-1899-FFEA00-nodesc-normal</styleUrl></Pair><Pair><key>highlight</key><styleUrl>#icon-1899-FFEA00-nodesc-highlight</styleUrl></Pair></StyleMap><Style id="line-0288D1-6000-nodesc-normal"><LineStyle><color>ffd18802</color><width>6</width></LineStyle><BalloonStyle><text><![CDATA[<h3>$[name]</h3>]]></text></BalloonStyle></Style><Style id="line-0288D1-6000-nodesc-highlight"><LineStyle><color>ffd18802</color><width>9</width></LineStyle><BalloonStyle><text><![CDATA[<h3>$[name]</h3>]]></text></BalloonStyle></Style><StyleMap id="line-0288D1-6000-nodesc"><Pair><key>normal</key><styleUrl>#line-0288D1-6000-nodesc-normal</styleUrl></Pair><Pair><key>highlight</key><styleUrl>#line-0288D1-6000-nodesc-highlight</styleUrl></Pair></StyleMap><Folder><name>Untitled layer</name><Placemark><name>Start/Finish</name><styleUrl>#icon-1899-FFEA00-nodesc</styleUrl><Point><coordinates>            -2.968486,58.98296,0          </coordinates></Point></Placemark><Placemark><name>Cone 1</name><styleUrl>#icon-1502-0288D1-nodesc</styleUrl><Point><coordinates>            -2.966555,58.981227,0          </coordinates></Point></Placemark><Placemark><name>Cone 2</name><styleUrl>#icon-1502-0288D1-nodesc</styleUrl><Point><coordinates>            -2.964367,58.984599,0          </coordinates></Point></Placemark><Placemark><name>Course</name><styleUrl>#line-0288D1-6000-nodesc</styleUrl><LineString><tessellate>1</tessellate><coordinates>            -2.968486,58.98296,0            -2.968379,58.982874,0            -2.968304,58.982758,0            -2.968358,58.982609,0            -2.968508,58.982471,0            -2.968808,58.982349,0            -2.969441,58.982089,0            -2.969162,58.981863,0            -2.968841,58.981652,0            -2.968615,58.981553,0            -2.968368,58.981542,0            -2.968047,58.981553,0            -2.967757,58.981509,0            -2.967424,58.981409,0            -2.966952,58.981293,0            -2.966555,58.981227,0            -2.967156,58.981343,0            -2.967575,58.981448,0            -2.968057,58.981547,0            -2.96868,58.98157,0            -2.96898,58.98173,0            -2.969388,58.98205,0            -2.969892,58.982476,0            -2.970557,58.983129,0            -2.970944,58.983543,0            -2.971233,58.983936,0            -2.971448,58.984301,0            -2.971501,58.984433,0            -2.97148,58.984605,0            -2.97134,58.984947,0            -2.971158,58.98529,0            -2.970772,58.985224,0            -2.970428,58.985102,0            -2.970171,58.985008,0            -2.969806,58.984953,0            -2.969356,58.984981,0            -2.969066,58.984931,0            -2.968798,58.984848,0            -2.968637,58.98476,0            -2.968433,58.98477,0            -2.967982,58.98487,0            -2.967435,58.984958,0            -2.967049,58.984947,0            -2.966427,58.984842,0            -2.965794,58.984754,0            -2.964978,58.984671,0            -2.964367,58.984599,0            -2.965182,58.984688,0            -2.966384,58.984837,0            -2.967167,58.984964,0            -2.967575,58.984958,0            -2.967972,58.98487,0            -2.968648,58.98476,0            -2.968873,58.984864,0            -2.96913,58.984627,0            -2.969398,58.984345,0            -2.969516,58.98393,0            -2.969388,58.98351,0            -2.96928,58.983228,0            -2.969012,58.983162,0            -2.968733,58.983084,0            -2.968583,58.982996,0          </coordinates></LineString></Placemark></Folder></Document></kml>