<?xml version="1.0" encoding="UTF-8"?><kml xmlns="http://www.opengis.net/kml/2.2"><Document><name>Larne junior parkrun (from May 2023)</name><description/><Style id="line-0288D1-4875-nodesc-normal"><LineStyle><color>ffd18802</color><width>4.875</width></LineStyle><BalloonStyle><text><![CDATA[<h3>$[name]</h3>]]></text></BalloonStyle></Style><Style id="line-0288D1-4875-nodesc-highlight"><LineStyle><color>ffd18802</color><width>7.3125</width></LineStyle><BalloonStyle><text><![CDATA[<h3>$[name]</h3>]]></text></BalloonStyle></Style><StyleMap id="line-0288D1-4875-nodesc"><Pair><key>normal</key><styleUrl>#line-0288D1-4875-nodesc-normal</styleUrl></Pair><Pair><key>highlight</key><styleUrl>#line-0288D1-4875-nodesc-highlight</styleUrl></Pair></StyleMap><Folder><name>Untitled layer</name><Placemark><name>Course</name><styleUrl>#line-0288D1-4875-nodesc</styleUrl><LineString><tessellate>1</tessellate><coordinates>            -5.8097378,54.8572528,0            -5.80875,54.857065,0            -5.80871,54.856994,0            -5.808618,54.856962,0            -5.808519,54.856967,0            -5.8083593,54.8568579,0            -5.8080514,54.8567524,0            -5.807765,54.856721,0            -5.807494,54.856744,0            -5.807244,54.856816,0            -5.807057,54.856927,0            -5.806932,54.857025,0            -5.806575,54.857118,0            -5.806932,54.857025,0            -5.8068696,54.8572019,0            -5.8068852,54.8573538,0            -5.807072,54.857571,0            -5.8068852,54.8573538,0            -5.8068696,54.8572019,0            -5.806932,54.857025,0            -5.806575,54.857118,0            -5.806381,54.857154,0            -5.80633,54.857178,0            -5.806371,54.857274,0            -5.806488,54.857404,0            -5.80652,54.857527,0            -5.806523,54.857651,0            -5.806484,54.857704,0            -5.806483,54.857779,0            -5.80659,54.857853,0            -5.806649,54.857928,0            -5.806735,54.857949,0            -5.807199,54.857636,0            -5.807412,54.85772,0            -5.807595,54.857751,0            -5.807774,54.857755,0            -5.80794,54.857743,0            -5.80811,54.857705,0            -5.80826,54.857659,0            -5.808389,54.857598,0            -5.808489,54.857524,0            -5.80859,54.857433,0            -5.80864,54.857344,0            -5.808641,54.857224,0            -5.808633,54.857142,0            -5.808684,54.857116,0            -5.808734,54.857087,0            -5.8097214,54.857271,0            -5.8097378,54.8572528,0          </coordinates></LineString></Placemark></Folder></Document></kml>