<?xml version="1.0" encoding="UTF-8"?><kml xmlns="http://www.opengis.net/kml/2.2"><Document><name>Leamington parkrun</name><description>The start is about 600m east of the bottom Observation Hill, right next to the 11th hole/12th tee. The course goes clockwise, a lap and a bit, up to the golf club before turning back to finish at the bottom of Observation Hill. 5k, job done!</description><Style id="icon-123-nodesc-normal"><IconStyle><scale>1.1</scale><Icon><href>https://www.gstatic.com/mapspro/images/stock/123-red-dot.png</href></Icon><hotSpot x="16" xunits="pixels" y="32" yunits="insetPixels"/></IconStyle><LabelStyle><scale>0</scale></LabelStyle><BalloonStyle><text><![CDATA[<h3>$[name]</h3>]]></text></BalloonStyle></Style><Style id="icon-123-nodesc-highlight"><IconStyle><scale>1.1</scale><Icon><href>https://www.gstatic.com/mapspro/images/stock/123-red-dot.png</href></Icon><hotSpot x="16" xunits="pixels" y="32" yunits="insetPixels"/></IconStyle><LabelStyle><scale>1.1</scale></LabelStyle><BalloonStyle><text><![CDATA[<h3>$[name]</h3>]]></text></BalloonStyle></Style><StyleMap id="icon-123-nodesc"><Pair><key>normal</key><styleUrl>#icon-123-nodesc-normal</styleUrl></Pair><Pair><key>highlight</key><styleUrl>#icon-123-nodesc-highlight</styleUrl></Pair></StyleMap><Style id="icon-35-normal"><IconStyle><scale>1.1</scale><Icon><href>https://www.gstatic.com/mapspro/images/stock/35-coffeehouse.png</href></Icon></IconStyle><LabelStyle><scale>0</scale></LabelStyle></Style><Style id="icon-35-highlight"><IconStyle><scale>1.1</scale><Icon><href>https://www.gstatic.com/mapspro/images/stock/35-coffeehouse.png</href></Icon></IconStyle><LabelStyle><scale>1.1</scale></LabelStyle></Style><StyleMap id="icon-35"><Pair><key>normal</key><styleUrl>#icon-35-normal</styleUrl></Pair><Pair><key>highlight</key><styleUrl>#icon-35-highlight</styleUrl></Pair></StyleMap><Style id="icon-61-nodesc-normal"><IconStyle><scale>1.1</scale><Icon><href>https://www.gstatic.com/mapspro/images/stock/61-green-dot.png</href></Icon><hotSpot x="16" xunits="pixels" y="32" yunits="insetPixels"/></IconStyle><LabelStyle><scale>0</scale></LabelStyle><BalloonStyle><text><![CDATA[<h3>$[name]</h3>]]></text></BalloonStyle></Style><Style id="icon-61-nodesc-highlight"><IconStyle><scale>1.1</scale><Icon><href>https://www.gstatic.com/mapspro/images/stock/61-green-dot.png</href></Icon><hotSpot x="16" xunits="pixels" y="32" yunits="insetPixels"/></IconStyle><LabelStyle><scale>1.1</scale></LabelStyle><BalloonStyle><text><![CDATA[<h3>$[name]</h3>]]></text></BalloonStyle></Style><StyleMap id="icon-61-nodesc"><Pair><key>normal</key><styleUrl>#icon-61-nodesc-normal</styleUrl></Pair><Pair><key>highlight</key><styleUrl>#icon-61-nodesc-highlight</styleUrl></Pair></StyleMap><Style id="icon-93-normal"><IconStyle><scale>1.1</scale><Icon><href>https://www.gstatic.com/mapspro/images/stock/93-parkinglot.png</href></Icon></IconStyle><LabelStyle><scale>0</scale></LabelStyle></Style><Style id="icon-93-highlight"><IconStyle><scale>1.1</scale><Icon><href>https://www.gstatic.com/mapspro/images/stock/93-parkinglot.png</href></Icon></IconStyle><LabelStyle><scale>1.1</scale></LabelStyle></Style><StyleMap id="icon-93"><Pair><key>normal</key><styleUrl>#icon-93-normal</styleUrl></Pair><Pair><key>highlight</key><styleUrl>#icon-93-highlight</styleUrl></Pair></StyleMap><Style id="line-0000FF-5000-normal"><LineStyle><color>ffff0000</color><width>5</width></LineStyle></Style><Style id="line-0000FF-5000-highlight"><LineStyle><color>ffff0000</color><width>7.5</width></LineStyle></Style><StyleMap id="line-0000FF-5000"><Pair><key>normal</key><styleUrl>#line-0000FF-5000-normal</styleUrl></Pair><Pair><key>highlight</key><styleUrl>#line-0000FF-5000-highlight</styleUrl></Pair></StyleMap><Folder><name>Untitled layer</name><Placemark><name>Start</name><styleUrl>#icon-61-nodesc</styleUrl><Point><coordinates>            -1.510583,52.286636,0          </coordinates></Point></Placemark><Placemark><name>Finish</name><styleUrl>#icon-123-nodesc</styleUrl><Point><coordinates>            -1.510674,52.286648,0          </coordinates></Point></Placemark><Placemark><name>Parking</name><description>Join us here for a coffee and chat after the event</description><styleUrl>#icon-93</styleUrl><Point><coordinates>            -1.512755,52.28911,0          </coordinates></Point></Placemark><Placemark><name>Leamington parkrun Finish</name><description>Cafe (in Football Pavilion)</description><styleUrl>#icon-93</styleUrl><Point><coordinates>            -1.516972,52.290592,0          </coordinates></Point></Placemark><Placemark><name>Cafe (in Football Pavilion)</name><description>Join us here for coffee and chat after each event</description><styleUrl>#icon-35</styleUrl><Point><coordinates>            -1.510663,52.286839,0          </coordinates></Point></Placemark><Placemark><name>Leamington parkrun Course</name><description>Leamington parkrun Course</description><styleUrl>#line-0000FF-5000</styleUrl><LineString><tessellate>1</tessellate><coordinates>            -1.510599,52.286663,0            -1.509789,52.287083,0            -1.50915,52.287998,0            -1.507595,52.287537,0            -1.50642,52.287296,0            -1.504521,52.286945,0            -1.504762,52.286274,0            -1.504741,52.286121,0            -1.50392,52.286079,0            -1.503904,52.286217,0            -1.50414,52.286526,0            -1.50422,52.2868,0            -1.504381,52.286869,0            -1.504365,52.286976,0            -1.504515,52.287132,0            -1.505578,52.2873,0            -1.507933,52.287792,0            -1.508925,52.288074,0            -1.509247,52.288166,0            -1.509719,52.288383,0            -1.510486,52.288647,0            -1.511961,52.289181,0            -1.513088,52.289673,0            -1.513415,52.289864,0            -1.513796,52.290081,0            -1.514193,52.290318,0            -1.514858,52.290657,0            -1.515293,52.290894,0            -1.515781,52.291149,0            -1.516108,52.291313,0            -1.516505,52.291462,0            -1.516864,52.29155,0            -1.517873,52.29179,0            -1.51798,52.292206,0            -1.518034,52.292393,0            -1.518323,52.292648,0            -1.518629,52.292587,0            -1.518769,52.292637,0            -1.518833,52.292816,0            -1.518865,52.29303,0            -1.518828,52.293243,0            -1.518586,52.293659,0            -1.51805,52.293934,0            -1.517937,52.294132,0            -1.518034,52.294304,0            -1.518205,52.294426,0            -1.518216,52.294525,0            -1.517422,52.294785,0            -1.516677,52.294922,0            -1.516086,52.295139,0            -1.515325,52.295376,0            -1.514997,52.295486,0            -1.513989,52.295704,0            -1.513399,52.295853,0            -1.512884,52.295914,0            -1.512766,52.295742,0            -1.512385,52.295334,0            -1.512122,52.294949,0            -1.511849,52.294571,0            -1.511693,52.294353,0            -1.511537,52.294174,0            -1.511355,52.293972,0            -1.510867,52.293678,0            -1.510524,52.293457,0            -1.510186,52.29327,0            -1.509842,52.293076,0            -1.509499,52.292961,0            -1.509145,52.292793,0            -1.5087,52.292603,0            -1.508324,52.292412,0            -1.508077,52.292305,0            -1.50775,52.292179,0            -1.507241,52.291992,0            -1.506854,52.291836,0            -1.506141,52.2915,0            -1.505717,52.291256,0            -1.505288,52.291035,0            -1.505046,52.290871,0            -1.504451,52.290604,0            -1.503609,52.290203,0            -1.503153,52.289993,0            -1.503185,52.289917,0            -1.503443,52.28968,0            -1.503469,52.289581,0            -1.503394,52.289482,0            -1.502954,52.289303,0            -1.502241,52.289005,0            -1.502278,52.288914,0            -1.502472,52.288746,0            -1.502472,52.288658,0            -1.502241,52.288471,0            -1.501849,52.288174,0            -1.501179,52.287704,0            -1.500712,52.287354,0            -1.50017,52.286976,0            -1.500149,52.28693,0            -1.500165,52.286816,0            -1.500288,52.286678,0            -1.500481,52.286427,0            -1.500653,52.286179,0            -1.500873,52.285988,0            -1.500975,52.285877,0            -1.50112,52.285812,0            -1.501839,52.285892,0            -1.502525,52.285961,0            -1.50341,52.286041,0            -1.503877,52.286064,0            -1.503893,52.28619,0            -1.504113,52.286503,0            -1.504247,52.286781,0            -1.504344,52.286869,0            -1.504344,52.286953,0            -1.504521,52.287106,0            -1.505637,52.287308,0            -1.507133,52.287613,0            -1.507868,52.287781,0            -1.508635,52.287979,0            -1.509209,52.288128,0            -1.509429,52.287746,0            -1.509612,52.287487,0            -1.509907,52.287098,0            -1.510684,52.286671,0            -1.510722,52.286694,0          </coordinates></LineString></Placemark><Placemark><name>Start</name><styleUrl>#icon-61-nodesc</styleUrl><Point><coordinates>            -1.510583,52.286636,0          </coordinates></Point></Placemark></Folder></Document></kml>