<?xml version="1.0" encoding="UTF-8"?><kml xmlns="http://www.opengis.net/kml/2.2"><Document><name>Levengrove parkrun</name><description/><Style id="icon-1899-0F9D58-nodesc-normal"><IconStyle><color>ff589d0f</color><scale>1</scale><Icon><href>https://www.gstatic.com/mapspro/images/stock/503-wht-blank_maps.png</href></Icon><hotSpot x="32" xunits="pixels" y="64" yunits="insetPixels"/></IconStyle><LabelStyle><scale>0</scale></LabelStyle><BalloonStyle><text><![CDATA[<h3>$[name]</h3>]]></text></BalloonStyle></Style><Style id="icon-1899-0F9D58-nodesc-highlight"><IconStyle><color>ff589d0f</color><scale>1</scale><Icon><href>https://www.gstatic.com/mapspro/images/stock/503-wht-blank_maps.png</href></Icon><hotSpot x="32" xunits="pixels" y="64" yunits="insetPixels"/></IconStyle><LabelStyle><scale>1</scale></LabelStyle><BalloonStyle><text><![CDATA[<h3>$[name]</h3>]]></text></BalloonStyle></Style><StyleMap id="icon-1899-0F9D58-nodesc"><Pair><key>normal</key><styleUrl>#icon-1899-0F9D58-nodesc-normal</styleUrl></Pair><Pair><key>highlight</key><styleUrl>#icon-1899-0F9D58-nodesc-highlight</styleUrl></Pair></StyleMap><Style id="icon-1899-F9A825-nodesc-normal"><IconStyle><color>ff25a8f9</color><scale>1</scale><Icon><href>https://www.gstatic.com/mapspro/images/stock/503-wht-blank_maps.png</href></Icon><hotSpot x="32" xunits="pixels" y="64" yunits="insetPixels"/></IconStyle><LabelStyle><scale>0</scale></LabelStyle><BalloonStyle><text><![CDATA[<h3>$[name]</h3>]]></text></BalloonStyle></Style><Style id="icon-1899-F9A825-nodesc-highlight"><IconStyle><color>ff25a8f9</color><scale>1</scale><Icon><href>https://www.gstatic.com/mapspro/images/stock/503-wht-blank_maps.png</href></Icon><hotSpot x="32" xunits="pixels" y="64" yunits="insetPixels"/></IconStyle><LabelStyle><scale>1</scale></LabelStyle><BalloonStyle><text><![CDATA[<h3>$[name]</h3>]]></text></BalloonStyle></Style><StyleMap id="icon-1899-F9A825-nodesc"><Pair><key>normal</key><styleUrl>#icon-1899-F9A825-nodesc-normal</styleUrl></Pair><Pair><key>highlight</key><styleUrl>#icon-1899-F9A825-nodesc-highlight</styleUrl></Pair></StyleMap><Style id="icon-1899-FF5252-nodesc-normal"><IconStyle><color>ff5252ff</color><scale>1</scale><Icon><href>https://www.gstatic.com/mapspro/images/stock/503-wht-blank_maps.png</href></Icon><hotSpot x="32" xunits="pixels" y="64" yunits="insetPixels"/></IconStyle><LabelStyle><scale>0</scale></LabelStyle><BalloonStyle><text><![CDATA[<h3>$[name]</h3>]]></text></BalloonStyle></Style><Style id="icon-1899-FF5252-nodesc-highlight"><IconStyle><color>ff5252ff</color><scale>1</scale><Icon><href>https://www.gstatic.com/mapspro/images/stock/503-wht-blank_maps.png</href></Icon><hotSpot x="32" xunits="pixels" y="64" yunits="insetPixels"/></IconStyle><LabelStyle><scale>1</scale></LabelStyle><BalloonStyle><text><![CDATA[<h3>$[name]</h3>]]></text></BalloonStyle></Style><StyleMap id="icon-1899-FF5252-nodesc"><Pair><key>normal</key><styleUrl>#icon-1899-FF5252-nodesc-normal</styleUrl></Pair><Pair><key>highlight</key><styleUrl>#icon-1899-FF5252-nodesc-highlight</styleUrl></Pair></StyleMap><Style id="line-0288D1-5263-nodesc-normal"><LineStyle><color>ffd18802</color><width>5.263</width></LineStyle><BalloonStyle><text><![CDATA[<h3>$[name]</h3>]]></text></BalloonStyle></Style><Style id="line-0288D1-5263-nodesc-highlight"><LineStyle><color>ffd18802</color><width>7.8945</width></LineStyle><BalloonStyle><text><![CDATA[<h3>$[name]</h3>]]></text></BalloonStyle></Style><StyleMap id="line-0288D1-5263-nodesc"><Pair><key>normal</key><styleUrl>#line-0288D1-5263-nodesc-normal</styleUrl></Pair><Pair><key>highlight</key><styleUrl>#line-0288D1-5263-nodesc-highlight</styleUrl></Pair></StyleMap><Folder><name>Untitled layer</name><Placemark><name>Course</name><styleUrl>#line-0288D1-5263-nodesc</styleUrl><LineString><tessellate>1</tessellate><coordinates>            -4.576344,55.940802,0            -4.5763808,55.9408137,0            -4.5765712,55.9408381,0            -4.5770299,55.9409451,0            -4.577144,55.940978,0            -4.577162,55.940999,0            -4.5765014,55.9415911,0            -4.57631,55.941803,0            -4.576218,55.941838,0            -4.576076,55.941859,0            -4.576169,55.941901,0            -4.576277,55.941999,0            -4.5764719,55.9421956,0            -4.576663,55.942299,0            -4.576813,55.942384,0            -4.57695,55.942411,0            -4.576947,55.942313,0            -4.5771157,55.941787,0            -4.5771693,55.9416458,0            -4.5772391,55.9414836,0            -4.5772619,55.9413221,0            -4.5773034,55.9411141,0            -4.57722,55.941018,0            -4.577246,55.940948,0            -4.577404,55.94076,0            -4.577543,55.940557,0            -4.57765,55.940326,0            -4.5777487,55.9399454,0            -4.5778721,55.9394977,0            -4.5778935,55.9393205,0            -4.577773,55.939089,0            -4.5775798,55.9389539,0            -4.5775073,55.9389359,0            -4.576861,55.938831,0            -4.5765565,55.9387873,0            -4.5764237,55.9387406,0            -4.5760643,55.9385994,0            -4.5755332,55.9384252,0            -4.5753911,55.9383771,0            -4.5750236,55.938323,0            -4.5746735,55.9383358,0            -4.5743289,55.9384056,0            -4.5742069,55.9384545,0            -4.5741385,55.9385153,0            -4.574066,55.938562,0            -4.573916,55.93879,0            -4.5737468,55.9391943,0            -4.5736181,55.9395849,0            -4.5735162,55.9399153,0            -4.5734303,55.9401106,0            -4.573318,55.940261,0            -4.5737951,55.94033,0            -4.5746588,55.9405102,0            -4.575041,55.9405755,0            -4.5754044,55.9406544,0            -4.575557,55.940695,0            -4.57557,55.940729,0            -4.575459,55.941032,0            -4.575402,55.941075,0            -4.575209,55.941117,0            -4.574839,55.941146,0            -4.574665,55.941147,0            -4.5739829,55.9411441,0            -4.5739379,55.9411138,0            -4.573858,55.941082,0            -4.5737093,55.9410735,0            -4.573602,55.941089,0            -4.573527,55.941117,0            -4.57346,55.941153,0            -4.5734035,55.9411494,0            -4.572699,55.941108,0            -4.572682,55.941326,0            -4.5727866,55.9415077,0            -4.5731192,55.941751,0            -4.5737522,55.9419433,0            -4.574493,55.941997,0            -4.574765,55.9420024,0            -4.5750504,55.9419853,0            -4.5753186,55.9418982,0            -4.575562,55.941817,0            -4.575823,55.941801,0            -4.5759978,55.9418292,0            -4.576076,55.941859,0            -4.575999,55.941801,0            -4.57598,55.941765,0            -4.575962,55.941581,0            -4.575912,55.941472,0            -4.575827,55.941383,0            -4.575624,55.941242,0            -4.5755171,55.9411051,0            -4.575682,55.94073,0          </coordinates></LineString></Placemark><Placemark><name>Turn left after third lap</name><styleUrl>#icon-1899-F9A825-nodesc</styleUrl><Point><coordinates>            -4.57615,55.941854,0          </coordinates></Point></Placemark><Placemark><name>Start</name><styleUrl>#icon-1899-0F9D58-nodesc</styleUrl><Point><coordinates>            -4.575682,55.94073,0          </coordinates></Point></Placemark><Placemark><name>Finish</name><styleUrl>#icon-1899-FF5252-nodesc</styleUrl><Point><coordinates>            -4.576326,55.940804,0          </coordinates></Point></Placemark></Folder></Document></kml>