<?xml version="1.0" encoding="UTF-8"?><kml xmlns="http://www.opengis.net/kml/2.2"><Document><name>Lingwood Village Hall junior parkrun</name><description/><Style id="icon-1899-0F9D58-nodesc-normal"><IconStyle><color>ff589d0f</color><scale>1</scale><Icon><href>https://www.gstatic.com/mapspro/images/stock/503-wht-blank_maps.png</href></Icon><hotSpot x="32" xunits="pixels" y="64" yunits="insetPixels"/></IconStyle><LabelStyle><scale>0</scale></LabelStyle><BalloonStyle><text><![CDATA[<h3>$[name]</h3>]]></text></BalloonStyle></Style><Style id="icon-1899-0F9D58-nodesc-highlight"><IconStyle><color>ff589d0f</color><scale>1</scale><Icon><href>https://www.gstatic.com/mapspro/images/stock/503-wht-blank_maps.png</href></Icon><hotSpot x="32" xunits="pixels" y="64" yunits="insetPixels"/></IconStyle><LabelStyle><scale>1</scale></LabelStyle><BalloonStyle><text><![CDATA[<h3>$[name]</h3>]]></text></BalloonStyle></Style><StyleMap id="icon-1899-0F9D58-nodesc"><Pair><key>normal</key><styleUrl>#icon-1899-0F9D58-nodesc-normal</styleUrl></Pair><Pair><key>highlight</key><styleUrl>#icon-1899-0F9D58-nodesc-highlight</styleUrl></Pair></StyleMap><Style id="icon-1899-FF5252-nodesc-normal"><IconStyle><color>ff5252ff</color><scale>1</scale><Icon><href>https://www.gstatic.com/mapspro/images/stock/503-wht-blank_maps.png</href></Icon><hotSpot x="32" xunits="pixels" y="64" yunits="insetPixels"/></IconStyle><LabelStyle><scale>0</scale></LabelStyle><BalloonStyle><text><![CDATA[<h3>$[name]</h3>]]></text></BalloonStyle></Style><Style id="icon-1899-FF5252-nodesc-highlight"><IconStyle><color>ff5252ff</color><scale>1</scale><Icon><href>https://www.gstatic.com/mapspro/images/stock/503-wht-blank_maps.png</href></Icon><hotSpot x="32" xunits="pixels" y="64" yunits="insetPixels"/></IconStyle><LabelStyle><scale>1</scale></LabelStyle><BalloonStyle><text><![CDATA[<h3>$[name]</h3>]]></text></BalloonStyle></Style><StyleMap id="icon-1899-FF5252-nodesc"><Pair><key>normal</key><styleUrl>#icon-1899-FF5252-nodesc-normal</styleUrl></Pair><Pair><key>highlight</key><styleUrl>#icon-1899-FF5252-nodesc-highlight</styleUrl></Pair></StyleMap><Style id="line-0288D1-3925-nodesc-normal"><LineStyle><color>ffd18802</color><width>3.925</width></LineStyle><BalloonStyle><text><![CDATA[<h3>$[name]</h3>]]></text></BalloonStyle></Style><Style id="line-0288D1-3925-nodesc-highlight"><LineStyle><color>ffd18802</color><width>5.8875</width></LineStyle><BalloonStyle><text><![CDATA[<h3>$[name]</h3>]]></text></BalloonStyle></Style><StyleMap id="line-0288D1-3925-nodesc"><Pair><key>normal</key><styleUrl>#line-0288D1-3925-nodesc-normal</styleUrl></Pair><Pair><key>highlight</key><styleUrl>#line-0288D1-3925-nodesc-highlight</styleUrl></Pair></StyleMap><Folder><name>Untitled layer</name><Placemark><name>Course</name><styleUrl>#line-0288D1-3925-nodesc</styleUrl><LineString><tessellate>1</tessellate><coordinates>            1.493592,52.61887,0            1.493608,52.619124,0            1.493608,52.619323,0            1.49363,52.619366,0            1.493737,52.619369,0            1.493973,52.619366,0            1.494295,52.619369,0            1.494756,52.619395,0            1.495046,52.619408,0            1.495132,52.619379,0            1.495196,52.619304,0            1.495239,52.618942,0            1.495304,52.618222,0            1.495293,52.618154,0            1.495234,52.618125,0            1.495143,52.618105,0            1.494917,52.618115,0            1.494638,52.618131,0            1.494413,52.618151,0            1.494225,52.618187,0            1.49408,52.618203,0            1.493941,52.618203,0            1.493834,52.618222,0            1.493775,52.618274,0            1.493748,52.618353,0            1.49378,52.618545,0            1.493812,52.618626,0            1.493893,52.618656,0            1.493995,52.618639,0            1.494086,52.618587,0            1.494188,52.618525,0            1.494531,52.618437,0            1.494638,52.618388,0            1.49474,52.61831,0            1.494832,52.618255,0            1.494939,52.618222,0            1.495025,52.618196,0            1.495116,52.618226,0            1.495137,52.618297,0            1.495116,52.618421,0            1.495068,52.61861,0            1.495068,52.61873,0            1.495089,52.618864,0            1.4951,52.619014,0            1.495105,52.619151,0            1.4951,52.619248,0            1.495062,52.61931,0            1.494992,52.61934,0            1.494821,52.619336,0            1.494,52.619304,0            1.493925,52.619284,0            1.493882,52.619219,0            1.493855,52.619108,0            1.493818,52.619004,0            1.493769,52.618936,0            1.493786,52.618877,0            1.4941771,52.6187402,0            1.4944692,52.6186263,0            1.4947265,52.6185742,0            1.494842,52.618594,0            1.4948955,52.618666,0            1.4949277,52.6188296,0            1.4948955,52.618666,0            1.494842,52.618594,0            1.4947265,52.6185742,0            1.4944906,52.6186202,0            1.493871,52.6188553,0            1.494,52.618919,0            1.494075,52.61902,0            1.494177,52.619151,0            1.494263,52.619222,0            1.494456,52.619261,0            1.494676,52.619284,0            1.494933,52.619248,0            1.494998,52.61917,0            1.494998,52.618809,0            1.49496,52.618574,0            1.494869,52.618519,0            1.49466,52.618506,0            1.494445,52.618548,0            1.494274,52.61859,0            1.494134,52.618656,0            1.493995,52.61873,0            1.493844,52.61877,0            1.493726,52.618779,0            1.493619,52.618786,0            1.493587,52.618828,0            1.493592,52.618949,0          </coordinates></LineString></Placemark><Placemark><name>Finish</name><styleUrl>#icon-1899-FF5252-nodesc</styleUrl><Point><coordinates>            1.494912,52.618818,0          </coordinates></Point></Placemark><Placemark><name>Start</name><styleUrl>#icon-1899-0F9D58-nodesc</styleUrl><Point><coordinates>            1.493587,52.618897,0          </coordinates></Point></Placemark></Folder></Document></kml>