<?xml version="1.0" encoding="UTF-8"?><kml xmlns="http://www.opengis.net/kml/2.2"><Document><name>Lingwood parkrun Winter Course (from Oct 2024)</name><description/><Style id="icon-1899-0F9D58-nodesc-normal"><IconStyle><color>ff589d0f</color><scale>1</scale><Icon><href>https://www.gstatic.com/mapspro/images/stock/503-wht-blank_maps.png</href></Icon><hotSpot x="32" xunits="pixels" y="64" yunits="insetPixels"/></IconStyle><LabelStyle><scale>0</scale></LabelStyle><BalloonStyle><text><![CDATA[<h3>$[name]</h3>]]></text></BalloonStyle></Style><Style id="icon-1899-0F9D58-nodesc-highlight"><IconStyle><color>ff589d0f</color><scale>1</scale><Icon><href>https://www.gstatic.com/mapspro/images/stock/503-wht-blank_maps.png</href></Icon><hotSpot x="32" xunits="pixels" y="64" yunits="insetPixels"/></IconStyle><LabelStyle><scale>1</scale></LabelStyle><BalloonStyle><text><![CDATA[<h3>$[name]</h3>]]></text></BalloonStyle></Style><StyleMap id="icon-1899-0F9D58-nodesc"><Pair><key>normal</key><styleUrl>#icon-1899-0F9D58-nodesc-normal</styleUrl></Pair><Pair><key>highlight</key><styleUrl>#icon-1899-0F9D58-nodesc-highlight</styleUrl></Pair></StyleMap><Style id="icon-1899-FF5252-nodesc-normal"><IconStyle><color>ff5252ff</color><scale>1</scale><Icon><href>https://www.gstatic.com/mapspro/images/stock/503-wht-blank_maps.png</href></Icon><hotSpot x="32" xunits="pixels" y="64" yunits="insetPixels"/></IconStyle><LabelStyle><scale>0</scale></LabelStyle><BalloonStyle><text><![CDATA[<h3>$[name]</h3>]]></text></BalloonStyle></Style><Style id="icon-1899-FF5252-nodesc-highlight"><IconStyle><color>ff5252ff</color><scale>1</scale><Icon><href>https://www.gstatic.com/mapspro/images/stock/503-wht-blank_maps.png</href></Icon><hotSpot x="32" xunits="pixels" y="64" yunits="insetPixels"/></IconStyle><LabelStyle><scale>1</scale></LabelStyle><BalloonStyle><text><![CDATA[<h3>$[name]</h3>]]></text></BalloonStyle></Style><StyleMap id="icon-1899-FF5252-nodesc"><Pair><key>normal</key><styleUrl>#icon-1899-FF5252-nodesc-normal</styleUrl></Pair><Pair><key>highlight</key><styleUrl>#icon-1899-FF5252-nodesc-highlight</styleUrl></Pair></StyleMap><Style id="line-0288D1-4294-nodesc-normal"><LineStyle><color>ffd18802</color><width>4.294</width></LineStyle><BalloonStyle><text><![CDATA[<h3>$[name]</h3>]]></text></BalloonStyle></Style><Style id="line-0288D1-4294-nodesc-highlight"><LineStyle><color>ffd18802</color><width>6.441</width></LineStyle><BalloonStyle><text><![CDATA[<h3>$[name]</h3>]]></text></BalloonStyle></Style><StyleMap id="line-0288D1-4294-nodesc"><Pair><key>normal</key><styleUrl>#line-0288D1-4294-nodesc-normal</styleUrl></Pair><Pair><key>highlight</key><styleUrl>#line-0288D1-4294-nodesc-highlight</styleUrl></Pair></StyleMap><Folder><name>Untitled layer</name><Placemark><name>Course</name><styleUrl>#line-0288D1-4294-nodesc</styleUrl><LineString><tessellate>1</tessellate><coordinates>            1.492709,52.618226,0            1.4933,52.618221,0            1.49346,52.618246,0            1.493536,52.618307,0            1.493576,52.618405,0            1.493584,52.618544,0            1.493584,52.618648,0            1.493592,52.618832,0            1.493619,52.619094,0            1.493592,52.619213,0            1.493528,52.619262,0            1.493391,52.619307,0            1.493246,52.619307,0            1.492919,52.619293,0            1.492498,52.619271,0            1.492208,52.619255,0            1.491822,52.619228,0            1.491706,52.619164,0            1.491642,52.619099,0            1.491628,52.619047,0            1.491623,52.618532,0            1.491628,52.618386,0            1.491677,52.618307,0            1.491738,52.618259,0            1.491883,52.618239,0            1.492042,52.618231,0            1.492125,52.618232,0            1.492219,52.618229,0            1.492296,52.618252,0            1.492353,52.61835,0            1.492361,52.618457,0            1.492358,52.618669,0            1.49235,52.618853,0            1.492353,52.619,0            1.492406,52.619079,0            1.492508,52.619136,0            1.492712,52.619148,0            1.492884,52.619151,0            1.493047,52.619151,0            1.493246,52.619148,0            1.493385,52.619143,0            1.493495,52.619102,0            1.493511,52.619032,0            1.493517,52.618894,0            1.493525,52.618812,0            1.493616,52.618781,0            1.493756,52.618775,0            1.493865,52.61877,0            1.493989,52.618729,0            1.494072,52.6187,0            1.494139,52.61867,0            1.494262,52.618602,0            1.494423,52.618558,0            1.494571,52.618527,0            1.494705,52.618508,0            1.49485,52.618508,0            1.494928,52.61855,0            1.494965,52.618596,0            1.494981,52.618658,0            1.494992,52.618723,0            1.495005,52.618812,0            1.495008,52.618895,0            1.494995,52.619079,0            1.494987,52.619198,0            1.494944,52.619245,0            1.494836,52.61927,0            1.494684,52.619283,0            1.494579,52.61928,0            1.494466,52.61926,0            1.494316,52.619232,0            1.49422,52.619187,0            1.494112,52.619063,0            1.494026,52.618946,0            1.493973,52.618897,0            1.493924,52.618864,0            1.493876,52.61885,0            1.493839,52.618856,0            1.493801,52.618874,0            1.49379,52.618923,0            1.493798,52.618977,0            1.493836,52.61905,0            1.493865,52.619138,0            1.49389,52.619213,0            1.493908,52.619263,0            1.493932,52.619286,0            1.493992,52.619302,0            1.494075,52.619307,0            1.494842,52.619333,0            1.495022,52.61933,0            1.495067,52.619306,0            1.495091,52.61927,0            1.49511,52.619193,0            1.495121,52.619122,0            1.49511,52.619027,0            1.495097,52.618931,0            1.49508,52.618822,0            1.495064,52.618718,0            1.495078,52.618581,0            1.495094,52.618477,0            1.495121,52.618399,0            1.495145,52.618309,0            1.49514,52.618262,0            1.495121,52.618224,0            1.49507,52.618202,0            1.494962,52.618208,0            1.494879,52.618232,0            1.494804,52.618265,0            1.494718,52.618324,0            1.494641,52.618387,0            1.494506,52.618443,0            1.49434,52.618485,0            1.494212,52.618524,0            1.494091,52.618586,0            1.493989,52.618633,0            1.493874,52.618646,0            1.493817,52.618622,0            1.493782,52.618558,0            1.493769,52.618475,0            1.493761,52.61839,0            1.493758,52.618307,0            1.49379,52.618244,0            1.493855,52.618216,0            1.493992,52.618198,0            1.494104,52.618195,0            1.494225,52.618188,0            1.494356,52.618166,0            1.49449,52.61815,0            1.494708,52.618133,0            1.494893,52.618123,0            1.49507,52.618117,0            1.495166,52.61812,0            1.495241,52.618127,0            1.4953,52.618153,0            1.495319,52.618193,0            1.495298,52.618346,0            1.495279,52.618537,0            1.49526,52.618784,0            1.495244,52.618962,0            1.495215,52.619266,0            1.495193,52.619353,0            1.49515,52.61938,0            1.495088,52.619402,0            1.494922,52.619407,0            1.494694,52.619407,0            1.494442,52.619397,0            1.494142,52.619372,0            1.49389,52.619369,0            1.493721,52.619366,0            1.493557,52.619346,0            1.493452,52.619324,0            1.493157,52.619304,0            1.492798,52.619288,0            1.492589,52.61928,0            1.491921,52.619236,0            1.491795,52.619216,0            1.491722,52.619177,0            1.491661,52.619114,0            1.491623,52.619068,0            1.49162,52.618988,0            1.491612,52.618936,0            1.491599,52.618892,0            1.491497,52.618845,0            1.491363,52.618798,0            1.491213,52.618772,0            1.491127,52.618755,0          </coordinates></LineString></Placemark><Placemark><name>Finish</name><styleUrl>#icon-1899-FF5252-nodesc</styleUrl><Point><coordinates>            1.491127,52.618755,0          </coordinates></Point></Placemark><Placemark><name>Start</name><styleUrl>#icon-1899-0F9D58-nodesc</styleUrl><Point><coordinates>            1.492709,52.618226,0          </coordinates></Point></Placemark></Folder></Document></kml>