<?xml version="1.0" encoding="UTF-8"?><kml xmlns="http://www.opengis.net/kml/2.2"><Document><name>Lister Park parkrun, Bradford</name><description/><Style id="icon-1899-0F9D58-nodesc-normal"><IconStyle><color>ff589d0f</color><scale>1</scale><Icon><href>https://www.gstatic.com/mapspro/images/stock/503-wht-blank_maps.png</href></Icon><hotSpot x="32" xunits="pixels" y="64" yunits="insetPixels"/></IconStyle><LabelStyle><scale>0</scale></LabelStyle><BalloonStyle><text><![CDATA[<h3>$[name]</h3>]]></text></BalloonStyle></Style><Style id="icon-1899-0F9D58-nodesc-highlight"><IconStyle><color>ff589d0f</color><scale>1</scale><Icon><href>https://www.gstatic.com/mapspro/images/stock/503-wht-blank_maps.png</href></Icon><hotSpot x="32" xunits="pixels" y="64" yunits="insetPixels"/></IconStyle><LabelStyle><scale>1</scale></LabelStyle><BalloonStyle><text><![CDATA[<h3>$[name]</h3>]]></text></BalloonStyle></Style><StyleMap id="icon-1899-0F9D58-nodesc"><Pair><key>normal</key><styleUrl>#icon-1899-0F9D58-nodesc-normal</styleUrl></Pair><Pair><key>highlight</key><styleUrl>#icon-1899-0F9D58-nodesc-highlight</styleUrl></Pair></StyleMap><Style id="icon-1899-FF5252-nodesc-normal"><IconStyle><color>ff5252ff</color><scale>1</scale><Icon><href>https://www.gstatic.com/mapspro/images/stock/503-wht-blank_maps.png</href></Icon><hotSpot x="32" xunits="pixels" y="64" yunits="insetPixels"/></IconStyle><LabelStyle><scale>0</scale></LabelStyle><BalloonStyle><text><![CDATA[<h3>$[name]</h3>]]></text></BalloonStyle></Style><Style id="icon-1899-FF5252-nodesc-highlight"><IconStyle><color>ff5252ff</color><scale>1</scale><Icon><href>https://www.gstatic.com/mapspro/images/stock/503-wht-blank_maps.png</href></Icon><hotSpot x="32" xunits="pixels" y="64" yunits="insetPixels"/></IconStyle><LabelStyle><scale>1</scale></LabelStyle><BalloonStyle><text><![CDATA[<h3>$[name]</h3>]]></text></BalloonStyle></Style><StyleMap id="icon-1899-FF5252-nodesc"><Pair><key>normal</key><styleUrl>#icon-1899-FF5252-nodesc-normal</styleUrl></Pair><Pair><key>highlight</key><styleUrl>#icon-1899-FF5252-nodesc-highlight</styleUrl></Pair></StyleMap><Style id="line-0288D1-3906-nodesc-normal"><LineStyle><color>ffd18802</color><width>3.906</width></LineStyle><BalloonStyle><text><![CDATA[<h3>$[name]</h3>]]></text></BalloonStyle></Style><Style id="line-0288D1-3906-nodesc-highlight"><LineStyle><color>ffd18802</color><width>5.859</width></LineStyle><BalloonStyle><text><![CDATA[<h3>$[name]</h3>]]></text></BalloonStyle></Style><StyleMap id="line-0288D1-3906-nodesc"><Pair><key>normal</key><styleUrl>#line-0288D1-3906-nodesc-normal</styleUrl></Pair><Pair><key>highlight</key><styleUrl>#line-0288D1-3906-nodesc-highlight</styleUrl></Pair></StyleMap><Style id="line-0288D1-4100-nodesc-normal"><LineStyle><color>ffd18802</color><width>4.1</width></LineStyle><BalloonStyle><text><![CDATA[<h3>$[name]</h3>]]></text></BalloonStyle></Style><Style id="line-0288D1-4100-nodesc-highlight"><LineStyle><color>ffd18802</color><width>6.15</width></LineStyle><BalloonStyle><text><![CDATA[<h3>$[name]</h3>]]></text></BalloonStyle></Style><StyleMap id="line-0288D1-4100-nodesc"><Pair><key>normal</key><styleUrl>#line-0288D1-4100-nodesc-normal</styleUrl></Pair><Pair><key>highlight</key><styleUrl>#line-0288D1-4100-nodesc-highlight</styleUrl></Pair></StyleMap><Folder><name>Untitled layer</name><Placemark><name>Line 1</name><styleUrl>#line-0288D1-4100-nodesc</styleUrl><LineString><tessellate>1</tessellate><coordinates>            -1.774015,53.813822,0            -1.773197,53.813255,0            -1.77291,53.813166,0            -1.772577,53.812807,0          </coordinates></LineString></Placemark><Placemark><name>Line 2</name><styleUrl>#line-0288D1-4100-nodesc</styleUrl><LineString><tessellate>1</tessellate><coordinates>            -1.772577,53.812807,0            -1.772341,53.812664,0            -1.772035,53.812657,0            -1.771375,53.812465,0          </coordinates></LineString></Placemark><Placemark><name>Line 3</name><styleUrl>#line-0288D1-3906-nodesc</styleUrl><LineString><tessellate>1</tessellate><coordinates>            -1.771375,53.812465,0            -1.771182,53.812136,0          </coordinates></LineString></Placemark><Placemark><name>Line 4</name><styleUrl>#line-0288D1-4100-nodesc</styleUrl><LineString><tessellate>1</tessellate><coordinates>            -1.771182,53.812136,0            -1.771263,53.812047,0            -1.770986,53.811524,0            -1.771169,53.811352,0            -1.771046,53.811106,0            -1.769498,53.810634,0            -1.768326,53.809947,0            -1.768184,53.809998,0            -1.768299,53.809958,0            -1.768184,53.809998,0          </coordinates></LineString></Placemark><Placemark><name>Line 5</name><styleUrl>#line-0288D1-4100-nodesc</styleUrl><LineString><tessellate>1</tessellate><coordinates>            -1.768184,53.809998,0            -1.768312,53.81062,0            -1.768328,53.811149,0            -1.768344,53.811421,0            -1.768653,53.811969,0            -1.769192,53.812403,0            -1.770801,53.813385,0            -1.771611,53.813998,0            -1.772483,53.814544,0            -1.772944,53.815007,0            -1.772985,53.815048,0          </coordinates></LineString></Placemark><Placemark><name>Line 6</name><styleUrl>#line-0288D1-3906-nodesc</styleUrl><LineString><tessellate>1</tessellate><coordinates>            -1.772985,53.815048,0            -1.773307,53.815292,0            -1.774326,53.815022,0            -1.775078,53.814901,0            -1.775182,53.814775,0            -1.775126,53.814656,0            -1.774887,53.814434,0            -1.773197,53.813255,0            -1.77291,53.813166,0            -1.772577,53.812807,0            -1.772341,53.812664,0            -1.772035,53.812657,0            -1.771375,53.812465,0            -1.771188,53.812114,0            -1.771293,53.812021,0            -1.7712662,53.8119666,0            -1.7712015,53.8118492,0          </coordinates></LineString></Placemark><Placemark><name>Finish</name><styleUrl>#icon-1899-FF5252-nodesc</styleUrl><Point><coordinates>            -1.7711975,53.8118453,0          </coordinates></Point></Placemark></Folder><Folder><name>Untitled layer</name><Placemark><name>Start</name><styleUrl>#icon-1899-0F9D58-nodesc</styleUrl><Point><coordinates>            -1.77405,53.813822,0          </coordinates></Point></Placemark></Folder></Document></kml>