<?xml version="1.0" encoding="UTF-8"?><kml xmlns="http://www.opengis.net/kml/2.2"><Document><name>Littlehampton Prom parkrun</name><description/><Style id="icon-1899-FFEA00-nodesc-normal"><IconStyle><color>ff00eaff</color><scale>1</scale><Icon><href>https://www.gstatic.com/mapspro/images/stock/503-wht-blank_maps.png</href></Icon><hotSpot x="32" xunits="pixels" y="64" yunits="insetPixels"/></IconStyle><LabelStyle><scale>0</scale></LabelStyle><BalloonStyle><text><![CDATA[<h3>$[name]</h3>]]></text></BalloonStyle></Style><Style id="icon-1899-FFEA00-nodesc-highlight"><IconStyle><color>ff00eaff</color><scale>1</scale><Icon><href>https://www.gstatic.com/mapspro/images/stock/503-wht-blank_maps.png</href></Icon><hotSpot x="32" xunits="pixels" y="64" yunits="insetPixels"/></IconStyle><LabelStyle><scale>1</scale></LabelStyle><BalloonStyle><text><![CDATA[<h3>$[name]</h3>]]></text></BalloonStyle></Style><StyleMap id="icon-1899-FFEA00-nodesc"><Pair><key>normal</key><styleUrl>#icon-1899-FFEA00-nodesc-normal</styleUrl></Pair><Pair><key>highlight</key><styleUrl>#icon-1899-FFEA00-nodesc-highlight</styleUrl></Pair></StyleMap><Style id="line-0288D1-1000-nodesc-normal"><LineStyle><color>ffd18802</color><width>1</width></LineStyle><BalloonStyle><text><![CDATA[<h3>$[name]</h3>]]></text></BalloonStyle></Style><Style id="line-0288D1-1000-nodesc-highlight"><LineStyle><color>ffd18802</color><width>1.5</width></LineStyle><BalloonStyle><text><![CDATA[<h3>$[name]</h3>]]></text></BalloonStyle></Style><StyleMap id="line-0288D1-1000-nodesc"><Pair><key>normal</key><styleUrl>#line-0288D1-1000-nodesc-normal</styleUrl></Pair><Pair><key>highlight</key><styleUrl>#line-0288D1-1000-nodesc-highlight</styleUrl></Pair></StyleMap><Folder><name>Untitled layer</name><Placemark><name>Course</name><styleUrl>#line-0288D1-1000-nodesc</styleUrl><LineString><tessellate>1</tessellate><coordinates>            -0.54162,50.802351,0            -0.537762,50.802575,0            -0.533906,50.802609,0            -0.532771,50.802591,0            -0.532025,50.802574,0            -0.523362,50.802368,0            -0.532224,50.802558,0            -0.533956,50.802588,0            -0.537792,50.802554,0            -0.54092,50.802371,0            -0.537722,50.802534,0            -0.533903,50.802565,0            -0.532165,50.802531,0            -0.523356,50.802338,0            -0.532251,50.802514,0            -0.533962,50.802538,0            -0.537771,50.80251,0            -0.541601,50.802307,0          </coordinates></LineString></Placemark><Placemark><name>Start/Finish</name><styleUrl>#icon-1899-FFEA00-nodesc</styleUrl><Point><coordinates>            -0.541894,50.802299,0          </coordinates></Point></Placemark></Folder></Document></kml>