<?xml version="1.0" encoding="UTF-8"?><kml xmlns="http://www.opengis.net/kml/2.2"><Document><name>Llwybr Dyffryn Tywi parkrun, Nantgaredig (from May 2026)</name><description/><Style id="icon-1644-0288D1-nodesc-normal"><IconStyle><color>ffd18802</color><scale>1</scale><Icon><href>https://www.gstatic.com/mapspro/images/stock/503-wht-blank_maps.png</href></Icon></IconStyle><LabelStyle><scale>0</scale></LabelStyle><BalloonStyle><text><![CDATA[<h3>$[name]</h3>]]></text></BalloonStyle></Style><Style id="icon-1644-0288D1-nodesc-highlight"><IconStyle><color>ffd18802</color><scale>1</scale><Icon><href>https://www.gstatic.com/mapspro/images/stock/503-wht-blank_maps.png</href></Icon></IconStyle><LabelStyle><scale>1</scale></LabelStyle><BalloonStyle><text><![CDATA[<h3>$[name]</h3>]]></text></BalloonStyle></Style><StyleMap id="icon-1644-0288D1-nodesc"><Pair><key>normal</key><styleUrl>#icon-1644-0288D1-nodesc-normal</styleUrl></Pair><Pair><key>highlight</key><styleUrl>#icon-1644-0288D1-nodesc-highlight</styleUrl></Pair></StyleMap><Style id="icon-1733-0288D1-nodesc-normal"><IconStyle><color>ffd18802</color><scale>1</scale><Icon><href>https://www.gstatic.com/mapspro/images/stock/503-wht-blank_maps.png</href></Icon></IconStyle><LabelStyle><scale>0</scale></LabelStyle><BalloonStyle><text><![CDATA[<h3>$[name]</h3>]]></text></BalloonStyle></Style><Style id="icon-1733-0288D1-nodesc-highlight"><IconStyle><color>ffd18802</color><scale>1</scale><Icon><href>https://www.gstatic.com/mapspro/images/stock/503-wht-blank_maps.png</href></Icon></IconStyle><LabelStyle><scale>1</scale></LabelStyle><BalloonStyle><text><![CDATA[<h3>$[name]</h3>]]></text></BalloonStyle></Style><StyleMap id="icon-1733-0288D1-nodesc"><Pair><key>normal</key><styleUrl>#icon-1733-0288D1-nodesc-normal</styleUrl></Pair><Pair><key>highlight</key><styleUrl>#icon-1733-0288D1-nodesc-highlight</styleUrl></Pair></StyleMap><Style id="icon-1899-0F9D58-nodesc-normal"><IconStyle><color>ff589d0f</color><scale>1</scale><Icon><href>https://www.gstatic.com/mapspro/images/stock/503-wht-blank_maps.png</href></Icon><hotSpot x="32" xunits="pixels" y="64" yunits="insetPixels"/></IconStyle><LabelStyle><scale>0</scale></LabelStyle><BalloonStyle><text><![CDATA[<h3>$[name]</h3>]]></text></BalloonStyle></Style><Style id="icon-1899-0F9D58-nodesc-highlight"><IconStyle><color>ff589d0f</color><scale>1</scale><Icon><href>https://www.gstatic.com/mapspro/images/stock/503-wht-blank_maps.png</href></Icon><hotSpot x="32" xunits="pixels" y="64" yunits="insetPixels"/></IconStyle><LabelStyle><scale>1</scale></LabelStyle><BalloonStyle><text><![CDATA[<h3>$[name]</h3>]]></text></BalloonStyle></Style><StyleMap id="icon-1899-0F9D58-nodesc"><Pair><key>normal</key><styleUrl>#icon-1899-0F9D58-nodesc-normal</styleUrl></Pair><Pair><key>highlight</key><styleUrl>#icon-1899-0F9D58-nodesc-highlight</styleUrl></Pair></StyleMap><Style id="icon-1899-E65100-nodesc-normal"><IconStyle><color>ff0051e6</color><scale>1</scale><Icon><href>https://www.gstatic.com/mapspro/images/stock/503-wht-blank_maps.png</href></Icon><hotSpot x="32" xunits="pixels" y="64" yunits="insetPixels"/></IconStyle><LabelStyle><scale>0</scale></LabelStyle><BalloonStyle><text><![CDATA[<h3>$[name]</h3>]]></text></BalloonStyle></Style><Style id="icon-1899-E65100-nodesc-highlight"><IconStyle><color>ff0051e6</color><scale>1</scale><Icon><href>https://www.gstatic.com/mapspro/images/stock/503-wht-blank_maps.png</href></Icon><hotSpot x="32" xunits="pixels" y="64" yunits="insetPixels"/></IconStyle><LabelStyle><scale>1</scale></LabelStyle><BalloonStyle><text><![CDATA[<h3>$[name]</h3>]]></text></BalloonStyle></Style><StyleMap id="icon-1899-E65100-nodesc"><Pair><key>normal</key><styleUrl>#icon-1899-E65100-nodesc-normal</styleUrl></Pair><Pair><key>highlight</key><styleUrl>#icon-1899-E65100-nodesc-highlight</styleUrl></Pair></StyleMap><Style id="line-0288D1-3000-nodesc-normal"><LineStyle><color>ffd18802</color><width>3</width></LineStyle><BalloonStyle><text><![CDATA[<h3>$[name]</h3>]]></text></BalloonStyle></Style><Style id="line-0288D1-3000-nodesc-highlight"><LineStyle><color>ffd18802</color><width>4.5</width></LineStyle><BalloonStyle><text><![CDATA[<h3>$[name]</h3>]]></text></BalloonStyle></Style><StyleMap id="line-0288D1-3000-nodesc"><Pair><key>normal</key><styleUrl>#line-0288D1-3000-nodesc-normal</styleUrl></Pair><Pair><key>highlight</key><styleUrl>#line-0288D1-3000-nodesc-highlight</styleUrl></Pair></StyleMap><Folder><name>Untitled layer</name><Placemark><name>Parking</name><styleUrl>#icon-1644-0288D1-nodesc</styleUrl><Point><coordinates>            -4.191316,51.865009,0          </coordinates></Point></Placemark><Placemark><name>Toilets</name><styleUrl>#icon-1733-0288D1-nodesc</styleUrl><Point><coordinates>            -4.19161,51.864819,0          </coordinates></Point></Placemark><Placemark><name>Course</name><styleUrl>#line-0288D1-3000-nodesc</styleUrl><LineString><tessellate>1</tessellate><coordinates>            -4.193428,51.863087,0            -4.193377,51.86224,0            -4.193463,51.862141,0            -4.193567,51.862093,0            -4.193759,51.862073,0            -4.194119,51.862131,0            -4.195929,51.86241,0            -4.196331,51.862468,0            -4.196667,51.86252,0            -4.197646,51.862739,0            -4.199078,51.863072,0            -4.19958,51.863211,0            -4.20047,51.863519,0            -4.200695,51.863634,0            -4.201559,51.863947,0            -4.201779,51.864043,0            -4.202447,51.864412,0            -4.202854,51.864612,0            -4.203171,51.864735,0            -4.203922,51.865154,0            -4.20515,51.865878,0            -4.205472,51.866096,0            -4.205666,51.866206,0            -4.206009,51.866408,0            -4.207103,51.867418,0            -4.2072,51.867544,0            -4.207189,51.867686,0            -4.2072,51.867789,0            -4.207344,51.867935,0            -4.207532,51.868041,0            -4.207838,51.868203,0            -4.208294,51.868367,0            -4.208511,51.868485,0            -4.208696,51.868634,0            -4.208817,51.868746,0            -4.209118,51.868922,0            -4.209227,51.86901,0            -4.209474,51.869131,0            -4.209922,51.869245,0            -4.219591,51.871535,0            -4.220324,51.871692,0            -4.221502,51.871837,0            -4.2222,51.871856,0            -4.222892,51.871884,0            -4.224276,51.871697,0            -4.224279,51.871721,0            -4.222892,51.871901,0            -4.221504,51.871846,0            -4.22032,51.871706,0            -4.219583,51.871555,0            -4.218939,51.871404,0            -4.218287,51.87125,0            -4.20992,51.86927,0            -4.209681,51.869215,0            -4.209459,51.869147,0            -4.209333,51.869089,0            -4.209204,51.869024,0            -4.209142,51.868985,0            -4.209089,51.868935,0            -4.208938,51.868844,0            -4.208804,51.868766,0            -4.208726,51.86871,0            -4.208678,51.868647,0            -4.208584,51.868574,0            -4.208482,51.868498,0            -4.208378,51.868442,0            -4.208279,51.868393,0            -4.208056,51.868309,0            -4.207823,51.868223,0            -4.207662,51.86814,0            -4.207509,51.868059,0            -4.20742,51.868004,0            -4.207316,51.867946,0            -4.20724,51.867868,0            -4.207157,51.867789,0            -4.207147,51.867729,0            -4.207133,51.867675,0            -4.207141,51.867602,0            -4.207144,51.867539,0            -4.207109,51.867478,0            -4.207056,51.867426,0            -4.205991,51.866421,0            -4.205814,51.866323,0            -4.205637,51.866229,0            -4.205543,51.866164,0            -4.205454,51.866114,0            -4.205274,51.865997,0            -4.205119,51.865888,0            -4.204515,51.865533,0            -4.20389,51.865162,0            -4.203523,51.864962,0            -4.20315,51.864746,0            -4.202992,51.864688,0            -4.202834,51.864624,0            -4.202627,51.864529,0            -4.202429,51.864432,0            -4.202093,51.864248,0            -4.201758,51.864059,0            -4.201646,51.864013,0            -4.201546,51.86397,0            -4.201114,51.863811,0            -4.200685,51.863656,0            -4.200556,51.863587,0            -4.200452,51.863542,0            -4.199561,51.863224,0            -4.19906,51.86309,0            -4.197628,51.86276,0            -4.196656,51.862545,0            -4.196305,51.86249,0            -4.195922,51.862429,0            -4.194652,51.86226,0            -4.194443,51.862249,0          </coordinates></LineString></Placemark><Placemark><name>Finish</name><styleUrl>#icon-1899-E65100-nodesc</styleUrl><Point><coordinates>            -4.194436,51.86225,0          </coordinates></Point></Placemark><Placemark><name>Start</name><styleUrl>#icon-1899-0F9D58-nodesc</styleUrl><Point><coordinates>            -4.193447,51.863095,0          </coordinates></Point></Placemark></Folder></Document></kml>