<?xml version="1.0" encoding="UTF-8"?><kml xmlns="http://www.opengis.net/kml/2.2"><Document><name>Long Eaton parkrun (from Nov 2025)</name><description/><Style id="icon-1899-0F9D58-nodesc-normal"><IconStyle><color>ff589d0f</color><scale>1</scale><Icon><href>https://www.gstatic.com/mapspro/images/stock/503-wht-blank_maps.png</href></Icon><hotSpot x="32" xunits="pixels" y="64" yunits="insetPixels"/></IconStyle><LabelStyle><scale>0</scale></LabelStyle><BalloonStyle><text><![CDATA[<h3>$[name]</h3>]]></text></BalloonStyle></Style><Style id="icon-1899-0F9D58-nodesc-highlight"><IconStyle><color>ff589d0f</color><scale>1</scale><Icon><href>https://www.gstatic.com/mapspro/images/stock/503-wht-blank_maps.png</href></Icon><hotSpot x="32" xunits="pixels" y="64" yunits="insetPixels"/></IconStyle><LabelStyle><scale>1</scale></LabelStyle><BalloonStyle><text><![CDATA[<h3>$[name]</h3>]]></text></BalloonStyle></Style><StyleMap id="icon-1899-0F9D58-nodesc"><Pair><key>normal</key><styleUrl>#icon-1899-0F9D58-nodesc-normal</styleUrl></Pair><Pair><key>highlight</key><styleUrl>#icon-1899-0F9D58-nodesc-highlight</styleUrl></Pair></StyleMap><Style id="icon-1899-FF5252-nodesc-normal"><IconStyle><color>ff5252ff</color><scale>1</scale><Icon><href>https://www.gstatic.com/mapspro/images/stock/503-wht-blank_maps.png</href></Icon><hotSpot x="32" xunits="pixels" y="64" yunits="insetPixels"/></IconStyle><LabelStyle><scale>0</scale></LabelStyle><BalloonStyle><text><![CDATA[<h3>$[name]</h3>]]></text></BalloonStyle></Style><Style id="icon-1899-FF5252-nodesc-highlight"><IconStyle><color>ff5252ff</color><scale>1</scale><Icon><href>https://www.gstatic.com/mapspro/images/stock/503-wht-blank_maps.png</href></Icon><hotSpot x="32" xunits="pixels" y="64" yunits="insetPixels"/></IconStyle><LabelStyle><scale>1</scale></LabelStyle><BalloonStyle><text><![CDATA[<h3>$[name]</h3>]]></text></BalloonStyle></Style><StyleMap id="icon-1899-FF5252-nodesc"><Pair><key>normal</key><styleUrl>#icon-1899-FF5252-nodesc-normal</styleUrl></Pair><Pair><key>highlight</key><styleUrl>#icon-1899-FF5252-nodesc-highlight</styleUrl></Pair></StyleMap><Style id="line-0288D1-5263-nodesc-normal"><LineStyle><color>ffd18802</color><width>5.263</width></LineStyle><BalloonStyle><text><![CDATA[<h3>$[name]</h3>]]></text></BalloonStyle></Style><Style id="line-0288D1-5263-nodesc-highlight"><LineStyle><color>ffd18802</color><width>7.8945</width></LineStyle><BalloonStyle><text><![CDATA[<h3>$[name]</h3>]]></text></BalloonStyle></Style><StyleMap id="line-0288D1-5263-nodesc"><Pair><key>normal</key><styleUrl>#line-0288D1-5263-nodesc-normal</styleUrl></Pair><Pair><key>highlight</key><styleUrl>#line-0288D1-5263-nodesc-highlight</styleUrl></Pair></StyleMap><Folder><name>Untitled layer</name><Placemark><name>Course</name><styleUrl>#line-0288D1-5263-nodesc</styleUrl><LineString><tessellate>1</tessellate><coordinates>            -1.282637,52.896966,0            -1.282483,52.896746,0            -1.28227,52.896675,0            -1.281574,52.896572,0            -1.281312,52.896555,0            -1.280898,52.89671,0            -1.280731,52.896645,0            -1.280254,52.896238,0            -1.279983,52.896205,0            -1.279124,52.896439,0            -1.27905,52.896594,0            -1.278728,52.897593,0            -1.278823,52.897695,0            -1.279054,52.897802,0            -1.28022,52.89778,0            -1.281167,52.897685,0            -1.281982,52.897522,0            -1.282729,52.897362,0            -1.28281,52.897274,0            -1.282783,52.89703,0            -1.282992,52.896997,0            -1.28326,52.897178,0            -1.283741,52.897261,0            -1.284974,52.897349,0            -1.285614,52.89728,0            -1.28612,52.897337,0            -1.287054,52.89735,0            -1.287539,52.897323,0            -1.287932,52.897325,0            -1.288087,52.897315,0            -1.288384,52.897239,0            -1.288872,52.897267,0            -1.289456,52.897318,0            -1.289834,52.89728,0            -1.290379,52.897093,0            -1.290746,52.896779,0            -1.290908,52.896361,0            -1.290743,52.895974,0            -1.290798,52.895572,0            -1.290663,52.895289,0            -1.290471,52.895181,0            -1.290205,52.895139,0            -1.289852,52.895165,0            -1.289308,52.895216,0            -1.288799,52.895227,0            -1.288521,52.895142,0            -1.288218,52.895068,0            -1.28766,52.895113,0            -1.287231,52.89512,0            -1.286021,52.895203,0            -1.285517,52.895226,0            -1.284832,52.895407,0            -1.284019,52.89564,0            -1.283542,52.895785,0            -1.282855,52.895871,0            -1.282652,52.895977,0            -1.282551,52.896215,0            -1.282519,52.896409,0            -1.28271,52.896643,0            -1.282965,52.896938,0            -1.28326,52.897178,0            -1.284974,52.897349,0            -1.2854454,52.8973001,0            -1.285546,52.897162,0            -1.285651,52.896995,0            -1.285625,52.896779,0            -1.285498,52.896572,0            -1.285313,52.896366,0            -1.285258,52.896213,0            -1.285414,52.896047,0            -1.285508,52.895849,0            -1.285373,52.895684,0            -1.285033,52.895579,0            -1.284509,52.895562,0          </coordinates></LineString></Placemark><Placemark><name>Finish</name><styleUrl>#icon-1899-FF5252-nodesc</styleUrl><Point><coordinates>            -1.285243,52.895367,33.2          </coordinates></Point></Placemark><Placemark><name>Start</name><styleUrl>#icon-1899-0F9D58-nodesc</styleUrl><Point><coordinates>            -1.286634,52.89514,34.8          </coordinates></Point></Placemark></Folder></Document></kml>