<?xml version="1.0" encoding="UTF-8"?><kml xmlns="http://www.opengis.net/kml/2.2"><Document><name>Lurgan junior parkrun</name><description/><Style id="icon-1899-0F9D58-nodesc-normal"><IconStyle><color>ff589d0f</color><scale>1</scale><Icon><href>https://www.gstatic.com/mapspro/images/stock/503-wht-blank_maps.png</href></Icon><hotSpot x="32" xunits="pixels" y="64" yunits="insetPixels"/></IconStyle><LabelStyle><scale>0</scale></LabelStyle><BalloonStyle><text><![CDATA[<h3>$[name]</h3>]]></text></BalloonStyle></Style><Style id="icon-1899-0F9D58-nodesc-highlight"><IconStyle><color>ff589d0f</color><scale>1</scale><Icon><href>https://www.gstatic.com/mapspro/images/stock/503-wht-blank_maps.png</href></Icon><hotSpot x="32" xunits="pixels" y="64" yunits="insetPixels"/></IconStyle><LabelStyle><scale>1</scale></LabelStyle><BalloonStyle><text><![CDATA[<h3>$[name]</h3>]]></text></BalloonStyle></Style><StyleMap id="icon-1899-0F9D58-nodesc"><Pair><key>normal</key><styleUrl>#icon-1899-0F9D58-nodesc-normal</styleUrl></Pair><Pair><key>highlight</key><styleUrl>#icon-1899-0F9D58-nodesc-highlight</styleUrl></Pair></StyleMap><Style id="icon-1899-FF5252-nodesc-normal"><IconStyle><color>ff5252ff</color><scale>1</scale><Icon><href>https://www.gstatic.com/mapspro/images/stock/503-wht-blank_maps.png</href></Icon><hotSpot x="32" xunits="pixels" y="64" yunits="insetPixels"/></IconStyle><LabelStyle><scale>0</scale></LabelStyle><BalloonStyle><text><![CDATA[<h3>$[name]</h3>]]></text></BalloonStyle></Style><Style id="icon-1899-FF5252-nodesc-highlight"><IconStyle><color>ff5252ff</color><scale>1</scale><Icon><href>https://www.gstatic.com/mapspro/images/stock/503-wht-blank_maps.png</href></Icon><hotSpot x="32" xunits="pixels" y="64" yunits="insetPixels"/></IconStyle><LabelStyle><scale>1</scale></LabelStyle><BalloonStyle><text><![CDATA[<h3>$[name]</h3>]]></text></BalloonStyle></Style><StyleMap id="icon-1899-FF5252-nodesc"><Pair><key>normal</key><styleUrl>#icon-1899-FF5252-nodesc-normal</styleUrl></Pair><Pair><key>highlight</key><styleUrl>#icon-1899-FF5252-nodesc-highlight</styleUrl></Pair></StyleMap><Style id="line-0288D1-4875-nodesc-normal"><LineStyle><color>ffd18802</color><width>4.875</width></LineStyle><BalloonStyle><text><![CDATA[<h3>$[name]</h3>]]></text></BalloonStyle></Style><Style id="line-0288D1-4875-nodesc-highlight"><LineStyle><color>ffd18802</color><width>7.3125</width></LineStyle><BalloonStyle><text><![CDATA[<h3>$[name]</h3>]]></text></BalloonStyle></Style><StyleMap id="line-0288D1-4875-nodesc"><Pair><key>normal</key><styleUrl>#line-0288D1-4875-nodesc-normal</styleUrl></Pair><Pair><key>highlight</key><styleUrl>#line-0288D1-4875-nodesc-highlight</styleUrl></Pair></StyleMap><Folder><name>Untitled layer</name><Placemark><name>Course</name><styleUrl>#line-0288D1-4875-nodesc</styleUrl><LineString><tessellate>1</tessellate><coordinates>            -6.32128,54.46245,49.4            -6.3226,54.46306,50.8            -6.32344,54.46267,48.2            -6.32358,54.46246,48.1            -6.31981,54.4602,52.8            -6.3196,54.46009,53.5            -6.31879,54.46118,49.9            -6.31844,54.46192,49.1            -6.31875,54.46191,48.7            -6.31915,54.46195,48.1            -6.31995,54.46207,48            -6.32062,54.46221,48.4            -6.32166,54.46263,49.9            -6.32377,54.46368,51.1            -6.32514,54.46441,48.2            -6.32611,54.46494,47            -6.32636,54.46511,47.2            -6.3266,54.46487,47.6            -6.32675,54.46474,48            -6.32656,54.46469,47.7            -6.32624,54.46464,47.3            -6.32593,54.46448,47.4            -6.32591,54.46416,48            -6.32595,54.46397,48.3            -6.32437,54.46292,49.7            -6.32396,54.46267,48.9            -6.32362,54.46246,48.1            -6.32357,54.46245,48.1            -6.32345,54.46266,48.2            -6.32269,54.46302,50.4            -6.32258,54.46307,50.9            -6.32191,54.46275,50.5            -6.32149,54.46256,49.7          </coordinates></LineString></Placemark><Placemark><name>Finish</name><styleUrl>#icon-1899-FF5252-nodesc</styleUrl><Point><coordinates>            -6.32149,54.46256,49.7          </coordinates></Point></Placemark><Placemark><name>Start</name><styleUrl>#icon-1899-0F9D58-nodesc</styleUrl><Point><coordinates>            -6.32128,54.46245,49.4          </coordinates></Point></Placemark></Folder></Document></kml>