<?xml version="1.0" encoding="UTF-8"?><kml xmlns="http://www.opengis.net/kml/2.2"><Document><name>Lydney parkrun</name><description/><Style id="icon-1207-nodesc-normal"><IconStyle><scale>1.1</scale><Icon><href>https://www.gstatic.com/mapspro/images/stock/1207-fac-parking.png</href></Icon></IconStyle><LabelStyle><scale>0</scale></LabelStyle><BalloonStyle><text><![CDATA[<h3>$[name]</h3>]]></text></BalloonStyle></Style><Style id="icon-1207-nodesc-highlight"><IconStyle><scale>1.1</scale><Icon><href>https://www.gstatic.com/mapspro/images/stock/1207-fac-parking.png</href></Icon></IconStyle><LabelStyle><scale>1.1</scale></LabelStyle><BalloonStyle><text><![CDATA[<h3>$[name]</h3>]]></text></BalloonStyle></Style><StyleMap id="icon-1207-nodesc"><Pair><key>normal</key><styleUrl>#icon-1207-nodesc-normal</styleUrl></Pair><Pair><key>highlight</key><styleUrl>#icon-1207-nodesc-highlight</styleUrl></Pair></StyleMap><Style id="icon-1219-nodesc-normal"><IconStyle><scale>1.1</scale><Icon><href>https://www.gstatic.com/mapspro/images/stock/1219-fac-wc-unisex.png</href></Icon></IconStyle><LabelStyle><scale>0</scale></LabelStyle><BalloonStyle><text><![CDATA[<h3>$[name]</h3>]]></text></BalloonStyle></Style><Style id="icon-1219-nodesc-highlight"><IconStyle><scale>1.1</scale><Icon><href>https://www.gstatic.com/mapspro/images/stock/1219-fac-wc-unisex.png</href></Icon></IconStyle><LabelStyle><scale>1.1</scale></LabelStyle><BalloonStyle><text><![CDATA[<h3>$[name]</h3>]]></text></BalloonStyle></Style><StyleMap id="icon-1219-nodesc"><Pair><key>normal</key><styleUrl>#icon-1219-nodesc-normal</styleUrl></Pair><Pair><key>highlight</key><styleUrl>#icon-1219-nodesc-highlight</styleUrl></Pair></StyleMap><Style id="icon-503-009D57-nodesc-normal"><IconStyle><color>ff579d00</color><scale>1.1</scale><Icon><href>https://www.gstatic.com/mapspro/images/stock/503-wht-blank_maps.png</href></Icon><hotSpot x="16" xunits="pixels" y="32" yunits="insetPixels"/></IconStyle><LabelStyle><scale>0</scale></LabelStyle><BalloonStyle><text><![CDATA[<h3>$[name]</h3>]]></text></BalloonStyle></Style><Style id="icon-503-009D57-nodesc-highlight"><IconStyle><color>ff579d00</color><scale>1.1</scale><Icon><href>https://www.gstatic.com/mapspro/images/stock/503-wht-blank_maps.png</href></Icon><hotSpot x="16" xunits="pixels" y="32" yunits="insetPixels"/></IconStyle><LabelStyle><scale>1.1</scale></LabelStyle><BalloonStyle><text><![CDATA[<h3>$[name]</h3>]]></text></BalloonStyle></Style><StyleMap id="icon-503-009D57-nodesc"><Pair><key>normal</key><styleUrl>#icon-503-009D57-nodesc-normal</styleUrl></Pair><Pair><key>highlight</key><styleUrl>#icon-503-009D57-nodesc-highlight</styleUrl></Pair></StyleMap><Style id="icon-503-DB4436-nodesc-normal"><IconStyle><color>ff3644db</color><scale>1.1</scale><Icon><href>https://www.gstatic.com/mapspro/images/stock/503-wht-blank_maps.png</href></Icon><hotSpot x="16" xunits="pixels" y="32" yunits="insetPixels"/></IconStyle><LabelStyle><scale>0</scale></LabelStyle><BalloonStyle><text><![CDATA[<h3>$[name]</h3>]]></text></BalloonStyle></Style><Style id="icon-503-DB4436-nodesc-highlight"><IconStyle><color>ff3644db</color><scale>1.1</scale><Icon><href>https://www.gstatic.com/mapspro/images/stock/503-wht-blank_maps.png</href></Icon><hotSpot x="16" xunits="pixels" y="32" yunits="insetPixels"/></IconStyle><LabelStyle><scale>1.1</scale></LabelStyle><BalloonStyle><text><![CDATA[<h3>$[name]</h3>]]></text></BalloonStyle></Style><StyleMap id="icon-503-DB4436-nodesc"><Pair><key>normal</key><styleUrl>#icon-503-DB4436-nodesc-normal</styleUrl></Pair><Pair><key>highlight</key><styleUrl>#icon-503-DB4436-nodesc-highlight</styleUrl></Pair></StyleMap><Style id="icon-991-nodesc-normal"><IconStyle><scale>1.1</scale><Icon><href>https://www.gstatic.com/mapspro/images/stock/991-biz-cafe.png</href></Icon></IconStyle><LabelStyle><scale>0</scale></LabelStyle><BalloonStyle><text><![CDATA[<h3>$[name]</h3>]]></text></BalloonStyle></Style><Style id="icon-991-nodesc-highlight"><IconStyle><scale>1.1</scale><Icon><href>https://www.gstatic.com/mapspro/images/stock/991-biz-cafe.png</href></Icon></IconStyle><LabelStyle><scale>1.1</scale></LabelStyle><BalloonStyle><text><![CDATA[<h3>$[name]</h3>]]></text></BalloonStyle></Style><StyleMap id="icon-991-nodesc"><Pair><key>normal</key><styleUrl>#icon-991-nodesc-normal</styleUrl></Pair><Pair><key>highlight</key><styleUrl>#icon-991-nodesc-highlight</styleUrl></Pair></StyleMap><Style id="line-4186F0-4100-nodesc-normal"><LineStyle><color>fff08641</color><width>4.1</width></LineStyle><BalloonStyle><text><![CDATA[<h3>$[name]</h3>]]></text></BalloonStyle></Style><Style id="line-4186F0-4100-nodesc-highlight"><LineStyle><color>fff08641</color><width>6.15</width></LineStyle><BalloonStyle><text><![CDATA[<h3>$[name]</h3>]]></text></BalloonStyle></Style><StyleMap id="line-4186F0-4100-nodesc"><Pair><key>normal</key><styleUrl>#line-4186F0-4100-nodesc-normal</styleUrl></Pair><Pair><key>highlight</key><styleUrl>#line-4186F0-4100-nodesc-highlight</styleUrl></Pair></StyleMap><Folder><name>Lydney parkrun</name><Placemark><name>Course</name><styleUrl>#line-4186F0-4100-nodesc</styleUrl><LineString><tessellate>1</tessellate><coordinates>            -2.526491,51.721605,0            -2.5267,51.721456,0            -2.527027,51.721342,0            -2.527344,51.721263,0            -2.527724,51.72123,0            -2.528325,51.72123,0            -2.529039,51.721243,0            -2.529237,51.72123,0            -2.529446,51.721163,0            -2.52964,51.720987,0            -2.529865,51.720588,0            -2.529956,51.720379,0            -2.529999,51.720189,0            -2.529758,51.719983,0            -2.529688,51.71996,0            -2.527606,51.719953,0            -2.527092,51.71994,0            -2.526491,51.719997,0            -2.526244,51.7201,0            -2.526201,51.720143,0            -2.526094,51.720113,0            -2.526115,51.719781,0            -2.526035,51.719395,0            -2.526265,51.719106,0            -2.526442,51.718853,0            -2.526845,51.718956,0            -2.527558,51.719186,0            -2.528079,51.719385,0            -2.528647,51.719541,0            -2.529194,51.719644,0            -2.529817,51.719757,0            -2.529784,51.719927,0            -2.529827,51.719987,0            -2.529962,51.720096,0            -2.53008,51.720196,0            -2.530364,51.720236,0            -2.530686,51.720362,0            -2.530562,51.720545,0            -2.530412,51.720814,0            -2.530332,51.720974,0            -2.530192,51.721176,0            -2.530042,51.721369,0            -2.52994,51.721519,0            -2.529843,51.721701,0            -2.529774,51.721924,0            -2.529774,51.721997,0            -2.52994,51.72234,0            -2.529945,51.722452,0            -2.53008,51.722788,0            -2.530128,51.723017,0            -2.53016,51.723257,0            -2.530171,51.72343,0            -2.529978,51.72342,0            -2.52994,51.72314,0            -2.529876,51.722808,0            -2.529677,51.722622,0            -2.529564,51.72224,0            -2.529532,51.721771,0            -2.529527,51.721479,0            -2.529591,51.721163,0            -2.529699,51.720984,0            -2.529634,51.720984,0          </coordinates></LineString></Placemark><Placemark><name>Finish</name><styleUrl>#icon-503-DB4436-nodesc</styleUrl><Point><coordinates>            -2.526491,51.721605,0          </coordinates></Point></Placemark><Placemark><name>Start</name><styleUrl>#icon-503-009D57-nodesc</styleUrl><Point><coordinates>            -2.526491,51.721605,0          </coordinates></Point></Placemark><Placemark><name>Parking</name><styleUrl>#icon-1207-nodesc</styleUrl><Point><coordinates>            -2.525847,51.724303,0          </coordinates></Point></Placemark><Placemark><name>Toilets</name><styleUrl>#icon-1219-nodesc</styleUrl><Point><coordinates>            -2.528765,51.727866,0          </coordinates></Point></Placemark><Placemark><name>Point 6</name><styleUrl>#icon-991-nodesc</styleUrl><Point><coordinates>            -2.526287,51.721299,0          </coordinates></Point></Placemark></Folder></Document></kml>