<?xml version="1.0" encoding="UTF-8"?><kml xmlns="http://www.opengis.net/kml/2.2"><Document><name>Maesteg parkrun</name><description/><Style id="icon-1899-FFD600-nodesc-normal"><IconStyle><color>ff00d6ff</color><scale>1</scale><Icon><href>https://www.gstatic.com/mapspro/images/stock/503-wht-blank_maps.png</href></Icon><hotSpot x="32" xunits="pixels" y="64" yunits="insetPixels"/></IconStyle><LabelStyle><scale>0</scale></LabelStyle><BalloonStyle><text><![CDATA[<h3>$[name]</h3>]]></text></BalloonStyle></Style><Style id="icon-1899-FFD600-nodesc-highlight"><IconStyle><color>ff00d6ff</color><scale>1</scale><Icon><href>https://www.gstatic.com/mapspro/images/stock/503-wht-blank_maps.png</href></Icon><hotSpot x="32" xunits="pixels" y="64" yunits="insetPixels"/></IconStyle><LabelStyle><scale>1</scale></LabelStyle><BalloonStyle><text><![CDATA[<h3>$[name]</h3>]]></text></BalloonStyle></Style><StyleMap id="icon-1899-FFD600-nodesc"><Pair><key>normal</key><styleUrl>#icon-1899-FFD600-nodesc-normal</styleUrl></Pair><Pair><key>highlight</key><styleUrl>#icon-1899-FFD600-nodesc-highlight</styleUrl></Pair></StyleMap><Style id="line-0288D1-5263-nodesc-normal"><LineStyle><color>ffd18802</color><width>5.263</width></LineStyle><BalloonStyle><text><![CDATA[<h3>$[name]</h3>]]></text></BalloonStyle></Style><Style id="line-0288D1-5263-nodesc-highlight"><LineStyle><color>ffd18802</color><width>7.8945</width></LineStyle><BalloonStyle><text><![CDATA[<h3>$[name]</h3>]]></text></BalloonStyle></Style><StyleMap id="line-0288D1-5263-nodesc"><Pair><key>normal</key><styleUrl>#line-0288D1-5263-nodesc-normal</styleUrl></Pair><Pair><key>highlight</key><styleUrl>#line-0288D1-5263-nodesc-highlight</styleUrl></Pair></StyleMap><Folder><name>Untitled layer</name><Placemark><name>Start / Finish</name><styleUrl>#icon-1899-FFD600-nodesc</styleUrl><Point><coordinates>            -3.66552,51.609457,0          </coordinates></Point></Placemark><Placemark><name>Course</name><styleUrl>#line-0288D1-5263-nodesc</styleUrl><LineString><tessellate>1</tessellate><coordinates>            -3.665566,51.609476,0            -3.665657,51.609799,0            -3.665705,51.609952,0            -3.665759,51.610132,0            -3.66585,51.610413,0            -3.665869,51.610413,0            -3.665888,51.610406,0            -3.665906,51.610396,0            -3.665923,51.610384,0            -3.665947,51.610369,0            -3.665971,51.610356,0            -3.665987,51.610343,0            -3.666,51.610324,0            -3.666006,51.610313,0            -3.666016,51.610286,0            -3.66603,51.610256,0            -3.666041,51.610238,0            -3.666054,51.610218,0            -3.666067,51.610204,0            -3.666084,51.610196,0            -3.666108,51.610191,0            -3.666126,51.610188,0            -3.666612,51.610129,0            -3.666698,51.610117,0            -3.666778,51.61011,0            -3.666843,51.6101,0            -3.666918,51.61009,0            -3.666987,51.61009,0            -3.667046,51.610107,0            -3.667084,51.610124,0            -3.667143,51.610147,0            -3.667191,51.610164,0            -3.667266,51.61018,0            -3.667336,51.610177,0            -3.667384,51.61016,0            -3.667433,51.61014,0            -3.667492,51.610127,0            -3.66754,51.610114,0            -3.667594,51.610104,0            -3.667658,51.610097,0            -3.667722,51.610097,0            -3.667776,51.610104,0            -3.667819,51.610117,0            -3.667862,51.61014,0            -3.667889,51.61016,0            -3.667924,51.61019,0            -3.668001,51.610232,0            -3.668052,51.610248,0            -3.668092,51.610258,0            -3.66813,51.610267,0            -3.668165,51.610275,0            -3.6682,51.610286,0            -3.668237,51.610298,0            -3.66828,51.610308,0            -3.668318,51.610317,0            -3.66835,51.610324,0            -3.668388,51.610327,0            -3.668457,51.610318,0            -3.66849,51.610308,0            -3.668543,51.610298,0            -3.668602,51.610298,0            -3.668661,51.610298,0            -3.66872,51.610308,0            -3.668795,51.610328,0            -3.668854,51.610352,0            -3.668897,51.610368,0            -3.668945,51.610385,0            -3.668983,51.610398,0            -3.669074,51.610425,0            -3.669055,51.610445,0            -3.669018,51.610473,0            -3.668996,51.610485,0            -3.66894,51.610517,0            -3.668886,51.610553,0            -3.668844,51.610583,0            -3.668801,51.610617,0            -3.668752,51.61065,0            -3.668715,51.610693,0            -3.668683,51.610733,0            -3.668645,51.610763,0            -3.668624,51.610793,0            -3.668602,51.610823,0            -3.668581,51.61085,0            -3.668548,51.61087,0            -3.668516,51.610896,0            -3.668361,51.61102,0            -3.66828,51.61109,0            -3.668248,51.61112,0            -3.668216,51.611146,0            -3.668189,51.611163,0            -3.668152,51.61118,0            -3.668103,51.611196,0            -3.668055,51.611216,0            -3.667985,51.611243,0            -3.667932,51.61126,0            -3.667889,51.611286,0            -3.667848,51.611306,0            -3.667819,51.61132,0            -3.667776,51.611333,0            -3.667728,51.611346,0            -3.667679,51.61137,0            -3.667636,51.6114,0            -3.667599,51.611426,0            -3.667561,51.611453,0            -3.667535,51.611479,0            -3.667502,51.611503,0            -3.667481,51.611529,0            -3.66747,51.611556,0            -3.66746,51.611579,0            -3.667443,51.611606,0            -3.667433,51.611626,0            -3.667411,51.611646,0            -3.667384,51.611663,0            -3.667352,51.611676,0            -3.667315,51.611689,0            -3.667272,51.611703,0            -3.667234,51.611716,0            -3.667202,51.611726,0            -3.667164,51.611736,0            -3.667127,51.611743,0            -3.667089,51.611746,0            -3.667057,51.611753,0            -3.66702,51.611756,0            -3.666982,51.611756,0            -3.666944,51.611756,0            -3.666883,51.611751,0            -3.666845,51.611746,0            -3.666797,51.611736,0            -3.666759,51.611729,0            -3.666716,51.611719,0            -3.666684,51.611711,0            -3.666652,51.611693,0            -3.666625,51.611666,0            -3.666598,51.611646,0            -3.666572,51.611626,0            -3.666513,51.611586,0            -3.666464,51.611559,0            -3.666422,51.611536,0            -3.666368,51.611513,0            -3.666298,51.611493,0            -3.666234,51.611476,0            -3.666175,51.611463,0            -3.666089,51.61145,0            -3.665998,51.611436,0            -3.665974,51.611443,0            -3.665941,51.611466,0            -3.665923,51.611479,0            -3.665896,51.611499,0            -3.665888,51.611528,0            -3.665885,51.611551,0            -3.665896,51.611573,0            -3.665912,51.611609,0            -3.665923,51.611636,0            -3.665941,51.611664,0            -3.665955,51.611683,0            -3.665966,51.611703,0            -3.665992,51.611736,0            -3.666019,51.611766,0            -3.666078,51.611829,0            -3.666148,51.611899,0            -3.666212,51.611959,0            -3.666298,51.612032,0            -3.666384,51.612109,0            -3.666438,51.612162,0            -3.66647,51.612206,0            -3.666491,51.612259,0            -3.666497,51.612299,0            -3.666497,51.612349,0            -3.666491,51.612399,0            -3.66648,51.612456,0            -3.666464,51.612512,0            -3.666448,51.612562,0            -3.666416,51.612625,0            -3.666389,51.612662,0            -3.666368,51.612695,0            -3.666341,51.612725,0            -3.666304,51.612762,0            -3.666185,51.612868,0            -3.666094,51.612942,0            -3.665987,51.613025,0            -3.665928,51.613075,0            -3.66588,51.613112,0            -3.665868,51.613121,0            -3.665852,51.613126,0            -3.665841,51.613119,0            -3.665841,51.613108,0            -3.665854,51.613096,0            -3.665983,51.612996,0            -3.666117,51.612891,0            -3.666163,51.612854,0            -3.666222,51.612803,0            -3.666275,51.612755,0            -3.666313,51.612717,0            -3.666332,51.61269,0            -3.666353,51.61266,0            -3.666377,51.61262,0            -3.666393,51.61259,0            -3.666409,51.612557,0            -3.666426,51.612509,0            -3.666436,51.612476,0            -3.666442,51.612447,0            -3.66645,51.612394,0            -3.666452,51.612349,0            -3.66645,51.612312,0            -3.666444,51.612269,0            -3.666436,51.612236,0            -3.666426,51.612212,0            -3.666396,51.612172,0            -3.666366,51.612137,0            -3.66631,51.612084,0            -3.66627,51.612049,0            -3.666181,51.61197,0            -3.666144,51.611933,0            -3.666101,51.611888,0            -3.666058,51.611842,0            -3.66601,51.611788,0            -3.665972,51.611752,0            -3.66594,51.611715,0            -3.66591,51.611674,0            -3.665889,51.611637,0            -3.665873,51.611607,0            -3.66586,51.611574,0            -3.665846,51.611539,0            -3.665833,51.611514,0            -3.665817,51.611497,0            -3.6658,51.611484,0            -3.665779,51.611469,0            -3.665758,51.611454,0            -3.665744,51.61144,0            -3.665736,51.611427,0            -3.665734,51.611414,0            -3.665736,51.611399,0            -3.665747,51.611385,0            -3.665763,51.611372,0            -3.665776,51.611365,0            -3.665795,51.61136,0            -3.665814,51.611355,0            -3.665819,51.611342,0            -3.665822,51.611327,0            -3.665825,51.611305,0            -3.665827,51.61128,0            -3.665833,51.611257,0            -3.665841,51.611232,0            -3.665846,51.611205,0            -3.665854,51.611084,0            -3.66586,51.611016,0            -3.665881,51.61068,0            -3.665892,51.610547,0            -3.665886,51.610507,0            -3.665876,51.610473,0            -3.665868,51.610446,0            -3.66585,51.610413,0          </coordinates></LineString></Placemark></Folder></Document></kml>