<?xml version="1.0" encoding="UTF-8"?><kml xmlns="http://www.opengis.net/kml/2.2"><Document><name>Maldon Prom junior parkrun</name><description/><Style id="icon-503-009D57-nodesc-normal"><IconStyle><color>ff579d00</color><scale>1.1</scale><Icon><href>https://www.gstatic.com/mapspro/images/stock/503-wht-blank_maps.png</href></Icon><hotSpot x="16" xunits="pixels" y="32" yunits="insetPixels"/></IconStyle><LabelStyle><scale>0</scale></LabelStyle><BalloonStyle><text><![CDATA[<h3>$[name]</h3>]]></text></BalloonStyle></Style><Style id="icon-503-009D57-nodesc-highlight"><IconStyle><color>ff579d00</color><scale>1.1</scale><Icon><href>https://www.gstatic.com/mapspro/images/stock/503-wht-blank_maps.png</href></Icon><hotSpot x="16" xunits="pixels" y="32" yunits="insetPixels"/></IconStyle><LabelStyle><scale>1.1</scale></LabelStyle><BalloonStyle><text><![CDATA[<h3>$[name]</h3>]]></text></BalloonStyle></Style><StyleMap id="icon-503-009D57-nodesc"><Pair><key>normal</key><styleUrl>#icon-503-009D57-nodesc-normal</styleUrl></Pair><Pair><key>highlight</key><styleUrl>#icon-503-009D57-nodesc-highlight</styleUrl></Pair></StyleMap><Style id="icon-503-DB4436-nodesc-normal"><IconStyle><color>ff3644db</color><scale>1.1</scale><Icon><href>https://www.gstatic.com/mapspro/images/stock/503-wht-blank_maps.png</href></Icon><hotSpot x="16" xunits="pixels" y="32" yunits="insetPixels"/></IconStyle><LabelStyle><scale>0</scale></LabelStyle><BalloonStyle><text><![CDATA[<h3>$[name]</h3>]]></text></BalloonStyle></Style><Style id="icon-503-DB4436-nodesc-highlight"><IconStyle><color>ff3644db</color><scale>1.1</scale><Icon><href>https://www.gstatic.com/mapspro/images/stock/503-wht-blank_maps.png</href></Icon><hotSpot x="16" xunits="pixels" y="32" yunits="insetPixels"/></IconStyle><LabelStyle><scale>1.1</scale></LabelStyle><BalloonStyle><text><![CDATA[<h3>$[name]</h3>]]></text></BalloonStyle></Style><StyleMap id="icon-503-DB4436-nodesc"><Pair><key>normal</key><styleUrl>#icon-503-DB4436-nodesc-normal</styleUrl></Pair><Pair><key>highlight</key><styleUrl>#icon-503-DB4436-nodesc-highlight</styleUrl></Pair></StyleMap><Style id="line-4186F0-4509-normal"><LineStyle><color>fff08641</color><width>4.509</width></LineStyle></Style><Style id="line-4186F0-4509-highlight"><LineStyle><color>fff08641</color><width>6.7635</width></LineStyle></Style><StyleMap id="line-4186F0-4509"><Pair><key>normal</key><styleUrl>#line-4186F0-4509-normal</styleUrl></Pair><Pair><key>highlight</key><styleUrl>#line-4186F0-4509-highlight</styleUrl></Pair></StyleMap><Folder><name>Untitled layer</name><Placemark><name>Course</name><description>2 laps</description><styleUrl>#line-4186F0-4509</styleUrl><LineString><tessellate>1</tessellate><coordinates>            0.689666,51.726809,0            0.690122,51.726653,0            0.690486,51.726583,0            0.690953,51.726513,0            0.691168,51.72652,0            0.691329,51.72655,0            0.691581,51.726566,0            0.691876,51.726576,0            0.69274,51.726576,0            0.69274,51.726629,0            0.691833,51.726606,0            0.691565,51.726639,0            0.691323,51.726739,0            0.691098,51.726885,0            0.690916,51.727022,0            0.690588,51.727178,0            0.690143,51.727384,0            0.689655,51.727646,0            0.689408,51.727759,0            0.689199,51.727829,0            0.689043,51.727866,0            0.688813,51.727882,0            0.688662,51.727902,0            0.688582,51.727862,0            0.688534,51.727796,0            0.688571,51.727673,0            0.688636,51.72754,0            0.688743,51.727374,0            0.688888,51.727201,0            0.689065,51.727058,0            0.68936,51.726918,0            0.689666,51.726809,0          </coordinates></LineString></Placemark><Placemark><name>Start</name><styleUrl>#icon-503-009D57-nodesc</styleUrl><Point><coordinates>            0.689709,51.726792,0          </coordinates></Point></Placemark><Placemark><name>Finish</name><styleUrl>#icon-503-DB4436-nodesc</styleUrl><Point><coordinates>            0.689424,51.727012,0          </coordinates></Point></Placemark></Folder></Document></kml>