<?xml version="1.0" encoding="UTF-8"?><kml xmlns="http://www.opengis.net/kml/2.2"><Document><name>Mesnes Park junior parkrun</name><description/><Style id="icon-1899-FFEA00-nodesc-normal"><IconStyle><color>ff00eaff</color><scale>1</scale><Icon><href>https://www.gstatic.com/mapspro/images/stock/503-wht-blank_maps.png</href></Icon><hotSpot x="32" xunits="pixels" y="64" yunits="insetPixels"/></IconStyle><LabelStyle><scale>0</scale></LabelStyle><BalloonStyle><text><![CDATA[<h3>$[name]</h3>]]></text></BalloonStyle></Style><Style id="icon-1899-FFEA00-nodesc-highlight"><IconStyle><color>ff00eaff</color><scale>1</scale><Icon><href>https://www.gstatic.com/mapspro/images/stock/503-wht-blank_maps.png</href></Icon><hotSpot x="32" xunits="pixels" y="64" yunits="insetPixels"/></IconStyle><LabelStyle><scale>1</scale></LabelStyle><BalloonStyle><text><![CDATA[<h3>$[name]</h3>]]></text></BalloonStyle></Style><StyleMap id="icon-1899-FFEA00-nodesc"><Pair><key>normal</key><styleUrl>#icon-1899-FFEA00-nodesc-normal</styleUrl></Pair><Pair><key>highlight</key><styleUrl>#icon-1899-FFEA00-nodesc-highlight</styleUrl></Pair></StyleMap><Style id="line-0288D1-5000-nodesc-normal"><LineStyle><color>ffd18802</color><width>5</width></LineStyle><BalloonStyle><text><![CDATA[<h3>$[name]</h3>]]></text></BalloonStyle></Style><Style id="line-0288D1-5000-nodesc-highlight"><LineStyle><color>ffd18802</color><width>7.5</width></LineStyle><BalloonStyle><text><![CDATA[<h3>$[name]</h3>]]></text></BalloonStyle></Style><StyleMap id="line-0288D1-5000-nodesc"><Pair><key>normal</key><styleUrl>#line-0288D1-5000-nodesc-normal</styleUrl></Pair><Pair><key>highlight</key><styleUrl>#line-0288D1-5000-nodesc-highlight</styleUrl></Pair></StyleMap><Folder><name>Untitled layer</name><Placemark><name>Course</name><styleUrl>#line-0288D1-5000-nodesc</styleUrl><LineString><tessellate>1</tessellate><coordinates>            -2.63776,53.55271,0            -2.63775,53.55272,0            -2.63775,53.55276,0            -2.63775,53.5528,0            -2.63776,53.55284,0            -2.6378,53.55288,0            -2.63785,53.55291,0            -2.6379,53.55293,0            -2.63785,53.55296,0            -2.6378,53.55299,0            -2.63776,53.55303,0            -2.63774,53.55307,0            -2.63773,53.55312,0            -2.63772,53.55317,0            -2.63775,53.55319,0            -2.63795,53.55332,0            -2.63811,53.55344,0            -2.63822,53.55351,0            -2.63837,53.55363,0            -2.63846,53.55371,0            -2.63852,53.55379,0            -2.6386,53.55394,0            -2.63865,53.55403,0            -2.63868,53.55397,0            -2.63871,53.55391,0            -2.63875,53.55384,0            -2.63881,53.55374,0            -2.63885,53.55368,0            -2.6389,53.55361,0            -2.63897,53.55353,0            -2.63901,53.55347,0            -2.63904,53.5534,0            -2.63905,53.55339,0            -2.63907,53.55332,0            -2.63908,53.55323,0            -2.63908,53.55321,0            -2.63909,53.55303,0            -2.63909,53.553,0            -2.63908,53.55285,0            -2.63908,53.55284,0            -2.63906,53.55274,0            -2.63904,53.55265,0            -2.63899,53.55255,0            -2.63893,53.55243,0            -2.63889,53.55238,0            -2.63886,53.55234,0            -2.6388,53.55232,0            -2.63874,53.55231,0            -2.63848,53.55225,0            -2.63843,53.55224,0            -2.63816,53.55219,0            -2.63786,53.55214,0            -2.63769,53.55213,0            -2.6376,53.5521,0            -2.63754,53.55209,0            -2.63743,53.55209,0            -2.63728,53.55208,0            -2.6371,53.55206,0            -2.63691,53.55204,0            -2.63683,53.55203,0            -2.63677,53.55204,0            -2.63664,53.55205,0            -2.63653,53.55206,0            -2.63639,53.55208,0            -2.63632,53.55207,0            -2.63626,53.55206,0            -2.6362,53.55205,0            -2.63615,53.55205,0            -2.63616,53.55209,0            -2.63613,53.55213,0            -2.63608,53.55214,0            -2.63602,53.55214,0            -2.63598,53.55213,0            -2.63595,53.55224,0            -2.63593,53.55232,0            -2.63585,53.55237,0            -2.63577,53.55241,0            -2.63571,53.55243,0            -2.63565,53.55244,0            -2.63561,53.55244,0            -2.63557,53.55244,0            -2.63553,53.55243,0            -2.63546,53.55242,0            -2.63539,53.55239,0            -2.63533,53.55237,0            -2.6353,53.55232,0            -2.63527,53.55228,0            -2.63494,53.55202,0            -2.63466,53.5518,0            -2.63464,53.55177,0            -2.63463,53.55176,0            -2.63464,53.55174,0            -2.63468,53.55173,0            -2.63422,53.55137,0            -2.63419,53.55134,0            -2.63418,53.55133,0            -2.63418,53.55132,0            -2.6342,53.5513,0            -2.63456,53.55112,0            -2.63505,53.55086,0            -2.63507,53.55086,0            -2.63509,53.55085,0            -2.6351,53.55085,0            -2.63511,53.55086,0            -2.63513,53.55086,0            -2.63515,53.55087,0            -2.63528,53.55094,0            -2.63539,53.55101,0            -2.63583,53.55126,0            -2.63595,53.55121,0            -2.63635,53.55149,0            -2.63655,53.55162,0            -2.63666,53.55168,0            -2.63674,53.55172,0            -2.63684,53.55175,0            -2.63692,53.55178,0            -2.63704,53.55182,0            -2.63728,53.55192,0            -2.6375,53.55203,0            -2.63755,53.55206,0            -2.6376,53.5521,0            -2.63754,53.55209,0            -2.63743,53.55209,0            -2.63728,53.55208,0            -2.6371,53.55206,0            -2.63691,53.55204,0            -2.63683,53.55203,0            -2.63677,53.55204,0            -2.63664,53.55205,0            -2.63653,53.55206,0            -2.6366,53.55202,0            -2.63664,53.55199,0            -2.63668,53.55195,0            -2.6367,53.55189,0            -2.63671,53.55183,0            -2.6367,53.55177,0            -2.63669,53.55172,0            -2.63666,53.55168,0            -2.63674,53.55172,0            -2.63684,53.55175,0            -2.63692,53.55178,0            -2.63704,53.55182,0            -2.63728,53.55192,0            -2.6375,53.55203,0            -2.63755,53.55206,0            -2.6376,53.5521,0            -2.63769,53.55213,0            -2.63786,53.55214,0            -2.63816,53.55219,0            -2.63843,53.55224,0            -2.63848,53.55225,0            -2.63874,53.55231,0            -2.6388,53.55232,0            -2.63886,53.55234,0            -2.63889,53.55238,0            -2.63893,53.55243,0            -2.63899,53.55255,0            -2.63904,53.55265,0            -2.63906,53.55274,0            -2.63908,53.55284,0            -2.63908,53.55285,0            -2.63909,53.553,0            -2.63909,53.55303,0            -2.63908,53.55321,0            -2.63908,53.55323,0            -2.63907,53.55332,0            -2.63905,53.55339,0            -2.63904,53.5534,0            -2.63901,53.55347,0            -2.63897,53.55353,0            -2.6389,53.55361,0            -2.63885,53.55368,0            -2.63881,53.55374,0            -2.63875,53.55384,0            -2.63871,53.55391,0            -2.63868,53.55397,0            -2.63865,53.55403,0            -2.6386,53.55394,0            -2.63852,53.55379,0            -2.63846,53.55371,0            -2.63837,53.55363,0            -2.63822,53.55351,0            -2.63811,53.55344,0            -2.63795,53.55332,0            -2.63775,53.55319,0            -2.63772,53.55317,0            -2.63773,53.55312,0            -2.63774,53.55307,0            -2.63776,53.55303,0            -2.6378,53.55299,0            -2.63785,53.55296,0            -2.6379,53.55293,0            -2.63785,53.55291,0            -2.6378,53.55288,0            -2.63776,53.55284,0            -2.63775,53.5528,0            -2.63775,53.55276,0            -2.63775,53.55272,0            -2.63776,53.55269,0          </coordinates></LineString></Placemark><Placemark><name>Start/Finish</name><styleUrl>#icon-1899-FFEA00-nodesc</styleUrl><Point><coordinates>            -2.637755,53.552716,0          </coordinates></Point></Placemark></Folder></Document></kml>