<?xml version="1.0" encoding="UTF-8"?><kml xmlns="http://www.opengis.net/kml/2.2"><Document><name>Millennium Green junior parkrun</name><description/><Style id="icon-1899-0F9D58-nodesc-normal"><IconStyle><color>ff589d0f</color><scale>1</scale><Icon><href>https://www.gstatic.com/mapspro/images/stock/503-wht-blank_maps.png</href></Icon><hotSpot x="32" xunits="pixels" y="64" yunits="insetPixels"/></IconStyle><LabelStyle><scale>0</scale></LabelStyle><BalloonStyle><text><![CDATA[<h3>$[name]</h3>]]></text></BalloonStyle></Style><Style id="icon-1899-0F9D58-nodesc-highlight"><IconStyle><color>ff589d0f</color><scale>1</scale><Icon><href>https://www.gstatic.com/mapspro/images/stock/503-wht-blank_maps.png</href></Icon><hotSpot x="32" xunits="pixels" y="64" yunits="insetPixels"/></IconStyle><LabelStyle><scale>1</scale></LabelStyle><BalloonStyle><text><![CDATA[<h3>$[name]</h3>]]></text></BalloonStyle></Style><StyleMap id="icon-1899-0F9D58-nodesc"><Pair><key>normal</key><styleUrl>#icon-1899-0F9D58-nodesc-normal</styleUrl></Pair><Pair><key>highlight</key><styleUrl>#icon-1899-0F9D58-nodesc-highlight</styleUrl></Pair></StyleMap><Style id="icon-1899-FF5252-nodesc-normal"><IconStyle><color>ff5252ff</color><scale>1</scale><Icon><href>https://www.gstatic.com/mapspro/images/stock/503-wht-blank_maps.png</href></Icon><hotSpot x="32" xunits="pixels" y="64" yunits="insetPixels"/></IconStyle><LabelStyle><scale>0</scale></LabelStyle><BalloonStyle><text><![CDATA[<h3>$[name]</h3>]]></text></BalloonStyle></Style><Style id="icon-1899-FF5252-nodesc-highlight"><IconStyle><color>ff5252ff</color><scale>1</scale><Icon><href>https://www.gstatic.com/mapspro/images/stock/503-wht-blank_maps.png</href></Icon><hotSpot x="32" xunits="pixels" y="64" yunits="insetPixels"/></IconStyle><LabelStyle><scale>1</scale></LabelStyle><BalloonStyle><text><![CDATA[<h3>$[name]</h3>]]></text></BalloonStyle></Style><StyleMap id="icon-1899-FF5252-nodesc"><Pair><key>normal</key><styleUrl>#icon-1899-FF5252-nodesc-normal</styleUrl></Pair><Pair><key>highlight</key><styleUrl>#icon-1899-FF5252-nodesc-highlight</styleUrl></Pair></StyleMap><Style id="line-0288D1-5456-nodesc-normal"><LineStyle><color>ffd18802</color><width>5.456</width></LineStyle><BalloonStyle><text><![CDATA[<h3>$[name]</h3>]]></text></BalloonStyle></Style><Style id="line-0288D1-5456-nodesc-highlight"><LineStyle><color>ffd18802</color><width>8.184</width></LineStyle><BalloonStyle><text><![CDATA[<h3>$[name]</h3>]]></text></BalloonStyle></Style><StyleMap id="line-0288D1-5456-nodesc"><Pair><key>normal</key><styleUrl>#line-0288D1-5456-nodesc-normal</styleUrl></Pair><Pair><key>highlight</key><styleUrl>#line-0288D1-5456-nodesc-highlight</styleUrl></Pair></StyleMap><Folder><name>Untitled layer</name><Placemark><name>Course</name><styleUrl>#line-0288D1-5456-nodesc</styleUrl><LineString><tessellate>1</tessellate><coordinates>            -1.408172,51.680906,0            -1.408435,51.680823,0            -1.408488,51.680727,0            -1.408515,51.680633,0            -1.408531,51.68056,0            -1.408537,51.680477,0            -1.408526,51.680411,0            -1.408499,51.680327,0            -1.408488,51.680254,0            -1.408462,51.680168,0            -1.408424,51.680088,0            -1.408386,51.680028,0            -1.408333,51.679975,0            -1.408284,51.679922,0            -1.408172,51.679868,0            -1.408065,51.679822,0            -1.407952,51.679802,0            -1.407828,51.679782,0            -1.407657,51.679808,0            -1.407528,51.679898,0            -1.40748,51.679975,0            -1.407442,51.680078,0            -1.407437,51.68017,0            -1.407442,51.680261,0            -1.407469,51.680367,0            -1.40748,51.680444,0            -1.407582,51.680527,0            -1.407657,51.680584,0            -1.407753,51.68064,0            -1.407882,51.680687,0            -1.407925,51.680756,0            -1.408032,51.681029,0            -1.407934,51.680781,0            -1.407748,51.68081,0            -1.407603,51.680816,0            -1.40748,51.680833,0            -1.407346,51.680846,0            -1.407217,51.680846,0            -1.407088,51.68086,0            -1.40696,51.680863,0            -1.406847,51.680873,0            -1.406729,51.680883,0            -1.406622,51.680896,0            -1.406498,51.6809,0            -1.406364,51.6809,0            -1.406268,51.680906,0            -1.406203,51.680667,0            -1.40615,51.68044,0            -1.406144,51.680258,0            -1.406214,51.680158,0            -1.40631,51.680141,0            -1.406337,51.680078,0            -1.406337,51.679988,0            -1.406294,51.679892,0            -1.406273,51.679799,0            -1.406262,51.679705,0            -1.406305,51.679626,0            -1.406482,51.679636,0            -1.406622,51.679649,0            -1.406766,51.679656,0            -1.406933,51.679669,0            -1.407045,51.679709,0            -1.407158,51.679732,0            -1.407292,51.679749,0            -1.407485,51.679732,0            -1.407571,51.679715,0            -1.407748,51.679692,0            -1.40785,51.679692,0            -1.408054,51.679715,0            -1.408258,51.679755,0            -1.408392,51.679835,0            -1.408472,51.679915,0            -1.408542,51.680025,0            -1.408585,51.680115,0            -1.408585,51.680238,0            -1.408606,51.680318,0            -1.408617,51.680411,0            -1.408628,51.680537,0            -1.408628,51.680633,0            -1.408612,51.680707,0            -1.40858,51.680803,0            -1.408526,51.680866,0            -1.408429,51.680923,0            -1.408327,51.680933,0            -1.408247,51.680943,0            -1.408172,51.680906,0            -1.408231,51.681069,0          </coordinates></LineString></Placemark><Placemark><name>Finish</name><styleUrl>#icon-1899-FF5252-nodesc</styleUrl><Point><coordinates>            -1.408032,51.681029,0          </coordinates></Point></Placemark><Placemark><name>Start</name><styleUrl>#icon-1899-0F9D58-nodesc</styleUrl><Point><coordinates>            -1.408231,51.681069,0          </coordinates></Point></Placemark></Folder></Document></kml>