<?xml version="1.0" encoding="UTF-8"?><kml xmlns="http://www.opengis.net/kml/2.2"><Document><name>Millhouses parkrun</name><description/><Style id="icon-1899-0F9D58-nodesc-normal"><IconStyle><color>ff589d0f</color><scale>1</scale><Icon><href>https://www.gstatic.com/mapspro/images/stock/503-wht-blank_maps.png</href></Icon><hotSpot x="32" xunits="pixels" y="64" yunits="insetPixels"/></IconStyle><LabelStyle><scale>0</scale></LabelStyle><BalloonStyle><text><![CDATA[<h3>$[name]</h3>]]></text></BalloonStyle></Style><Style id="icon-1899-0F9D58-nodesc-highlight"><IconStyle><color>ff589d0f</color><scale>1</scale><Icon><href>https://www.gstatic.com/mapspro/images/stock/503-wht-blank_maps.png</href></Icon><hotSpot x="32" xunits="pixels" y="64" yunits="insetPixels"/></IconStyle><LabelStyle><scale>1</scale></LabelStyle><BalloonStyle><text><![CDATA[<h3>$[name]</h3>]]></text></BalloonStyle></Style><StyleMap id="icon-1899-0F9D58-nodesc"><Pair><key>normal</key><styleUrl>#icon-1899-0F9D58-nodesc-normal</styleUrl></Pair><Pair><key>highlight</key><styleUrl>#icon-1899-0F9D58-nodesc-highlight</styleUrl></Pair></StyleMap><Style id="icon-1899-FF5252-nodesc-normal"><IconStyle><color>ff5252ff</color><scale>1</scale><Icon><href>https://www.gstatic.com/mapspro/images/stock/503-wht-blank_maps.png</href></Icon><hotSpot x="32" xunits="pixels" y="64" yunits="insetPixels"/></IconStyle><LabelStyle><scale>0</scale></LabelStyle><BalloonStyle><text><![CDATA[<h3>$[name]</h3>]]></text></BalloonStyle></Style><Style id="icon-1899-FF5252-nodesc-highlight"><IconStyle><color>ff5252ff</color><scale>1</scale><Icon><href>https://www.gstatic.com/mapspro/images/stock/503-wht-blank_maps.png</href></Icon><hotSpot x="32" xunits="pixels" y="64" yunits="insetPixels"/></IconStyle><LabelStyle><scale>1</scale></LabelStyle><BalloonStyle><text><![CDATA[<h3>$[name]</h3>]]></text></BalloonStyle></Style><StyleMap id="icon-1899-FF5252-nodesc"><Pair><key>normal</key><styleUrl>#icon-1899-FF5252-nodesc-normal</styleUrl></Pair><Pair><key>highlight</key><styleUrl>#icon-1899-FF5252-nodesc-highlight</styleUrl></Pair></StyleMap><Style id="line-0288D1-5263-nodesc-normal"><LineStyle><color>ffd18802</color><width>5.263</width></LineStyle><BalloonStyle><text><![CDATA[<h3>$[name]</h3>]]></text></BalloonStyle></Style><Style id="line-0288D1-5263-nodesc-highlight"><LineStyle><color>ffd18802</color><width>7.8945</width></LineStyle><BalloonStyle><text><![CDATA[<h3>$[name]</h3>]]></text></BalloonStyle></Style><StyleMap id="line-0288D1-5263-nodesc"><Pair><key>normal</key><styleUrl>#line-0288D1-5263-nodesc-normal</styleUrl></Pair><Pair><key>highlight</key><styleUrl>#line-0288D1-5263-nodesc-highlight</styleUrl></Pair></StyleMap><Folder><name>Untitled layer</name><Placemark><name>Course</name><styleUrl>#line-0288D1-5263-nodesc</styleUrl><LineString><tessellate>1</tessellate><coordinates>            -1.49887,53.34325,93.6            -1.49896,53.34316,93.6            -1.49899,53.3431,93.6            -1.499,53.34296,93.6            -1.49899,53.34283,95.6            -1.49904,53.34269,95.6            -1.4993,53.34241,96.6            -1.49958,53.34222,96            -1.49993,53.34195,97.3            -1.50008,53.34186,97.3            -1.5002,53.34176,97.3            -1.50023,53.34166,97.3            -1.50028,53.3416,97.3            -1.50039,53.34154,97.3            -1.50055,53.34148,100.4            -1.50081,53.34142,97.2            -1.50123,53.34127,97.2            -1.50134,53.34118,99.7            -1.50145,53.34108,99.7            -1.50148,53.34102,99.1            -1.50155,53.34086,99.1            -1.50168,53.34071,99.1            -1.50248,53.34024,99.4            -1.50271,53.34006,99            -1.50282,53.33993,99            -1.5029,53.33985,100.3            -1.50309,53.33973,100.3            -1.5036,53.33953,101.1            -1.50371,53.33946,101.1            -1.50385,53.33925,100.6            -1.50396,53.33919,100.6            -1.50433,53.33902,100.6            -1.50453,53.33893,102.6            -1.50465,53.33885,102.6            -1.50514,53.33837,102.9            -1.50528,53.33817,102.9            -1.50537,53.33807,102.9            -1.50552,53.33799,102.9            -1.50588,53.33783,103            -1.50605,53.33777,103            -1.50568,53.3379,105.2            -1.50545,53.33803,102.9            -1.50532,53.33812,102.9            -1.50518,53.33832,102.9            -1.50508,53.33843,101.7            -1.50476,53.33872,101.7            -1.50459,53.3389,102.6            -1.50449,53.33895,102.6            -1.50414,53.3391,100.6            -1.50392,53.3392,100.6            -1.5038,53.33931,101.1            -1.50369,53.33947,101.1            -1.50354,53.33956,99.6            -1.50299,53.33978,100.3            -1.50279,53.33996,99            -1.50263,53.34014,99            -1.5025,53.34022,99.4            -1.50252,53.34032,99.4            -1.5027,53.34056,99.4            -1.50278,53.34065,99.6            -1.50285,53.34073,102.9            -1.50284,53.34081,102.9            -1.50247,53.3413,101.5            -1.50237,53.34136,101.5            -1.5023,53.34139,101.5            -1.50216,53.34146,101.5            -1.50188,53.34171,100.3            -1.50179,53.34171,100.3            -1.50156,53.34193,100.3            -1.50155,53.34195,100.3            -1.50147,53.34193,100.3            -1.50135,53.34191,100.3            -1.5012,53.34194,98.4            -1.50123,53.34215,98.2            -1.50116,53.34233,98.2            -1.50106,53.34243,98.8            -1.50074,53.34259,98.8            -1.50055,53.34266,97.9            -1.50019,53.3431,97.4            -1.50009,53.34329,97.4            -1.50008,53.34336,97.9            -1.50005,53.34338,97.9            -1.50005,53.34342,97.9            -1.49998,53.34341,97.9            -1.49982,53.3434,97.9            -1.49969,53.34338,95.7            -1.49898,53.34313,93.6            -1.499,53.34303,93.6            -1.499,53.3429,93.6            -1.49899,53.34283,95.6            -1.49902,53.34274,95.6            -1.49907,53.34265,96.6            -1.49936,53.34236,96            -1.49964,53.34216,96            -1.50018,53.34179,97.3            -1.50022,53.34174,97.3            -1.50022,53.34169,97.3            -1.50025,53.34164,97.3            -1.50036,53.34155,97.3            -1.50043,53.34152,97.3            -1.50067,53.34146,97.2            -1.50094,53.34139,97.2            -1.50115,53.3413,97.2            -1.50128,53.34124,97.2            -1.50145,53.34108,99.7            -1.5016,53.34079,99.1            -1.50168,53.34071,99.1            -1.50183,53.34062,99.1            -1.50226,53.34036,99.4            -1.50263,53.34014,99            -1.50279,53.33996,99            -1.5028,53.33995,99            -1.50299,53.33978,100.3            -1.50354,53.33956,99.6            -1.50369,53.33947,101.1            -1.5038,53.33931,101.1            -1.50392,53.3392,100.6            -1.50414,53.3391,100.6            -1.50453,53.33893,102.6            -1.50465,53.33885,102.6            -1.50496,53.33854,101.7            -1.50514,53.33837,102.9            -1.50521,53.33827,102.9            -1.50528,53.33817,102.9            -1.50537,53.33807,102.9            -1.50552,53.33799,102.9            -1.50588,53.33783,103            -1.50593,53.33782,103            -1.50568,53.3379,105.2            -1.50545,53.33803,102.9            -1.50532,53.33812,102.9            -1.50527,53.33818,102.9            -1.50508,53.33843,101.7            -1.50459,53.3389,102.6            -1.50423,53.33907,100.6            -1.50385,53.33925,100.6            -1.50371,53.33946,101.1            -1.5036,53.33953,101.1            -1.50315,53.33971,99.6            -1.50299,53.33978,100.3            -1.50284,53.3399,99            -1.50275,53.34002,99            -1.50263,53.34014,99            -1.5025,53.34022,99.4            -1.50252,53.34032,99.4            -1.5027,53.34056,99.4            -1.50281,53.34069,99.6            -1.50285,53.34077,102.9            -1.50264,53.34108,101.5            -1.50253,53.34121,101.5            -1.50242,53.34135,101.5            -1.50234,53.34137,101.5            -1.50221,53.34142,101.5            -1.50209,53.34151,101.5            -1.50186,53.34172,100.3            -1.50181,53.34171,100.3            -1.50178,53.34172,100.3            -1.50155,53.34195,100.3            -1.50135,53.34191,100.3            -1.5012,53.34194,98.4            -1.50123,53.34215,98.2            -1.50116,53.34233,98.2            -1.5011,53.34239,98.2            -1.50101,53.34247,98.8            -1.50084,53.34255,98.8            -1.50063,53.34263,98.8            -1.50055,53.34266,97.9            -1.50037,53.34288,97.4            -1.50019,53.3431,97.4            -1.50009,53.34329,97.4            -1.50008,53.34337,97.9            -1.50005,53.34338,97.9            -1.50005,53.34342,97.9            -1.49992,53.3434,97.9            -1.49976,53.34339,95.7            -1.49955,53.34334,95.7            -1.49924,53.34322,96.2            -1.49898,53.34313,93.6            -1.499,53.34303,93.6            -1.499,53.3429,93.6            -1.49899,53.34283,95.6            -1.49902,53.34274,95.6            -1.49907,53.34265,96.6            -1.49936,53.34236,96            -1.49953,53.34225,96            -1.49964,53.34216,96            -1.50011,53.34184,97.3            -1.50022,53.34174,97.3            -1.50025,53.34164,97.3            -1.50036,53.34155,97.3            -1.50043,53.34152,97.3            -1.50094,53.34139,97.2            -1.50113,53.34131,97.2            -1.50123,53.34127,97.2            -1.50134,53.34118,99.7            -1.50145,53.34108,99.7            -1.50148,53.34102,99.1            -1.50155,53.34086,99.1            -1.50168,53.34071,99.1            -1.50202,53.3405,100.4            -1.50253,53.3402,99.4            -1.50271,53.34006,99            -1.50277,53.34,99            -1.50282,53.33993,99            -1.5029,53.33985,100.3            -1.50309,53.33973,100.3            -1.50347,53.33959,99.6            -1.50367,53.33949,101.1            -1.50376,53.33938,101.1            -1.50385,53.33925,100.6            -1.50401,53.33916,100.6            -1.50442,53.33898,102.6            -1.50459,53.3389,102.6            -1.50476,53.33872,101.7            -1.50508,53.33843,101.7            -1.50518,53.33832,102.9            -1.50532,53.33812,102.9            -1.50545,53.33803,102.9            -1.50568,53.3379,105.2            -1.50579,53.33787,105.2            -1.50552,53.33799,102.9            -1.50537,53.33807,102.9            -1.50528,53.33817,102.9            -1.50521,53.33827,102.9            -1.50514,53.33837,102.9            -1.50496,53.33854,101.7            -1.50465,53.33885,102.6            -1.50453,53.33893,102.6            -1.50414,53.3391,100.6            -1.50392,53.3392,100.6            -1.5038,53.33931,101.1            -1.50369,53.33947,101.1            -1.50354,53.33956,99.6            -1.50299,53.33978,100.3            -1.50279,53.33996,99            -1.50263,53.34014,99            -1.5025,53.34022,99.4            -1.50252,53.34032,99.4            -1.5027,53.34056,99.4            -1.50281,53.34069,99.6            -1.50285,53.34077,102.9            -1.50284,53.34081,102.9            -1.50253,53.34121,101.5            -1.50242,53.34135,101.5            -1.50234,53.34137,101.5            -1.50221,53.34142,101.5            -1.50209,53.34151,101.5            -1.50186,53.34172,100.3            -1.50181,53.34171,100.3            -1.50178,53.34172,100.3            -1.50155,53.34195,100.3            -1.50135,53.34191,100.3            -1.5012,53.34194,98.4            -1.50123,53.34215,98.2            -1.50119,53.34226,98.2            -1.50114,53.34234,98.2            -1.50106,53.34243,98.8            -1.50092,53.34251,98.8            -1.50055,53.34266,97.9            -1.50019,53.3431,97.4            -1.50009,53.34329,97.4            -1.50008,53.34336,97.9            -1.50007,53.34338,97.9            -1.50002,53.34338,97.9            -1.49998,53.34336,97.9            -1.49989,53.34321,97.4          </coordinates></LineString></Placemark><Placemark><name>Finish</name><styleUrl>#icon-1899-FF5252-nodesc</styleUrl><Point><coordinates>            -1.499884,53.34319,0          </coordinates></Point></Placemark><Placemark><name>Start</name><styleUrl>#icon-1899-0F9D58-nodesc</styleUrl><Point><coordinates>            -1.49886,53.343255,0          </coordinates></Point></Placemark></Folder></Document></kml>