<?xml version="1.0" encoding="UTF-8"?><kml xmlns="http://www.opengis.net/kml/2.2"><Document><name>Milton Keynes parkrun</name><description>Free timed 5km run every week</description><Style id="icon-1899-0F9D58-nodesc-normal"><IconStyle><color>ff589d0f</color><scale>1</scale><Icon><href>https://www.gstatic.com/mapspro/images/stock/503-wht-blank_maps.png</href></Icon><hotSpot x="32" xunits="pixels" y="64" yunits="insetPixels"/></IconStyle><LabelStyle><scale>0</scale></LabelStyle><BalloonStyle><text><![CDATA[<h3>$[name]</h3>]]></text></BalloonStyle></Style><Style id="icon-1899-0F9D58-nodesc-highlight"><IconStyle><color>ff589d0f</color><scale>1</scale><Icon><href>https://www.gstatic.com/mapspro/images/stock/503-wht-blank_maps.png</href></Icon><hotSpot x="32" xunits="pixels" y="64" yunits="insetPixels"/></IconStyle><LabelStyle><scale>1</scale></LabelStyle><BalloonStyle><text><![CDATA[<h3>$[name]</h3>]]></text></BalloonStyle></Style><StyleMap id="icon-1899-0F9D58-nodesc"><Pair><key>normal</key><styleUrl>#icon-1899-0F9D58-nodesc-normal</styleUrl></Pair><Pair><key>highlight</key><styleUrl>#icon-1899-0F9D58-nodesc-highlight</styleUrl></Pair></StyleMap><Style id="icon-1899-FF5252-nodesc-normal"><IconStyle><color>ff5252ff</color><scale>1</scale><Icon><href>https://www.gstatic.com/mapspro/images/stock/503-wht-blank_maps.png</href></Icon><hotSpot x="32" xunits="pixels" y="64" yunits="insetPixels"/></IconStyle><LabelStyle><scale>0</scale></LabelStyle><BalloonStyle><text><![CDATA[<h3>$[name]</h3>]]></text></BalloonStyle></Style><Style id="icon-1899-FF5252-nodesc-highlight"><IconStyle><color>ff5252ff</color><scale>1</scale><Icon><href>https://www.gstatic.com/mapspro/images/stock/503-wht-blank_maps.png</href></Icon><hotSpot x="32" xunits="pixels" y="64" yunits="insetPixels"/></IconStyle><LabelStyle><scale>1</scale></LabelStyle><BalloonStyle><text><![CDATA[<h3>$[name]</h3>]]></text></BalloonStyle></Style><StyleMap id="icon-1899-FF5252-nodesc"><Pair><key>normal</key><styleUrl>#icon-1899-FF5252-nodesc-normal</styleUrl></Pair><Pair><key>highlight</key><styleUrl>#icon-1899-FF5252-nodesc-highlight</styleUrl></Pair></StyleMap><Style id="line-4186F0-5000-nodesc-normal"><LineStyle><color>fff08641</color><width>5</width></LineStyle><BalloonStyle><text><![CDATA[<h3>$[name]</h3>]]></text></BalloonStyle></Style><Style id="line-4186F0-5000-nodesc-highlight"><LineStyle><color>fff08641</color><width>7.5</width></LineStyle><BalloonStyle><text><![CDATA[<h3>$[name]</h3>]]></text></BalloonStyle></Style><StyleMap id="line-4186F0-5000-nodesc"><Pair><key>normal</key><styleUrl>#line-4186F0-5000-nodesc-normal</styleUrl></Pair><Pair><key>highlight</key><styleUrl>#line-4186F0-5000-nodesc-highlight</styleUrl></Pair></StyleMap><Folder><name>Untitled layer</name><Placemark><name>Course</name><styleUrl>#line-4186F0-5000-nodesc</styleUrl><LineString><tessellate>1</tessellate><coordinates>            -0.728084,52.0504,0            -0.729392,52.050265,0            -0.73084,52.050215,0            -0.731867,52.050141,0            -0.732287,52.05009,0            -0.73235,52.050183,0            -0.732466,52.050249,0            -0.732609,52.050288,0            -0.733371,52.050725,0            -0.734382,52.051042,0            -0.734995,52.051267,0            -0.735277,52.051514,0            -0.735565,52.05177,0            -0.735691,52.051964,0            -0.735805,52.052344,0            -0.735753,52.05265,0            -0.73538,52.053216,0            -0.734697,52.054101,0            -0.734192,52.05475,0            -0.733892,52.055113,0            -0.733626,52.055422,0            -0.733217,52.05575,0            -0.732551,52.056137,0            -0.731941,52.056545,0            -0.731822,52.056891,0            -0.731854,52.057199,0            -0.732169,52.05756,0            -0.731587,52.057786,0            -0.730913,52.057951,0            -0.73034,52.058041,0            -0.730032,52.058058,0            -0.729598,52.058033,0            -0.728674,52.057968,0            -0.728209,52.057935,0            -0.727585,52.057886,0            -0.727556,52.058081,0            -0.727086,52.057602,0            -0.726976,52.058061,0            -0.726786,52.05787,0            -0.726787,52.05801,0            -0.726777,52.058209,0            -0.726767,52.058334,0            -0.726684,52.058419,0            -0.726574,52.058477,0            -0.726129,52.058501,0            -0.725855,52.058512,0            -0.725692,52.058488,0            -0.725505,52.058426,0            -0.725302,52.058344,0            -0.725077,52.058295,0            -0.724831,52.058272,0            -0.724643,52.058285,0            -0.72441,52.058282,0            -0.724132,52.058241,0            -0.723779,52.058167,0            -0.723377,52.058054,0            -0.723436,52.057743,0            -0.723452,52.057582,0            -0.723551,52.057281,0            -0.723695,52.057028,0            -0.724115,52.056578,0            -0.724312,52.05632,0            -0.724469,52.05609,0            -0.724033,52.055321,0            -0.723922,52.054972,0            -0.723841,52.054561,0            -0.723681,52.054419,0            -0.723535,52.05435,0            -0.723381,52.054302,0            -0.723186,52.054277,0            -0.722785,52.054165,0            -0.722596,52.054136,0            -0.722254,52.054129,0            -0.72152,52.054218,0            -0.721113,52.054292,0            -0.7207,52.054368,0            -0.720027,52.054328,0            -0.719843,52.054344,0            -0.719427,52.054339,0            -0.718993,52.054381,0            -0.717784,52.054257,0            -0.71771,52.054287,0            -0.717266,52.05439,0            -0.716837,52.054357,0            -0.716642,52.054376,0            -0.716473,52.054459,0            -0.716213,52.054873,0            -0.716069,52.055068,0            -0.715862,52.055211,0            -0.715628,52.055264,0            -0.715246,52.055211,0            -0.715186,52.05515,0            -0.715191,52.055072,0            -0.715569,52.054446,0            -0.71553,52.05427,0            -0.715581,52.054058,0            -0.715143,52.052227,0            -0.715051,52.05208,0            -0.714357,52.051549,0            -0.713988,52.051284,0            -0.713818,52.051094,0            -0.713777,52.050882,0            -0.713785,52.050673,0            -0.713811,52.050255,0            -0.713901,52.049412,0            -0.713964,52.048269,0            -0.713944,52.047987,0            -0.713908,52.047867,0            -0.71397,52.04784,0            -0.714028,52.047725,0            -0.714252,52.047682,0            -0.714502,52.047544,0            -0.714758,52.04746,0            -0.714902,52.047423,0            -0.715135,52.047396,0            -0.715651,52.047432,0            -0.715861,52.047434,0            -0.716076,52.047413,0            -0.716582,52.047342,0            -0.717016,52.047352,0            -0.717468,52.047345,0            -0.71763,52.047286,0            -0.718736,52.047275,0            -0.719444,52.047336,0            -0.719796,52.047347,0            -0.720062,52.047384,0            -0.720636,52.047539,0            -0.721154,52.04768,0            -0.721342,52.047803,0            -0.721488,52.04794,0            -0.721704,52.048252,0            -0.722115,52.048871,0            -0.722816,52.050007,0            -0.72281,52.050265,0            -0.722772,52.050394,0            -0.722685,52.050514,0            -0.722623,52.050619,0            -0.722524,52.050702,0            -0.722398,52.050806,0            -0.72224,52.050908,0            -0.721738,52.051093,0            -0.721305,52.051232,0            -0.721056,52.05129,0            -0.720929,52.051336,0            -0.72084,52.051384,0          </coordinates></LineString></Placemark><Placemark><name>FINISH</name><styleUrl>#icon-1899-FF5252-nodesc</styleUrl><Point><coordinates>            -0.72084,52.051384,0          </coordinates></Point></Placemark><Placemark><name>START</name><styleUrl>#icon-1899-0F9D58-nodesc</styleUrl><Point><coordinates>            -0.728084,52.0504,0          </coordinates></Point></Placemark></Folder></Document></kml>