<?xml version="1.0" encoding="UTF-8"?><kml xmlns="http://www.opengis.net/kml/2.2"><Document><name>Milton Country parkrun</name><description/><Style id="icon-1899-0F9D58-nodesc-normal"><IconStyle><color>ff589d0f</color><scale>1</scale><Icon><href>https://www.gstatic.com/mapspro/images/stock/503-wht-blank_maps.png</href></Icon><hotSpot x="32" xunits="pixels" y="64" yunits="insetPixels"/></IconStyle><LabelStyle><scale>0</scale></LabelStyle><BalloonStyle><text><![CDATA[<h3>$[name]</h3>]]></text></BalloonStyle></Style><Style id="icon-1899-0F9D58-nodesc-highlight"><IconStyle><color>ff589d0f</color><scale>1</scale><Icon><href>https://www.gstatic.com/mapspro/images/stock/503-wht-blank_maps.png</href></Icon><hotSpot x="32" xunits="pixels" y="64" yunits="insetPixels"/></IconStyle><LabelStyle><scale>1</scale></LabelStyle><BalloonStyle><text><![CDATA[<h3>$[name]</h3>]]></text></BalloonStyle></Style><StyleMap id="icon-1899-0F9D58-nodesc"><Pair><key>normal</key><styleUrl>#icon-1899-0F9D58-nodesc-normal</styleUrl></Pair><Pair><key>highlight</key><styleUrl>#icon-1899-0F9D58-nodesc-highlight</styleUrl></Pair></StyleMap><Style id="icon-1899-E65100-nodesc-normal"><IconStyle><color>ff0051e6</color><scale>1</scale><Icon><href>https://www.gstatic.com/mapspro/images/stock/503-wht-blank_maps.png</href></Icon><hotSpot x="32" xunits="pixels" y="64" yunits="insetPixels"/></IconStyle><LabelStyle><scale>0</scale></LabelStyle><BalloonStyle><text><![CDATA[<h3>$[name]</h3>]]></text></BalloonStyle></Style><Style id="icon-1899-E65100-nodesc-highlight"><IconStyle><color>ff0051e6</color><scale>1</scale><Icon><href>https://www.gstatic.com/mapspro/images/stock/503-wht-blank_maps.png</href></Icon><hotSpot x="32" xunits="pixels" y="64" yunits="insetPixels"/></IconStyle><LabelStyle><scale>1</scale></LabelStyle><BalloonStyle><text><![CDATA[<h3>$[name]</h3>]]></text></BalloonStyle></Style><StyleMap id="icon-1899-E65100-nodesc"><Pair><key>normal</key><styleUrl>#icon-1899-E65100-nodesc-normal</styleUrl></Pair><Pair><key>highlight</key><styleUrl>#icon-1899-E65100-nodesc-highlight</styleUrl></Pair></StyleMap><Style id="line-0288D1-5000-nodesc-normal"><LineStyle><color>ffd18802</color><width>5</width></LineStyle><BalloonStyle><text><![CDATA[<h3>$[name]</h3>]]></text></BalloonStyle></Style><Style id="line-0288D1-5000-nodesc-highlight"><LineStyle><color>ffd18802</color><width>7.5</width></LineStyle><BalloonStyle><text><![CDATA[<h3>$[name]</h3>]]></text></BalloonStyle></Style><StyleMap id="line-0288D1-5000-nodesc"><Pair><key>normal</key><styleUrl>#line-0288D1-5000-nodesc-normal</styleUrl></Pair><Pair><key>highlight</key><styleUrl>#line-0288D1-5000-nodesc-highlight</styleUrl></Pair></StyleMap><Folder><name>Untitled layer</name><Placemark><name>Course</name><styleUrl>#line-0288D1-5000-nodesc</styleUrl><LineString><tessellate>1</tessellate><coordinates>            0.16428,52.23653,0            0.16439,52.23653,0            0.16458,52.2365,0            0.16478,52.23646,0            0.16494,52.2364,0            0.16517,52.23633,0            0.16552,52.23623,0            0.16592,52.23612,0            0.16614,52.23606,0            0.1665,52.23595,0            0.1666,52.23593,0            0.16668,52.2359,0            0.16677,52.23584,0            0.1669,52.23577,0            0.167,52.23571,0            0.16705,52.2357,0            0.16702,52.23547,0            0.16682,52.23535,0            0.16681,52.23534,0            0.16677,52.23527,0            0.16669,52.23517,0            0.16647,52.23501,0            0.16633,52.23489,0            0.1663,52.23487,0            0.16624,52.23475,0            0.16613,52.23464,0            0.16581,52.2345,0            0.16577,52.2345,0            0.16565,52.23449,0            0.16557,52.23451,0            0.16526,52.23458,0            0.16456,52.23477,0            0.16387,52.23496,0            0.16346,52.23506,0            0.16305,52.2352,0            0.16256,52.23532,0            0.16251,52.23537,0            0.16248,52.23546,0            0.16253,52.23565,0            0.1625,52.23574,0            0.16259,52.23594,0            0.16268,52.23611,0            0.16267,52.23615,0            0.16245,52.23624,0            0.1624,52.23626,0            0.1624,52.23629,0            0.16244,52.23638,0            0.1625,52.23647,0            0.16255,52.23655,0            0.16257,52.23664,0            0.16222,52.23665,0            0.16201,52.23666,0            0.16157,52.2367,0            0.16184,52.2369,0            0.16194,52.23695,0            0.16203,52.237,0            0.16206,52.23704,0            0.16206,52.23707,0            0.16202,52.23709,0            0.16196,52.23712,0            0.16191,52.23715,0            0.16188,52.23717,0            0.16185,52.23719,0            0.16182,52.23723,0            0.16179,52.23726,0            0.16142,52.23736,0            0.16115,52.23744,0            0.16112,52.23746,0            0.1611,52.23749,0            0.16109,52.23752,0            0.1611,52.23755,0            0.16143,52.23805,0            0.162,52.23894,0            0.16244,52.23963,0            0.1625,52.23973,0            0.16258,52.23983,0            0.16267,52.23992,0            0.16284,52.24006,0            0.16299,52.24014,0            0.16309,52.2402,0            0.16319,52.24025,0            0.16328,52.2403,0            0.16352,52.24053,0            0.16357,52.24056,0            0.16368,52.24059,0            0.16381,52.2406,0            0.16401,52.2406,0            0.16419,52.24059,0            0.16432,52.24057,0            0.16441,52.24055,0            0.16446,52.24053,0            0.16448,52.24051,0            0.1645,52.24047,0            0.1645,52.24043,0            0.16449,52.24035,0            0.16449,52.24031,0            0.16451,52.24028,0            0.16454,52.24025,0            0.16459,52.24021,0            0.16462,52.24018,0            0.16463,52.24015,0            0.16461,52.24011,0            0.16449,52.23991,0            0.16448,52.23988,0            0.1645,52.23985,0            0.16453,52.23983,0            0.16459,52.2398,0            0.16469,52.23977,0            0.16486,52.23976,0            0.16499,52.23976,0            0.16505,52.23979,0            0.16511,52.23985,0            0.16516,52.23992,0            0.16523,52.23999,0            0.16534,52.24003,0            0.16544,52.24004,0            0.16555,52.24002,0            0.16571,52.24001,0            0.16584,52.24,0            0.16599,52.23998,0            0.16607,52.23997,0            0.16612,52.23992,0            0.16612,52.23983,0            0.16607,52.23973,0            0.16604,52.23965,0            0.16616,52.23967,0            0.16621,52.23968,0            0.16654,52.23955,0            0.16677,52.23946,0            0.16688,52.23942,0            0.16696,52.23941,0            0.16703,52.2394,0            0.16713,52.23941,0            0.16723,52.23943,0            0.16732,52.23944,0            0.16741,52.23944,0            0.16768,52.23945,0            0.16775,52.23946,0            0.16779,52.23947,0            0.16824,52.23964,0            0.16828,52.23965,0            0.16834,52.23965,0            0.16841,52.23962,0            0.16838,52.23959,0            0.16811,52.23903,0            0.16791,52.23869,0            0.16776,52.2385,0            0.16772,52.23845,0            0.16772,52.23842,0            0.16774,52.2384,0            0.1678,52.23838,0            0.1679,52.23833,0            0.16798,52.2383,0            0.16803,52.23828,0            0.1681,52.23824,0            0.16815,52.23821,0            0.16819,52.23817,0            0.16822,52.23813,0            0.16823,52.23807,0            0.16826,52.23802,0            0.16829,52.23798,0            0.1683,52.23794,0            0.16828,52.23791,0            0.16823,52.23788,0            0.16816,52.23782,0            0.16813,52.23777,0            0.16812,52.23771,0            0.16811,52.23759,0            0.16815,52.23747,0            0.16823,52.23736,0            0.16829,52.23729,0            0.16828,52.23725,0            0.16826,52.23721,0            0.16818,52.2372,0            0.1681,52.2371,0            0.1681,52.23702,0            0.16804,52.23697,0            0.16796,52.23692,0            0.16791,52.23681,0            0.16783,52.23671,0            0.16781,52.23665,0            0.16777,52.23656,0            0.16773,52.23651,0            0.1677,52.23646,0            0.16768,52.23643,0            0.16759,52.23638,0            0.16754,52.23629,0            0.16754,52.23621,0            0.16751,52.23617,0            0.16744,52.23611,0            0.16739,52.23603,0            0.16738,52.23593,0            0.16719,52.23577,0            0.16713,52.23571,0            0.16707,52.23569,0            0.16705,52.2357,0            0.16702,52.23547,0            0.16682,52.23535,0            0.16681,52.23534,0            0.16677,52.23527,0            0.16669,52.23517,0            0.16647,52.23501,0            0.16633,52.23489,0            0.1663,52.23487,0            0.16624,52.23475,0            0.16613,52.23464,0            0.16581,52.2345,0            0.16577,52.2345,0            0.16565,52.23449,0            0.16557,52.23451,0            0.16526,52.23458,0            0.16456,52.23477,0            0.16387,52.23496,0            0.16346,52.23506,0            0.16305,52.2352,0            0.16256,52.23532,0            0.16251,52.23537,0            0.16248,52.23546,0            0.16253,52.23565,0            0.1625,52.23574,0            0.16259,52.23594,0            0.16268,52.23611,0            0.16267,52.23615,0            0.16245,52.23624,0            0.1624,52.23626,0            0.1624,52.23629,0            0.16244,52.23638,0            0.1625,52.23647,0            0.16255,52.23655,0            0.16257,52.23664,0            0.16262,52.23664,0            0.16293,52.23664,0            0.16297,52.23664,0            0.16321,52.23661,0            0.16371,52.23656,0            0.16383,52.23655,0            0.16389,52.23654,0            0.16406,52.23653,0            0.16427,52.23653,0            0.16429,52.23653,0          </coordinates></LineString></Placemark><Placemark><name>Finish</name><styleUrl>#icon-1899-E65100-nodesc</styleUrl><Point><coordinates>            0.163913,52.236566,0          </coordinates></Point></Placemark><Placemark><name>Start</name><styleUrl>#icon-1899-0F9D58-nodesc</styleUrl><Point><coordinates>            0.164256,52.236527,0          </coordinates></Point></Placemark></Folder></Document></kml>