<?xml version="1.0" encoding="UTF-8"?><kml xmlns="http://www.opengis.net/kml/2.2"><Document><name>Moredon Sporting Hub junior parkrun</name><description/><Style id="icon-1899-FFEA00-nodesc-normal"><IconStyle><color>ff00eaff</color><scale>1</scale><Icon><href>https://www.gstatic.com/mapspro/images/stock/503-wht-blank_maps.png</href></Icon><hotSpot x="32" xunits="pixels" y="64" yunits="insetPixels"/></IconStyle><LabelStyle><scale>0</scale></LabelStyle><BalloonStyle><text><![CDATA[<h3>$[name]</h3>]]></text></BalloonStyle></Style><Style id="icon-1899-FFEA00-nodesc-highlight"><IconStyle><color>ff00eaff</color><scale>1</scale><Icon><href>https://www.gstatic.com/mapspro/images/stock/503-wht-blank_maps.png</href></Icon><hotSpot x="32" xunits="pixels" y="64" yunits="insetPixels"/></IconStyle><LabelStyle><scale>1</scale></LabelStyle><BalloonStyle><text><![CDATA[<h3>$[name]</h3>]]></text></BalloonStyle></Style><StyleMap id="icon-1899-FFEA00-nodesc"><Pair><key>normal</key><styleUrl>#icon-1899-FFEA00-nodesc-normal</styleUrl></Pair><Pair><key>highlight</key><styleUrl>#icon-1899-FFEA00-nodesc-highlight</styleUrl></Pair></StyleMap><Style id="line-0288D1-5456-nodesc-normal"><LineStyle><color>ffd18802</color><width>5.456</width></LineStyle><BalloonStyle><text><![CDATA[<h3>$[name]</h3>]]></text></BalloonStyle></Style><Style id="line-0288D1-5456-nodesc-highlight"><LineStyle><color>ffd18802</color><width>8.184</width></LineStyle><BalloonStyle><text><![CDATA[<h3>$[name]</h3>]]></text></BalloonStyle></Style><StyleMap id="line-0288D1-5456-nodesc"><Pair><key>normal</key><styleUrl>#line-0288D1-5456-nodesc-normal</styleUrl></Pair><Pair><key>highlight</key><styleUrl>#line-0288D1-5456-nodesc-highlight</styleUrl></Pair></StyleMap><Folder><name>Untitled layer</name><Placemark><name>Course</name><styleUrl>#line-0288D1-5456-nodesc</styleUrl><LineString><tessellate>1</tessellate><coordinates>            -1.813156,51.57848,0            -1.812469,51.578287,0            -1.811772,51.578087,0            -1.811235,51.578027,0            -1.810881,51.578027,0            -1.810699,51.57816,0            -1.810688,51.57836,0            -1.810956,51.57846,0            -1.811418,51.57844,0            -1.812104,51.578407,0            -1.812523,51.578433,0            -1.812727,51.578594,0            -1.812984,51.578647,0            -1.813263,51.578654,0            -1.813617,51.578787,0            -1.813864,51.578914,0            -1.814154,51.579047,0            -1.814497,51.57908,0            -1.814894,51.579094,0            -1.815055,51.579187,0            -1.815001,51.579367,0            -1.814883,51.5796,0            -1.814905,51.579834,0            -1.815076,51.580054,0            -1.81542,51.580207,0            -1.815742,51.58024,0            -1.816074,51.58002,0            -1.816385,51.579734,0            -1.816471,51.579554,0            -1.816332,51.579454,0            -1.816053,51.57942,0            -1.815709,51.5794,0            -1.815495,51.57924,0            -1.815312,51.57902,0            -1.815023,51.578934,0            -1.814583,51.578874,0            -1.814122,51.57874,0            -1.81366,51.57858,0            -1.813156,51.57848,0          </coordinates></LineString></Placemark><Placemark><name>Start/Finish</name><styleUrl>#icon-1899-FFEA00-nodesc</styleUrl><Point><coordinates>            -1.813156,51.57848,0          </coordinates></Point></Placemark></Folder></Document></kml>