<?xml version="1.0" encoding="UTF-8"?><kml xmlns="http://www.opengis.net/kml/2.2"><Document><name>Mount Edgcumbe parkrun</name><description/><Style id="icon-1899-0F9D58-nodesc-normal"><IconStyle><color>ff589d0f</color><scale>1</scale><Icon><href>https://www.gstatic.com/mapspro/images/stock/503-wht-blank_maps.png</href></Icon><hotSpot x="32" xunits="pixels" y="64" yunits="insetPixels"/></IconStyle><LabelStyle><scale>0</scale></LabelStyle><BalloonStyle><text><![CDATA[<h3>$[name]</h3>]]></text></BalloonStyle></Style><Style id="icon-1899-0F9D58-nodesc-highlight"><IconStyle><color>ff589d0f</color><scale>1</scale><Icon><href>https://www.gstatic.com/mapspro/images/stock/503-wht-blank_maps.png</href></Icon><hotSpot x="32" xunits="pixels" y="64" yunits="insetPixels"/></IconStyle><LabelStyle><scale>1</scale></LabelStyle><BalloonStyle><text><![CDATA[<h3>$[name]</h3>]]></text></BalloonStyle></Style><StyleMap id="icon-1899-0F9D58-nodesc"><Pair><key>normal</key><styleUrl>#icon-1899-0F9D58-nodesc-normal</styleUrl></Pair><Pair><key>highlight</key><styleUrl>#icon-1899-0F9D58-nodesc-highlight</styleUrl></Pair></StyleMap><Style id="icon-1899-FF5252-nodesc-normal"><IconStyle><color>ff5252ff</color><scale>1</scale><Icon><href>https://www.gstatic.com/mapspro/images/stock/503-wht-blank_maps.png</href></Icon><hotSpot x="32" xunits="pixels" y="64" yunits="insetPixels"/></IconStyle><LabelStyle><scale>0</scale></LabelStyle><BalloonStyle><text><![CDATA[<h3>$[name]</h3>]]></text></BalloonStyle></Style><Style id="icon-1899-FF5252-nodesc-highlight"><IconStyle><color>ff5252ff</color><scale>1</scale><Icon><href>https://www.gstatic.com/mapspro/images/stock/503-wht-blank_maps.png</href></Icon><hotSpot x="32" xunits="pixels" y="64" yunits="insetPixels"/></IconStyle><LabelStyle><scale>1</scale></LabelStyle><BalloonStyle><text><![CDATA[<h3>$[name]</h3>]]></text></BalloonStyle></Style><StyleMap id="icon-1899-FF5252-nodesc"><Pair><key>normal</key><styleUrl>#icon-1899-FF5252-nodesc-normal</styleUrl></Pair><Pair><key>highlight</key><styleUrl>#icon-1899-FF5252-nodesc-highlight</styleUrl></Pair></StyleMap><Style id="line-4186F0-5263-nodesc-normal"><LineStyle><color>fff08641</color><width>5.263</width></LineStyle><BalloonStyle><text><![CDATA[<h3>$[name]</h3>]]></text></BalloonStyle></Style><Style id="line-4186F0-5263-nodesc-highlight"><LineStyle><color>fff08641</color><width>7.8945</width></LineStyle><BalloonStyle><text><![CDATA[<h3>$[name]</h3>]]></text></BalloonStyle></Style><StyleMap id="line-4186F0-5263-nodesc"><Pair><key>normal</key><styleUrl>#line-4186F0-5263-nodesc-normal</styleUrl></Pair><Pair><key>highlight</key><styleUrl>#line-4186F0-5263-nodesc-highlight</styleUrl></Pair></StyleMap><Folder><name>Untitled layer</name><Placemark><name>Course</name><styleUrl>#line-4186F0-5263-nodesc</styleUrl><LineString><tessellate>1</tessellate><coordinates>            -4.175129,50.359473,0            -4.175719,50.356687,0            -4.173445,50.356495,0            -4.17347,50.356112,0            -4.173212,50.355469,0            -4.172547,50.354948,0            -4.171903,50.35462,0            -4.170981,50.353771,0            -4.172461,50.352799,0            -4.172547,50.352484,0            -4.172499,50.352186,0            -4.172821,50.352094,0            -4.173191,50.352248,0            -4.173105,50.352758,0            -4.172139,50.353675,0            -4.172268,50.353976,0            -4.173105,50.354045,0            -4.174452,50.354359,0            -4.174146,50.35389,0            -4.173792,50.353695,0            -4.173583,50.353552,0            -4.173481,50.353449,0            -4.173438,50.353301,0            -4.173834,50.35289,0            -4.174071,50.352435,0            -4.174033,50.351743,0            -4.173867,50.351031,0            -4.173926,50.350925,0            -4.173411,50.350672,0            -4.172987,50.350614,0            -4.171914,50.350802,0            -4.17046,50.351288,0            -4.170053,50.351278,0            -4.169688,50.351114,0            -4.169613,50.350816,0            -4.169886,50.350679,0            -4.17067,50.350004,0            -4.171244,50.349878,0            -4.17149,50.349296,0            -4.171442,50.348981,0            -4.171184,50.348481,0            -4.170611,50.347704,0            -4.170573,50.347444,0            -4.169361,50.34626,0            -4.170337,50.346598,0            -4.17097,50.346451,0            -4.171758,50.346492,0            -4.173218,50.346797,0            -4.174258,50.347321,0            -4.174628,50.347355,0            -4.174988,50.347208,0            -4.175036,50.347249,0            -4.174505,50.347376,0            -4.172933,50.34704,0            -4.170412,50.346612,0            -4.170262,50.34664,0            -4.170128,50.346982,0            -4.17148,50.348272,0            -4.171946,50.348803,0            -4.17251,50.34959,0            -4.170632,50.350593,0            -4.170326,50.351059,0            -4.170358,50.351202,0            -4.170498,50.351237,0            -4.171893,50.350768,0            -4.172976,50.350576,0            -4.173432,50.350638,0            -4.173974,50.350901,0            -4.173904,50.351042,0            -4.174081,50.351743,0            -4.174119,50.352452,0            -4.173877,50.3529,0            -4.173497,50.353328,0            -4.173594,50.353497,0            -4.174172,50.353866,0            -4.1745,50.354372,0            -4.175583,50.354458,0          </coordinates></LineString></Placemark><Placemark><name>Finish</name><styleUrl>#icon-1899-FF5252-nodesc</styleUrl><Point><coordinates>            -4.175583,50.354458,0          </coordinates></Point></Placemark><Placemark><name>Start</name><styleUrl>#icon-1899-0F9D58-nodesc</styleUrl><Point><coordinates>            -4.175129,50.359473,0          </coordinates></Point></Placemark></Folder></Document></kml>