<?xml version="1.0" encoding="UTF-8"?><kml xmlns="http://www.opengis.net/kml/2.2"><Document><name>Myrtle parkrun</name><description/><Style id="icon-1899-0F9D58-nodesc-normal"><IconStyle><color>ff589d0f</color><scale>1</scale><Icon><href>https://www.gstatic.com/mapspro/images/stock/503-wht-blank_maps.png</href></Icon><hotSpot x="32" xunits="pixels" y="64" yunits="insetPixels"/></IconStyle><LabelStyle><scale>0</scale></LabelStyle><BalloonStyle><text><![CDATA[<h3>$[name]</h3>]]></text></BalloonStyle></Style><Style id="icon-1899-0F9D58-nodesc-highlight"><IconStyle><color>ff589d0f</color><scale>1</scale><Icon><href>https://www.gstatic.com/mapspro/images/stock/503-wht-blank_maps.png</href></Icon><hotSpot x="32" xunits="pixels" y="64" yunits="insetPixels"/></IconStyle><LabelStyle><scale>1</scale></LabelStyle><BalloonStyle><text><![CDATA[<h3>$[name]</h3>]]></text></BalloonStyle></Style><StyleMap id="icon-1899-0F9D58-nodesc"><Pair><key>normal</key><styleUrl>#icon-1899-0F9D58-nodesc-normal</styleUrl></Pair><Pair><key>highlight</key><styleUrl>#icon-1899-0F9D58-nodesc-highlight</styleUrl></Pair></StyleMap><Style id="icon-1899-FF5252-nodesc-normal"><IconStyle><color>ff5252ff</color><scale>1</scale><Icon><href>https://www.gstatic.com/mapspro/images/stock/503-wht-blank_maps.png</href></Icon><hotSpot x="32" xunits="pixels" y="64" yunits="insetPixels"/></IconStyle><LabelStyle><scale>0</scale></LabelStyle><BalloonStyle><text><![CDATA[<h3>$[name]</h3>]]></text></BalloonStyle></Style><Style id="icon-1899-FF5252-nodesc-highlight"><IconStyle><color>ff5252ff</color><scale>1</scale><Icon><href>https://www.gstatic.com/mapspro/images/stock/503-wht-blank_maps.png</href></Icon><hotSpot x="32" xunits="pixels" y="64" yunits="insetPixels"/></IconStyle><LabelStyle><scale>1</scale></LabelStyle><BalloonStyle><text><![CDATA[<h3>$[name]</h3>]]></text></BalloonStyle></Style><StyleMap id="icon-1899-FF5252-nodesc"><Pair><key>normal</key><styleUrl>#icon-1899-FF5252-nodesc-normal</styleUrl></Pair><Pair><key>highlight</key><styleUrl>#icon-1899-FF5252-nodesc-highlight</styleUrl></Pair></StyleMap><Style id="line-0288D1-5456-nodesc-normal"><LineStyle><color>ffd18802</color><width>5.456</width></LineStyle><BalloonStyle><text><![CDATA[<h3>$[name]</h3>]]></text></BalloonStyle></Style><Style id="line-0288D1-5456-nodesc-highlight"><LineStyle><color>ffd18802</color><width>8.184</width></LineStyle><BalloonStyle><text><![CDATA[<h3>$[name]</h3>]]></text></BalloonStyle></Style><StyleMap id="line-0288D1-5456-nodesc"><Pair><key>normal</key><styleUrl>#line-0288D1-5456-nodesc-normal</styleUrl></Pair><Pair><key>highlight</key><styleUrl>#line-0288D1-5456-nodesc-highlight</styleUrl></Pair></StyleMap><Folder><name>Untitled layer</name><Placemark><name>Course</name><styleUrl>#line-0288D1-5456-nodesc</styleUrl><LineString><tessellate>1</tessellate><coordinates>            -1.839171,53.846038,0            -1.839106,53.845847,0            -1.83897,53.845642,0            -1.838808,53.84534,0            -1.838694,53.845142,0            -1.838696,53.845048,0            -1.838798,53.844897,0            -1.838914,53.844753,0            -1.839103,53.844536,0            -1.839173,53.844483,0            -1.83926,53.844441,0            -1.839345,53.84441,0            -1.839506,53.844362,0            -1.839661,53.844337,0            -1.839769,53.844315,0            -1.83979,53.844309,0            -1.839833,53.844294,0            -1.839884,53.844273,0            -1.839999,53.844206,0            -1.840308,53.844055,0            -1.840589,53.843927,0            -1.840782,53.843842,0            -1.840941,53.843813,0            -1.84111,53.843791,0            -1.841217,53.843791,0            -1.841424,53.843856,0            -1.841737,53.843976,0            -1.841992,53.844052,0            -1.842293,53.844133,0            -1.842606,53.844222,0            -1.842797,53.844348,0            -1.842901,53.844435,0            -1.842918,53.844522,0            -1.842891,53.844581,0            -1.842837,53.844703,0            -1.842757,53.844824,0            -1.842671,53.84491,0            -1.84259,53.844995,0            -1.842512,53.845018,0            -1.842336,53.845068,0            -1.842108,53.845141,0            -1.841874,53.845236,0            -1.841748,53.845291,0            -1.841705,53.845299,0            -1.841644,53.845272,0            -1.841399,53.845111,0            -1.841096,53.84491,0            -1.84085,53.844763,0            -1.840554,53.844641,0            -1.840321,53.844533,0            -1.840088,53.844495,0            -1.839844,53.844495,0            -1.839618,53.844494,0            -1.83946,53.844484,0            -1.839339,53.844476,0            -1.83923,53.844497,0            -1.839141,53.844531,0            -1.839034,53.844641,0            -1.83883,53.844889,0            -1.8387,53.845071,0            -1.838697,53.845135,0            -1.838722,53.845198,0            -1.838824,53.845362,0            -1.838897,53.845526,0            -1.839045,53.845759,0            -1.839088,53.845821,0            -1.839126,53.845876,0            -1.839144,53.845879,0            -1.83916,53.84587,0            -1.839203,53.845794,0            -1.839262,53.845716,0            -1.839315,53.845679,0            -1.839332,53.845683,0            -1.839422,53.845741,0            -1.839455,53.845756,0            -1.839552,53.845779,0            -1.839579,53.845832,0            -1.83959,53.845879,0            -1.83963,53.845925,0            -1.839648,53.845954,0            -1.839624,53.845977,0            -1.839418,53.84609,0            -1.83927,53.846191,0            -1.839136,53.84629,0            -1.839021,53.846397,0            -1.838948,53.846472,0            -1.838908,53.846526,0            -1.838876,53.84655,0            -1.838836,53.846533,0            -1.838691,53.846414,0            -1.838573,53.84634,0            -1.838484,53.84636,0            -1.838411,53.846388,0            -1.83834,53.846408,0            -1.838275,53.846391,0            -1.838146,53.846295,0            -1.838193,53.846249,0            -1.838295,53.846207,0            -1.838193,53.846249,0            -1.838146,53.846295,0            -1.838101,53.84624,0            -1.837983,53.84617,0            -1.837841,53.846131,0            -1.837744,53.846116,0            -1.837642,53.846112,0            -1.837479,53.846105,0            -1.837406,53.846094,0            -1.837401,53.846075,0            -1.837487,53.846034,0            -1.837572,53.845987,0            -1.837688,53.845933,0            -1.837811,53.845871,0            -1.837921,53.845798,0            -1.838036,53.845738,0            -1.838154,53.845659,0            -1.838214,53.845575,0            -1.838318,53.845488,0            -1.838412,53.845385,0            -1.838498,53.845302,0            -1.838576,53.845205,0            -1.83864,53.845113,0            -1.83868,53.845064,0            -1.838712,53.845021,0          </coordinates></LineString></Placemark><Placemark><name>Finish</name><styleUrl>#icon-1899-FF5252-nodesc</styleUrl><Point><coordinates>            -1.838295,53.846207,0          </coordinates></Point></Placemark><Placemark><name>Start</name><styleUrl>#icon-1899-0F9D58-nodesc</styleUrl><Point><coordinates>            -1.839171,53.846038,0          </coordinates></Point></Placemark></Folder></Document></kml>