<?xml version="1.0" encoding="UTF-8"?><kml xmlns="http://www.opengis.net/kml/2.2"><Document><name>Netley Abbey parkrun</name><description><![CDATA[Start at the green pin, follow the gravel path south east past the front of the Chapel. <br>At the end of the path, follow the path to the left (heading NE), up the hill and then enter Bluebell Wood (shown with the blue pin).<br>Take a left onto the road back to the railway station and then take another left onto the road back towards the Chapel Field. <br>Follow the service road to the NE of the Chapel Field entering the field via a gap in the fencing. <br>Follow the NE edge of the field until the second tree after the Chapel and then head west across the field back to the start area. <br>That's the first lap. <br>Repeat this for 3 further laps. <br>At the end of the 3rd lap, rather than head back to the start area, enter the finish funnel (shown with a red pin).]]></description><Style id="icon-123-nodesc-normal"><IconStyle><scale>1.1</scale><Icon><href>https://www.gstatic.com/mapspro/images/stock/123-red-dot.png</href></Icon><hotSpot x="16" xunits="pixels" y="32" yunits="insetPixels"/></IconStyle><LabelStyle><scale>0</scale></LabelStyle><BalloonStyle><text><![CDATA[<h3>$[name]</h3>]]></text></BalloonStyle></Style><Style id="icon-123-nodesc-highlight"><IconStyle><scale>1.1</scale><Icon><href>https://www.gstatic.com/mapspro/images/stock/123-red-dot.png</href></Icon><hotSpot x="16" xunits="pixels" y="32" yunits="insetPixels"/></IconStyle><LabelStyle><scale>1.1</scale></LabelStyle><BalloonStyle><text><![CDATA[<h3>$[name]</h3>]]></text></BalloonStyle></Style><StyleMap id="icon-123-nodesc"><Pair><key>normal</key><styleUrl>#icon-123-nodesc-normal</styleUrl></Pair><Pair><key>highlight</key><styleUrl>#icon-123-nodesc-highlight</styleUrl></Pair></StyleMap><Style id="icon-22-nodesc-normal"><IconStyle><scale>1.1</scale><Icon><href>https://www.gstatic.com/mapspro/images/stock/22-blue-dot.png</href></Icon><hotSpot x="16" xunits="pixels" y="32" yunits="insetPixels"/></IconStyle><LabelStyle><scale>0</scale></LabelStyle><BalloonStyle><text><![CDATA[<h3>$[name]</h3>]]></text></BalloonStyle></Style><Style id="icon-22-nodesc-highlight"><IconStyle><scale>1.1</scale><Icon><href>https://www.gstatic.com/mapspro/images/stock/22-blue-dot.png</href></Icon><hotSpot x="16" xunits="pixels" y="32" yunits="insetPixels"/></IconStyle><LabelStyle><scale>1.1</scale></LabelStyle><BalloonStyle><text><![CDATA[<h3>$[name]</h3>]]></text></BalloonStyle></Style><StyleMap id="icon-22-nodesc"><Pair><key>normal</key><styleUrl>#icon-22-nodesc-normal</styleUrl></Pair><Pair><key>highlight</key><styleUrl>#icon-22-nodesc-highlight</styleUrl></Pair></StyleMap><Style id="icon-61-nodesc-normal"><IconStyle><scale>1.1</scale><Icon><href>https://www.gstatic.com/mapspro/images/stock/61-green-dot.png</href></Icon><hotSpot x="16" xunits="pixels" y="32" yunits="insetPixels"/></IconStyle><LabelStyle><scale>0</scale></LabelStyle><BalloonStyle><text><![CDATA[<h3>$[name]</h3>]]></text></BalloonStyle></Style><Style id="icon-61-nodesc-highlight"><IconStyle><scale>1.1</scale><Icon><href>https://www.gstatic.com/mapspro/images/stock/61-green-dot.png</href></Icon><hotSpot x="16" xunits="pixels" y="32" yunits="insetPixels"/></IconStyle><LabelStyle><scale>1.1</scale></LabelStyle><BalloonStyle><text><![CDATA[<h3>$[name]</h3>]]></text></BalloonStyle></Style><StyleMap id="icon-61-nodesc"><Pair><key>normal</key><styleUrl>#icon-61-nodesc-normal</styleUrl></Pair><Pair><key>highlight</key><styleUrl>#icon-61-nodesc-highlight</styleUrl></Pair></StyleMap><Style id="line-0000FF-5000-nodesc-normal"><LineStyle><color>ffff0000</color><width>5</width></LineStyle><BalloonStyle><text><![CDATA[<h3>$[name]</h3>]]></text></BalloonStyle></Style><Style id="line-0000FF-5000-nodesc-highlight"><LineStyle><color>ffff0000</color><width>7.5</width></LineStyle><BalloonStyle><text><![CDATA[<h3>$[name]</h3>]]></text></BalloonStyle></Style><StyleMap id="line-0000FF-5000-nodesc"><Pair><key>normal</key><styleUrl>#line-0000FF-5000-nodesc-normal</styleUrl></Pair><Pair><key>highlight</key><styleUrl>#line-0000FF-5000-nodesc-highlight</styleUrl></Pair></StyleMap><Folder><name>Untitled layer</name><Placemark><name>course</name><styleUrl>#line-0000FF-5000-nodesc</styleUrl><LineString><tessellate>1</tessellate><coordinates>            -1.343873,50.867615,0            -1.343046,50.867039,0            -1.342381,50.86657,0            -1.341555,50.86602,0            -1.340922,50.865616,0            -1.340429,50.865265,0            -1.340139,50.865067,0            -1.339871,50.86491,0            -1.33972,50.864872,0            -1.339581,50.864902,0            -1.339313,50.86504,0            -1.339098,50.865135,0            -1.338851,50.865257,0            -1.33868,50.865364,0            -1.338476,50.865452,0            -1.338261,50.865547,0            -1.338036,50.865704,0            -1.337897,50.865852,0            -1.337864,50.866051,0            -1.337929,50.866287,0            -1.337864,50.866482,0            -1.33751,50.866886,0            -1.337403,50.867092,0            -1.337414,50.86739,0            -1.337596,50.867565,0            -1.33795,50.867435,0            -1.338519,50.86731,0            -1.339216,50.867172,0            -1.339817,50.867126,0            -1.339903,50.867119,0            -1.339077,50.866718,0            -1.338669,50.866543,0            -1.338379,50.866421,0            -1.338197,50.866367,0            -1.337993,50.86628,0            -1.337934,50.866173,0            -1.337902,50.866051,0            -1.337923,50.865902,0            -1.337988,50.865799,0            -1.338149,50.865654,0            -1.33832,50.865547,0            -1.338465,50.865482,0            -1.33861,50.865421,0            -1.339334,50.865906,0            -1.339425,50.865925,0            -1.339667,50.866035,0            -1.340933,50.86681,0            -1.341324,50.867031,0            -1.34222,50.86763,0            -1.343797,50.867683,0            -1.343926,50.867641,0            -1.343905,50.867622,0            -1.342639,50.866745,0            -1.341974,50.866295,0            -1.341174,50.865753,0            -1.340606,50.865364,0            -1.34023,50.865112,0            -1.339983,50.864964,0            -1.339822,50.86488,0            -1.339672,50.864872,0            -1.339334,50.865017,0            -1.338927,50.865204,0            -1.338728,50.865322,0            -1.338503,50.865437,0            -1.33817,50.865601,0            -1.337988,50.865746,0            -1.33788,50.865906,0            -1.337864,50.866028,0            -1.337897,50.866215,0            -1.337907,50.866356,0            -1.337811,50.866558,0            -1.337596,50.866787,0            -1.337441,50.867008,0            -1.337419,50.867245,0            -1.337446,50.867432,0            -1.33758,50.867527,0            -1.33765,50.867542,0            -1.33809,50.867405,0            -1.338599,50.86729,0            -1.339045,50.867207,0            -1.339533,50.867146,0            -1.339876,50.86713,0            -1.339833,50.867077,0            -1.339211,50.866776,0            -1.338862,50.866623,0            -1.338487,50.866463,0            -1.33824,50.866383,0            -1.338063,50.866318,0            -1.337966,50.866226,0            -1.337913,50.866093,0            -1.337918,50.865967,0            -1.337961,50.865837,0            -1.338084,50.865723,0            -1.338235,50.865601,0            -1.338465,50.865482,0            -1.338589,50.865444,0            -1.338653,50.865452,0            -1.339334,50.865906,0            -1.33942,50.865906,0            -1.339704,50.866035,0            -1.341029,50.866856,0            -1.341383,50.86705,0            -1.342215,50.867615,0            -1.343755,50.867676,0            -1.343883,50.867641,0            -1.34281,50.866882,0            -1.342151,50.866425,0            -1.34126,50.865833,0            -1.340649,50.865398,0            -1.340037,50.864994,0            -1.339785,50.864887,0            -1.339635,50.864891,0            -1.339238,50.865078,0            -1.338787,50.865284,0            -1.338632,50.865383,0            -1.337934,50.865776,0            -1.337875,50.865955,0            -1.337907,50.866337,0            -1.337752,50.866608,0            -1.337644,50.866726,0            -1.337462,50.866959,0            -1.337403,50.867321,0            -1.33751,50.867481,0            -1.337693,50.867523,0            -1.338492,50.867329,0            -1.338916,50.867226,0            -1.339291,50.867168,0            -1.339758,50.867134,0            -1.339876,50.867111,0            -1.339538,50.866947,0            -1.339259,50.86681,0            -1.338782,50.866589,0            -1.338277,50.866398,0            -1.337966,50.866249,0            -1.337913,50.866001,0            -1.338041,50.865749,0            -1.338208,50.86562,0            -1.338406,50.865513,0            -1.338685,50.865475,0            -1.339222,50.865841,0            -1.339484,50.865948,0            -1.340241,50.866375,0            -1.341485,50.867161,0            -1.34244,50.867748,0            -1.34244,50.867744,0          </coordinates></LineString></Placemark><Placemark><name>Entrance to Bluebell Wood</name><styleUrl>#icon-22-nodesc</styleUrl><Point><coordinates>            -1.33794,50.866219,0          </coordinates></Point></Placemark><Placemark><name>Finish</name><styleUrl>#icon-123-nodesc</styleUrl><Point><coordinates>            -1.342435,50.867744,0          </coordinates></Point></Placemark><Placemark><name>Start</name><styleUrl>#icon-61-nodesc</styleUrl><Point><coordinates>            -1.343873,50.867607,0          </coordinates></Point></Placemark></Folder></Document></kml>