<?xml version="1.0" encoding="UTF-8"?><kml xmlns="http://www.opengis.net/kml/2.2"><Document><name>Nobles parkrun</name><description/><Style id="icon-1899-0F9D58-nodesc-normal"><IconStyle><color>ff589d0f</color><scale>1</scale><Icon><href>https://www.gstatic.com/mapspro/images/stock/503-wht-blank_maps.png</href></Icon><hotSpot x="32" xunits="pixels" y="64" yunits="insetPixels"/></IconStyle><LabelStyle><scale>0</scale></LabelStyle><BalloonStyle><text><![CDATA[<h3>$[name]</h3>]]></text></BalloonStyle></Style><Style id="icon-1899-0F9D58-nodesc-highlight"><IconStyle><color>ff589d0f</color><scale>1</scale><Icon><href>https://www.gstatic.com/mapspro/images/stock/503-wht-blank_maps.png</href></Icon><hotSpot x="32" xunits="pixels" y="64" yunits="insetPixels"/></IconStyle><LabelStyle><scale>1</scale></LabelStyle><BalloonStyle><text><![CDATA[<h3>$[name]</h3>]]></text></BalloonStyle></Style><StyleMap id="icon-1899-0F9D58-nodesc"><Pair><key>normal</key><styleUrl>#icon-1899-0F9D58-nodesc-normal</styleUrl></Pair><Pair><key>highlight</key><styleUrl>#icon-1899-0F9D58-nodesc-highlight</styleUrl></Pair></StyleMap><Style id="icon-1899-FF5252-nodesc-normal"><IconStyle><color>ff5252ff</color><scale>1</scale><Icon><href>https://www.gstatic.com/mapspro/images/stock/503-wht-blank_maps.png</href></Icon><hotSpot x="32" xunits="pixels" y="64" yunits="insetPixels"/></IconStyle><LabelStyle><scale>0</scale></LabelStyle><BalloonStyle><text><![CDATA[<h3>$[name]</h3>]]></text></BalloonStyle></Style><Style id="icon-1899-FF5252-nodesc-highlight"><IconStyle><color>ff5252ff</color><scale>1</scale><Icon><href>https://www.gstatic.com/mapspro/images/stock/503-wht-blank_maps.png</href></Icon><hotSpot x="32" xunits="pixels" y="64" yunits="insetPixels"/></IconStyle><LabelStyle><scale>1</scale></LabelStyle><BalloonStyle><text><![CDATA[<h3>$[name]</h3>]]></text></BalloonStyle></Style><StyleMap id="icon-1899-FF5252-nodesc"><Pair><key>normal</key><styleUrl>#icon-1899-FF5252-nodesc-normal</styleUrl></Pair><Pair><key>highlight</key><styleUrl>#icon-1899-FF5252-nodesc-highlight</styleUrl></Pair></StyleMap><Style id="line-0288D1-5000-nodesc-normal"><LineStyle><color>ffd18802</color><width>5</width></LineStyle><BalloonStyle><text><![CDATA[<h3>$[name]</h3>]]></text></BalloonStyle></Style><Style id="line-0288D1-5000-nodesc-highlight"><LineStyle><color>ffd18802</color><width>7.5</width></LineStyle><BalloonStyle><text><![CDATA[<h3>$[name]</h3>]]></text></BalloonStyle></Style><StyleMap id="line-0288D1-5000-nodesc"><Pair><key>normal</key><styleUrl>#line-0288D1-5000-nodesc-normal</styleUrl></Pair><Pair><key>highlight</key><styleUrl>#line-0288D1-5000-nodesc-highlight</styleUrl></Pair></StyleMap><Folder><name>Untitled layer</name><Placemark><name>Course</name><styleUrl>#line-0288D1-5000-nodesc</styleUrl><LineString><tessellate>1</tessellate><coordinates>            -4.481671,54.165946,0            -4.481853,54.165823,0            -4.48202,54.165757,0            -4.482218,54.16566,0            -4.482298,54.165553,0            -4.482288,54.165474,0            -4.482223,54.165389,0            -4.482062,54.165236,0            -4.481896,54.165085,0            -4.481628,54.164837,0            -4.481494,54.164717,0            -4.478334,54.166046,0            -4.478238,54.166058,0            -4.478184,54.166036,0            -4.478104,54.165948,0            -4.478082,54.165848,0            -4.478055,54.165719,0            -4.478002,54.165594,0            -4.477905,54.165499,0            -4.477787,54.165455,0            -4.477674,54.165374,0            -4.47754,54.165264,0            -4.477481,54.165198,0            -4.477626,54.165113,0            -4.47791,54.164953,0            -4.47812,54.164783,0            -4.478087,54.164702,0            -4.478881,54.164306,0            -4.478248,54.163709,0            -4.478388,54.163404,0            -4.478447,54.163219,0            -4.478291,54.163307,0            -4.476602,54.164274,0            -4.474193,54.165656,0            -4.474225,54.165713,0            -4.473544,54.166093,0            -4.474188,54.166567,0            -4.474332,54.166649,0            -4.475201,54.166353,0            -4.475389,54.166586,0            -4.474585,54.166856,0            -4.474794,54.167036,0            -4.476762,54.166363,0            -4.476376,54.16603,0            -4.47673,54.165867,0            -4.477014,54.165763,0            -4.477412,54.16614,0            -4.477717,54.166062,0            -4.477889,54.166234,0            -4.478018,54.166448,0            -4.47878,54.167384,0            -4.47967,54.167046,0            -4.480464,54.166708,0            -4.481097,54.166384,0            -4.481344,54.166207,0            -4.481435,54.166118,0            -4.481591,54.165992,0            -4.481853,54.165823,0            -4.482218,54.16566,0            -4.482298,54.165556,0            -4.482277,54.165465,0            -4.48224,54.165424,0            -4.482143,54.165314,0            -4.482052,54.165232,0            -4.48196,54.165144,0            -4.481553,54.164768,0            -4.481499,54.164714,0            -4.480019,54.165339,0            -4.48093,54.16631,0            -4.479874,54.1668,0          </coordinates></LineString></Placemark><Placemark><name>Finish</name><styleUrl>#icon-1899-FF5252-nodesc</styleUrl><Point><coordinates>            -4.479874,54.1668,0          </coordinates></Point></Placemark><Placemark><name>Start</name><styleUrl>#icon-1899-0F9D58-nodesc</styleUrl><Point><coordinates>            -4.480931,54.166479,0          </coordinates></Point></Placemark></Folder></Document></kml>