<?xml version="1.0" encoding="UTF-8"?><kml xmlns="http://www.opengis.net/kml/2.2"><Document><name>Norris Green Park junior parkrun</name><description/><Style id="icon-1899-FFEA00-nodesc-normal"><IconStyle><color>ff00eaff</color><scale>1</scale><Icon><href>https://www.gstatic.com/mapspro/images/stock/503-wht-blank_maps.png</href></Icon><hotSpot x="32" xunits="pixels" y="64" yunits="insetPixels"/></IconStyle><LabelStyle><scale>0</scale></LabelStyle><BalloonStyle><text><![CDATA[<h3>$[name]</h3>]]></text></BalloonStyle></Style><Style id="icon-1899-FFEA00-nodesc-highlight"><IconStyle><color>ff00eaff</color><scale>1</scale><Icon><href>https://www.gstatic.com/mapspro/images/stock/503-wht-blank_maps.png</href></Icon><hotSpot x="32" xunits="pixels" y="64" yunits="insetPixels"/></IconStyle><LabelStyle><scale>1</scale></LabelStyle><BalloonStyle><text><![CDATA[<h3>$[name]</h3>]]></text></BalloonStyle></Style><StyleMap id="icon-1899-FFEA00-nodesc"><Pair><key>normal</key><styleUrl>#icon-1899-FFEA00-nodesc-normal</styleUrl></Pair><Pair><key>highlight</key><styleUrl>#icon-1899-FFEA00-nodesc-highlight</styleUrl></Pair></StyleMap><Style id="line-0288D1-5263-nodesc-normal"><LineStyle><color>ffd18802</color><width>5.263</width></LineStyle><BalloonStyle><text><![CDATA[<h3>$[name]</h3>]]></text></BalloonStyle></Style><Style id="line-0288D1-5263-nodesc-highlight"><LineStyle><color>ffd18802</color><width>7.8945</width></LineStyle><BalloonStyle><text><![CDATA[<h3>$[name]</h3>]]></text></BalloonStyle></Style><StyleMap id="line-0288D1-5263-nodesc"><Pair><key>normal</key><styleUrl>#line-0288D1-5263-nodesc-normal</styleUrl></Pair><Pair><key>highlight</key><styleUrl>#line-0288D1-5263-nodesc-highlight</styleUrl></Pair></StyleMap><Folder><name>Untitled layer</name><Placemark><name>Course</name><styleUrl>#line-0288D1-5263-nodesc</styleUrl><LineString><tessellate>1</tessellate><coordinates>            -2.9194315,53.4393179,0            -2.9183908,53.4389441,0            -2.9176988,53.4386597,0            -2.9173822,53.43842,0            -2.917134,53.438099,0            -2.9175325,53.4378704,0            -2.9179938,53.4376691,0            -2.9187555,53.4377713,0            -2.9195173,53.4378832,0            -2.919751,53.438009,0            -2.9200001,53.4378863,0            -2.9205724,53.438313,0            -2.9204053,53.4383927,0            -2.9214002,53.439238,0            -2.9218562,53.4396822,0            -2.921604,53.4397014,0            -2.92121,53.439754,0            -2.9207887,53.4395608,0            -2.9204346,53.4395544,0            -2.920102,53.4395097,0            -2.919724,53.439428,0            -2.9194315,53.4393179,0            -2.9193778,53.4392572,0            -2.919193,53.439014,0            -2.919174,53.4388194,0            -2.919351,53.4387363,0            -2.9191991,53.4386295,0            -2.9191708,53.4385864,0            -2.9190889,53.4385368,0            -2.919086,53.438425,0            -2.9192222,53.438142,0            -2.919338,53.438046,0          </coordinates></LineString></Placemark><Placemark><name>Start/Finish</name><styleUrl>#icon-1899-FFEA00-nodesc</styleUrl><Point><coordinates>            -2.919338,53.438046,0          </coordinates></Point></Placemark></Folder></Document></kml>