<?xml version="1.0" encoding="UTF-8"?><kml xmlns="http://www.opengis.net/kml/2.2"><Document><name>Northala Fields parkrun</name><description/><Style id="icon-1899-0F9D58-nodesc-normal"><IconStyle><color>ff589d0f</color><scale>1</scale><Icon><href>https://www.gstatic.com/mapspro/images/stock/503-wht-blank_maps.png</href></Icon><hotSpot x="32" xunits="pixels" y="64" yunits="insetPixels"/></IconStyle><LabelStyle><scale>0</scale></LabelStyle><BalloonStyle><text><![CDATA[<h3>$[name]</h3>]]></text></BalloonStyle></Style><Style id="icon-1899-0F9D58-nodesc-highlight"><IconStyle><color>ff589d0f</color><scale>1</scale><Icon><href>https://www.gstatic.com/mapspro/images/stock/503-wht-blank_maps.png</href></Icon><hotSpot x="32" xunits="pixels" y="64" yunits="insetPixels"/></IconStyle><LabelStyle><scale>1</scale></LabelStyle><BalloonStyle><text><![CDATA[<h3>$[name]</h3>]]></text></BalloonStyle></Style><StyleMap id="icon-1899-0F9D58-nodesc"><Pair><key>normal</key><styleUrl>#icon-1899-0F9D58-nodesc-normal</styleUrl></Pair><Pair><key>highlight</key><styleUrl>#icon-1899-0F9D58-nodesc-highlight</styleUrl></Pair></StyleMap><Style id="icon-1899-FF5252-nodesc-normal"><IconStyle><color>ff5252ff</color><scale>1</scale><Icon><href>https://www.gstatic.com/mapspro/images/stock/503-wht-blank_maps.png</href></Icon><hotSpot x="32" xunits="pixels" y="64" yunits="insetPixels"/></IconStyle><LabelStyle><scale>0</scale></LabelStyle><BalloonStyle><text><![CDATA[<h3>$[name]</h3>]]></text></BalloonStyle></Style><Style id="icon-1899-FF5252-nodesc-highlight"><IconStyle><color>ff5252ff</color><scale>1</scale><Icon><href>https://www.gstatic.com/mapspro/images/stock/503-wht-blank_maps.png</href></Icon><hotSpot x="32" xunits="pixels" y="64" yunits="insetPixels"/></IconStyle><LabelStyle><scale>1</scale></LabelStyle><BalloonStyle><text><![CDATA[<h3>$[name]</h3>]]></text></BalloonStyle></Style><StyleMap id="icon-1899-FF5252-nodesc"><Pair><key>normal</key><styleUrl>#icon-1899-FF5252-nodesc-normal</styleUrl></Pair><Pair><key>highlight</key><styleUrl>#icon-1899-FF5252-nodesc-highlight</styleUrl></Pair></StyleMap><Style id="line-0288D1-5000-nodesc-normal"><LineStyle><color>ffd18802</color><width>5</width></LineStyle><BalloonStyle><text><![CDATA[<h3>$[name]</h3>]]></text></BalloonStyle></Style><Style id="line-0288D1-5000-nodesc-highlight"><LineStyle><color>ffd18802</color><width>7.5</width></LineStyle><BalloonStyle><text><![CDATA[<h3>$[name]</h3>]]></text></BalloonStyle></Style><StyleMap id="line-0288D1-5000-nodesc"><Pair><key>normal</key><styleUrl>#line-0288D1-5000-nodesc-normal</styleUrl></Pair><Pair><key>highlight</key><styleUrl>#line-0288D1-5000-nodesc-highlight</styleUrl></Pair></StyleMap><Folder><name>Untitled layer</name><Placemark><name>Course</name><styleUrl>#line-0288D1-5000-nodesc</styleUrl><LineString><tessellate>1</tessellate><coordinates>            -0.37751,51.53981,35.12            -0.376795005546799,51.5401700022277,35.92            -0.37608,51.54053,36.8            -0.37601,51.5405,36.8            -0.3759,51.54053,37.09            -0.37513,51.54005,37.4            -0.374554996112914,51.5397650012633,37.37            -0.37398,51.53948,37            -0.37304,51.53916,36.56            -0.37222,51.53892,36.04            -0.37134,51.53874,35.6            -0.37101,51.53933,35.6            -0.37084,51.53959,37.38            -0.37081,51.53974,37.91            -0.3708,51.53975,39.01            -0.37084,51.53987,39.06            -0.37095,51.53998,39.04            -0.37108,51.54007,39.05            -0.37134,51.54017,39.14            -0.37175,51.54023,39.15            -0.37212,51.54032,38.94            -0.37251,51.54061,38.65            -0.3729,51.54075,38.43            -0.37327,51.5408,38.32            -0.37362,51.54081,38.3            -0.3738,51.54085,38.3            -0.37417,51.54104,38.42            -0.37443,51.54113,38.75            -0.37468,51.54113,38.95            -0.37468,51.54114,38.95            -0.37495,51.54109,39.17            -0.376020037563988,51.540557514596,37            -0.377090050087711,51.5400250194597,35.48            -0.378160037571777,51.5394925145914,34.81            -0.37923,51.53896,34.89            -0.3794,51.53892,34.89            -0.37962,51.5389,34.89            -0.38023,51.53893,35.07            -0.38045,51.53891,35.07            -0.38064,51.53886,35.07            -0.38101,51.53871,34.95            -0.381,51.53872,34.95            -0.38113,51.53862,34.91            -0.38125,51.53849,34.91            -0.38128,51.53839,34.51            -0.38136,51.53824,34.51            -0.38172,51.53786,34.09            -0.38244,51.53745,33.89            -0.381554992895357,51.5370800033664,33.49            -0.38067,51.53671,33.36            -0.379834997206063,51.5365550029726,33            -0.379,51.5364,32.93            -0.37923,51.53573,32.93            -0.37939,51.53545,32.93            -0.37963,51.53476,32.73            -0.37979,51.53449,32.42            -0.37991,51.53418,32.1            -0.37991,51.53417,31.64            -0.38006,51.53413,31.52            -0.381009995231173,51.5343550038186,31.54            -0.38196,51.53458,31.98            -0.38214,51.53466,31.98            -0.38289,51.53482,32.07            -0.38327,51.53492,32.2            -0.38353,51.53489,32.2            -0.38397,51.53426,32.2            -0.38449,51.53366,32.2            -0.38461,51.53362,32.2            -0.38478,51.53359,32.2            -0.38511,51.53358,32.2            -0.38539,51.53361,32.91            -0.38577,51.53369,32.94            -0.3869,51.53399,32.91            -0.3878,51.53447,33.74            -0.38779,51.53447,33.74            -0.38794,51.5346,34.03            -0.38796,51.53471,34.03            -0.38793,51.53483,34.15            -0.38741,51.53512,34.08            -0.38713,51.53535,34.05            -0.38677,51.53557,33.93            -0.38656,51.53574,33.93            -0.38611,51.53602,33.78            -0.38584,51.53622,33.82            -0.3859,51.53637,33.99            -0.38529,51.53686,34.08            -0.38483,51.53731,34.1            -0.38452,51.53751,34.09            -0.38417,51.53787,34.12            -0.38392,51.53809,34.19            -0.38373,51.53812,34.19            -0.38362,51.5381,34.13            -0.38316,51.53785,34.21            -0.38298,51.53798,34.21            -0.38229,51.53824,34.39            -0.38186,51.53838,34.51            -0.38125,51.53849,34.73            -0.38113,51.53862,34.91            -0.381,51.53872,34.99            -0.38064,51.53886,35.07            -0.38045,51.53891,35.07            -0.38023,51.53893,35.07            -0.37962,51.5389,34.89            -0.3794,51.53892,34.89            -0.37923,51.53896,34.89            -0.378180024177874,51.5394833426901,34.81            -0.37713002420764,51.5400066760088,35.48            -0.37608,51.54053,36.8            -0.37612,51.54055,36.8            -0.37612,51.54059,36.8            -0.37612,51.54063,36.8            -0.37607,51.54065,36.94            -0.37637,51.54091,36.86            -0.37677,51.54141,36.69            -0.37647,51.54153,36.86            -0.37645,51.54154,36.86            -0.37612,51.54163,37.01            -0.37578,51.54163,37.72            -0.37545,51.54154,37.72            -0.37523,51.54139,38.36            -0.37513,51.54123,38.93            -0.37495,51.54109,39.17            -0.37468,51.54114,38.75            -0.37443,51.54113,38.75            -0.37417,51.54104,38.42            -0.3738,51.54085,38.3            -0.37362,51.54081,38.3            -0.37327,51.5408,38.32            -0.3729,51.54075,38.43            -0.37251,51.54061,38.65            -0.37212,51.54032,38.94            -0.37175,51.54023,39.08            -0.37134,51.54017,39.14            -0.37108,51.54007,39.05            -0.37095,51.53998,39.04            -0.37084,51.53987,39.06            -0.37081,51.53975,39.02            -0.3708,51.53975,39.02            -0.37084,51.53959,38.89            -0.37101,51.53933,38.34            -0.37134,51.53874,35.6            -0.37222,51.53892,35.6            -0.37304,51.53916,36.04            -0.37398,51.53948,36.56            -0.3741,51.53953,36.56          </coordinates></LineString></Placemark><Placemark><name>Finish</name><styleUrl>#icon-1899-FF5252-nodesc</styleUrl><Point><coordinates>            -0.3741,51.53953,36.56          </coordinates></Point></Placemark><Placemark><name>Start</name><styleUrl>#icon-1899-0F9D58-nodesc</styleUrl><Point><coordinates>            -0.37751,51.53981,35.12          </coordinates></Point></Placemark></Folder></Document></kml>