<?xml version="1.0" encoding="UTF-8"?><kml xmlns="http://www.opengis.net/kml/2.2"><Document><name>Oriam parkrun (Regular Course from Oct 2024)</name><description/><Style id="icon-123-nodesc-normal"><IconStyle><scale>1.1</scale><Icon><href>https://www.gstatic.com/mapspro/images/stock/123-red-dot.png</href></Icon><hotSpot x="16" xunits="pixels" y="32" yunits="insetPixels"/></IconStyle><LabelStyle><scale>0</scale></LabelStyle><BalloonStyle><text><![CDATA[<h3>$[name]</h3>]]></text></BalloonStyle></Style><Style id="icon-123-nodesc-highlight"><IconStyle><scale>1.1</scale><Icon><href>https://www.gstatic.com/mapspro/images/stock/123-red-dot.png</href></Icon><hotSpot x="16" xunits="pixels" y="32" yunits="insetPixels"/></IconStyle><LabelStyle><scale>1.1</scale></LabelStyle><BalloonStyle><text><![CDATA[<h3>$[name]</h3>]]></text></BalloonStyle></Style><StyleMap id="icon-123-nodesc"><Pair><key>normal</key><styleUrl>#icon-123-nodesc-normal</styleUrl></Pair><Pair><key>highlight</key><styleUrl>#icon-123-nodesc-highlight</styleUrl></Pair></StyleMap><Style id="icon-61-nodesc-normal"><IconStyle><scale>1.1</scale><Icon><href>https://www.gstatic.com/mapspro/images/stock/61-green-dot.png</href></Icon><hotSpot x="16" xunits="pixels" y="32" yunits="insetPixels"/></IconStyle><LabelStyle><scale>0</scale></LabelStyle><BalloonStyle><text><![CDATA[<h3>$[name]</h3>]]></text></BalloonStyle></Style><Style id="icon-61-nodesc-highlight"><IconStyle><scale>1.1</scale><Icon><href>https://www.gstatic.com/mapspro/images/stock/61-green-dot.png</href></Icon><hotSpot x="16" xunits="pixels" y="32" yunits="insetPixels"/></IconStyle><LabelStyle><scale>1.1</scale></LabelStyle><BalloonStyle><text><![CDATA[<h3>$[name]</h3>]]></text></BalloonStyle></Style><StyleMap id="icon-61-nodesc"><Pair><key>normal</key><styleUrl>#icon-61-nodesc-normal</styleUrl></Pair><Pair><key>highlight</key><styleUrl>#icon-61-nodesc-highlight</styleUrl></Pair></StyleMap><Style id="line-0288D1-4681-nodesc-normal"><LineStyle><color>ffd18802</color><width>4.681</width></LineStyle><BalloonStyle><text><![CDATA[<h3>$[name]</h3>]]></text></BalloonStyle></Style><Style id="line-0288D1-4681-nodesc-highlight"><LineStyle><color>ffd18802</color><width>7.0215</width></LineStyle><BalloonStyle><text><![CDATA[<h3>$[name]</h3>]]></text></BalloonStyle></Style><StyleMap id="line-0288D1-4681-nodesc"><Pair><key>normal</key><styleUrl>#line-0288D1-4681-nodesc-normal</styleUrl></Pair><Pair><key>highlight</key><styleUrl>#line-0288D1-4681-nodesc-highlight</styleUrl></Pair></StyleMap><Folder><name>Oriam parkrun</name><Placemark><name>Course</name><styleUrl>#line-0288D1-4681-nodesc</styleUrl><LineString><tessellate>1</tessellate><coordinates>            -3.317392,55.909656,0            -3.31752,55.909767,0            -3.316679,55.910228,0            -3.315409,55.910552,0            -3.317258,55.909784,0            -3.315409,55.910552,0            -3.3132621,55.908212,0            -3.3142911,55.9077001,0            -3.3132621,55.908212,0            -3.312787,55.907855,0            -3.312836,55.907702,0            -3.313966,55.907284,0            -3.314762,55.906618,0            -3.315372,55.906577,0            -3.315789,55.906384,0            -3.315943,55.90614,0            -3.3181352,55.9053717,0            -3.320126,55.904447,0            -3.320749,55.903969,0            -3.322028,55.903498,0            -3.322248,55.903313,0            -3.323054,55.903174,0            -3.3235211,55.9032667,0            -3.323718,55.903361,0            -3.325932,55.904896,0            -3.325343,55.904989,0            -3.325107,55.905158,0            -3.324967,55.905338,0            -3.325107,55.905158,0            -3.325343,55.904989,0            -3.325107,55.905158,0            -3.324967,55.905338,0            -3.32413,55.905651,0            -3.323412,55.906012,0            -3.32413,55.905651,0            -3.324967,55.905338,0            -3.325107,55.905158,0            -3.325343,55.904989,0            -3.325932,55.904896,0            -3.327188,55.905735,0            -3.324635,55.907046,0          </coordinates></LineString></Placemark><Placemark><name>Finish</name><styleUrl>#icon-123-nodesc</styleUrl><Point><coordinates>            -3.317339,55.90971,96.4          </coordinates></Point></Placemark><Placemark><name>Start</name><styleUrl>#icon-61-nodesc</styleUrl><Point><coordinates>            -3.317392,55.909656,96.6          </coordinates></Point></Placemark></Folder></Document></kml>