<?xml version="1.0" encoding="UTF-8"?><kml xmlns="http://www.opengis.net/kml/2.2"><Document><name>Orpington parkrun</name><description/><Style id="icon-1899-0F9D58-nodesc-normal"><IconStyle><color>ff589d0f</color><scale>1</scale><Icon><href>https://www.gstatic.com/mapspro/images/stock/503-wht-blank_maps.png</href></Icon><hotSpot x="32" xunits="pixels" y="64" yunits="insetPixels"/></IconStyle><LabelStyle><scale>0</scale></LabelStyle><BalloonStyle><text><![CDATA[<h3>$[name]</h3>]]></text></BalloonStyle></Style><Style id="icon-1899-0F9D58-nodesc-highlight"><IconStyle><color>ff589d0f</color><scale>1</scale><Icon><href>https://www.gstatic.com/mapspro/images/stock/503-wht-blank_maps.png</href></Icon><hotSpot x="32" xunits="pixels" y="64" yunits="insetPixels"/></IconStyle><LabelStyle><scale>1</scale></LabelStyle><BalloonStyle><text><![CDATA[<h3>$[name]</h3>]]></text></BalloonStyle></Style><StyleMap id="icon-1899-0F9D58-nodesc"><Pair><key>normal</key><styleUrl>#icon-1899-0F9D58-nodesc-normal</styleUrl></Pair><Pair><key>highlight</key><styleUrl>#icon-1899-0F9D58-nodesc-highlight</styleUrl></Pair></StyleMap><Style id="icon-1899-FF5252-nodesc-normal"><IconStyle><color>ff5252ff</color><scale>1</scale><Icon><href>https://www.gstatic.com/mapspro/images/stock/503-wht-blank_maps.png</href></Icon><hotSpot x="32" xunits="pixels" y="64" yunits="insetPixels"/></IconStyle><LabelStyle><scale>0</scale></LabelStyle><BalloonStyle><text><![CDATA[<h3>$[name]</h3>]]></text></BalloonStyle></Style><Style id="icon-1899-FF5252-nodesc-highlight"><IconStyle><color>ff5252ff</color><scale>1</scale><Icon><href>https://www.gstatic.com/mapspro/images/stock/503-wht-blank_maps.png</href></Icon><hotSpot x="32" xunits="pixels" y="64" yunits="insetPixels"/></IconStyle><LabelStyle><scale>1</scale></LabelStyle><BalloonStyle><text><![CDATA[<h3>$[name]</h3>]]></text></BalloonStyle></Style><StyleMap id="icon-1899-FF5252-nodesc"><Pair><key>normal</key><styleUrl>#icon-1899-FF5252-nodesc-normal</styleUrl></Pair><Pair><key>highlight</key><styleUrl>#icon-1899-FF5252-nodesc-highlight</styleUrl></Pair></StyleMap><Style id="line-0288D1-5844-nodesc-normal"><LineStyle><color>ffd18802</color><width>5.844</width></LineStyle><BalloonStyle><text><![CDATA[<h3>$[name]</h3>]]></text></BalloonStyle></Style><Style id="line-0288D1-5844-nodesc-highlight"><LineStyle><color>ffd18802</color><width>8.766</width></LineStyle><BalloonStyle><text><![CDATA[<h3>$[name]</h3>]]></text></BalloonStyle></Style><StyleMap id="line-0288D1-5844-nodesc"><Pair><key>normal</key><styleUrl>#line-0288D1-5844-nodesc-normal</styleUrl></Pair><Pair><key>highlight</key><styleUrl>#line-0288D1-5844-nodesc-highlight</styleUrl></Pair></StyleMap><Folder><name>Untitled layer</name><Placemark><name>Course</name><styleUrl>#line-0288D1-5844-nodesc</styleUrl><LineString><tessellate>1</tessellate><coordinates>            0.1174577,51.3655756,0            0.1174007,51.3660106,0            0.1168107,51.3662626,0            0.1154357,51.3662466,0            0.1143607,51.3658806,0            0.113511,51.3657568,0            0.1126827,51.3657536,0            0.1120987,51.3657656,0            0.1119857,51.3658636,0            0.1117877,51.3661646,0            0.1116148,51.3664,0            0.1115599,51.366617,0            0.111423,51.367857,0            0.1116711,51.3679223,0            0.1123484,51.3679842,0            0.1129086,51.3681382,0            0.1131737,51.3683156,0            0.1136529,51.3686037,0            0.1139952,51.368721,0            0.1147221,51.3689939,0            0.1154957,51.3694846,0            0.1169037,51.3691896,0            0.1175977,51.3690366,0            0.11767,51.368842,0            0.1175331,51.367656,0            0.1174504,51.3667696,0            0.1179473,51.3665745,0            0.1183497,51.366584,0            0.118059,51.365947,0            0.1183497,51.366584,0            0.1183613,51.3665951,0            0.1185282,51.3667055,0            0.119064,51.366706,0            0.1196767,51.3666316,0            0.120784,51.3664905,0            0.1218987,51.3662816,0            0.122388,51.366147,0            0.1221637,51.3654706,0            0.1220155,51.3654183,0            0.12036,51.365644,0            0.119964,51.365432,0            0.1205151,51.3665244,0            0.1199037,51.3653426,0            0.1180481,51.3655326,0            0.117454,51.365565,0          </coordinates></LineString></Placemark><Placemark><name>Finish</name><styleUrl>#icon-1899-FF5252-nodesc</styleUrl><Point><coordinates>            0.117366,51.365544,98.8          </coordinates></Point></Placemark><Placemark><name>Start</name><styleUrl>#icon-1899-0F9D58-nodesc</styleUrl><Point><coordinates>            0.11806,51.365916,100.6          </coordinates></Point></Placemark></Folder></Document></kml>