<?xml version="1.0" encoding="UTF-8"?><kml xmlns="http://www.opengis.net/kml/2.2"><Document><name>Peel parkrun</name><description/><Style id="icon-1899-FFEA00-nodesc-normal"><IconStyle><color>ff00eaff</color><scale>1</scale><Icon><href>https://www.gstatic.com/mapspro/images/stock/503-wht-blank_maps.png</href></Icon><hotSpot x="32" xunits="pixels" y="64" yunits="insetPixels"/></IconStyle><LabelStyle><scale>0</scale></LabelStyle><BalloonStyle><text><![CDATA[<h3>$[name]</h3>]]></text></BalloonStyle></Style><Style id="icon-1899-FFEA00-nodesc-highlight"><IconStyle><color>ff00eaff</color><scale>1</scale><Icon><href>https://www.gstatic.com/mapspro/images/stock/503-wht-blank_maps.png</href></Icon><hotSpot x="32" xunits="pixels" y="64" yunits="insetPixels"/></IconStyle><LabelStyle><scale>1</scale></LabelStyle><BalloonStyle><text><![CDATA[<h3>$[name]</h3>]]></text></BalloonStyle></Style><StyleMap id="icon-1899-FFEA00-nodesc"><Pair><key>normal</key><styleUrl>#icon-1899-FFEA00-nodesc-normal</styleUrl></Pair><Pair><key>highlight</key><styleUrl>#icon-1899-FFEA00-nodesc-highlight</styleUrl></Pair></StyleMap><Style id="line-0288D1-5456-nodesc-normal"><LineStyle><color>ffd18802</color><width>5.456</width></LineStyle><BalloonStyle><text><![CDATA[<h3>$[name]</h3>]]></text></BalloonStyle></Style><Style id="line-0288D1-5456-nodesc-highlight"><LineStyle><color>ffd18802</color><width>8.184</width></LineStyle><BalloonStyle><text><![CDATA[<h3>$[name]</h3>]]></text></BalloonStyle></Style><StyleMap id="line-0288D1-5456-nodesc"><Pair><key>normal</key><styleUrl>#line-0288D1-5456-nodesc-normal</styleUrl></Pair><Pair><key>highlight</key><styleUrl>#line-0288D1-5456-nodesc-highlight</styleUrl></Pair></StyleMap><Folder><name>Untitled layer</name><Placemark><name>Course</name><styleUrl>#line-0288D1-5456-nodesc</styleUrl><LineString><tessellate>1</tessellate><coordinates>            -2.27079,53.48669,0            -2.270739,53.486598,0            -2.270632,53.486518,0            -2.270552,53.486422,0            -2.270514,53.486349,0            -2.270503,53.486272,0            -2.270509,53.486121,0            -2.270511,53.485986,0            -2.270501,53.485904,0            -2.270476,53.485824,0            -2.270439,53.485733,0            -2.270407,53.485742,0            -2.270372,53.485801,0            -2.27031,53.485951,0            -2.270216,53.486127,0            -2.269988,53.486472,0            -2.269621,53.486994,0            -2.269444,53.487266,0            -2.269404,53.487353,0            -2.269355,53.487482,0            -2.269296,53.487664,0            -2.269218,53.487924,0            -2.269197,53.488034,0            -2.269181,53.488155,0            -2.26916,53.488384,0            -2.269117,53.488637,0            -2.269106,53.48877,0            -2.269058,53.489049,0            -2.269044,53.489277,0            -2.269033,53.489539,0            -2.269036,53.489965,0            -2.269036,53.490011,0            -2.268999,53.49011,0            -2.26898,53.490211,0            -2.268859,53.490536,0            -2.268827,53.490696,0            -2.268811,53.490811,0            -2.268808,53.490903,0            -2.268827,53.491025,0            -2.268862,53.491188,0            -2.268902,53.491304,0            -2.268972,53.49143,0            -2.269036,53.491518,0            -2.269111,53.491617,0            -2.269414,53.491953,0            -2.269862,53.4924,0            -2.270122,53.492718,0            -2.270248,53.492901,0            -2.270374,53.493125,0            -2.27045,53.493302,0            -2.270541,53.493514,0            -2.270608,53.49369,0            -2.270632,53.493803,0            -2.270659,53.493934,0            -2.270694,53.493993,0            -2.270747,53.49401,0            -2.270814,53.494015,0            -2.270882,53.493985,0            -2.27094,53.493938,0            -2.270989,53.493878,0            -2.27101,53.493827,0            -2.271037,53.493792,0            -2.272024,53.49342,0            -2.272046,53.493383,0            -2.27211,53.493338,0            -2.272598,53.493193,0            -2.272164,53.492352,0            -2.272137,53.492316,0            -2.27211,53.492277,0            -2.272064,53.492226,0            -2.27204,53.492182,0            -2.272019,53.492127,0            -2.272,53.492072,0            -2.271984,53.49202,0            -2.271981,53.491969,0            -2.271986,53.491914,0            -2.272003,53.491827,0            -2.272011,53.491765,0            -2.27203,53.491706,0            -2.272072,53.491615,0            -2.272121,53.491489,0            -2.272177,53.491355,0            -2.272266,53.491133,0            -2.272311,53.491031,0            -2.272367,53.4909,0            -2.272464,53.490669,0            -2.272679,53.490165,0            -2.271533,53.490133,0            -2.270914,53.490109,0            -2.270179,53.490074,0            -2.269889,53.48992,0            -2.269825,53.4899,0            -2.269747,53.489874,0            -2.269642,53.489847,0            -2.269519,53.489817,0            -2.269428,53.489786,0            -2.269361,53.489746,0            -2.269312,53.489695,0            -2.269256,53.489635,0            -2.269227,53.489574,0            -2.269229,53.489507,0            -2.269256,53.489424,0            -2.26928,53.489368,0            -2.26931,53.489319,0            -2.269358,53.489276,0            -2.269425,53.489239,0            -2.269519,53.489202,0            -2.269964,53.489059,0            -2.270015,53.489048,0            -2.270694,53.489011,0            -2.270873,53.488988,0            -2.272263,53.488813,0            -2.272257,53.48874,0            -2.272214,53.488674,0            -2.272214,53.488617,0            -2.27222,53.488425,0            -2.272209,53.488352,0            -2.272198,53.488294,0            -2.272188,53.488234,0            -2.272185,53.488162,0            -2.272204,53.488074,0            -2.272214,53.488001,0            -2.272212,53.487911,0            -2.272188,53.487742,0            -2.272164,53.48765,0            -2.272145,53.487563,0            -2.272115,53.487421,0            -2.272086,53.487314,0            -2.272003,53.487057,0            -2.271981,53.487024,0            -2.271941,53.486984,0            -2.27186,53.486933,0            -2.271804,53.486909,0            -2.271748,53.486888,0            -2.271632,53.486856,0            -2.271528,53.486834,0            -2.271372,53.486808,0            -2.271206,53.486783,0            -2.270981,53.486746,0            -2.270879,53.486718,0            -2.270847,53.486719,0            -2.270809,53.486805,0            -2.270777,53.486917,0            -2.270718,53.487089,0            -2.270686,53.487195,0            -2.270667,53.487316,0            -2.270664,53.487375,0            -2.270659,53.48744,0            -2.270659,53.487498,0            -2.27068,53.487637,0          </coordinates></LineString></Placemark><Placemark><name>Start/Finish</name><styleUrl>#icon-1899-FFEA00-nodesc</styleUrl><Point><coordinates>            -2.2706937,53.4876201,0          </coordinates></Point></Placemark></Folder></Document></kml>