<?xml version="1.0" encoding="UTF-8"?><kml xmlns="http://www.opengis.net/kml/2.2"><Document><name>Pegwell Bay parkrun (from Jun 2025)</name><description/><Style id="icon-503-009D57-nodesc-normal"><IconStyle><color>ff579d00</color><scale>1.1</scale><Icon><href>https://www.gstatic.com/mapspro/images/stock/503-wht-blank_maps.png</href></Icon><hotSpot x="16" xunits="pixels" y="32" yunits="insetPixels"/></IconStyle><LabelStyle><scale>0</scale></LabelStyle><BalloonStyle><text><![CDATA[<h3>$[name]</h3>]]></text></BalloonStyle></Style><Style id="icon-503-009D57-nodesc-highlight"><IconStyle><color>ff579d00</color><scale>1.1</scale><Icon><href>https://www.gstatic.com/mapspro/images/stock/503-wht-blank_maps.png</href></Icon><hotSpot x="16" xunits="pixels" y="32" yunits="insetPixels"/></IconStyle><LabelStyle><scale>1.1</scale></LabelStyle><BalloonStyle><text><![CDATA[<h3>$[name]</h3>]]></text></BalloonStyle></Style><StyleMap id="icon-503-009D57-nodesc"><Pair><key>normal</key><styleUrl>#icon-503-009D57-nodesc-normal</styleUrl></Pair><Pair><key>highlight</key><styleUrl>#icon-503-009D57-nodesc-highlight</styleUrl></Pair></StyleMap><Style id="icon-503-DB4436-nodesc-normal"><IconStyle><color>ff3644db</color><scale>1.1</scale><Icon><href>https://www.gstatic.com/mapspro/images/stock/503-wht-blank_maps.png</href></Icon><hotSpot x="16" xunits="pixels" y="32" yunits="insetPixels"/></IconStyle><LabelStyle><scale>0</scale></LabelStyle><BalloonStyle><text><![CDATA[<h3>$[name]</h3>]]></text></BalloonStyle></Style><Style id="icon-503-DB4436-nodesc-highlight"><IconStyle><color>ff3644db</color><scale>1.1</scale><Icon><href>https://www.gstatic.com/mapspro/images/stock/503-wht-blank_maps.png</href></Icon><hotSpot x="16" xunits="pixels" y="32" yunits="insetPixels"/></IconStyle><LabelStyle><scale>1.1</scale></LabelStyle><BalloonStyle><text><![CDATA[<h3>$[name]</h3>]]></text></BalloonStyle></Style><StyleMap id="icon-503-DB4436-nodesc"><Pair><key>normal</key><styleUrl>#icon-503-DB4436-nodesc-normal</styleUrl></Pair><Pair><key>highlight</key><styleUrl>#icon-503-DB4436-nodesc-highlight</styleUrl></Pair></StyleMap><Style id="line-4186F0-5000-nodesc-normal"><LineStyle><color>fff08641</color><width>5</width></LineStyle><BalloonStyle><text><![CDATA[<h3>$[name]</h3>]]></text></BalloonStyle></Style><Style id="line-4186F0-5000-nodesc-highlight"><LineStyle><color>fff08641</color><width>7.5</width></LineStyle><BalloonStyle><text><![CDATA[<h3>$[name]</h3>]]></text></BalloonStyle></Style><StyleMap id="line-4186F0-5000-nodesc"><Pair><key>normal</key><styleUrl>#line-4186F0-5000-nodesc-normal</styleUrl></Pair><Pair><key>highlight</key><styleUrl>#line-4186F0-5000-nodesc-highlight</styleUrl></Pair></StyleMap><Folder><name>Untitled layer</name><Placemark><name>Course</name><styleUrl>#line-4186F0-5000-nodesc</styleUrl><LineString><tessellate>1</tessellate><coordinates>            1.361941,51.323275,5.2            1.361936,51.323268,5.2            1.361923,51.323256,5.2            1.361908,51.323236,5.2            1.361883,51.32322,5.2            1.361859,51.323208,5.2            1.361832,51.323197,5.2            1.361803,51.323185,5.2            1.361779,51.323172,5.2            1.361747,51.323158,5.2            1.361729,51.323148,5.2            1.361696,51.323139,5.2            1.361676,51.323129,5.2            1.361641,51.323116,5.2            1.361617,51.323104,5.4            1.361586,51.323088,5.4            1.361555,51.323074,5.4            1.361533,51.323061,5.4            1.361504,51.323046,5.4            1.361486,51.323035,5.4            1.361456,51.32302,5.6            1.361436,51.323006,5.6            1.361412,51.322989,5.6            1.361396,51.322975,5.6            1.361373,51.322955,5.6            1.361358,51.322939,5.6            1.361331,51.322918,5.6            1.361317,51.322903,5.8            1.361292,51.322883,5.8            1.361269,51.322864,5.8            1.361231,51.32285,5.8            1.36121,51.32284,5.6            1.361179,51.322826,5.6            1.361153,51.322826,5.6            1.361131,51.322825,5.6            1.361125,51.322825,5.6            1.361124,51.322824,5.6            1.361121,51.322821,5.6            1.36112,51.322817,5.6            1.361108,51.322811,5.6            1.361101,51.3228,5.6            1.361084,51.322784,5.6            1.361073,51.322768,5.6            1.361054,51.322748,5.6            1.36104,51.322735,5.6            1.361014,51.32272,5.6            1.360998,51.322703,5.4            1.360971,51.322687,5.4            1.360952,51.32267,5.4            1.360924,51.322653,5.4            1.360907,51.322638,5.4            1.360883,51.322622,5.4            1.360867,51.322608,5.4            1.360851,51.322591,5.4            1.360837,51.322573,5.4            1.360824,51.32256,5.4            1.3608,51.322543,5.4            1.360784,51.322528,5.4            1.360757,51.322511,5.4            1.360746,51.322497,5.4            1.360722,51.32248,5.4            1.360706,51.322466,5.4            1.360685,51.322449,5.6            1.360677,51.322432,5.6            1.360668,51.322417,5.6            1.360657,51.322403,5.6            1.360649,51.322387,5.6            1.360641,51.32237,5.6            1.360637,51.322353,5.6            1.360629,51.322333,5.6            1.36063,51.322318,5.6            1.360629,51.322302,5.6            1.36063,51.32229,5.6            1.360628,51.322275,5.6            1.360628,51.322263,5.6            1.36063,51.322246,5.6            1.360635,51.322226,5.6            1.360645,51.322203,5.4            1.360653,51.322184,5.4            1.36066,51.322162,5.4            1.360667,51.322142,5.2            1.360671,51.322128,5.2            1.360672,51.32211,5.4            1.360677,51.322093,5.4            1.36067,51.322072,5.4            1.360665,51.322055,5.2            1.360654,51.322036,5.2            1.360646,51.322021,5.2            1.360638,51.322007,5.2            1.360634,51.321991,5.2            1.360615,51.321973,5.2            1.360601,51.321959,5.2            1.360588,51.321943,5            1.36057,51.321926,5            1.360553,51.321911,5            1.360534,51.321896,4.8            1.36051,51.321883,4.8            1.360482,51.321868,4.8            1.360454,51.321852,4.8            1.360434,51.321836,4.8            1.360418,51.321819,4.8            1.360396,51.321799,4.8            1.360376,51.321782,4.8            1.360351,51.321761,4.8            1.360331,51.321746,4.8            1.360301,51.321726,4.8            1.360275,51.32171,4.6            1.36025,51.321692,4.6            1.36023,51.321674,4.6            1.360207,51.321656,4.6            1.360189,51.321641,4.6            1.360167,51.321624,4.6            1.360146,51.321614,4.6            1.360118,51.321598,4.6            1.360096,51.321584,4.8            1.360066,51.321562,4.8            1.360042,51.321546,5            1.360013,51.321524,5            1.359987,51.321506,5            1.359955,51.321492,4.8            1.35993,51.321476,4.8            1.359905,51.32146,4.8            1.359881,51.321442,5            1.359857,51.321423,5            1.359835,51.321404,5            1.359812,51.321386,5            1.35979,51.321367,5            1.359768,51.321348,5            1.359751,51.321334,5            1.359723,51.32132,5            1.359707,51.321308,5            1.359682,51.321291,5            1.359662,51.321275,5            1.359636,51.321257,5            1.359615,51.321242,5            1.359588,51.321227,5.2            1.359567,51.32121,5.2            1.35954,51.321194,5.2            1.359521,51.321178,5.2            1.359491,51.321163,5.2            1.359472,51.321146,5.4            1.359443,51.321128,5.4            1.359424,51.321113,5.4            1.359397,51.321093,5.4            1.359376,51.321078,5.4            1.359345,51.321059,5.4            1.359324,51.321044,5.4            1.359301,51.321025,5.4            1.35928,51.32101,5.4            1.359257,51.320995,5.4            1.359235,51.320981,5.6            1.359205,51.320967,5.6            1.359186,51.320952,5.6            1.359163,51.320932,5.6            1.359145,51.320917,5.4            1.359118,51.320899,5.4            1.359098,51.320881,5.4            1.35907,51.320862,5.4            1.359055,51.320846,5.4            1.359027,51.320828,5.4            1.359015,51.320815,5.4            1.358988,51.320799,5.2            1.358972,51.320785,5            1.35894,51.320767,5            1.358922,51.320753,5.2            1.358893,51.320734,5.2            1.358874,51.320719,5.4            1.358846,51.320702,5.6            1.35882,51.320686,5.6            1.358798,51.320668,5.4            1.358772,51.320652,5.4            1.358751,51.320636,5.2            1.358728,51.320621,5.2            1.358711,51.320606,5.2            1.358686,51.32059,5.2            1.358666,51.320575,5.4            1.358639,51.320559,5.6            1.358619,51.320543,5.6            1.358588,51.320526,5.6            1.35857,51.32051,5.6            1.358537,51.320494,5.6            1.358522,51.32048,5.6            1.358496,51.32046,5.4            1.358481,51.320445,5.4            1.358454,51.320427,5.4            1.358439,51.320414,5.4            1.358415,51.320398,5.4            1.358392,51.320384,5.2            1.358371,51.320369,5.2            1.358348,51.320354,5.2            1.35833,51.320341,5.2            1.358305,51.320323,5.4            1.358287,51.320309,5.4            1.358259,51.320292,5.4            1.358245,51.320278,5.2            1.358216,51.320258,5.2            1.3582,51.320243,5.2            1.358173,51.320223,5.2            1.358157,51.320207,5.2            1.35813,51.320188,5.2            1.358111,51.320173,5.2            1.358085,51.320155,5.2            1.358065,51.320138,5.2            1.358045,51.320119,5.2            1.358027,51.320103,5.4            1.358008,51.320085,5.2            1.357989,51.320068,5.2            1.357973,51.320048,5.2            1.357956,51.32003,5.2            1.357942,51.320011,5.2            1.357922,51.31999,5.2            1.357912,51.319973,5.2            1.357893,51.319951,5.2            1.357882,51.319936,5.2            1.357859,51.319918,5.2            1.357845,51.319903,5            1.357822,51.319882,5            1.357813,51.319864,5            1.357793,51.319843,5            1.357781,51.319827,5            1.357762,51.319807,5            1.357751,51.319792,4.8            1.357731,51.319769,4.8            1.357718,51.319751,4.8            1.357698,51.319731,4.8            1.357685,51.319713,4.8            1.357669,51.319693,4.8            1.357656,51.319674,4.8            1.35764,51.319654,4.8            1.357624,51.319635,5            1.35761,51.319617,5            1.357596,51.3196,5            1.357583,51.319579,5            1.357563,51.319559,5.2            1.357553,51.31954,5.2            1.357533,51.31952,5.2            1.357517,51.319504,5.2            1.357498,51.319484,5            1.357486,51.319468,5            1.357464,51.319451,5            1.357451,51.319436,5            1.357426,51.319418,5            1.35741,51.319406,5            1.357383,51.319391,4.8            1.357362,51.31938,5            1.357332,51.319362,5            1.35731,51.31935,4.8            1.357274,51.319336,4.8            1.35725,51.319326,4.8            1.357212,51.319312,4.8            1.357186,51.319301,4.8            1.357154,51.319288,4.8            1.357127,51.319275,4.8            1.357097,51.319259,4.8            1.357078,51.319247,4.8            1.357049,51.319228,4.8            1.357033,51.319213,4.8            1.357008,51.319191,4.8            1.35699,51.319174,4.8            1.356968,51.319154,4.8            1.356951,51.319136,4.8            1.35693,51.319115,4.8            1.356917,51.319097,5            1.356897,51.319076,5            1.356884,51.319058,5            1.35687,51.319036,5.2            1.356855,51.319017,5.2            1.356839,51.318999,5.4            1.35683,51.318982,5.4            1.356809,51.318961,5.4            1.356799,51.318944,5.4            1.356776,51.318921,5.4            1.356756,51.318905,5.4            1.356733,51.318885,5.4            1.356718,51.318866,5.4            1.356699,51.318845,5.6            1.356683,51.31883,5.6            1.35666,51.318809,5.8            1.356646,51.318793,5.8            1.356621,51.318772,5.8            1.356612,51.318757,5.8            1.356589,51.318735,5.8            1.35657,51.318721,5.6            1.356545,51.318705,5.6            1.356523,51.318689,5.6            1.356486,51.318672,5.6            1.356457,51.318655,5.4            1.356423,51.318635,5.4            1.356401,51.318616,5.4            1.356367,51.318598,5.4            1.35635,51.318581,5.4            1.356322,51.318562,5.2            1.3563,51.318545,5.4            1.35627,51.318528,5.2            1.356252,51.318515,5.2            1.356225,51.318498,5.2            1.356203,51.318481,5.2            1.356181,51.318464,5.2            1.356159,51.318448,5            1.356142,51.318431,5            1.356116,51.318413,5            1.356101,51.318397,5            1.356075,51.318379,5            1.356059,51.318363,5            1.356033,51.318342,5            1.356019,51.318326,5.2            1.355992,51.318306,5.2            1.355976,51.318288,5.2            1.355948,51.318267,5.2            1.355929,51.318249,5.2            1.355904,51.318225,5.2            1.355892,51.318206,5.2            1.355867,51.318184,5.2            1.355851,51.318168,5.2            1.355826,51.31815,5            1.355811,51.318136,5.2            1.355782,51.318118,5.2            1.355765,51.318102,5.2            1.35574,51.318082,5.2            1.355724,51.318068,5.2            1.355697,51.318047,5.4            1.355679,51.31803,5.4            1.355654,51.318009,5.4            1.355642,51.31799,5.4            1.355619,51.317968,5.6            1.355607,51.317951,5.6            1.355584,51.31793,5.4            1.355569,51.317912,5.4            1.355547,51.317891,5.4            1.355528,51.317874,5.4            1.355505,51.317858,5.2            1.355485,51.317841,5.2            1.355468,51.317821,5.4            1.355452,51.317801,5.4            1.355434,51.317781,5.4            1.355419,51.317761,5.4            1.355397,51.317742,5.4            1.355378,51.317725,5.4            1.355361,51.317705,5.4            1.355342,51.317686,5.4            1.355317,51.317667,5.4            1.355299,51.31765,5.4            1.355274,51.317633,5.6            1.35525,51.317617,5.6            1.355233,51.317593,5.6            1.355209,51.31758,5.6            1.355189,51.317561,5.6            1.355169,51.317542,5.6            1.355157,51.317524,5.8            1.355133,51.317505,5.8            1.355105,51.317483,5.8            1.355086,51.317469,5.8            1.35506,51.317454,5.8            1.355043,51.317442,5.6            1.355022,51.317421,5.6            1.355009,51.317401,5.8            1.354994,51.317381,5.8            1.354982,51.317364,5.8            1.354959,51.317341,5.8            1.35495,51.317326,5.8            1.354933,51.317305,5.8            1.354922,51.317287,6            1.354901,51.317264,6            1.354891,51.317248,6            1.354878,51.317222,6            1.35487,51.317206,6.2            1.354853,51.317183,6.2            1.354847,51.317165,6            1.354837,51.317141,6            1.354832,51.317125,6            1.354823,51.317104,6            1.354812,51.317091,6            1.354801,51.317076,6.2            1.354787,51.31706,6.2            1.354767,51.317039,6.2            1.354753,51.31702,6.2            1.354731,51.316998,6.2            1.354719,51.316978,6.2            1.354699,51.316956,6            1.35469,51.316939,6            1.354672,51.316917,6            1.354665,51.316898,6            1.354642,51.316873,6            1.354637,51.316855,5.8            1.354617,51.316834,5.8            1.354611,51.316817,5.8            1.354589,51.316796,5.8            1.35458,51.31678,5.8            1.354563,51.316762,6            1.354555,51.316746,6            1.354544,51.316726,6            1.354536,51.316709,6            1.354527,51.316691,6.2            1.354515,51.316672,6.2            1.354503,51.316654,6.2            1.354488,51.316633,6.2            1.354475,51.316612,6.2            1.354456,51.316592,6            1.354441,51.316571,6            1.354424,51.316549,6            1.354413,51.316526,6            1.3544,51.316504,6            1.354385,51.316486,6            1.354371,51.316469,6.2            1.354354,51.316448,6.2            1.354342,51.316433,6            1.354324,51.316418,6            1.354307,51.3164,6            1.354292,51.316379,6            1.354279,51.31636,6            1.35426,51.316338,5.8            1.354245,51.316318,5.8            1.354228,51.316299,5.8            1.354215,51.316276,5.8            1.354199,51.316256,5.8            1.354185,51.316235,5.8            1.354173,51.316213,5.8            1.35416,51.316193,5.8            1.354145,51.316174,5.8            1.354129,51.316151,5.6            1.354112,51.31613,5.6            1.354097,51.31611,5.6            1.354082,51.31609,5.4            1.354066,51.316066,5.4            1.354058,51.316044,5.4            1.354038,51.316024,5.4            1.354024,51.316006,5.4            1.354008,51.315987,5.4            1.353997,51.315969,5.4            1.353985,51.315946,5.4            1.353978,51.315927,5.4            1.353965,51.315904,5.4            1.353957,51.315886,5.4            1.353944,51.315867,5.4            1.353932,51.315851,5.4            1.353916,51.315828,5.4            1.353908,51.315805,5.6            1.353906,51.315776,5.6            1.353921,51.315757,5.6            1.35395,51.315742,5.6            1.353977,51.315734,5.6            1.354008,51.315728,5.6            1.354033,51.315724,5.8            1.354064,51.315721,5.8            1.35409,51.315727,5.8            1.354123,51.315736,5.8            1.354153,51.315741,6            1.354192,51.315743,5.8            1.354223,51.315744,6            1.35426,51.315747,6            1.354296,51.315749,6            1.354326,51.315751,6            1.35436,51.315753,6            1.354385,51.315754,6            1.354416,51.315756,6            1.354444,51.315756,6            1.354477,51.315754,6            1.354505,51.315751,6            1.354527,51.315751,6            1.354548,51.315753,6            1.354577,51.315761,6            1.354606,51.315764,6            1.354648,51.315764,6.2            1.35468,51.315765,6.2            1.354719,51.315768,6.2            1.354753,51.315772,6.2            1.354787,51.315774,6.4            1.354824,51.315776,6.4            1.354859,51.315773,6.4            1.354895,51.315774,6.4            1.354934,51.31577,6.4            1.354968,51.315769,6.4            1.355002,51.315768,6.4            1.355033,51.315764,6.4            1.355064,51.315762,6.4            1.355102,51.31576,6.4            1.355131,51.31576,6.4            1.355172,51.315765,6.4            1.355204,51.315765,6.4            1.355247,51.315767,6.4            1.355281,51.315765,6.4            1.355317,51.315766,6.4            1.355337,51.315774,6.4            1.355329,51.315781,6.4            1.355322,51.315782,6.4            1.355324,51.315782,6.4            1.355321,51.315784,6.4            1.35532,51.315785,6.6            1.355308,51.315782,6.6            1.355299,51.315782,6.6            1.355295,51.315783,6.4            1.355295,51.315784,6.4            1.355296,51.315784,6.2            1.355318,51.315786,6.2            1.355335,51.315785,6.2            1.355357,51.315784,6.2            1.35538,51.315785,6.2            1.355398,51.315788,6.2            1.355412,51.315789,6.2            1.355433,51.315789,6.2            1.35545,51.315791,6.2            1.355472,51.315793,6.2            1.355493,51.315795,6.4            1.355513,51.315796,6.4            1.355532,51.315796,6.4            1.355554,51.315798,6.4            1.355575,51.3158,6.4            1.355594,51.3158,6.4            1.355614,51.315803,6.4            1.355642,51.315804,6.4            1.355668,51.315803,6.4            1.355678,51.3158,6.4            1.355685,51.315797,6.4            1.355683,51.315796,6.4            1.355678,51.315796,6.4            1.355677,51.315802,6.4            1.355684,51.315805,6.4            1.355699,51.315807,6.4            1.355715,51.315807,6.4            1.35573,51.315807,6.4            1.355759,51.315807,6.4            1.355795,51.315806,6.4            1.35582,51.315808,6.4            1.355845,51.315808,6.4            1.355886,51.315811,6.4            1.355914,51.315814,6.4            1.355948,51.315818,6.6            1.355983,51.31582,6.6            1.356017,51.315824,6.6            1.356053,51.315825,6.6            1.356073,51.315833,6.8            1.356111,51.31583,6.6            1.356136,51.315832,6.6            1.356166,51.315835,6.8            1.356204,51.315837,6.8            1.356226,51.31584,6.8            1.356265,51.315843,6.6            1.356288,51.315848,6.6            1.356321,51.315851,6.6            1.356352,51.315852,6.6            1.356374,51.315856,6.6            1.356413,51.315852,6.6            1.356439,51.315854,6.4            1.356486,51.315855,6.2            1.356514,51.315864,6.2            1.356558,51.315868,6            1.356594,51.315872,5.8            1.35663,51.315873,5.8            1.356647,51.315872,5.6            1.35665,51.315872,5.6            1.356653,51.315873,5.4            1.356679,51.315873,5.4            1.356699,51.315875,5.2            1.356731,51.315878,5.2            1.356763,51.315881,5.4            1.356802,51.315882,5.4            1.356832,51.315885,5.4            1.356872,51.315885,5.4            1.356904,51.315891,5.4            1.35694,51.315899,5.2            1.356972,51.315903,5.2            1.357002,51.315904,5            1.357043,51.315902,5            1.357072,51.315903,5            1.357107,51.315902,5            1.357134,51.315905,5            1.35717,51.315904,5            1.357205,51.315905,5            1.357237,51.315906,5            1.357274,51.315906,5            1.357303,51.315909,5            1.357344,51.315908,5            1.35737,51.315915,5            1.357408,51.315918,5            1.357434,51.315926,5            1.357475,51.315928,5            1.357506,51.315932,5            1.357536,51.315938,5.2            1.357572,51.315941,5.2            1.357598,51.315947,5.4            1.357639,51.315951,5.4            1.357662,51.315959,5.4            1.357701,51.315964,5.4            1.357731,51.315974,5.4            1.357762,51.315979,5.4            1.3578,51.315979,5.6            1.357834,51.315982,5.6            1.35787,51.315983,5.4            1.357904,51.31598,5.4            1.357939,51.315974,5.4            1.35797,51.31597,5.4            1.358007,51.315967,5.4            1.358038,51.315966,5.4            1.358076,51.31596,5.4            1.358105,51.315959,5.4            1.35814,51.315955,5.4            1.358168,51.315952,5.4            1.358204,51.315949,5.4            1.358234,51.315947,5.6            1.358265,51.315947,5.6            1.358298,51.315947,5.6            1.358322,51.31595,5.6            1.358363,51.315951,5.6            1.358391,51.315954,5.4            1.358429,51.315956,5.4            1.358461,51.31596,5.2            1.358494,51.315961,5.2            1.358533,51.315959,5.2            1.358561,51.315964,5.2            1.3586,51.315966,5.2            1.358624,51.315966,5.2            1.358662,51.315965,5.2            1.358697,51.315965,5            1.358734,51.315964,5            1.358769,51.315966,5            1.358801,51.315964,5            1.358833,51.315962,5            1.358864,51.315962,5            1.358901,51.315957,5            1.358931,51.315958,5            1.35897,51.315956,5            1.358998,51.315956,5            1.359027,51.315957,5            1.359038,51.315957,5.2            1.359046,51.315958,5.2            1.359039,51.315957,5.2            1.359034,51.315956,5.2            1.359034,51.315955,5.2            1.359036,51.315955,5.2            1.359055,51.315949,5.2            1.35909,51.315946,5.2            1.35912,51.315943,5.2            1.35916,51.315941,5.2            1.359195,51.31594,5.2            1.359234,51.315938,5.2            1.359271,51.315938,5.2            1.35931,51.31594,5            1.35935,51.315939,5            1.359386,51.315941,5            1.359426,51.315938,5            1.35946,51.31594,4.8            1.3595,51.315941,4.8            1.359532,51.315943,4.8            1.359572,51.315943,4.8            1.359602,51.315947,4.8            1.359645,51.315951,4.8            1.359675,51.31596,4.8            1.359718,51.315967,4.8            1.359745,51.315977,4.8            1.35978,51.315985,4.8            1.359806,51.315997,5            1.359835,51.316011,5            1.359861,51.316022,5            1.359885,51.316037,5            1.359913,51.316053,5            1.359933,51.31607,5            1.359953,51.316089,5.2            1.359961,51.316107,5.2            1.359984,51.316131,5.2            1.359994,51.31615,5.2            1.36001,51.316173,5.2            1.360021,51.316195,5.2            1.360031,51.316216,5.2            1.360042,51.316239,5.2            1.360042,51.31626,5            1.360045,51.316285,5            1.360043,51.316303,4.8            1.360041,51.31633,4.8            1.360035,51.31635,4.8            1.360032,51.316374,4.8            1.360031,51.316396,5            1.360025,51.316419,5            1.360021,51.316437,5            1.360019,51.31646,5            1.360025,51.31648,5            1.360028,51.316496,5            1.36004,51.316517,5            1.360041,51.316531,5            1.360051,51.31655,5            1.360057,51.31657,5            1.360065,51.316589,5            1.360079,51.316612,5            1.36009,51.316632,5            1.360099,51.316652,5            1.360116,51.316676,5            1.360129,51.316697,5.2            1.360148,51.316719,5            1.360162,51.316736,5.2            1.360182,51.316755,5.2            1.360203,51.316772,5.2            1.360219,51.316786,5.2            1.360241,51.316801,5.2            1.36026,51.316815,5.4            1.36029,51.316828,5.4            1.360302,51.316847,5.4            1.360327,51.316868,5.2            1.360346,51.316885,5.2            1.360373,51.316903,5.2            1.360396,51.316917,5.2            1.360425,51.316935,5.2            1.360451,51.31695,5.2            1.360484,51.316966,5.2            1.360503,51.31698,5.2            1.360535,51.316995,5.2            1.360548,51.31701,5.2            1.36058,51.317029,5.2            1.360597,51.317045,5.2            1.36063,51.317065,5.2            1.360647,51.317082,5.2            1.360678,51.317098,5.2            1.360701,51.317112,5.2            1.36073,51.317128,5.4            1.360747,51.317146,5.4            1.360774,51.317163,5.4            1.360797,51.317183,5.4            1.360815,51.317203,5.2            1.360834,51.317222,5.2            1.360845,51.317242,5            1.360865,51.317261,4.8            1.360875,51.317279,4.8            1.360901,51.317299,4.6            1.360918,51.317317,4.6            1.360946,51.317334,4.8            1.36097,51.31735,4.8            1.360989,51.31737,4.8            1.361007,51.317387,5            1.361012,51.317403,5            1.361032,51.317422,5            1.361043,51.317439,4.8            1.361058,51.317461,4.8            1.361063,51.317477,4.6            1.361077,51.3175,4.6            1.361083,51.317516,4.6            1.361102,51.317542,4.6            1.361103,51.317565,4.6            1.361115,51.317595,4.6            1.361117,51.31762,4.8            1.361128,51.317647,4.8            1.361131,51.317667,5            1.361146,51.317691,5            1.361155,51.317713,5            1.361168,51.317734,4.8            1.361174,51.317756,4.8            1.361179,51.317779,4.8            1.361189,51.317801,4.8            1.361199,51.317821,5            1.361212,51.317841,5            1.36122,51.317859,5            1.361231,51.317881,5            1.361229,51.3179,5            1.361237,51.317924,4.8            1.361235,51.317944,4.8            1.361248,51.317969,4.8            1.361253,51.317991,4.6            1.361267,51.318016,4.6            1.361273,51.318039,4.6            1.361277,51.318061,4.6            1.361287,51.318083,4.6            1.361294,51.318105,4.4            1.361306,51.318128,4.4            1.361313,51.318153,4.2            1.361325,51.318178,4.4            1.36133,51.318201,4.4            1.361342,51.318227,4.4            1.361345,51.318249,4.6            1.361354,51.318277,4.6            1.361355,51.318298,4.6            1.361366,51.318325,4.6            1.361368,51.318345,4.6            1.36138,51.318372,4.6            1.361382,51.318392,4.6            1.361393,51.31842,4.8            1.361398,51.318443,4.8            1.361409,51.318466,4.8            1.361417,51.318491,4.8            1.361417,51.318516,4.8            1.361412,51.318542,4.6            1.361408,51.318567,4.8            1.361408,51.318592,4.8            1.361407,51.318616,4.8            1.361417,51.318638,4.8            1.361426,51.318663,4.8            1.361433,51.318692,4.6            1.361438,51.318717,4.6            1.361448,51.318741,4.6            1.361454,51.318762,4.6            1.361462,51.318789,4.6            1.361459,51.31881,4.6            1.361466,51.318837,4.6            1.361469,51.318854,4.8            1.361484,51.318877,4.8            1.361497,51.318895,4.8            1.36151,51.318918,4.8            1.361511,51.318938,4.6            1.361521,51.318961,4.6            1.361519,51.318979,4.4            1.361528,51.319004,4.4            1.361525,51.319023,4.4            1.361535,51.319046,4.4            1.361539,51.319067,4.4            1.361541,51.319093,4.6            1.361544,51.319113,4.6            1.361545,51.319135,4.6            1.361545,51.319161,4.6            1.361542,51.319184,4.6            1.361547,51.31921,4.6            1.36155,51.319232,4.6            1.361558,51.319258,4.6            1.361557,51.319277,4.6            1.361564,51.319302,4.6            1.36156,51.31932,4.6            1.361564,51.319347,4.6            1.361554,51.319365,4.6            1.361554,51.319393,4.6            1.361548,51.319415,4.6            1.361547,51.319439,4.6            1.361546,51.31946,4.4            1.361542,51.319484,4.4            1.361542,51.319507,4.4            1.361544,51.319532,4.4            1.361553,51.319558,4.4            1.361556,51.319582,4.6            1.36156,51.319606,4.6            1.361552,51.319628,4.6            1.361551,51.319651,4.6            1.361551,51.319674,4.6            1.361555,51.319696,4.6            1.361552,51.319717,4.6            1.361553,51.319743,4.6            1.361545,51.319763,4.6            1.361543,51.319788,4.6            1.361537,51.319809,4.6            1.361542,51.319835,4.6            1.36154,51.319855,4.4            1.361545,51.319882,4.6            1.361545,51.319905,4.6            1.361541,51.319931,4.6            1.361545,51.319954,4.6            1.361545,51.319978,4.6            1.361545,51.320002,4.6            1.361543,51.320026,4.6            1.361543,51.320049,4.6            1.36154,51.320072,4.6            1.361544,51.320094,4.6            1.361537,51.320113,4.6            1.361534,51.320141,4.6            1.361528,51.32016,4.4            1.361533,51.320187,4.4            1.36153,51.320207,4.4            1.361532,51.320231,4.4            1.361535,51.320255,4.4            1.361534,51.320277,4.4            1.361541,51.3203,4.4            1.361537,51.320321,4.4            1.361542,51.320344,4.6            1.361542,51.320361,4.6            1.361534,51.320389,4.6            1.361533,51.320413,4.8            1.361533,51.320438,4.8            1.361524,51.320458,4.8            1.361522,51.320484,4.8            1.361517,51.320504,4.8            1.361524,51.320528,4.8            1.361528,51.320548,4.8            1.361533,51.320565,4.8            1.361543,51.320584,4.8            1.361548,51.3206,4.8            1.361551,51.320622,4.8            1.361544,51.32064,4.8            1.361551,51.320663,4.8            1.361547,51.320681,4.8            1.361552,51.32071,4.8            1.361547,51.320727,4.8            1.361556,51.320753,4.8            1.361553,51.320772,4.8            1.361563,51.320798,4.8            1.361564,51.32082,4.8            1.361564,51.320844,4.8            1.361572,51.320868,4.8            1.361576,51.320892,4.8            1.361579,51.320915,4.8            1.36158,51.320934,4.8            1.361586,51.320953,4.8            1.361583,51.320967,4.8            1.361592,51.320987,4.8            1.361594,51.321004,4.8            1.361604,51.321027,4.8            1.361607,51.321047,4.8            1.361616,51.32107,4.8            1.361623,51.321093,4.8            1.361628,51.321112,4.8            1.361634,51.321135,4.8            1.361632,51.321152,4.8            1.361642,51.321171,4.8            1.361644,51.321189,4.8            1.361653,51.321213,5            1.361652,51.321232,5            1.361662,51.321257,5            1.361668,51.321279,5            1.361672,51.321301,5            1.361679,51.321324,5            1.361678,51.321343,5            1.361693,51.321364,5            1.361697,51.321382,5            1.361705,51.321405,5            1.361708,51.321425,5            1.361712,51.321448,5            1.361715,51.321465,5            1.36172,51.321486,5            1.361728,51.321503,5            1.361735,51.321523,5            1.361737,51.32154,5            1.361744,51.321564,5            1.361744,51.321579,4.8            1.361755,51.321605,4.8            1.361757,51.321623,4.8            1.361768,51.321646,4.6            1.361776,51.321665,4.6            1.361788,51.321688,4.8            1.361794,51.321707,4.8            1.361805,51.321728,4.8            1.361811,51.321743,4.8            1.361822,51.321767,4.6            1.361827,51.321784,4.6            1.361846,51.321806,4.4            1.361857,51.321825,4.4            1.361876,51.321848,4.4            1.361885,51.321864,4.6            1.361899,51.321888,4.6            1.361907,51.321908,4.8            1.361916,51.321929,4.8            1.361929,51.32195,4.8            1.361941,51.321967,4.8            1.361952,51.321987,4.6            1.361958,51.322005,4.6            1.361977,51.322029,4.6            1.361988,51.322045,4.6            1.362008,51.322066,4.6            1.362016,51.322083,4.8            1.362033,51.322104,4.6            1.362043,51.322122,4.6            1.362063,51.322144,4.6            1.362076,51.32216,4.6            1.362089,51.322177,4.4            1.362096,51.322198,4.4            1.362104,51.322213,4.4            1.362117,51.322234,4.4            1.362119,51.322254,4.4            1.362134,51.322281,4.6            1.36214,51.322301,4.6            1.362153,51.322327,4.8            1.362154,51.322343,4.8            1.362168,51.322367,4.8            1.362177,51.322384,4.8            1.362197,51.322406,4.8            1.362211,51.32243,4.8            1.362225,51.322455,4.8            1.362238,51.32248,4.8            1.36225,51.322509,4.8            1.36226,51.322533,4.8            1.36227,51.322557,4.6            1.362275,51.322578,4.6            1.362294,51.322602,4.6            1.362305,51.322625,4.6            1.362319,51.322649,4.8            1.362326,51.322674,4.6            1.36234,51.322698,4.6            1.362347,51.322722,4.6            1.362364,51.322747,4.6            1.362367,51.322768,4.6            1.362376,51.322795,4.6            1.362374,51.322819,4.6            1.362386,51.322847,4.4            1.362395,51.322868,4.4            1.362403,51.322887,4.6            1.36241,51.322909,4.6            1.362418,51.322929,4.6            1.362425,51.322948,4.6            1.362435,51.322972,4.8            1.362441,51.322997,4.8            1.362445,51.323026,4.8            1.362446,51.323055,4.8            1.362445,51.323082,4.8            1.362444,51.323106,4.8            1.362439,51.323135,4.8            1.362433,51.323162,4.8            1.362427,51.323189,4.8            1.362425,51.323214,4.8            1.362424,51.323236,4.8            1.362422,51.323261,4.6            1.362417,51.323279,4.6            1.362407,51.323301,4.6            1.362401,51.323323,4.6            1.362399,51.323345,4.6            1.362393,51.323366,4.6            1.362386,51.323388,4.6            1.362379,51.323408,4.6            1.362373,51.323427,4.8            1.362358,51.323445,4.8            1.362344,51.323463,4.8            1.362325,51.323476,4.8            1.362294,51.323496,4.8            1.362268,51.323505,4.8            1.362232,51.323508,4.8            1.362191,51.323503,4.8            1.362163,51.323494,4.8            1.362126,51.32348,5            1.362107,51.323465,5            1.362081,51.323445,5            1.362068,51.323433,5            1.362051,51.323408,5            1.362047,51.32339,5.2            1.362035,51.323365,5.2            1.362018,51.323347,5.2            1.361996,51.32333,5            1.361972,51.323317,5            1.36196,51.323303,5            1.361931,51.323287,5            1.361914,51.323275,5            1.361906,51.323268,5            1.361895,51.323263,5            1.361886,51.323261,5            1.361878,51.323258,5            1.361883,51.323258,5            1.361882,51.323256,5            1.361868,51.323246,4.8            1.361859,51.323235,4.8            1.361828,51.323223,4.8            1.361811,51.32321,4.8            1.361778,51.323197,4.8            1.361755,51.323182,5            1.361715,51.323168,4.8            1.36169,51.323155,4.8            1.361654,51.323143,4.8            1.361628,51.323134,4.8            1.361595,51.323121,4.8            1.36157,51.32311,4.8            1.361546,51.323095,4.8            1.361515,51.32308,4.8            1.361496,51.323066,4.8            1.361461,51.32305,4.8            1.361444,51.323037,4.8            1.36141,51.323021,4.8            1.361392,51.323005,4.8            1.361357,51.322991,4.8            1.361338,51.322978,4.8            1.361314,51.322961,4.8            1.361294,51.322943,4.8            1.361271,51.322927,5            1.361251,51.32291,5            1.361229,51.322892,5            1.361205,51.322874,5            1.361186,51.322854,4.8            1.361156,51.322834,4.8            1.361137,51.322815,4.8            1.361107,51.322799,4.6            1.361089,51.322784,4.6            1.361061,51.322768,4.6            1.361045,51.322752,4.6            1.361017,51.322733,4.8            1.361,51.322718,4.8            1.360977,51.322701,4.8            1.360956,51.322686,4.8            1.360928,51.322667,4.8            1.360905,51.322649,4.8            1.36088,51.322629,4.6            1.360859,51.322611,4.6            1.360841,51.322594,4.6            1.360818,51.322577,4.8            1.360802,51.322562,4.8            1.360775,51.322544,4.8            1.360758,51.322528,5            1.360733,51.322505,5            1.360719,51.322487,5            1.360698,51.322466,5.2            1.360684,51.322448,5.2            1.360665,51.322427,5.2            1.360652,51.322409,5.2            1.360642,51.322386,5.2            1.360637,51.322364,5.2            1.360628,51.32234,5            1.360626,51.322321,5            1.360625,51.322298,5            1.360628,51.322277,5            1.360632,51.322256,5            1.360637,51.322233,5            1.36064,51.322208,5            1.360643,51.322186,5            1.360652,51.322162,5            1.36065,51.322139,5            1.36065,51.322116,5            1.360643,51.32209,5            1.360639,51.32207,5            1.360629,51.322048,5            1.360627,51.322028,5            1.360623,51.322006,4.8            1.360619,51.321988,4.8            1.360598,51.321969,4.8            1.360585,51.321953,4.8            1.360567,51.321935,4.6            1.360548,51.321914,4.6            1.360527,51.321895,4.6            1.360504,51.321877,4.4            1.360487,51.321856,4.4            1.360467,51.321835,4.4            1.360446,51.321817,4.4            1.360426,51.321797,4.4            1.36041,51.321784,4.4            1.360383,51.321766,4.4            1.360362,51.321752,4.2            1.360338,51.321737,4.2            1.360313,51.32172,4.2            1.360294,51.321704,4.2            1.360265,51.321685,4            1.360244,51.321667,4            1.360217,51.321649,4            1.360196,51.321634,4.2            1.360171,51.321616,4.2            1.360149,51.321602,4.2            1.360123,51.321584,4.2            1.360093,51.32157,4.2            1.360071,51.321553,4.2            1.360045,51.321539,4.2            1.36002,51.321525,4.2            1.359992,51.321509,4.4            1.359967,51.321493,4.4            1.359941,51.321472,4.4            1.359921,51.321458,4.4            1.359891,51.321446,4.4            1.359867,51.32143,4.2            1.359835,51.321415,4.2            1.359817,51.321402,4.2            1.359789,51.321384,4.2            1.359771,51.32137,4.4            1.359747,51.321349,4.4            1.359729,51.321332,4.4            1.359702,51.321315,4.4            1.359683,51.321298,4.4            1.359653,51.321278,4.4            1.359637,51.321261,4.4            1.359608,51.321243,4.6            1.359589,51.321226,4.8            1.359557,51.321208,4.8            1.359538,51.321192,5            1.35951,51.321172,5            1.35949,51.321158,5            1.359456,51.321138,5.2            1.359436,51.321119,5.2            1.359404,51.3211,5.2            1.35938,51.321083,5.2            1.359345,51.321062,5.2            1.359326,51.321046,5.2            1.359303,51.321024,5.2            1.359283,51.32101,5.2            1.359255,51.320992,5            1.359233,51.320974,5            1.359202,51.320954,5            1.359181,51.320936,5            1.359149,51.320915,5            1.359131,51.320901,4.8            1.359105,51.320883,5            1.359082,51.320866,5            1.359059,51.32085,5            1.359034,51.320835,5            1.359009,51.320822,5.2            1.358983,51.320807,5.2            1.35896,51.320791,5.2            1.358933,51.320772,5.2            1.358915,51.320755,5.2            1.358887,51.320737,5.2            1.358867,51.32072,5.2            1.358838,51.320703,5.2            1.358825,51.320688,5.2            1.358795,51.320669,5.2            1.358783,51.320655,5.2            1.358756,51.320637,5.2            1.358736,51.320624,5.2            1.358718,51.320609,5.2            1.358688,51.32059,5.2            1.358671,51.320575,5.2            1.358641,51.320555,5.2            1.358631,51.320542,5.2            1.358603,51.320523,5            1.358586,51.320509,5            1.358556,51.320493,4.8            1.358534,51.320478,4.8            1.358503,51.320459,4.8            1.358482,51.320443,4.8            1.358461,51.320425,4.8            1.358436,51.320409,4.8            1.358415,51.320393,4.8            1.358389,51.320376,4.8            1.358373,51.32036,4.8            1.358343,51.32034,4.8            1.358322,51.320327,4.6            1.358288,51.320307,4.6            1.358264,51.32029,4.6            1.358233,51.32027,4.6            1.358216,51.320256,4.6            1.35819,51.320237,4.4            1.358174,51.320221,4.4            1.358154,51.320205,4.6            1.358132,51.320186,4.4            1.35811,51.320168,4.6            1.358089,51.320149,4.8            1.35807,51.320131,4.8            1.358046,51.320111,4.6            1.358027,51.320093,4.8            1.358003,51.320075,4.8            1.357985,51.320056,4.8            1.357962,51.320035,4.8            1.357948,51.320021,4.8            1.357922,51.319999,4.8            1.357905,51.31998,4.8            1.357884,51.319961,4.8            1.357873,51.319945,4.8            1.357845,51.319923,4.8            1.357839,51.319907,4.6            1.357814,51.319885,4.6            1.357802,51.319867,4.6            1.357779,51.319843,4.6            1.357766,51.319825,4.6            1.357746,51.319803,4.6            1.357734,51.319785,4.6            1.357716,51.319765,4.4            1.357704,51.319748,4.4            1.357688,51.31973,4.6            1.357669,51.319711,4.6            1.357659,51.319689,4.6            1.357641,51.319667,4.6            1.357631,51.319646,4.6            1.357609,51.319623,4.6            1.357599,51.319605,4.6            1.357573,51.319582,4.6            1.357564,51.319567,4.4            1.35754,51.319545,4.6            1.357528,51.319531,4.6            1.3575,51.31951,4.6            1.357481,51.319493,4.6            1.357457,51.319473,4.6            1.357437,51.319455,4.6            1.357419,51.319436,4.6            1.357393,51.319419,4.6            1.357381,51.319402,4.6            1.357354,51.319384,4.6            1.357335,51.319371,4.6            1.357299,51.319353,4.4            1.357276,51.31934,4.4            1.357245,51.319323,4.4            1.357218,51.319307,4.2            1.357183,51.319293,4.2            1.357151,51.31928,4.2            1.357131,51.319267,4.2            1.3571,51.319251,4.2            1.357079,51.319238,4.2            1.35705,51.31922,4.2            1.357034,51.319202,4.2            1.357006,51.319182,4.2            1.356994,51.319166,4.2            1.356966,51.319145,4.2            1.356953,51.319128,4.4            1.356929,51.319107,4.4            1.356919,51.319092,4.6            1.356899,51.319071,4.6            1.356882,51.319053,4.6            1.356868,51.319036,4.8            1.356849,51.319016,4.8            1.35684,51.319002,4.8            1.356815,51.318981,4.8            1.356807,51.318965,4.8            1.356783,51.318946,4.8            1.356772,51.318929,4.8            1.356753,51.318906,4.8            1.35674,51.318886,5            1.356724,51.318864,5            1.356707,51.318844,5            1.356687,51.318825,5            1.356668,51.318804,5            1.356649,51.318786,5            1.356622,51.318766,5            1.356597,51.318749,5            1.35657,51.318729,5            1.356546,51.318714,4.8            1.356516,51.318697,4.8            1.356492,51.31868,4.6            1.356453,51.318666,4.6            1.356429,51.318648,4.4            1.356394,51.31863,4.4            1.356365,51.318613,4.4            1.356328,51.318598,4.6            1.356301,51.31858,4.6            1.356267,51.318562,4.6            1.356239,51.318545,4.6            1.356205,51.318527,4.6            1.356179,51.31851,4.4            1.356153,51.318491,4.4            1.356134,51.318473,4.4            1.356107,51.318453,4.2            1.356094,51.318435,4.2            1.356073,51.318414,4.2            1.356055,51.318394,4.4            1.356026,51.318375,4.4            1.356011,51.318358,4.4            1.355982,51.318336,4.6            1.355971,51.31832,4.6            1.35594,51.318295,4.6            1.355922,51.318277,4.8            1.355893,51.318253,4.8            1.355874,51.318234,4.8            1.355851,51.318212,4.6            1.355836,51.318192,4.6            1.355823,51.318169,4.6            1.355808,51.318149,4.6            1.355797,51.318129,4.6            1.355776,51.318108,4.6            1.355762,51.318087,4.6            1.355736,51.318065,4.8            1.355721,51.318047,4.8            1.355692,51.318026,4.8            1.355678,51.31801,4.8            1.355646,51.317988,4.8            1.355633,51.317973,4.8            1.355606,51.317951,4.8            1.355593,51.317932,4.8            1.355563,51.317909,4.8            1.355544,51.31789,4.8            1.355517,51.317869,4.6            1.3555,51.317852,4.6            1.355467,51.31783,4.6            1.35545,51.317811,4.8            1.355423,51.317787,4.8            1.355403,51.317762,5            1.355373,51.317736,5            1.355358,51.317716,5            1.355335,51.31769,5            1.35531,51.317668,4.8            1.355286,51.317648,4.8            1.355261,51.317629,4.8            1.355243,51.317613,4.8            1.355218,51.317591,4.8            1.355204,51.317572,4.6            1.35518,51.317553,4.8            1.355166,51.31754,4.8            1.355141,51.317519,4.8            1.355124,51.317504,5            1.355099,51.317484,5            1.355079,51.317464,5            1.35506,51.317445,5            1.355037,51.317427,5            1.355024,51.317411,5            1.354999,51.317394,5            1.354987,51.317376,5            1.354965,51.317358,5            1.354949,51.317344,5.2            1.354936,51.317327,5.2            1.354917,51.317308,5.4            1.354906,51.31729,5.4            1.354882,51.317269,5.4            1.354872,51.317253,5.4            1.354847,51.31723,5.4            1.354836,51.317211,5.4            1.354818,51.317186,5.4            1.354806,51.317166,5.4            1.354787,51.317146,5.4            1.354772,51.317127,5.4            1.354764,51.317107,5.4            1.354749,51.317084,5.4            1.354739,51.317065,5.4            1.35472,51.317041,5.4            1.35471,51.317021,5.4            1.354692,51.316998,5.4            1.354683,51.316981,5.4            1.354659,51.316958,5.4            1.354652,51.316939,5.4            1.354631,51.316912,5.4            1.354624,51.316894,5.4            1.354602,51.316867,5.2            1.354593,51.316847,5.2            1.354572,51.316822,5.2            1.35456,51.3168,5.2            1.354546,51.316777,5.2            1.35453,51.316755,5.2            1.35452,51.316736,5.2            1.3545,51.316714,5.4            1.354492,51.316698,5.4            1.35447,51.316676,5.6            1.354461,51.316658,5.6            1.354437,51.316633,5.6            1.354428,51.316617,5.8            1.354413,51.316593,5.8            1.354404,51.316573,5.8            1.354393,51.316554,5.8            1.354373,51.316532,5.8            1.354366,51.316512,5.6            1.354347,51.316488,5.6            1.354334,51.316471,5.4            1.354318,51.316449,5.4            1.354308,51.31643,5.4            1.354289,51.316406,5.4            1.354277,51.316388,5.4            1.354259,51.316363,5.4            1.354245,51.316345,5.4            1.354228,51.316323,5.4            1.354216,51.316303,5.2            1.354204,51.316283,5.2            1.354192,51.31626,5.2            1.354182,51.316238,5            1.354167,51.316215,5            1.354156,51.316196,5            1.354139,51.316173,5            1.354133,51.316151,5.2            1.354112,51.316126,5.2            1.354104,51.316106,5.2            1.354085,51.316085,5.2            1.354074,51.316067,5.2            1.354055,51.316045,5            1.354047,51.316028,5            1.354027,51.316007,5            1.354013,51.315989,5            1.353992,51.315968,5            1.353975,51.315948,5            1.353963,51.315925,5            1.353946,51.315902,4.8            1.353934,51.315881,5            1.353918,51.315856,5            1.35391,51.315835,4.8            1.353894,51.315807,4.8            1.353888,51.315785,4.8            1.353888,51.315757,4.8            1.353899,51.315742,4.6            1.353932,51.315732,4.8            1.353968,51.315725,5            1.354004,51.315722,5.2            1.354031,51.315718,5.2            1.354069,51.315717,5.4            1.354105,51.315725,5.4            1.354143,51.315728,5.4            1.354181,51.315729,5.4            1.354212,51.315731,5.4            1.354248,51.315736,5.4            1.354281,51.315743,5.4            1.354319,51.315748,5.4            1.354352,51.315752,5.6            1.354389,51.315756,5.6            1.35442,51.31576,5.4            1.354456,51.315762,5.4            1.354483,51.315765,5.4            1.354513,51.315765,5.4            1.354546,51.315765,5.4            1.35458,51.315767,5.4            1.354616,51.315771,5.4            1.354657,51.315774,5.4            1.354704,51.315776,5.4            1.354751,51.315773,5.6            1.354786,51.315777,5.6            1.354831,51.315777,5.6            1.35487,51.315778,5.6            1.354907,51.315777,5.6            1.354939,51.315777,5.6            1.354973,51.315776,5.6            1.355004,51.315777,5.6            1.355036,51.315781,5.6            1.355062,51.315782,5.8            1.3551,51.315789,5.8            1.355131,51.315795,6            1.355173,51.315799,6            1.355209,51.315801,6            1.355254,51.315803,6            1.355295,51.315807,5.8            1.355331,51.315811,5.8            1.355368,51.315809,5.8            1.355399,51.315805,5.8            1.355423,51.315801,5.8            1.355443,51.315799,6            1.355458,51.3158,6            1.355474,51.315801,6            1.35551,51.315803,6            1.355545,51.315804,5.8            1.355584,51.315807,5.8            1.355616,51.31581,5.6            1.355657,51.315812,5.6            1.355694,51.315813,5.4            1.355729,51.315816,5.4            1.35577,51.315817,5.4            1.355799,51.31582,5.2            1.355842,51.315822,5.2            1.355872,51.315824,5.2            1.355915,51.315826,5.2            1.355954,51.315827,5.2            1.355993,51.315828,5.4            1.356025,51.315829,5.4            1.356067,51.315831,5.6            1.356101,51.315833,5.6            1.356134,51.315837,5.8            1.356174,51.315835,5.8            1.356205,51.315838,6            1.356248,51.315839,6            1.356276,51.315844,6            1.356318,51.315844,6            1.356345,51.315847,6            1.356388,51.315849,5.8            1.356418,51.315849,5.8            1.356457,51.31585,5.8            1.35649,51.315852,5.8            1.356527,51.315854,5.8            1.356565,51.315858,5.8            1.356599,51.315859,5.6            1.356636,51.315858,5.6            1.356667,51.315862,5.6            1.356705,51.31586,5.6            1.35673,51.315865,5.6            1.356772,51.31587,5.6            1.356803,51.315876,5.6            1.356839,51.315881,5.4            1.356878,51.315885,5.4            1.35691,51.31589,5.2            1.356947,51.315897,5            1.356976,51.315908,5            1.357014,51.315911,4.8            1.357043,51.315916,4.8            1.357089,51.315916,4.8            1.357119,51.315919,4.8            1.357165,51.315916,4.8            1.3572,51.315914,4.8            1.35724,51.315913,4.8            1.357271,51.315912,4.8            1.357304,51.315914,4.8            1.35734,51.315915,4.8            1.35737,51.315919,4.8            1.357414,51.315922,4.8            1.357443,51.315931,4.8            1.35749,51.315931,4.8            1.357521,51.315937,4.8            1.357568,51.315942,4.8            1.357595,51.315946,4.8            1.357644,51.315949,4.8            1.357675,51.315955,5            1.357718,51.315959,5            1.357749,51.315963,5.2            1.357791,51.315966,5.2            1.35783,51.315965,5.2            1.357871,51.315966,5.4            1.357914,51.315963,5.4            1.35795,51.315964,5.4            1.357984,51.315963,5.4            1.357995,51.315963,5.4            1.358002,51.315964,5.2            1.358003,51.315969,5.2            1.358019,51.315968,5.2            1.358044,51.315965,5.2            1.358078,51.315961,5.2            1.358111,51.315959,5.2            1.358153,51.315953,5.2            1.358187,51.315952,5.2            1.358231,51.315949,5.2            1.358262,51.315951,5.4            1.358305,51.315951,5.4            1.358334,51.315953,5.4            1.35838,51.315952,5.4            1.358419,51.315954,5.4            1.358463,51.315954,5.2            1.358499,51.315954,5.2            1.358539,51.315951,5            1.358577,51.315951,5            1.358617,51.31595,4.8            1.358655,51.31595,4.8            1.358693,51.315952,4.8            1.358735,51.315949,4.8            1.358766,51.315953,5            1.358811,51.315948,5            1.35884,51.315948,5            1.358884,51.315943,5            1.358916,51.315943,5            1.358956,51.315942,5            1.358991,51.315941,5            1.359025,51.315941,4.8            1.359063,51.315939,4.8            1.359095,51.315942,4.8            1.359138,51.31594,4.8            1.359171,51.315942,4.8            1.359221,51.315939,4.8            1.359256,51.31594,4.8            1.359292,51.31594,4.8            1.359318,51.315943,4.6            1.359342,51.315944,4.6            1.35936,51.315947,4.4            1.359381,51.315947,4.4            1.359403,51.315946,4.4            1.359424,51.315944,4.4            1.359436,51.31594,4.6            1.359445,51.315938,4.6            1.359441,51.315941,4.6            1.359443,51.315941,4.6            1.359442,51.31594,4.6            1.359442,51.315941,4.6            1.359445,51.315942,4.6            1.359459,51.315944,4.6            1.35947,51.315945,4.6            1.359486,51.315944,4.6            1.359504,51.315944,4.6            1.359528,51.315944,4.6            1.359548,51.315944,4.6            1.359567,51.315944,4.6            1.359587,51.315946,4.4            1.359606,51.315948,4.4            1.359621,51.315953,4.6            1.359636,51.315958,4.6            1.359641,51.315961,4.6            1.359641,51.31596,4.6            1.359646,51.31596,4.6            1.359671,51.315965,4.6            1.359703,51.315971,4.6            1.359741,51.31598,4.6            1.359773,51.315991,4.6            1.359809,51.316003,4.6            1.35984,51.316013,4.6            1.359874,51.316029,4.6            1.359903,51.316045,4.6            1.359933,51.316068,4.8            1.359954,51.316087,4.8            1.359984,51.316113,5            1.359998,51.316133,5            1.360015,51.316159,5            1.360028,51.31618,5            1.360044,51.316204,5            1.36005,51.316226,5            1.360056,51.316249,5            1.360058,51.316273,4.8            1.360055,51.316293,4.8            1.360053,51.316318,4.8            1.360046,51.316336,4.8            1.360042,51.31636,4.8            1.36004,51.316381,4.8            1.360035,51.316405,4.8            1.360032,51.316425,4.8            1.360032,51.316444,4.8            1.360038,51.316466,4.8            1.360041,51.316486,4.8            1.360046,51.316509,4.8            1.360048,51.316528,4.8            1.360051,51.316551,4.8            1.360056,51.316568,4.8            1.360068,51.316587,4.8            1.360073,51.316606,4.8            1.360086,51.316626,4.8            1.360097,51.316645,4.8            1.36011,51.316668,4.8            1.360122,51.316684,4.8            1.360139,51.316705,4.8            1.360154,51.316722,4.8            1.360177,51.316742,4.8            1.360196,51.316759,4.8            1.360219,51.316774,4.8            1.360242,51.316791,4.8            1.36026,51.316807,4.8            1.360281,51.316826,5            1.360304,51.316843,4.8            1.360332,51.316861,4.8            1.360352,51.316876,4.8            1.360376,51.316894,4.8            1.360399,51.316909,4.8            1.360426,51.316927,4.8            1.360448,51.316942,4.8            1.360474,51.316961,4.8            1.360492,51.316978,4.8            1.360522,51.316996,4.8            1.360542,51.317013,4.8            1.360575,51.317031,4.8            1.360601,51.317046,4.8            1.360633,51.317063,4.8            1.360656,51.317076,4.8            1.360687,51.317092,4.8            1.360716,51.317111,4.8            1.360747,51.317132,4.8            1.360782,51.317156,4.8            1.360806,51.317178,4.8            1.360837,51.317203,4.8            1.360858,51.317223,4.6            1.360883,51.31725,4.6            1.360904,51.317272,4.6            1.360935,51.317294,4.6            1.360961,51.317313,4.6            1.360993,51.317336,4.6            1.361012,51.317356,4.4            1.36104,51.317378,4.4            1.361056,51.317394,4.4            1.361077,51.317419,4.4            1.361091,51.317439,4.4            1.361105,51.317465,4.4            1.361115,51.317489,4.4            1.361126,51.317511,4.4            1.361134,51.317536,4.4            1.36114,51.317557,4.4            1.361147,51.317582,4.4            1.361148,51.3176,4.6            1.361157,51.317626,4.6            1.361163,51.317647,4.6            1.361169,51.317671,4.6            1.361178,51.317693,4.6            1.361184,51.317714,4.6            1.361191,51.317738,4.6            1.361193,51.317755,4.4            1.361204,51.317779,4.4            1.361211,51.317797,4.4            1.361222,51.317819,4.4            1.361232,51.317839,4.4            1.36124,51.317859,4.4            1.361249,51.317882,4.4            1.361254,51.3179,4.6            1.361256,51.317919,4.6            1.361261,51.317936,4.6            1.361267,51.317952,4.6            1.361271,51.317968,4.6            1.361278,51.317984,4.6            1.361287,51.318003,4.6            1.361291,51.318021,4.6            1.361299,51.318042,4.4            1.361304,51.31806,4.4            1.361316,51.318082,4.4            1.361322,51.318102,4.2            1.361333,51.318125,4.2            1.361343,51.318146,4.2            1.361352,51.318166,4.2            1.361363,51.318191,4.2            1.361366,51.31821,4.2            1.361378,51.318235,4.4            1.361382,51.318253,4.4            1.361392,51.318276,4.4            1.361398,51.318294,4.4            1.361404,51.318317,4.4            1.36141,51.318336,4.2            1.361415,51.318357,4.2            1.361422,51.318381,4.2            1.361428,51.318401,4.2            1.361434,51.318427,4.2            1.361437,51.318447,4.4            1.361443,51.318473,4.4            1.361443,51.318493,4.4            1.361446,51.31852,4.4            1.361443,51.318542,4.2            1.361446,51.318564,4.2            1.361446,51.318585,4.2            1.361447,51.318606,4.2            1.361451,51.31863,4.2            1.361455,51.318652,4.2            1.361461,51.318678,4.2            1.361465,51.318697,4.2            1.361471,51.318719,4.2            1.361475,51.318738,4.2            1.361482,51.318762,4.4            1.361484,51.318777,4.6            1.361491,51.318798,5            1.361495,51.318817,5.2            1.3615,51.318837,5.2            1.361508,51.318859,5.2            1.361515,51.318878,5            1.361528,51.3189,4.6            1.361536,51.318924,4.2            1.361549,51.31895,4            1.361557,51.318972,4            1.361563,51.318998,4            1.361564,51.319019,4.2            1.361567,51.319045,4.4            1.361563,51.319067,4.4            1.361569,51.319095,4.4            1.36157,51.319116,4.4            1.361574,51.319144,4.4            1.361574,51.319167,4.4            1.361577,51.319196,4.4            1.361573,51.319219,4.2            1.361576,51.319245,4.2            1.361577,51.319265,4.4            1.361582,51.319291,4.4            1.361586,51.319313,4.4            1.361588,51.319339,4.4            1.36159,51.319362,4.4            1.36159,51.319387,4.4            1.361593,51.319411,4.2            1.36159,51.319434,4.2            1.361588,51.319457,4.4            1.361583,51.319481,4.4            1.361578,51.319503,4.4            1.361573,51.319528,4.4            1.361568,51.319551,4.6            1.361563,51.319577,4.8            1.361562,51.319598,4.8            1.361563,51.319622,5            1.361561,51.319646,5            1.36156,51.319672,4.8            1.36156,51.319695,4.6            1.361557,51.319721,4.6            1.361555,51.319744,4.6            1.361553,51.31977,4.6            1.361552,51.319795,4.6            1.361553,51.319822,4.8            1.361554,51.319845,4.6            1.361553,51.319868,4.6            1.361551,51.319891,4.6            1.361547,51.319907,4.6            1.361554,51.319911,4.6            1.361559,51.319921,4.8            1.361562,51.319933,4.8            1.361557,51.319939,4.8            1.361561,51.319959,4.6            1.36156,51.319977,4.6            1.361556,51.319999,4.4            1.361559,51.320022,4.4            1.361555,51.320045,4.4            1.361558,51.320067,4.4            1.361558,51.320093,4.4            1.361558,51.320114,4.6            1.361558,51.32014,4.6            1.361554,51.320165,4.6            1.36155,51.320189,4.6            1.361553,51.320211,4.6            1.361553,51.320233,4.6            1.361553,51.320254,4.6            1.36155,51.320275,4.6            1.361555,51.320299,4.6            1.361554,51.320318,4.8            1.361561,51.320341,4.8            1.361563,51.320361,4.8            1.361563,51.320384,4.8            1.361558,51.320403,4.8            1.361558,51.320424,5            1.361555,51.320444,5            1.361557,51.320464,4.8            1.361556,51.320485,4.8            1.361558,51.320507,4.8            1.361563,51.320527,4.8            1.361572,51.320551,4.8            1.361575,51.320569,4.8            1.361578,51.320593,5            1.361586,51.320611,5            1.36159,51.320636,5            1.361591,51.320659,5            1.361592,51.32068,5            1.361593,51.320703,4.8            1.361597,51.320723,4.8            1.361604,51.320746,4.8            1.361602,51.320764,4.8            1.361611,51.320788,4.8            1.361611,51.320804,4.8            1.361613,51.320826,4.8            1.361617,51.320843,4.8            1.361619,51.320856,4.8            1.361622,51.320871,4.8            1.361624,51.320885,4.6            1.361627,51.320902,4.6            1.36163,51.320923,4.8            1.36163,51.320943,4.8            1.361636,51.320968,4.8            1.361636,51.320985,4.8            1.361642,51.32101,4.8            1.361642,51.321029,4.8            1.361647,51.321053,4.8            1.36165,51.321073,4.8            1.361656,51.321097,4.8            1.361661,51.32112,4.8            1.361666,51.321142,4.8            1.361671,51.321167,4.8            1.361679,51.321188,4.8            1.361682,51.321212,4.8            1.361686,51.321232,4.8            1.361692,51.321257,4.8            1.361693,51.321277,4.8            1.3617,51.321303,4.8            1.361702,51.321322,4.8            1.36171,51.321345,4.8            1.361714,51.321365,4.8            1.361722,51.321388,4.8            1.361727,51.321408,5            1.361731,51.321429,5            1.361732,51.321452,5.2            1.361732,51.321473,5.2            1.361739,51.321495,5.2            1.361742,51.321514,5            1.361749,51.321537,5            1.361757,51.321559,5            1.361764,51.321581,5            1.361771,51.321601,5            1.361778,51.321625,5            1.361785,51.321646,5            1.361791,51.321668,5            1.361797,51.321686,5            1.361803,51.321707,4.8            1.361808,51.321724,4.6            1.361818,51.321747,4.6            1.361824,51.321765,4.6            1.36184,51.321788,4.8            1.361852,51.321804,4.8            1.36186,51.32182,5            1.361867,51.321833,5            1.361871,51.321843,5            1.361878,51.321859,5            1.361891,51.321876,5            1.361897,51.321892,4.8            1.36191,51.321914,4.8            1.361918,51.32193,4.6            1.361933,51.321951,4.6            1.361942,51.321968,4.6            1.361956,51.321991,4.6            1.361968,51.322009,4.6            1.361981,51.32203,4.8            1.361997,51.32205,4.8            1.362009,51.322069,4.8            1.362024,51.322091,4.8            1.362034,51.322111,4.8            1.362047,51.322132,4.6            1.36206,51.322153,4.4            1.362063,51.322167,4.4            1.362073,51.322189,4.4            1.362081,51.322206,4.4            1.362096,51.322227,4.6            1.362106,51.322246,4.6            1.36212,51.322271,4.8            1.362131,51.322292,5            1.362146,51.322316,5            1.362159,51.322337,5            1.362174,51.32236,5            1.362189,51.32238,5            1.362201,51.3224,5            1.362213,51.322422,4.8            1.362224,51.322445,4.8            1.362235,51.322468,4.8            1.362244,51.322489,5            1.362255,51.322513,4.8            1.362258,51.322531,4.8            1.362271,51.322558,5            1.362275,51.322578,5            1.36229,51.322599,5            1.362296,51.322619,5.2            1.362309,51.322642,5.2            1.362321,51.322661,5            1.36233,51.322681,5            1.362341,51.322703,5            1.362348,51.322721,5            1.362365,51.322743,4.8            1.36237,51.322763,4.8            1.362385,51.322786,4.6            1.362394,51.322803,4.6            1.362408,51.322821,4.6            1.362418,51.322841,4.6            1.362427,51.32286,4.6            1.362433,51.322881,4.6            1.362439,51.322902,4.6            1.362445,51.322926,4.8            1.362444,51.32295,4.8            1.362447,51.322976,4.8            1.362449,51.322999,4.8            1.362454,51.323026,4.8            1.362454,51.32305,4.8            1.362453,51.323074,4.8            1.362451,51.323095,4.8            1.362447,51.32312,4.8            1.362438,51.323143,4.8            1.362433,51.32317,4.8            1.362427,51.323194,4.8            1.362425,51.323221,4.8            1.362421,51.323242,5            1.362417,51.323262,5            1.362409,51.323285,5            1.362401,51.32331,5.2            1.362396,51.323329,5.2            1.36239,51.323351,5            1.362385,51.323369,5.2            1.362371,51.323393,5.2            1.36236,51.323411,5.2            1.362348,51.323432,5            1.362333,51.323452,5            1.362307,51.32347,5            1.362277,51.323483,5            1.362244,51.323488,5            1.362209,51.323488,5            1.362175,51.32348,5.2            1.362145,51.323467,5.2            1.362116,51.323448,5.2            1.362099,51.323423,5.4            1.362079,51.323393,5.4            1.362055,51.323358,5.8            1.362017,51.323324,5.8            1.361979,51.323288,5.8            1.36193,51.323257,5.8            1.361874,51.323231,5.6            1.361818,51.323211,5.8            1.361764,51.323187,6            1.361704,51.323161,6.2            1.361641,51.323134,6.2            1.361574,51.3231,6.4            1.361508,51.323064,6.4            1.36145,51.323027,5.8            1.361397,51.32299,5.8            1.361338,51.322954,5.6            1.361284,51.322921,5.6            1.361223,51.322889,5.8            1.361168,51.322853,6.4            1.361118,51.322815,6.8            1.361074,51.322773,6.8            1.361034,51.322731,6.8            1.361011,51.32269,6.6            1.360986,51.322651,5.8            1.360967,51.322619,5.4            1.360965,51.322593,5          </coordinates></LineString></Placemark><Placemark><name>Finish</name><styleUrl>#icon-503-DB4436-nodesc</styleUrl><Point><coordinates>            1.360965,51.322593,5          </coordinates></Point></Placemark><Placemark><name>Start</name><styleUrl>#icon-503-009D57-nodesc</styleUrl><Point><coordinates>            1.361941,51.323275,5.2          </coordinates></Point></Placemark></Folder></Document></kml>