<?xml version="1.0" encoding="UTF-8"?><kml xmlns="http://www.opengis.net/kml/2.2"><Document><name>Perton Playing Fields parkrun</name><description/><Style id="icon-1899-0F9D58-nodesc-normal"><IconStyle><color>ff589d0f</color><scale>1</scale><Icon><href>https://www.gstatic.com/mapspro/images/stock/503-wht-blank_maps.png</href></Icon><hotSpot x="32" xunits="pixels" y="64" yunits="insetPixels"/></IconStyle><LabelStyle><scale>0</scale></LabelStyle><BalloonStyle><text><![CDATA[<h3>$[name]</h3>]]></text></BalloonStyle></Style><Style id="icon-1899-0F9D58-nodesc-highlight"><IconStyle><color>ff589d0f</color><scale>1</scale><Icon><href>https://www.gstatic.com/mapspro/images/stock/503-wht-blank_maps.png</href></Icon><hotSpot x="32" xunits="pixels" y="64" yunits="insetPixels"/></IconStyle><LabelStyle><scale>1</scale></LabelStyle><BalloonStyle><text><![CDATA[<h3>$[name]</h3>]]></text></BalloonStyle></Style><StyleMap id="icon-1899-0F9D58-nodesc"><Pair><key>normal</key><styleUrl>#icon-1899-0F9D58-nodesc-normal</styleUrl></Pair><Pair><key>highlight</key><styleUrl>#icon-1899-0F9D58-nodesc-highlight</styleUrl></Pair></StyleMap><Style id="icon-1899-FF5252-nodesc-normal"><IconStyle><color>ff5252ff</color><scale>1</scale><Icon><href>https://www.gstatic.com/mapspro/images/stock/503-wht-blank_maps.png</href></Icon><hotSpot x="32" xunits="pixels" y="64" yunits="insetPixels"/></IconStyle><LabelStyle><scale>0</scale></LabelStyle><BalloonStyle><text><![CDATA[<h3>$[name]</h3>]]></text></BalloonStyle></Style><Style id="icon-1899-FF5252-nodesc-highlight"><IconStyle><color>ff5252ff</color><scale>1</scale><Icon><href>https://www.gstatic.com/mapspro/images/stock/503-wht-blank_maps.png</href></Icon><hotSpot x="32" xunits="pixels" y="64" yunits="insetPixels"/></IconStyle><LabelStyle><scale>1</scale></LabelStyle><BalloonStyle><text><![CDATA[<h3>$[name]</h3>]]></text></BalloonStyle></Style><StyleMap id="icon-1899-FF5252-nodesc"><Pair><key>normal</key><styleUrl>#icon-1899-FF5252-nodesc-normal</styleUrl></Pair><Pair><key>highlight</key><styleUrl>#icon-1899-FF5252-nodesc-highlight</styleUrl></Pair></StyleMap><Style id="line-0288D1-4488-nodesc-normal"><LineStyle><color>ffd18802</color><width>4.488</width></LineStyle><BalloonStyle><text><![CDATA[<h3>$[name]</h3>]]></text></BalloonStyle></Style><Style id="line-0288D1-4488-nodesc-highlight"><LineStyle><color>ffd18802</color><width>6.732</width></LineStyle><BalloonStyle><text><![CDATA[<h3>$[name]</h3>]]></text></BalloonStyle></Style><StyleMap id="line-0288D1-4488-nodesc"><Pair><key>normal</key><styleUrl>#line-0288D1-4488-nodesc-normal</styleUrl></Pair><Pair><key>highlight</key><styleUrl>#line-0288D1-4488-nodesc-highlight</styleUrl></Pair></StyleMap><Folder><name>Untitled layer</name><Placemark><name>Course</name><styleUrl>#line-0288D1-4488-nodesc</styleUrl><LineString><tessellate>1</tessellate><coordinates>            -2.19259,52.59464,0            -2.19206,52.59433,0            -2.19175,52.59449,0            -2.19206,52.59433,0            -2.1915,52.59402,0            -2.1908863,52.5936598,0            -2.1905136,52.593855,0            -2.19013,52.59408,0            -2.19049,52.59431,0            -2.19013,52.59408,0            -2.1908863,52.5936598,0            -2.1915,52.59402,0            -2.1911867,52.5938228,0            -2.19053,52.59343,0            -2.19047,52.59318,0            -2.19041,52.59298,0            -2.1906535,52.5924884,0            -2.19094,52.59171,0            -2.19085,52.59157,0            -2.1901484,52.5914063,0            -2.18972,52.59129,0            -2.1896229,52.5911774,0            -2.18956,52.59107,0            -2.18954,52.59068,0            -2.18982,52.59022,0            -2.1899,52.5888,0            -2.18927,52.58877,0            -2.1886782,52.5900411,0            -2.18858,52.59053,0            -2.1887836,52.5908774,0            -2.18888,52.59129,0            -2.1888005,52.5917657,0            -2.1887506,52.5918815,0            -2.18869,52.59203,0            -2.1887468,52.5932452,0            -2.18881,52.59378,0            -2.18981,52.59395,0            -2.19004,52.59407,0            -2.18997,52.59432,0            -2.19002,52.59449,0            -2.19026,52.59461,0            -2.19045,52.5948,0            -2.19045,52.59503,0            -2.1902,52.59515,0            -2.18952,52.59494,0            -2.18926,52.59502,0            -2.1891894,52.5949189,0            -2.18899,52.59487,0            -2.18873,52.5948,0            -2.1887471,52.594965,0            -2.18885,52.59513,0            -2.18907,52.59602,0            -2.18922,52.59604,0            -2.19015,52.59586,0            -2.1904399,52.5957906,0            -2.19088,52.59563,0            -2.19081,52.59551,0            -2.19068,52.59548,0            -2.19049,52.59534,0            -2.1903,52.59521,0            -2.1908378,52.5952374,0            -2.19125,52.5952,0            -2.1916,52.59507,0            -2.19197,52.59507,0            -2.19232,52.59512,0            -2.19255,52.59512,0            -2.19295,52.59501,0            -2.19343,52.59495,0            -2.19358,52.59486,0            -2.19355,52.59479,0            -2.1932877,52.5947513,0            -2.19259,52.59464,0          </coordinates></LineString></Placemark><Placemark><name>Finish</name><styleUrl>#icon-1899-FF5252-nodesc</styleUrl><Point><coordinates>            -2.19049,52.59431,0          </coordinates></Point></Placemark><Placemark><name>Start</name><styleUrl>#icon-1899-0F9D58-nodesc</styleUrl><Point><coordinates>            -2.19175,52.59449,0          </coordinates></Point></Placemark></Folder></Document></kml>