<?xml version="1.0" encoding="UTF-8"?><kml xmlns="http://www.opengis.net/kml/2.2"><Document><name>Pontypridd parkrun Regular Course (from Aug 2024)</name><description/><Style id="icon-1899-0F9D58-nodesc-normal"><IconStyle><color>ff589d0f</color><scale>1</scale><Icon><href>https://www.gstatic.com/mapspro/images/stock/503-wht-blank_maps.png</href></Icon><hotSpot x="32" xunits="pixels" y="64" yunits="insetPixels"/></IconStyle><LabelStyle><scale>0</scale></LabelStyle><BalloonStyle><text><![CDATA[<h3>$[name]</h3>]]></text></BalloonStyle></Style><Style id="icon-1899-0F9D58-nodesc-highlight"><IconStyle><color>ff589d0f</color><scale>1</scale><Icon><href>https://www.gstatic.com/mapspro/images/stock/503-wht-blank_maps.png</href></Icon><hotSpot x="32" xunits="pixels" y="64" yunits="insetPixels"/></IconStyle><LabelStyle><scale>1</scale></LabelStyle><BalloonStyle><text><![CDATA[<h3>$[name]</h3>]]></text></BalloonStyle></Style><StyleMap id="icon-1899-0F9D58-nodesc"><Pair><key>normal</key><styleUrl>#icon-1899-0F9D58-nodesc-normal</styleUrl></Pair><Pair><key>highlight</key><styleUrl>#icon-1899-0F9D58-nodesc-highlight</styleUrl></Pair></StyleMap><Style id="icon-1899-DB4436-nodesc-normal"><IconStyle><color>ff3644db</color><scale>1</scale><Icon><href>https://www.gstatic.com/mapspro/images/stock/503-wht-blank_maps.png</href></Icon><hotSpot x="32" xunits="pixels" y="64" yunits="insetPixels"/></IconStyle><LabelStyle><scale>0</scale></LabelStyle><BalloonStyle><text><![CDATA[<h3>$[name]</h3>]]></text></BalloonStyle></Style><Style id="icon-1899-DB4436-nodesc-highlight"><IconStyle><color>ff3644db</color><scale>1</scale><Icon><href>https://www.gstatic.com/mapspro/images/stock/503-wht-blank_maps.png</href></Icon><hotSpot x="32" xunits="pixels" y="64" yunits="insetPixels"/></IconStyle><LabelStyle><scale>1</scale></LabelStyle><BalloonStyle><text><![CDATA[<h3>$[name]</h3>]]></text></BalloonStyle></Style><StyleMap id="icon-1899-DB4436-nodesc"><Pair><key>normal</key><styleUrl>#icon-1899-DB4436-nodesc-normal</styleUrl></Pair><Pair><key>highlight</key><styleUrl>#icon-1899-DB4436-nodesc-highlight</styleUrl></Pair></StyleMap><Style id="line-0288D1-3713-nodesc-normal"><LineStyle><color>ffd18802</color><width>3.713</width></LineStyle><BalloonStyle><text><![CDATA[<h3>$[name]</h3>]]></text></BalloonStyle></Style><Style id="line-0288D1-3713-nodesc-highlight"><LineStyle><color>ffd18802</color><width>5.5695</width></LineStyle><BalloonStyle><text><![CDATA[<h3>$[name]</h3>]]></text></BalloonStyle></Style><StyleMap id="line-0288D1-3713-nodesc"><Pair><key>normal</key><styleUrl>#line-0288D1-3713-nodesc-normal</styleUrl></Pair><Pair><key>highlight</key><styleUrl>#line-0288D1-3713-nodesc-highlight</styleUrl></Pair></StyleMap><Folder><name>Untitled layer</name><Placemark><name>Course</name><styleUrl>#line-0288D1-3713-nodesc</styleUrl><LineString><tessellate>1</tessellate><coordinates>            -3.33959,51.60093,0            -3.3396,51.60092,0            -3.3396,51.60088,0            -3.33958,51.60083,0            -3.33957,51.60082,0            -3.33955,51.6008,0            -3.33952,51.60079,0            -3.33948,51.60077,0            -3.33943,51.60075,0            -3.33929,51.60072,0            -3.33863,51.60064,0            -3.33857,51.60064,0            -3.33817,51.60059,0            -3.33773,51.60054,0            -3.33762,51.60053,0            -3.3376,51.60053,0            -3.33756,51.60052,0            -3.33752,51.60053,0            -3.33749,51.60053,0            -3.33745,51.60055,0            -3.33743,51.60059,0            -3.3374,51.60066,0            -3.33733,51.60092,0            -3.33731,51.60099,0            -3.33728,51.60106,0            -3.33726,51.6011,0            -3.33723,51.60114,0            -3.3372,51.60118,0            -3.33717,51.60122,0            -3.3371,51.60127,0            -3.33705,51.60129,0            -3.33699,51.60131,0            -3.33689,51.60134,0            -3.33685,51.60135,0            -3.33675,51.60137,0            -3.33662,51.60138,0            -3.33656,51.60137,0            -3.3365,51.60137,0            -3.33642,51.60137,0            -3.33639,51.60137,0            -3.33633,51.60137,0            -3.33628,51.60137,0            -3.33623,51.60138,0            -3.33615,51.6014,0            -3.33604,51.60145,0            -3.33598,51.60148,0            -3.33594,51.60151,0            -3.33591,51.60154,0            -3.33588,51.60157,0            -3.33587,51.60162,0            -3.33585,51.60167,0            -3.33585,51.60168,0            -3.33585,51.60171,0            -3.33585,51.60178,0            -3.33586,51.60183,0            -3.33589,51.60189,0            -3.33593,51.60193,0            -3.33598,51.60198,0            -3.33603,51.60202,0            -3.33612,51.60206,0            -3.33621,51.60208,0            -3.33631,51.60211,0            -3.33636,51.60211,0            -3.33642,51.60211,0            -3.33649,51.6021,0            -3.33658,51.60209,0            -3.33666,51.60208,0            -3.33674,51.60206,0            -3.33681,51.60203,0            -3.33688,51.60198,0            -3.33693,51.60193,0            -3.33697,51.60189,0            -3.33699,51.60184,0            -3.33701,51.60179,0            -3.33707,51.60179,0            -3.33713,51.60151,0            -3.3372,51.60118,0            -3.33723,51.60114,0            -3.33739,51.60108,0            -3.33762,51.601,0            -3.33821,51.60077,0            -3.33857,51.60064,0            -3.33863,51.60064,0            -3.33929,51.60072,0            -3.33943,51.60075,0            -3.33948,51.60077,0            -3.33954,51.60079,0            -3.33956,51.6008,0            -3.33957,51.60082,0            -3.33958,51.60083,0            -3.3396,51.60088,0            -3.3396,51.60092,0            -3.33959,51.60096,0            -3.33952,51.60113,0            -3.33942,51.60131,0            -3.33939,51.60139,0            -3.33934,51.60149,0            -3.33925,51.60163,0            -3.33912,51.60183,0            -3.33905,51.60196,0            -3.33903,51.60198,0            -3.33897,51.60207,0            -3.33888,51.60219,0            -3.33873,51.60239,0            -3.33866,51.60246,0            -3.33857,51.60256,0            -3.33839,51.60274,0            -3.33837,51.60277,0            -3.33814,51.60301,0            -3.33813,51.60303,0            -3.33809,51.60308,0            -3.33803,51.60317,0            -3.33801,51.60319,0            -3.33798,51.60325,0            -3.33792,51.60335,0            -3.33784,51.60353,0            -3.3378,51.60363,0            -3.33776,51.60371,0            -3.33774,51.60377,0            -3.33773,51.60379,0            -3.33768,51.60385,0            -3.33764,51.60391,0            -3.33762,51.60393,0            -3.33753,51.60403,0            -3.33749,51.60406,0            -3.33737,51.60416,0            -3.33731,51.6042,0            -3.33712,51.60408,0            -3.33684,51.60395,0            -3.33669,51.60386,0            -3.33663,51.60383,0            -3.33662,51.60382,0            -3.3366,51.60378,0            -3.33639,51.60365,0            -3.33631,51.60358,0            -3.3363,51.60355,0            -3.33626,51.60332,0            -3.33626,51.60331,0            -3.33616,51.60304,0            -3.33611,51.60296,0            -3.3359,51.60263,0            -3.33586,51.60256,0            -3.33567,51.60222,0            -3.33546,51.6021,0            -3.33525,51.60198,0            -3.33504,51.60186,0            -3.33473,51.60168,0            -3.33426,51.60147,0            -3.33425,51.60146,0            -3.33424,51.60145,0            -3.33423,51.60143,0            -3.33423,51.60142,0            -3.33423,51.60139,0            -3.33445,51.60095,0            -3.33446,51.60088,0            -3.33446,51.60079,0            -3.3345,51.60058,0            -3.33454,51.60033,0            -3.33456,51.60022,0            -3.3346,51.59997,0            -3.33466,51.59987,0            -3.33524,51.59984,0            -3.33598,51.59981,0            -3.33599,51.59978,0            -3.33601,51.59977,0            -3.33605,51.59975,0            -3.3361,51.59974,0            -3.33649,51.59965,0            -3.33678,51.5996,0            -3.33704,51.59956,0            -3.33721,51.59953,0            -3.33748,51.59949,0            -3.33776,51.59945,0            -3.33806,51.59941,0            -3.3384,51.59942,0            -3.33873,51.59948,0            -3.33877,51.59949,0            -3.33887,51.59954,0            -3.33901,51.5996,0            -3.33908,51.59965,0            -3.33929,51.59979,0            -3.33942,51.59996,0            -3.33952,51.60011,0            -3.33959,51.60021,0            -3.33965,51.60037,0            -3.33973,51.60046,0            -3.33975,51.60048,0            -3.33975,51.60049,0            -3.33975,51.6005,0            -3.33972,51.60067,0            -3.33971,51.60075,0            -3.3397,51.60079,0            -3.33952,51.60079,0            -3.33948,51.60077,0            -3.33943,51.60075,0            -3.33929,51.60072,0            -3.33912,51.6007,0          </coordinates></LineString></Placemark><Placemark><name>Start</name><styleUrl>#icon-1899-0F9D58-nodesc</styleUrl><Point><coordinates>            -3.339594,51.600931,0          </coordinates></Point></Placemark><Placemark><name>Finish</name><styleUrl>#icon-1899-DB4436-nodesc</styleUrl><Point><coordinates>            -3.339119,51.600703,0          </coordinates></Point></Placemark></Folder></Document></kml>