<?xml version="1.0" encoding="UTF-8"?><kml xmlns="http://www.opengis.net/kml/2.2"><Document><name>Pontypool parkrun</name><description/><Style id="icon-123-nodesc-normal"><IconStyle><scale>1.1</scale><Icon><href>https://www.gstatic.com/mapspro/images/stock/123-red-dot.png</href></Icon><hotSpot x="16" xunits="pixels" y="32" yunits="insetPixels"/></IconStyle><LabelStyle><scale>0</scale></LabelStyle><BalloonStyle><text><![CDATA[<h3>$[name]</h3>]]></text></BalloonStyle></Style><Style id="icon-123-nodesc-highlight"><IconStyle><scale>1.1</scale><Icon><href>https://www.gstatic.com/mapspro/images/stock/123-red-dot.png</href></Icon><hotSpot x="16" xunits="pixels" y="32" yunits="insetPixels"/></IconStyle><LabelStyle><scale>1.1</scale></LabelStyle><BalloonStyle><text><![CDATA[<h3>$[name]</h3>]]></text></BalloonStyle></Style><StyleMap id="icon-123-nodesc"><Pair><key>normal</key><styleUrl>#icon-123-nodesc-normal</styleUrl></Pair><Pair><key>highlight</key><styleUrl>#icon-123-nodesc-highlight</styleUrl></Pair></StyleMap><Style id="icon-61-nodesc-normal"><IconStyle><scale>1.1</scale><Icon><href>https://www.gstatic.com/mapspro/images/stock/61-green-dot.png</href></Icon><hotSpot x="16" xunits="pixels" y="32" yunits="insetPixels"/></IconStyle><LabelStyle><scale>0</scale></LabelStyle><BalloonStyle><text><![CDATA[<h3>$[name]</h3>]]></text></BalloonStyle></Style><Style id="icon-61-nodesc-highlight"><IconStyle><scale>1.1</scale><Icon><href>https://www.gstatic.com/mapspro/images/stock/61-green-dot.png</href></Icon><hotSpot x="16" xunits="pixels" y="32" yunits="insetPixels"/></IconStyle><LabelStyle><scale>1.1</scale></LabelStyle><BalloonStyle><text><![CDATA[<h3>$[name]</h3>]]></text></BalloonStyle></Style><StyleMap id="icon-61-nodesc"><Pair><key>normal</key><styleUrl>#icon-61-nodesc-normal</styleUrl></Pair><Pair><key>highlight</key><styleUrl>#icon-61-nodesc-highlight</styleUrl></Pair></StyleMap><Style id="line-0000FF-5000-nodesc-normal"><LineStyle><color>ffff0000</color><width>5</width></LineStyle><BalloonStyle><text><![CDATA[<h3>$[name]</h3>]]></text></BalloonStyle></Style><Style id="line-0000FF-5000-nodesc-highlight"><LineStyle><color>ffff0000</color><width>7.5</width></LineStyle><BalloonStyle><text><![CDATA[<h3>$[name]</h3>]]></text></BalloonStyle></Style><StyleMap id="line-0000FF-5000-nodesc"><Pair><key>normal</key><styleUrl>#line-0000FF-5000-nodesc-normal</styleUrl></Pair><Pair><key>highlight</key><styleUrl>#line-0000FF-5000-nodesc-highlight</styleUrl></Pair></StyleMap><Folder><name>Untitled layer</name><Placemark><name>Course</name><styleUrl>#line-0000FF-5000-nodesc</styleUrl><LineString><tessellate>1</tessellate><coordinates>            -3.02887,51.69934,0            -3.030041,51.699886,0            -3.030529,51.700077,0            -3.03206,51.700214,0            -3.03308,51.70039,0            -3.03445,51.70074,0            -3.03526,51.70105,0            -3.035555,51.701213,0            -3.036599,51.701244,0            -3.036969,51.701288,0            -3.037623,51.701412,0            -3.038243,51.70157,0            -3.038503,51.701592,0            -3.03845,51.70165,0            -3.038315,51.701758,0            -3.03823,51.70179,0            -3.03813,51.70182,0            -3.037953,51.701815,0            -3.03739,51.70227,0            -3.037159,51.702428,0            -3.036113,51.701552,0            -3.035834,51.701379,0            -3.03568,51.70131,0            -3.03561,51.70132,0            -3.03557,51.70137,0            -3.03567,51.70164,0            -3.03631,51.70231,0            -3.03656,51.70277,0            -3.036907,51.703274,0            -3.03678,51.70335,0            -3.03664,51.70335,0            -3.03481,51.70233,0            -3.034447,51.702268,0            -3.034313,51.702222,0            -3.033772,51.701948,0            -3.033243,51.701678,0            -3.033082,51.701622,0            -3.03273,51.70159,0            -3.032731,51.70159,0            -3.032683,51.701569,0            -3.03258,51.70152,0            -3.03328,51.70092,0            -3.03386,51.70065,0            -3.03404,51.70066,0            -3.03448,51.70081,0            -3.03448,51.700812,0            -3.03437,51.70087,0            -3.03419,51.7009,0            -3.033967,51.700884,0            -3.033688,51.70091,0            -3.033501,51.700962,0            -3.03336,51.70104,0            -3.03326,51.70117,0            -3.033232,51.701283,0            -3.03326,51.70139,0            -3.03333,51.70149,0            -3.03349,51.7016,0            -3.03446,51.7021,0            -3.034598,51.702142,0            -3.034799,51.702162,0            -3.034944,51.70216,0            -3.035075,51.702129,0            -3.03523,51.70207,0            -3.0354,51.70195,0            -3.035461,51.70182,0            -3.03548,51.70168,0            -3.03543,51.70157,0            -3.03513,51.70138,0            -3.035375,51.701173,0            -3.035263,51.70105,0            -3.034447,51.700742,0            -3.03308,51.70039,0            -3.03206,51.700209,0            -3.03053,51.70008,0            -3.03004,51.69989,0            -3.028874,51.699336,0            -3.030041,51.69989,0            -3.030531,51.700082,0            -3.03206,51.70021,0            -3.033074,51.700387,0            -3.034445,51.700739,0            -3.035263,51.70105,0            -3.03555,51.70121,0            -3.0366,51.70125,0            -3.03697,51.70129,0            -3.03762,51.701417,0            -3.03824,51.70157,0            -3.0385,51.70159,0            -3.03832,51.70176,0            -3.03819,51.70181,0            -3.03795,51.70182,0            -3.03716,51.70243,0            -3.036113,51.701552,0            -3.035764,51.701338,0            -3.03566,51.70131,0            -3.03559,51.70134,0            -3.03556,51.70138,0            -3.035671,51.701638,0            -3.036309,51.70231,0            -3.03667,51.70295,0            -3.03691,51.70327,0            -3.03683,51.70333,0            -3.036784,51.703349,0            -3.036636,51.703349,0            -3.034815,51.702328,0            -3.034624,51.702303,0            -3.034447,51.702268,0            -3.03431,51.70222,0            -3.03324,51.70168,0            -3.03308,51.70162,0            -3.032731,51.701592,0            -3.032583,51.701517,0            -3.033283,51.70092,0            -3.033855,51.700648,0            -3.03395,51.70065,0            -3.03404,51.700658,0            -3.034482,51.700812,0            -3.03442,51.70084,0            -3.03437,51.700869,0            -3.03429,51.70089,0            -3.034195,51.700899,0            -3.033954,51.700882,0            -3.03369,51.70091,0            -3.033495,51.700964,0            -3.03334,51.70106,0            -3.033257,51.701166,0            -3.033232,51.701284,0            -3.033257,51.701387,0            -3.03336,51.70152,0            -3.0341,51.70193,0            -3.034453,51.702099,0            -3.034592,51.702142,0            -3.034801,51.702162,0            -3.034946,51.70216,0            -3.03508,51.70213,0            -3.035231,51.702071,0            -3.0354,51.701948,0            -3.035459,51.701818,0            -3.035472,51.701675,0            -3.035434,51.701575,0            -3.03522,51.701429,0            -3.03456,51.7011,0          </coordinates></LineString></Placemark><Placemark><name>Start</name><styleUrl>#icon-61-nodesc</styleUrl><Point><coordinates>            -3.028874,51.699348,0          </coordinates></Point></Placemark><Placemark><name>Finish</name><styleUrl>#icon-123-nodesc</styleUrl><Point><coordinates>            -3.034567,51.701103,0          </coordinates></Point></Placemark></Folder></Document></kml>