<?xml version="1.0" encoding="UTF-8"?><kml xmlns="http://www.opengis.net/kml/2.2"><Document><name>Portsmouth Lakeside parkrun</name><description/><Style id="icon-503-009D57-nodesc-normal"><IconStyle><color>ff579d00</color><scale>1.1</scale><Icon><href>https://www.gstatic.com/mapspro/images/stock/503-wht-blank_maps.png</href></Icon><hotSpot x="16" xunits="pixels" y="32" yunits="insetPixels"/></IconStyle><LabelStyle><scale>0</scale></LabelStyle><BalloonStyle><text><![CDATA[<h3>$[name]</h3>]]></text></BalloonStyle></Style><Style id="icon-503-009D57-nodesc-highlight"><IconStyle><color>ff579d00</color><scale>1.1</scale><Icon><href>https://www.gstatic.com/mapspro/images/stock/503-wht-blank_maps.png</href></Icon><hotSpot x="16" xunits="pixels" y="32" yunits="insetPixels"/></IconStyle><LabelStyle><scale>1.1</scale></LabelStyle><BalloonStyle><text><![CDATA[<h3>$[name]</h3>]]></text></BalloonStyle></Style><StyleMap id="icon-503-009D57-nodesc"><Pair><key>normal</key><styleUrl>#icon-503-009D57-nodesc-normal</styleUrl></Pair><Pair><key>highlight</key><styleUrl>#icon-503-009D57-nodesc-highlight</styleUrl></Pair></StyleMap><Style id="icon-503-DB4436-nodesc-normal"><IconStyle><color>ff3644db</color><scale>1.1</scale><Icon><href>https://www.gstatic.com/mapspro/images/stock/503-wht-blank_maps.png</href></Icon><hotSpot x="16" xunits="pixels" y="32" yunits="insetPixels"/></IconStyle><LabelStyle><scale>0</scale></LabelStyle><BalloonStyle><text><![CDATA[<h3>$[name]</h3>]]></text></BalloonStyle></Style><Style id="icon-503-DB4436-nodesc-highlight"><IconStyle><color>ff3644db</color><scale>1.1</scale><Icon><href>https://www.gstatic.com/mapspro/images/stock/503-wht-blank_maps.png</href></Icon><hotSpot x="16" xunits="pixels" y="32" yunits="insetPixels"/></IconStyle><LabelStyle><scale>1.1</scale></LabelStyle><BalloonStyle><text><![CDATA[<h3>$[name]</h3>]]></text></BalloonStyle></Style><StyleMap id="icon-503-DB4436-nodesc"><Pair><key>normal</key><styleUrl>#icon-503-DB4436-nodesc-normal</styleUrl></Pair><Pair><key>highlight</key><styleUrl>#icon-503-DB4436-nodesc-highlight</styleUrl></Pair></StyleMap><Style id="icon-991-nodesc-normal"><IconStyle><scale>1.1</scale><Icon><href>https://www.gstatic.com/mapspro/images/stock/991-biz-cafe.png</href></Icon></IconStyle><LabelStyle><scale>0</scale></LabelStyle><BalloonStyle><text><![CDATA[<h3>$[name]</h3>]]></text></BalloonStyle></Style><Style id="icon-991-nodesc-highlight"><IconStyle><scale>1.1</scale><Icon><href>https://www.gstatic.com/mapspro/images/stock/991-biz-cafe.png</href></Icon></IconStyle><LabelStyle><scale>1.1</scale></LabelStyle><BalloonStyle><text><![CDATA[<h3>$[name]</h3>]]></text></BalloonStyle></Style><StyleMap id="icon-991-nodesc"><Pair><key>normal</key><styleUrl>#icon-991-nodesc-normal</styleUrl></Pair><Pair><key>highlight</key><styleUrl>#icon-991-nodesc-highlight</styleUrl></Pair></StyleMap><Style id="line-4186F0-5000-nodesc-normal"><LineStyle><color>fff08641</color><width>5</width></LineStyle><BalloonStyle><text><![CDATA[<h3>$[name]</h3>]]></text></BalloonStyle></Style><Style id="line-4186F0-5000-nodesc-highlight"><LineStyle><color>fff08641</color><width>7.5</width></LineStyle><BalloonStyle><text><![CDATA[<h3>$[name]</h3>]]></text></BalloonStyle></Style><StyleMap id="line-4186F0-5000-nodesc"><Pair><key>normal</key><styleUrl>#line-4186F0-5000-nodesc-normal</styleUrl></Pair><Pair><key>highlight</key><styleUrl>#line-4186F0-5000-nodesc-highlight</styleUrl></Pair></StyleMap><Folder><name>Untitled layer</name><Placemark><name>Course</name><styleUrl>#line-4186F0-5000-nodesc</styleUrl><LineString><tessellate>1</tessellate><coordinates>            -1.081585,50.840666,0            -1.0814,50.840571,0            -1.081397,50.840482,0            -1.081609,50.840284,0            -1.081577,50.840416,0            -1.081609,50.840284,0            -1.081724,50.840158,0            -1.081628,50.839968,0            -1.081638,50.839752,0            -1.081552,50.839616,0            -1.081209,50.839521,0            -1.0789613,50.8390623,0            -1.07799,50.838868,0            -1.077411,50.838868,0            -1.076478,50.838806,0            -1.074354,50.838386,0            -1.074117,50.838468,0            -1.072926,50.838434,0            -1.074117,50.838468,0            -1.074354,50.838386,0            -1.076478,50.838806,0            -1.077411,50.838868,0            -1.07799,50.838868,0            -1.0789613,50.8390623,0            -1.07902,50.839006,0            -1.079074,50.838871,0            -1.079144,50.838715,0            -1.079214,50.838647,0            -1.079369,50.83862,0            -1.079868,50.838664,0            -1.080453,50.838702,0            -1.080903,50.838715,0            -1.081349,50.838702,0            -1.081842,50.838674,0            -1.082545,50.838634,0            -1.083017,50.838647,0            -1.08343,50.838702,0            -1.083854,50.83883,0            -1.084176,50.839013,0            -1.084696,50.839345,0            -1.085125,50.839603,0            -1.085533,50.839819,0            -1.086021,50.840023,0            -1.086574,50.840226,0            -1.087292,50.840483,0            -1.088,50.840741,0            -1.088757,50.841022,0            -1.08931,50.841215,0            -1.089701,50.841432,0            -1.090136,50.841727,0            -1.090366,50.84194,0            -1.090613,50.842248,0            -1.09071,50.842424,0            -1.090608,50.842695,0            -1.090554,50.842939,0            -1.090404,50.843234,0            -1.090232,50.843474,0            -1.08991,50.843766,0            -1.089535,50.844084,0            -1.089277,50.844247,0            -1.089079,50.844304,0            -1.088703,50.844379,0          </coordinates></LineString></Placemark><Placemark><name>Start</name><styleUrl>#icon-503-009D57-nodesc</styleUrl><Point><coordinates>            -1.08159,50.840666,0          </coordinates></Point></Placemark><Placemark><name>Finish</name><styleUrl>#icon-503-DB4436-nodesc</styleUrl><Point><coordinates>            -1.081577,50.840416,0          </coordinates></Point></Placemark><Placemark><name>cafe</name><styleUrl>#icon-991-nodesc</styleUrl><Point><coordinates>            -1.082368,50.841171,0          </coordinates></Point></Placemark></Folder></Document></kml>