<?xml version="1.0" encoding="UTF-8"?><kml xmlns="http://www.opengis.net/kml/2.2"><Document><name>Preston parkrun (from Feb 2026)</name><description/><Style id="icon-1899-0F9D58-nodesc-normal"><IconStyle><color>ff589d0f</color><scale>1</scale><Icon><href>https://www.gstatic.com/mapspro/images/stock/503-wht-blank_maps.png</href></Icon><hotSpot x="32" xunits="pixels" y="64" yunits="insetPixels"/></IconStyle><LabelStyle><scale>0</scale></LabelStyle><BalloonStyle><text><![CDATA[<h3>$[name]</h3>]]></text></BalloonStyle></Style><Style id="icon-1899-0F9D58-nodesc-highlight"><IconStyle><color>ff589d0f</color><scale>1</scale><Icon><href>https://www.gstatic.com/mapspro/images/stock/503-wht-blank_maps.png</href></Icon><hotSpot x="32" xunits="pixels" y="64" yunits="insetPixels"/></IconStyle><LabelStyle><scale>1</scale></LabelStyle><BalloonStyle><text><![CDATA[<h3>$[name]</h3>]]></text></BalloonStyle></Style><StyleMap id="icon-1899-0F9D58-nodesc"><Pair><key>normal</key><styleUrl>#icon-1899-0F9D58-nodesc-normal</styleUrl></Pair><Pair><key>highlight</key><styleUrl>#icon-1899-0F9D58-nodesc-highlight</styleUrl></Pair></StyleMap><Style id="icon-1899-FF5252-nodesc-normal"><IconStyle><color>ff5252ff</color><scale>1</scale><Icon><href>https://www.gstatic.com/mapspro/images/stock/503-wht-blank_maps.png</href></Icon><hotSpot x="32" xunits="pixels" y="64" yunits="insetPixels"/></IconStyle><LabelStyle><scale>0</scale></LabelStyle><BalloonStyle><text><![CDATA[<h3>$[name]</h3>]]></text></BalloonStyle></Style><Style id="icon-1899-FF5252-nodesc-highlight"><IconStyle><color>ff5252ff</color><scale>1</scale><Icon><href>https://www.gstatic.com/mapspro/images/stock/503-wht-blank_maps.png</href></Icon><hotSpot x="32" xunits="pixels" y="64" yunits="insetPixels"/></IconStyle><LabelStyle><scale>1</scale></LabelStyle><BalloonStyle><text><![CDATA[<h3>$[name]</h3>]]></text></BalloonStyle></Style><StyleMap id="icon-1899-FF5252-nodesc"><Pair><key>normal</key><styleUrl>#icon-1899-FF5252-nodesc-normal</styleUrl></Pair><Pair><key>highlight</key><styleUrl>#icon-1899-FF5252-nodesc-highlight</styleUrl></Pair></StyleMap><Style id="line-4186F0-5457-nodesc-normal"><LineStyle><color>fff08641</color><width>5.457</width></LineStyle><BalloonStyle><text><![CDATA[<h3>$[name]</h3>]]></text></BalloonStyle></Style><Style id="line-4186F0-5457-nodesc-highlight"><LineStyle><color>fff08641</color><width>8.1855</width></LineStyle><BalloonStyle><text><![CDATA[<h3>$[name]</h3>]]></text></BalloonStyle></Style><StyleMap id="line-4186F0-5457-nodesc"><Pair><key>normal</key><styleUrl>#line-4186F0-5457-nodesc-normal</styleUrl></Pair><Pair><key>highlight</key><styleUrl>#line-4186F0-5457-nodesc-highlight</styleUrl></Pair></StyleMap><Folder><name>Untitled layer</name><Placemark><name>Course</name><styleUrl>#line-4186F0-5457-nodesc</styleUrl><LineString><tessellate>1</tessellate><coordinates>            -2.70169,53.751926,0            -2.698267,53.752345,0            -2.697978,53.752523,0            -2.697462,53.752554,0            -2.697162,53.752611,0            -2.697055,53.752764,0            -2.697248,53.753056,0            -2.698793,53.753645,0            -2.698997,53.753753,0            -2.699469,53.753836,0            -2.699791,53.753906,0            -2.701067,53.753994,0            -2.701529,53.754013,0            -2.701861,53.753988,0            -2.702237,53.753874,0            -2.702333,53.753722,0            -2.703031,53.753227,0            -2.703621,53.752859,0            -2.705252,53.751971,0            -2.7057455,53.751674,0            -2.7061478,53.7517598,0            -2.7062417,53.7518392,0            -2.7066897,53.7518314,0            -2.7062417,53.7518392,0            -2.7061478,53.7517598,0            -2.705944,53.7517192,0            -2.7057455,53.751674,0            -2.7057977,53.7516054,0            -2.7058231,53.7515336,0            -2.7057479,53.7514042,0            -2.705804,53.7513206,0            -2.7059838,53.7511067,0            -2.706012,53.7508221,0            -2.7059758,53.7507373,0            -2.7058497,53.7507091,0            -2.7055948,53.7507286,0            -2.7050636,53.7508658,0            -2.703889,53.751292,0            -2.7029827,53.7516569,0            -2.702001,53.751888,0            -2.701507,53.751952,0            -2.701057,53.752136,0            -2.700751,53.752259,0          </coordinates></LineString></Placemark><Placemark><name>Finish</name><styleUrl>#icon-1899-FF5252-nodesc</styleUrl><Point><coordinates>            -2.700751,53.752259,0          </coordinates></Point></Placemark><Placemark><name>Start</name><styleUrl>#icon-1899-0F9D58-nodesc</styleUrl><Point><coordinates>            -2.7027629,53.7517293,0          </coordinates></Point></Placemark></Folder></Document></kml>