<?xml version="1.0" encoding="UTF-8"?><kml xmlns="http://www.opengis.net/kml/2.2"><Document><name>Prospect junior parkrun (from Jan 2025)</name><description/><Style id="icon-1899-FFEA00-nodesc-normal"><IconStyle><color>ff00eaff</color><scale>1</scale><Icon><href>https://www.gstatic.com/mapspro/images/stock/503-wht-blank_maps.png</href></Icon><hotSpot x="32" xunits="pixels" y="64" yunits="insetPixels"/></IconStyle><LabelStyle><scale>0</scale></LabelStyle><BalloonStyle><text><![CDATA[<h3>$[name]</h3>]]></text></BalloonStyle></Style><Style id="icon-1899-FFEA00-nodesc-highlight"><IconStyle><color>ff00eaff</color><scale>1</scale><Icon><href>https://www.gstatic.com/mapspro/images/stock/503-wht-blank_maps.png</href></Icon><hotSpot x="32" xunits="pixels" y="64" yunits="insetPixels"/></IconStyle><LabelStyle><scale>1</scale></LabelStyle><BalloonStyle><text><![CDATA[<h3>$[name]</h3>]]></text></BalloonStyle></Style><StyleMap id="icon-1899-FFEA00-nodesc"><Pair><key>normal</key><styleUrl>#icon-1899-FFEA00-nodesc-normal</styleUrl></Pair><Pair><key>highlight</key><styleUrl>#icon-1899-FFEA00-nodesc-highlight</styleUrl></Pair></StyleMap><Style id="line-0288D1-5650-nodesc-normal"><LineStyle><color>ffd18802</color><width>5.65</width></LineStyle><BalloonStyle><text><![CDATA[<h3>$[name]</h3>]]></text></BalloonStyle></Style><Style id="line-0288D1-5650-nodesc-highlight"><LineStyle><color>ffd18802</color><width>8.475</width></LineStyle><BalloonStyle><text><![CDATA[<h3>$[name]</h3>]]></text></BalloonStyle></Style><StyleMap id="line-0288D1-5650-nodesc"><Pair><key>normal</key><styleUrl>#line-0288D1-5650-nodesc-normal</styleUrl></Pair><Pair><key>highlight</key><styleUrl>#line-0288D1-5650-nodesc-highlight</styleUrl></Pair></StyleMap><Folder><name>Course</name><Placemark><name>Course</name><styleUrl>#line-0288D1-5650-nodesc</styleUrl><LineString><tessellate>1</tessellate><coordinates>            -1.007979,51.448296,0            -1.006942,51.448116,0            -1.00662,51.448891,0            -1.008187,51.448664,0            -1.008881,51.448452,0            -1.009372,51.448249,0            -1.01055,51.447567,0            -1.010059,51.447551,0            -1.007883,51.447153,0            -1.008071,51.446708,0            -1.008114,51.446431,0            -1.00801,51.446162,0            -1.007411,51.446198,0            -1.007221,51.447091,0            -1.00713,51.447648,0            -1.006942,51.448116,0            -1.006623,51.448891,0            -1.008192,51.448661,0            -1.008881,51.448452,0            -1.009375,51.448251,0            -1.010544,51.447567,0            -1.010051,51.447549,0            -1.007881,51.447153,0            -1.008069,51.446708,0            -1.008114,51.446432,0            -1.008007,51.44616,0            -1.007409,51.446198,0            -1.007216,51.447093,0            -1.00713,51.447648,0            -1.007594,51.447952,0            -1.008016,51.448225,0          </coordinates></LineString></Placemark><Placemark><name>Start/Finish</name><styleUrl>#icon-1899-FFEA00-nodesc</styleUrl><Point><coordinates>            -1.008027,51.4482115,0          </coordinates></Point></Placemark></Folder></Document></kml>