<?xml version="1.0" encoding="UTF-8"?><kml xmlns="http://www.opengis.net/kml/2.2"><Document><name>Rickmansworth parkrun Temporary Course (from Nov 2024)</name><description/><Style id="icon-1899-0F9D58-nodesc-normal"><IconStyle><color>ff589d0f</color><scale>1</scale><Icon><href>https://www.gstatic.com/mapspro/images/stock/503-wht-blank_maps.png</href></Icon><hotSpot x="32" xunits="pixels" y="64" yunits="insetPixels"/></IconStyle><LabelStyle><scale>0</scale></LabelStyle><BalloonStyle><text><![CDATA[<h3>$[name]</h3>]]></text></BalloonStyle></Style><Style id="icon-1899-0F9D58-nodesc-highlight"><IconStyle><color>ff589d0f</color><scale>1</scale><Icon><href>https://www.gstatic.com/mapspro/images/stock/503-wht-blank_maps.png</href></Icon><hotSpot x="32" xunits="pixels" y="64" yunits="insetPixels"/></IconStyle><LabelStyle><scale>1</scale></LabelStyle><BalloonStyle><text><![CDATA[<h3>$[name]</h3>]]></text></BalloonStyle></Style><StyleMap id="icon-1899-0F9D58-nodesc"><Pair><key>normal</key><styleUrl>#icon-1899-0F9D58-nodesc-normal</styleUrl></Pair><Pair><key>highlight</key><styleUrl>#icon-1899-0F9D58-nodesc-highlight</styleUrl></Pair></StyleMap><Style id="icon-1899-FF5252-nodesc-normal"><IconStyle><color>ff5252ff</color><scale>1</scale><Icon><href>https://www.gstatic.com/mapspro/images/stock/503-wht-blank_maps.png</href></Icon><hotSpot x="32" xunits="pixels" y="64" yunits="insetPixels"/></IconStyle><LabelStyle><scale>0</scale></LabelStyle><BalloonStyle><text><![CDATA[<h3>$[name]</h3>]]></text></BalloonStyle></Style><Style id="icon-1899-FF5252-nodesc-highlight"><IconStyle><color>ff5252ff</color><scale>1</scale><Icon><href>https://www.gstatic.com/mapspro/images/stock/503-wht-blank_maps.png</href></Icon><hotSpot x="32" xunits="pixels" y="64" yunits="insetPixels"/></IconStyle><LabelStyle><scale>1</scale></LabelStyle><BalloonStyle><text><![CDATA[<h3>$[name]</h3>]]></text></BalloonStyle></Style><StyleMap id="icon-1899-FF5252-nodesc"><Pair><key>normal</key><styleUrl>#icon-1899-FF5252-nodesc-normal</styleUrl></Pair><Pair><key>highlight</key><styleUrl>#icon-1899-FF5252-nodesc-highlight</styleUrl></Pair></StyleMap><Style id="line-0288D1-5000-nodesc-normal"><LineStyle><color>ffd18802</color><width>5</width></LineStyle><BalloonStyle><text><![CDATA[<h3>$[name]</h3>]]></text></BalloonStyle></Style><Style id="line-0288D1-5000-nodesc-highlight"><LineStyle><color>ffd18802</color><width>7.5</width></LineStyle><BalloonStyle><text><![CDATA[<h3>$[name]</h3>]]></text></BalloonStyle></Style><StyleMap id="line-0288D1-5000-nodesc"><Pair><key>normal</key><styleUrl>#line-0288D1-5000-nodesc-normal</styleUrl></Pair><Pair><key>highlight</key><styleUrl>#line-0288D1-5000-nodesc-highlight</styleUrl></Pair></StyleMap><Folder><name>Rickmansworth Parkrun Alternative Route C</name><Placemark><name>Start</name><styleUrl>#icon-1899-0F9D58-nodesc</styleUrl><Point><coordinates>            -0.47978,51.63193,44.32          </coordinates></Point></Placemark><Placemark><name>Finish</name><styleUrl>#icon-1899-FF5252-nodesc</styleUrl><Point><coordinates>            -0.4803,51.63177,44.25          </coordinates></Point></Placemark><Placemark><name>Course</name><styleUrl>#line-0288D1-5000-nodesc</styleUrl><LineString><tessellate>1</tessellate><coordinates>            -0.47978,51.63193,44.32            -0.478813346795029,51.6322466746153,44.44            -0.477846680092898,51.6325633412936,44.95            -0.47688,51.63288,45.08            -0.47651,51.63297,45.15            -0.4758,51.63305,45.34            -0.47661,51.63344,45.06            -0.47681,51.63364,44.67            -0.47738,51.63442,44.76            -0.47752,51.63461,44.83            -0.47738000400737,51.6352566667633,45.35            -0.477240004022561,51.6359033333601,45.29            -0.4771,51.63655,45.4            -0.47703,51.63659,45.4            -0.47604,51.63667,45.49            -0.47576,51.63669,45.46            -0.47571,51.63667,45.46            -0.47576,51.63669,45.46            -0.47604,51.63667,45.49            -0.47576,51.63669,45.48            -0.47514,51.63651,45.46            -0.474584996178088,51.6362100012266,45.63            -0.47403,51.63591,45.68            -0.473199993441557,51.6355450029789,45.75            -0.47237,51.63518,45.68            -0.47224,51.63514,45.58            -0.47144,51.63506,45.49            -0.47099,51.63493,45.55            -0.47072,51.6348,45.54            -0.47054,51.63465,45.54            -0.47023,51.63434,45.6            -0.470965005306724,51.6340200022415,45.67            -0.4717,51.6337,45.63            -0.47299,51.63369,45.55            -0.473,51.63369,45.54            -0.47327,51.63368,45.4            -0.474025001051614,51.6336250024109,45.39            -0.47478,51.63357,45.33            -0.47502,51.63359,45.25            -0.47523,51.63311,45.31            -0.47557,51.63307,45.35            -0.47558,51.63307,45.35            -0.4758,51.63305,45.35            -0.47661,51.63344,44.94            -0.47681,51.63364,44.76            -0.477164996226682,51.6341250005662,44.8            -0.47752,51.63461,44.83            -0.47747,51.63484,45.1            -0.47747,51.63483,45.09            -0.477285003494608,51.6356900002074,45.26            -0.4771,51.63655,45.4            -0.47703,51.63659,45.53            -0.47576,51.63669,45.48            -0.47514,51.63651,45.46            -0.4744,51.63611,45.65            -0.47403,51.63591,45.68            -0.473199993441557,51.6355450029789,45.75            -0.47237,51.63518,45.68            -0.47222,51.63514,45.52            -0.47161,51.63508,45.47            -0.47144,51.63506,45.49            -0.47099,51.63493,45.55            -0.47072,51.6348,45.54            -0.47054,51.63465,45.54            -0.47023,51.63434,45.6            -0.470965005306724,51.6340200022415,45.67            -0.4717,51.6337,45.63            -0.472485000095546,51.633690002618,45.63            -0.47327,51.63368,45.4            -0.474025001051614,51.6336250024109,45.39            -0.47478,51.63357,45.33            -0.47502,51.63359,45.25            -0.47523,51.63311,45.31            -0.4758,51.63305,45.35            -0.47612,51.6332,45.35            -0.47661,51.63344,44.94            -0.47681,51.63364,44.76            -0.477164996226682,51.6341250005662,44.8            -0.47752,51.63461,44.83            -0.477345003116448,51.6354150000824,45.35            -0.47717,51.63622,45.45            -0.47717,51.63621,45.45            -0.4771,51.63655,45.4            -0.47703,51.63659,45.53            -0.47576,51.63669,45.48            -0.47514,51.63651,45.46            -0.474584996178088,51.6362100012266,45.63            -0.47403,51.63591,45.68            -0.473354995788461,51.6356100020475,45.75            -0.47268,51.63531,45.73            -0.47237,51.63518,45.68            -0.47222,51.63514,45.52            -0.47182,51.63511,45.47            -0.47144,51.63506,45.49            -0.47099,51.63493,45.55            -0.47072,51.6348,45.54            -0.47054,51.63465,45.54            -0.47023,51.63434,45.6            -0.470965005306724,51.6340200022415,45.67            -0.4717,51.6337,45.63            -0.47276,51.63369,45.61            -0.47277,51.63369,45.61            -0.47327,51.63368,45.4            -0.474025001051614,51.6336250024109,45.39            -0.47478,51.63357,45.33            -0.47502,51.63359,45.25            -0.47523,51.63311,45.31            -0.47651,51.63297,45.28            -0.47688,51.63288,45.15            -0.47712,51.63279,45.06            -0.478180015870385,51.6324500095503,44.93            -0.479240015849965,51.6321100095567,44.38            -0.4803,51.63177,44.25          </coordinates></LineString></Placemark></Folder></Document></kml>