<?xml version="1.0" encoding="UTF-8"?><kml xmlns="http://www.opengis.net/kml/2.2"><Document><name>Riverside Park parkrun, Glenrothes</name><description/><Style id="icon-1899-0F9D58-nodesc-normal"><IconStyle><color>ff589d0f</color><scale>1</scale><Icon><href>https://www.gstatic.com/mapspro/images/stock/503-wht-blank_maps.png</href></Icon><hotSpot x="32" xunits="pixels" y="64" yunits="insetPixels"/></IconStyle><LabelStyle><scale>0</scale></LabelStyle><BalloonStyle><text><![CDATA[<h3>$[name]</h3>]]></text></BalloonStyle></Style><Style id="icon-1899-0F9D58-nodesc-highlight"><IconStyle><color>ff589d0f</color><scale>1</scale><Icon><href>https://www.gstatic.com/mapspro/images/stock/503-wht-blank_maps.png</href></Icon><hotSpot x="32" xunits="pixels" y="64" yunits="insetPixels"/></IconStyle><LabelStyle><scale>1</scale></LabelStyle><BalloonStyle><text><![CDATA[<h3>$[name]</h3>]]></text></BalloonStyle></Style><StyleMap id="icon-1899-0F9D58-nodesc"><Pair><key>normal</key><styleUrl>#icon-1899-0F9D58-nodesc-normal</styleUrl></Pair><Pair><key>highlight</key><styleUrl>#icon-1899-0F9D58-nodesc-highlight</styleUrl></Pair></StyleMap><Style id="icon-1899-FF5252-nodesc-normal"><IconStyle><color>ff5252ff</color><scale>1</scale><Icon><href>https://www.gstatic.com/mapspro/images/stock/503-wht-blank_maps.png</href></Icon><hotSpot x="32" xunits="pixels" y="64" yunits="insetPixels"/></IconStyle><LabelStyle><scale>0</scale></LabelStyle><BalloonStyle><text><![CDATA[<h3>$[name]</h3>]]></text></BalloonStyle></Style><Style id="icon-1899-FF5252-nodesc-highlight"><IconStyle><color>ff5252ff</color><scale>1</scale><Icon><href>https://www.gstatic.com/mapspro/images/stock/503-wht-blank_maps.png</href></Icon><hotSpot x="32" xunits="pixels" y="64" yunits="insetPixels"/></IconStyle><LabelStyle><scale>1</scale></LabelStyle><BalloonStyle><text><![CDATA[<h3>$[name]</h3>]]></text></BalloonStyle></Style><StyleMap id="icon-1899-FF5252-nodesc"><Pair><key>normal</key><styleUrl>#icon-1899-FF5252-nodesc-normal</styleUrl></Pair><Pair><key>highlight</key><styleUrl>#icon-1899-FF5252-nodesc-highlight</styleUrl></Pair></StyleMap><Style id="line-0288D1-5650-nodesc-normal"><LineStyle><color>ffd18802</color><width>5.65</width></LineStyle><BalloonStyle><text><![CDATA[<h3>$[name]</h3>]]></text></BalloonStyle></Style><Style id="line-0288D1-5650-nodesc-highlight"><LineStyle><color>ffd18802</color><width>8.475</width></LineStyle><BalloonStyle><text><![CDATA[<h3>$[name]</h3>]]></text></BalloonStyle></Style><StyleMap id="line-0288D1-5650-nodesc"><Pair><key>normal</key><styleUrl>#line-0288D1-5650-nodesc-normal</styleUrl></Pair><Pair><key>highlight</key><styleUrl>#line-0288D1-5650-nodesc-highlight</styleUrl></Pair></StyleMap><Folder><name>Untitled layer</name><Placemark><name>Course</name><styleUrl>#line-0288D1-5650-nodesc</styleUrl><LineString><tessellate>1</tessellate><coordinates>            -3.175161,56.200061,0            -3.175182,56.200282,0            -3.175354,56.200562,0            -3.175408,56.200741,0            -3.175526,56.20092,0            -3.17588,56.201147,0            -3.176309,56.201428,0            -3.176749,56.201613,0            -3.177188,56.201792,0            -3.177596,56.201905,0            -3.177972,56.201995,0            -3.178927,56.202036,0            -3.17972,56.20209,0            -3.180343,56.202132,0            -3.180847,56.20215,0            -3.180997,56.20215,0            -3.181341,56.20215,0            -3.181523,56.202126,0            -3.181716,56.202036,0            -3.182102,56.201893,0            -3.182574,56.201702,0            -3.182789,56.201678,0            -3.182982,56.20166,0            -3.183798,56.201458,0            -3.184463,56.20132,0            -3.185192,56.201159,0            -3.185546,56.201004,0            -3.185804,56.200891,0            -3.186372,56.200783,0            -3.187402,56.200646,0            -3.1881,56.200628,0            -3.188443,56.200586,0            -3.18899,56.200574,0            -3.189205,56.200628,0            -3.18913,56.200819,0            -3.189194,56.20101,0            -3.189387,56.201129,0            -3.18973,56.201225,0            -3.19017,56.201302,0            -3.190675,56.201404,0            -3.191125,56.201523,0            -3.191394,56.201571,0            -3.191479,56.201476,0            -3.191662,56.201338,0            -3.191908,56.201273,0            -3.19222,56.20132,0            -3.192563,56.20135,0            -3.192853,56.201398,0            -3.192359,56.201786,0            -3.192102,56.201965,0            -3.191233,56.201822,0            -3.190213,56.201577,0            -3.189677,56.20147,0            -3.189022,56.20132,0            -3.188679,56.201213,0            -3.188411,56.201123,0            -3.188175,56.201022,0            -3.187939,56.200974,0            -3.187692,56.200956,0            -3.1873063,56.2014354,0            -3.187178,56.202058,0            -3.1873063,56.2014354,0            -3.187692,56.200956,0            -3.186877,56.200974,0            -3.186458,56.20104,0            -3.185879,56.201153,0            -3.184388,56.201589,0            -3.184227,56.202066,0            -3.184377,56.20209,0            -3.184913,56.201834,0            -3.185471,56.201828,0            -3.185857,56.201792,0            -3.186212,56.201738,0            -3.18663,56.201798,0            -3.186952,56.201875,0            -3.187177,56.202054,0            -3.18736,56.202186,0            -3.187939,56.202371,0            -3.188121,56.202454,0            -3.188325,56.202532,0            -3.18854,56.20255,0            -3.188776,56.202598,0            -3.189055,56.202639,0            -3.18943,56.202771,0            -3.189645,56.202866,0            -3.189924,56.202968,0            -3.190106,56.203123,0            -3.190256,56.20317,0            -3.191318,56.203176,0            -3.191973,56.203176,0            -3.192306,56.203117,0            -3.192306,56.202997,0            -3.192316,56.202765,0            -3.192241,56.202633,0            -3.192209,56.202448,0            -3.192166,56.202329,0            -3.192091,56.202198,0            -3.192059,56.202048,0            -3.192091,56.201971,0          </coordinates></LineString></Placemark><Placemark><name>Start</name><styleUrl>#icon-1899-0F9D58-nodesc</styleUrl><Point><coordinates>            -3.175161,56.200061,0          </coordinates></Point></Placemark><Placemark><name>Finish</name><styleUrl>#icon-1899-FF5252-nodesc</styleUrl><Point><coordinates>            -3.175408,56.200741,0          </coordinates></Point></Placemark></Folder></Document></kml>