<?xml version="1.0" encoding="UTF-8"?><kml xmlns="http://www.opengis.net/kml/2.2"><Document><name>Rogiet parkrun</name><description/><Style id="icon-1899-097138-nodesc-normal"><IconStyle><color>ff387109</color><scale>1</scale><Icon><href>https://www.gstatic.com/mapspro/images/stock/503-wht-blank_maps.png</href></Icon><hotSpot x="32" xunits="pixels" y="64" yunits="insetPixels"/></IconStyle><LabelStyle><scale>0</scale></LabelStyle><BalloonStyle><text><![CDATA[<h3>$[name]</h3>]]></text></BalloonStyle></Style><Style id="icon-1899-097138-nodesc-highlight"><IconStyle><color>ff387109</color><scale>1</scale><Icon><href>https://www.gstatic.com/mapspro/images/stock/503-wht-blank_maps.png</href></Icon><hotSpot x="32" xunits="pixels" y="64" yunits="insetPixels"/></IconStyle><LabelStyle><scale>1</scale></LabelStyle><BalloonStyle><text><![CDATA[<h3>$[name]</h3>]]></text></BalloonStyle></Style><StyleMap id="icon-1899-097138-nodesc"><Pair><key>normal</key><styleUrl>#icon-1899-097138-nodesc-normal</styleUrl></Pair><Pair><key>highlight</key><styleUrl>#icon-1899-097138-nodesc-highlight</styleUrl></Pair></StyleMap><Style id="icon-1899-E65100-nodesc-normal"><IconStyle><color>ff0051e6</color><scale>1</scale><Icon><href>https://www.gstatic.com/mapspro/images/stock/503-wht-blank_maps.png</href></Icon><hotSpot x="32" xunits="pixels" y="64" yunits="insetPixels"/></IconStyle><LabelStyle><scale>0</scale></LabelStyle><BalloonStyle><text><![CDATA[<h3>$[name]</h3>]]></text></BalloonStyle></Style><Style id="icon-1899-E65100-nodesc-highlight"><IconStyle><color>ff0051e6</color><scale>1</scale><Icon><href>https://www.gstatic.com/mapspro/images/stock/503-wht-blank_maps.png</href></Icon><hotSpot x="32" xunits="pixels" y="64" yunits="insetPixels"/></IconStyle><LabelStyle><scale>1</scale></LabelStyle><BalloonStyle><text><![CDATA[<h3>$[name]</h3>]]></text></BalloonStyle></Style><StyleMap id="icon-1899-E65100-nodesc"><Pair><key>normal</key><styleUrl>#icon-1899-E65100-nodesc-normal</styleUrl></Pair><Pair><key>highlight</key><styleUrl>#icon-1899-E65100-nodesc-highlight</styleUrl></Pair></StyleMap><Style id="line-0288D1-5263-nodesc-normal"><LineStyle><color>ffd18802</color><width>5.263</width></LineStyle><BalloonStyle><text><![CDATA[<h3>$[name]</h3>]]></text></BalloonStyle></Style><Style id="line-0288D1-5263-nodesc-highlight"><LineStyle><color>ffd18802</color><width>7.8945</width></LineStyle><BalloonStyle><text><![CDATA[<h3>$[name]</h3>]]></text></BalloonStyle></Style><StyleMap id="line-0288D1-5263-nodesc"><Pair><key>normal</key><styleUrl>#line-0288D1-5263-nodesc-normal</styleUrl></Pair><Pair><key>highlight</key><styleUrl>#line-0288D1-5263-nodesc-highlight</styleUrl></Pair></StyleMap><Folder><name>Untitled layer</name><Placemark><name>Course</name><styleUrl>#line-0288D1-5263-nodesc</styleUrl><LineString><tessellate>1</tessellate><coordinates>            -2.779777,51.583313,0            -2.779959,51.583247,0            -2.78012,51.583288,0            -2.780356,51.58335,0            -2.780657,51.583408,0            -2.780751,51.583407,0            -2.780952,51.583397,0            -2.781153,51.583408,0            -2.781344,51.583442,0            -2.781486,51.583488,0            -2.781673,51.583523,0            -2.781869,51.583567,0            -2.78195,51.58357,0            -2.782127,51.583567,0            -2.782325,51.583563,0            -2.782481,51.583562,0            -2.782706,51.583572,0            -2.782819,51.583565,0            -2.782934,51.583553,0            -2.783095,51.583557,0            -2.783272,51.58354,0            -2.783554,51.583522,0            -2.783669,51.583537,0            -2.783878,51.583557,0            -2.784082,51.583552,0            -2.78509,51.583328,0            -2.785335,51.583293,0            -2.785541,51.583308,0            -2.78574,51.583345,0            -2.785976,51.583425,0            -2.786198,51.583478,0            -2.786448,51.583492,0            -2.786719,51.583462,0            -2.787043,51.583438,0            -2.787204,51.58345,0            -2.787427,51.583482,0            -2.787545,51.583475,0            -2.78773,51.583452,0            -2.787848,51.583457,0            -2.788001,51.5835,0            -2.788186,51.5835,0            -2.788478,51.583512,0            -2.788674,51.583507,0            -2.788784,51.583528,0            -2.78891,51.583515,0            -2.789567,51.583488,0            -2.790388,51.583522,0            -2.790889,51.583537,0            -2.791404,51.583548,0            -2.791568,51.583548,0            -2.791673,51.58354,0            -2.791659,51.583512,0            -2.79159,51.58349,0            -2.791469,51.583497,0            -2.791321,51.583483,0            -2.791203,51.583448,0            -2.791099,51.583423,0            -2.790951,51.583415,0            -2.790852,51.583395,0            -2.790621,51.583368,0            -2.790318,51.583345,0            -2.790007,51.583323,0            -2.7899,51.583333,0            -2.789728,51.583315,0            -2.789511,51.583298,0            -2.789398,51.583302,0            -2.789245,51.583292,0            -2.789103,51.583295,0            -2.788934,51.583308,0            -2.788781,51.583308,0            -2.788277,51.58317,0            -2.788151,51.583142,0            -2.788081,51.583115,0            -2.787995,51.583105,0            -2.78795,51.583085,0            -2.787867,51.583077,0            -2.787808,51.583072,0            -2.787716,51.583088,0            -2.78762,51.583092,0            -2.787502,51.583095,0            -2.787424,51.583112,0            -2.78733,51.583118,0            -2.787223,51.58313,0            -2.787038,51.583145,0            -2.78688,51.58317,0            -2.784597,51.583042,0            -2.78442,51.58307,0            -2.784165,51.583135,0            -2.783618,51.583372,0            -2.783385,51.583488,0            -2.783218,51.58354,0            -2.783151,51.583542,0            -2.783057,51.583548,0            -2.78291,51.583548,0            -2.782846,51.583557,0            -2.78266,51.583562,0            -2.782524,51.583557,0            -2.782416,51.583547,0            -2.782352,51.583528,0            -2.782341,51.583483,0            -2.782408,51.583395,0            -2.782432,51.583333,0            -2.782419,51.583277,0            -2.782371,51.583215,0            -2.782301,51.583165,0            -2.782229,51.583133,0            -2.782129,51.58311,0            -2.782014,51.583108,0            -2.781794,51.583115,0            -2.781698,51.583138,0            -2.781604,51.583128,0            -2.781483,51.583148,0            -2.781392,51.583152,0            -2.781225,51.583162,0            -2.781118,51.583168,0            -2.780957,51.583182,0            -2.780944,51.58313,0            -2.78089,51.583097,0            -2.780791,51.583087,0            -2.780681,51.583105,0            -2.780359,51.583143,0            -2.780107,51.583175,0            -2.779941,51.583195,0            -2.779962,51.58325,0            -2.779769,51.583427,0          </coordinates></LineString></Placemark><Placemark><name>Start</name><styleUrl>#icon-1899-097138-nodesc</styleUrl><Point><coordinates>            -2.779777,51.583313,0          </coordinates></Point></Placemark><Placemark><name>Finish</name><styleUrl>#icon-1899-E65100-nodesc</styleUrl><Point><coordinates>            -2.779769,51.583427,0          </coordinates></Point></Placemark></Folder></Document></kml>