<?xml version="1.0" encoding="UTF-8"?><kml xmlns="http://www.opengis.net/kml/2.2"><Document><name>Roundhay Juniors parkrun - summer route</name><description>The course goes anticlockwise for 1.8 laps.</description><Style id="icon-123-nodesc-normal"><IconStyle><scale>1.1</scale><Icon><href>https://www.gstatic.com/mapspro/images/stock/123-red-dot.png</href></Icon><hotSpot x="16" xunits="pixels" y="32" yunits="insetPixels"/></IconStyle><LabelStyle><scale>0</scale></LabelStyle><BalloonStyle><text><![CDATA[<h3>$[name]</h3>]]></text></BalloonStyle></Style><Style id="icon-123-nodesc-highlight"><IconStyle><scale>1.1</scale><Icon><href>https://www.gstatic.com/mapspro/images/stock/123-red-dot.png</href></Icon><hotSpot x="16" xunits="pixels" y="32" yunits="insetPixels"/></IconStyle><LabelStyle><scale>1.1</scale></LabelStyle><BalloonStyle><text><![CDATA[<h3>$[name]</h3>]]></text></BalloonStyle></Style><StyleMap id="icon-123-nodesc"><Pair><key>normal</key><styleUrl>#icon-123-nodesc-normal</styleUrl></Pair><Pair><key>highlight</key><styleUrl>#icon-123-nodesc-highlight</styleUrl></Pair></StyleMap><Style id="icon-61-nodesc-normal"><IconStyle><scale>1.1</scale><Icon><href>https://www.gstatic.com/mapspro/images/stock/61-green-dot.png</href></Icon><hotSpot x="16" xunits="pixels" y="32" yunits="insetPixels"/></IconStyle><LabelStyle><scale>0</scale></LabelStyle><BalloonStyle><text><![CDATA[<h3>$[name]</h3>]]></text></BalloonStyle></Style><Style id="icon-61-nodesc-highlight"><IconStyle><scale>1.1</scale><Icon><href>https://www.gstatic.com/mapspro/images/stock/61-green-dot.png</href></Icon><hotSpot x="16" xunits="pixels" y="32" yunits="insetPixels"/></IconStyle><LabelStyle><scale>1.1</scale></LabelStyle><BalloonStyle><text><![CDATA[<h3>$[name]</h3>]]></text></BalloonStyle></Style><StyleMap id="icon-61-nodesc"><Pair><key>normal</key><styleUrl>#icon-61-nodesc-normal</styleUrl></Pair><Pair><key>highlight</key><styleUrl>#icon-61-nodesc-highlight</styleUrl></Pair></StyleMap><Style id="line-0000FF-5000-nodesc-normal"><LineStyle><color>ffff0000</color><width>5</width></LineStyle><BalloonStyle><text><![CDATA[<h3>$[name]</h3>]]></text></BalloonStyle></Style><Style id="line-0000FF-5000-nodesc-highlight"><LineStyle><color>ffff0000</color><width>7.5</width></LineStyle><BalloonStyle><text><![CDATA[<h3>$[name]</h3>]]></text></BalloonStyle></Style><StyleMap id="line-0000FF-5000-nodesc"><Pair><key>normal</key><styleUrl>#line-0000FF-5000-nodesc-normal</styleUrl></Pair><Pair><key>highlight</key><styleUrl>#line-0000FF-5000-nodesc-highlight</styleUrl></Pair></StyleMap><Folder><name>Untitled layer</name><Placemark><name>Course</name><styleUrl>#line-0000FF-5000-nodesc</styleUrl><LineString><tessellate>1</tessellate><coordinates>            -1.497779,53.837164,0            -1.498616,53.838241,0            -1.498503,53.838342,0            -1.498433,53.838427,0            -1.498325,53.838475,0            -1.498294,53.838518,0            -1.498299,53.838554,0            -1.498589,53.838625,0            -1.498648,53.838625,0            -1.498809,53.838594,0            -1.498873,53.838625,0            -1.498943,53.838621,0            -1.49897,53.838597,0            -1.498993,53.838561,0            -1.498937,53.838527,0            -1.498885,53.838517,0            -1.498841,53.838532,0            -1.498803,53.838577,0            -1.498809,53.838595,0            -1.498872,53.838623,0            -1.498907,53.838624,0            -1.498942,53.838617,0            -1.49897,53.838596,0            -1.498995,53.838562,0            -1.499092,53.838548,0            -1.499442,53.838617,0            -1.499892,53.838747,0            -1.500304,53.83896,0            -1.500949,53.838826,0            -1.501678,53.838683,0            -1.50302,53.838549,0            -1.503571,53.838456,0            -1.503776,53.838374,0            -1.503792,53.838316,0            -1.503626,53.838222,0            -1.502494,53.837971,0            -1.501888,53.837831,0            -1.501621,53.837793,0            -1.501308,53.837719,0            -1.500783,53.837437,0            -1.500273,53.837675,0            -1.49994,53.837796,0            -1.499596,53.837853,0            -1.499366,53.837854,0            -1.499098,53.837809,0            -1.498786,53.837668,0            -1.498615,53.837491,0            -1.498454,53.837184,0            -1.498288,53.836861,0            -1.498201,53.836747,0            -1.498016,53.836645,0            -1.497763,53.836594,0            -1.497515,53.836585,0            -1.497306,53.83666,0            -1.497779,53.837164,0          </coordinates></LineString></Placemark><Placemark><name>Finish</name><styleUrl>#icon-123-nodesc</styleUrl><Point><coordinates>            -1.499124,53.837816,0          </coordinates></Point></Placemark><Placemark><name>Start</name><styleUrl>#icon-61-nodesc</styleUrl><Point><coordinates>            -1.4981,53.837571,0          </coordinates></Point></Placemark></Folder></Document></kml>