<?xml version="1.0" encoding="UTF-8"?><kml xmlns="http://www.opengis.net/kml/2.2"><Document><name>Rushcliffe parkrun</name><description/><Style id="icon-1534-0288D1-nodesc-normal"><IconStyle><color>ffd18802</color><scale>1</scale><Icon><href>https://www.gstatic.com/mapspro/images/stock/503-wht-blank_maps.png</href></Icon></IconStyle><LabelStyle><scale>0</scale></LabelStyle><BalloonStyle><text><![CDATA[<h3>$[name]</h3>]]></text></BalloonStyle></Style><Style id="icon-1534-0288D1-nodesc-highlight"><IconStyle><color>ffd18802</color><scale>1</scale><Icon><href>https://www.gstatic.com/mapspro/images/stock/503-wht-blank_maps.png</href></Icon></IconStyle><LabelStyle><scale>1</scale></LabelStyle><BalloonStyle><text><![CDATA[<h3>$[name]</h3>]]></text></BalloonStyle></Style><StyleMap id="icon-1534-0288D1-nodesc"><Pair><key>normal</key><styleUrl>#icon-1534-0288D1-nodesc-normal</styleUrl></Pair><Pair><key>highlight</key><styleUrl>#icon-1534-0288D1-nodesc-highlight</styleUrl></Pair></StyleMap><Style id="icon-1644-0288D1-nodesc-normal"><IconStyle><color>ffd18802</color><scale>1</scale><Icon><href>https://www.gstatic.com/mapspro/images/stock/503-wht-blank_maps.png</href></Icon></IconStyle><LabelStyle><scale>0</scale></LabelStyle><BalloonStyle><text><![CDATA[<h3>$[name]</h3>]]></text></BalloonStyle></Style><Style id="icon-1644-0288D1-nodesc-highlight"><IconStyle><color>ffd18802</color><scale>1</scale><Icon><href>https://www.gstatic.com/mapspro/images/stock/503-wht-blank_maps.png</href></Icon></IconStyle><LabelStyle><scale>1</scale></LabelStyle><BalloonStyle><text><![CDATA[<h3>$[name]</h3>]]></text></BalloonStyle></Style><StyleMap id="icon-1644-0288D1-nodesc"><Pair><key>normal</key><styleUrl>#icon-1644-0288D1-nodesc-normal</styleUrl></Pair><Pair><key>highlight</key><styleUrl>#icon-1644-0288D1-nodesc-highlight</styleUrl></Pair></StyleMap><Style id="icon-1733-0288D1-nodesc-normal"><IconStyle><color>ffd18802</color><scale>1</scale><Icon><href>https://www.gstatic.com/mapspro/images/stock/503-wht-blank_maps.png</href></Icon></IconStyle><LabelStyle><scale>0</scale></LabelStyle><BalloonStyle><text><![CDATA[<h3>$[name]</h3>]]></text></BalloonStyle></Style><Style id="icon-1733-0288D1-nodesc-highlight"><IconStyle><color>ffd18802</color><scale>1</scale><Icon><href>https://www.gstatic.com/mapspro/images/stock/503-wht-blank_maps.png</href></Icon></IconStyle><LabelStyle><scale>1</scale></LabelStyle><BalloonStyle><text><![CDATA[<h3>$[name]</h3>]]></text></BalloonStyle></Style><StyleMap id="icon-1733-0288D1-nodesc"><Pair><key>normal</key><styleUrl>#icon-1733-0288D1-nodesc-normal</styleUrl></Pair><Pair><key>highlight</key><styleUrl>#icon-1733-0288D1-nodesc-highlight</styleUrl></Pair></StyleMap><Style id="icon-1899-0F9D58-nodesc-normal"><IconStyle><color>ff589d0f</color><scale>1</scale><Icon><href>https://www.gstatic.com/mapspro/images/stock/503-wht-blank_maps.png</href></Icon><hotSpot x="32" xunits="pixels" y="64" yunits="insetPixels"/></IconStyle><LabelStyle><scale>0</scale></LabelStyle><BalloonStyle><text><![CDATA[<h3>$[name]</h3>]]></text></BalloonStyle></Style><Style id="icon-1899-0F9D58-nodesc-highlight"><IconStyle><color>ff589d0f</color><scale>1</scale><Icon><href>https://www.gstatic.com/mapspro/images/stock/503-wht-blank_maps.png</href></Icon><hotSpot x="32" xunits="pixels" y="64" yunits="insetPixels"/></IconStyle><LabelStyle><scale>1</scale></LabelStyle><BalloonStyle><text><![CDATA[<h3>$[name]</h3>]]></text></BalloonStyle></Style><StyleMap id="icon-1899-0F9D58-nodesc"><Pair><key>normal</key><styleUrl>#icon-1899-0F9D58-nodesc-normal</styleUrl></Pair><Pair><key>highlight</key><styleUrl>#icon-1899-0F9D58-nodesc-highlight</styleUrl></Pair></StyleMap><Style id="icon-1899-FF5252-nodesc-normal"><IconStyle><color>ff5252ff</color><scale>1</scale><Icon><href>https://www.gstatic.com/mapspro/images/stock/503-wht-blank_maps.png</href></Icon><hotSpot x="32" xunits="pixels" y="64" yunits="insetPixels"/></IconStyle><LabelStyle><scale>0</scale></LabelStyle><BalloonStyle><text><![CDATA[<h3>$[name]</h3>]]></text></BalloonStyle></Style><Style id="icon-1899-FF5252-nodesc-highlight"><IconStyle><color>ff5252ff</color><scale>1</scale><Icon><href>https://www.gstatic.com/mapspro/images/stock/503-wht-blank_maps.png</href></Icon><hotSpot x="32" xunits="pixels" y="64" yunits="insetPixels"/></IconStyle><LabelStyle><scale>1</scale></LabelStyle><BalloonStyle><text><![CDATA[<h3>$[name]</h3>]]></text></BalloonStyle></Style><StyleMap id="icon-1899-FF5252-nodesc"><Pair><key>normal</key><styleUrl>#icon-1899-FF5252-nodesc-normal</styleUrl></Pair><Pair><key>highlight</key><styleUrl>#icon-1899-FF5252-nodesc-highlight</styleUrl></Pair></StyleMap><Style id="line-4186F0-5263-nodesc-normal"><LineStyle><color>fff08641</color><width>5.263</width></LineStyle><BalloonStyle><text><![CDATA[<h3>$[name]</h3>]]></text></BalloonStyle></Style><Style id="line-4186F0-5263-nodesc-highlight"><LineStyle><color>fff08641</color><width>7.8945</width></LineStyle><BalloonStyle><text><![CDATA[<h3>$[name]</h3>]]></text></BalloonStyle></Style><StyleMap id="line-4186F0-5263-nodesc"><Pair><key>normal</key><styleUrl>#line-4186F0-5263-nodesc-normal</styleUrl></Pair><Pair><key>highlight</key><styleUrl>#line-4186F0-5263-nodesc-highlight</styleUrl></Pair></StyleMap><Folder><name>Rushcliffe parkrun</name><Placemark><name>course</name><styleUrl>#line-4186F0-5263-nodesc</styleUrl><LineString><tessellate>1</tessellate><coordinates>            -1.153539,52.88403,0            -1.15311,52.884022,0            -1.152636,52.883977,0            -1.152302,52.883916,0            -1.152119,52.883889,0            -1.151803,52.883904,0            -1.151298,52.883962,0            -1.150989,52.883722,0            -1.15056,52.883539,0            -1.150175,52.883466,0            -1.150074,52.8832666,0            -1.149951,52.8831362,0            -1.149812,52.883039,0            -1.1495572,52.8829366,0            -1.149238,52.882818,0            -1.1495572,52.8829366,0            -1.149812,52.883039,0            -1.149951,52.8831362,0            -1.150074,52.8832666,0            -1.150175,52.883466,0            -1.149916,52.883554,0            -1.149102,52.883714,0            -1.148843,52.883703,0            -1.148616,52.883634,0            -1.148424,52.883546,0            -1.14821,52.883524,0            -1.147755,52.883566,0            -1.14749,52.883592,0            -1.147111,52.883573,0            -1.146947,52.883535,0            -1.146808,52.883451,0            -1.146771,52.88336,0            -1.146808,52.883192,0            -1.146941,52.883013,0            -1.14696,52.882892,0            -1.147048,52.88274,0            -1.147174,52.882587,0            -1.147231,52.882427,0            -1.147231,52.882191,0            -1.14725,52.882012,0            -1.147162,52.881831,0            -1.147111,52.881751,0            -1.147149,52.881619,0            -1.147307,52.88144,0            -1.147149,52.880902,0            -1.147023,52.880414,0            -1.146992,52.880303,0            -1.147111,52.88001,0            -1.147212,52.879831,0            -1.147326,52.879713,0            -1.147408,52.879648,0            -1.147957,52.879447,0            -1.148077,52.879431,0            -1.148979,52.879447,0            -1.149661,52.879488,0            -1.151005,52.879645,0            -1.151106,52.879652,0            -1.151554,52.879565,0            -1.151756,52.87955,0            -1.15199,52.879595,0            -1.153429,52.880132,0            -1.153751,52.880501,0            -1.154262,52.880802,0            -1.15466,52.881064,0            -1.155367,52.881443,0            -1.155474,52.881454,0            -1.156067,52.88126,0            -1.156225,52.881248,0            -1.156446,52.881264,0            -1.156641,52.881332,0            -1.15678,52.881481,0            -1.156957,52.881782,0            -1.157137,52.881919,0            -1.157608,52.88216,0            -1.157829,52.882274,0            -1.158012,52.882415,0            -1.158056,52.882476,0            -1.158241,52.882792,0            -1.158341,52.883175,0            -1.158347,52.883479,0            -1.158322,52.883594,0            -1.158152,52.883826,0            -1.157937,52.884066,0            -1.157722,52.884283,0            -1.157527,52.884458,0            -1.157249,52.884588,0            -1.156921,52.884734,0            -1.156239,52.884864,0            -1.155684,52.884795,0            -1.155299,52.884753,0            -1.154984,52.884685,0            -1.154813,52.88462,0            -1.154712,52.884532,0            -1.154624,52.884403,0            -1.154516,52.884277,0            -1.154302,52.884163,0            -1.153993,52.884094,0            -1.153627,52.884034,0            -1.153539,52.88403,0          </coordinates></LineString></Placemark><Placemark><name>Start</name><styleUrl>#icon-1899-0F9D58-nodesc</styleUrl><Point><coordinates>            -1.152838,52.884,0          </coordinates></Point></Placemark><Placemark><name>Finish</name><styleUrl>#icon-1899-FF5252-nodesc</styleUrl><Point><coordinates>            -1.149238,52.882818,0          </coordinates></Point></Placemark><Placemark><name>Toilets</name><styleUrl>#icon-1733-0288D1-nodesc</styleUrl><Point><coordinates>            -1.146668,52.883586,0          </coordinates></Point></Placemark><Placemark><name>Cafe</name><styleUrl>#icon-1534-0288D1-nodesc</styleUrl><Point><coordinates>            -1.146908,52.883609,0          </coordinates></Point></Placemark><Placemark><name>Parking</name><styleUrl>#icon-1644-0288D1-nodesc</styleUrl><Point><coordinates>            -1.147356,52.884077,0          </coordinates></Point></Placemark></Folder></Document></kml>