<?xml version="1.0" encoding="UTF-8"?><kml xmlns="http://www.opengis.net/kml/2.2"><Document><name>Rutland Water junior parkrun</name><description/><Style id="icon-1899-FFD600-nodesc-normal"><IconStyle><color>ff00d6ff</color><scale>1</scale><Icon><href>https://www.gstatic.com/mapspro/images/stock/503-wht-blank_maps.png</href></Icon><hotSpot x="32" xunits="pixels" y="64" yunits="insetPixels"/></IconStyle><LabelStyle><scale>0</scale></LabelStyle><BalloonStyle><text><![CDATA[<h3>$[name]</h3>]]></text></BalloonStyle></Style><Style id="icon-1899-FFD600-nodesc-highlight"><IconStyle><color>ff00d6ff</color><scale>1</scale><Icon><href>https://www.gstatic.com/mapspro/images/stock/503-wht-blank_maps.png</href></Icon><hotSpot x="32" xunits="pixels" y="64" yunits="insetPixels"/></IconStyle><LabelStyle><scale>1</scale></LabelStyle><BalloonStyle><text><![CDATA[<h3>$[name]</h3>]]></text></BalloonStyle></Style><StyleMap id="icon-1899-FFD600-nodesc"><Pair><key>normal</key><styleUrl>#icon-1899-FFD600-nodesc-normal</styleUrl></Pair><Pair><key>highlight</key><styleUrl>#icon-1899-FFD600-nodesc-highlight</styleUrl></Pair></StyleMap><Style id="line-0288D1-4875-nodesc-normal"><LineStyle><color>ffd18802</color><width>4.875</width></LineStyle><BalloonStyle><text><![CDATA[<h3>$[name]</h3>]]></text></BalloonStyle></Style><Style id="line-0288D1-4875-nodesc-highlight"><LineStyle><color>ffd18802</color><width>7.3125</width></LineStyle><BalloonStyle><text><![CDATA[<h3>$[name]</h3>]]></text></BalloonStyle></Style><StyleMap id="line-0288D1-4875-nodesc"><Pair><key>normal</key><styleUrl>#line-0288D1-4875-nodesc-normal</styleUrl></Pair><Pair><key>highlight</key><styleUrl>#line-0288D1-4875-nodesc-highlight</styleUrl></Pair></StyleMap><Folder><name>Untitled layer</name><Placemark><name><![CDATA[Start & Finish]]></name><styleUrl>#icon-1899-FFD600-nodesc</styleUrl><Point><coordinates>            -0.6212,52.645954,0          </coordinates></Point></Placemark><Placemark><name>Course</name><styleUrl>#line-0288D1-4875-nodesc</styleUrl><LineString><tessellate>1</tessellate><coordinates>            -0.6212,52.645954,0            -0.621009,52.646224,0            -0.62086,52.646433,0            -0.620706,52.646642,0            -0.620567,52.64685,0            -0.620449,52.647034,0            -0.620309,52.647314,0            -0.620191,52.647633,0            -0.619838,52.647981,0            -0.619645,52.648149,0            -0.619412,52.648321,0            -0.619183,52.648494,0            -0.618928,52.648687,0            -0.618389,52.649035,0            -0.617365,52.649729,0            -0.618381,52.649026,0            -0.618907,52.648674,0            -0.61917,52.648484,0            -0.619459,52.648264,0            -0.619711,52.648062,0            -0.619825,52.647958,0            -0.619942,52.647855,0            -0.620166,52.647628,0            -0.620227,52.647482,0            -0.620278,52.647335,0            -0.620378,52.647104,0            -0.62043,52.647017,0            -0.620533,52.646835,0            -0.620675,52.646621,0            -0.620832,52.646425,0            -0.620974,52.646216,0            -0.621186,52.645946,0          </coordinates></LineString></Placemark></Folder></Document></kml>