<?xml version="1.0" encoding="UTF-8"?><kml xmlns="http://www.opengis.net/kml/2.2"><Document><name>Saltaire junior parkrun</name><description/><Style id="icon-503-62AF44-nodesc-normal"><IconStyle><color>ff44af62</color><scale>1.1</scale><Icon><href>https://www.gstatic.com/mapspro/images/stock/503-wht-blank_maps.png</href></Icon><hotSpot x="16" xunits="pixels" y="32" yunits="insetPixels"/></IconStyle><LabelStyle><scale>0</scale></LabelStyle><BalloonStyle><text><![CDATA[<h3>$[name]</h3>]]></text></BalloonStyle></Style><Style id="icon-503-62AF44-nodesc-highlight"><IconStyle><color>ff44af62</color><scale>1.1</scale><Icon><href>https://www.gstatic.com/mapspro/images/stock/503-wht-blank_maps.png</href></Icon><hotSpot x="16" xunits="pixels" y="32" yunits="insetPixels"/></IconStyle><LabelStyle><scale>1.1</scale></LabelStyle><BalloonStyle><text><![CDATA[<h3>$[name]</h3>]]></text></BalloonStyle></Style><StyleMap id="icon-503-62AF44-nodesc"><Pair><key>normal</key><styleUrl>#icon-503-62AF44-nodesc-normal</styleUrl></Pair><Pair><key>highlight</key><styleUrl>#icon-503-62AF44-nodesc-highlight</styleUrl></Pair></StyleMap><Style id="icon-503-DB4436-nodesc-normal"><IconStyle><color>ff3644db</color><scale>1.1</scale><Icon><href>https://www.gstatic.com/mapspro/images/stock/503-wht-blank_maps.png</href></Icon><hotSpot x="16" xunits="pixels" y="32" yunits="insetPixels"/></IconStyle><LabelStyle><scale>0</scale></LabelStyle><BalloonStyle><text><![CDATA[<h3>$[name]</h3>]]></text></BalloonStyle></Style><Style id="icon-503-DB4436-nodesc-highlight"><IconStyle><color>ff3644db</color><scale>1.1</scale><Icon><href>https://www.gstatic.com/mapspro/images/stock/503-wht-blank_maps.png</href></Icon><hotSpot x="16" xunits="pixels" y="32" yunits="insetPixels"/></IconStyle><LabelStyle><scale>1.1</scale></LabelStyle><BalloonStyle><text><![CDATA[<h3>$[name]</h3>]]></text></BalloonStyle></Style><StyleMap id="icon-503-DB4436-nodesc"><Pair><key>normal</key><styleUrl>#icon-503-DB4436-nodesc-normal</styleUrl></Pair><Pair><key>highlight</key><styleUrl>#icon-503-DB4436-nodesc-highlight</styleUrl></Pair></StyleMap><Style id="line-4186F0-4509-nodesc-normal"><LineStyle><color>fff08641</color><width>4.509</width></LineStyle><BalloonStyle><text><![CDATA[<h3>$[name]</h3>]]></text></BalloonStyle></Style><Style id="line-4186F0-4509-nodesc-highlight"><LineStyle><color>fff08641</color><width>6.7635</width></LineStyle><BalloonStyle><text><![CDATA[<h3>$[name]</h3>]]></text></BalloonStyle></Style><StyleMap id="line-4186F0-4509-nodesc"><Pair><key>normal</key><styleUrl>#line-4186F0-4509-nodesc-normal</styleUrl></Pair><Pair><key>highlight</key><styleUrl>#line-4186F0-4509-nodesc-highlight</styleUrl></Pair></StyleMap><Folder><name>Saltaire junior parkrun</name><Placemark><name>Course</name><styleUrl>#line-4186F0-4509-nodesc</styleUrl><LineString><tessellate>1</tessellate><coordinates>            -1.791957,53.841267,0            -1.79104,53.84113,0            -1.790101,53.840994,0            -1.789548,53.840909,0            -1.789243,53.840868,0            -1.789162,53.841013,0            -1.789146,53.841067,0            -1.789151,53.84113,0            -1.789168,53.841203,0            -1.789205,53.841276,0            -1.789243,53.841349,0            -1.789329,53.841422,0            -1.789398,53.841456,0            -1.789479,53.841488,0            -1.789597,53.841513,0            -1.78972,53.84152,0            -1.78987,53.841507,0            -1.789908,53.841501,0            -1.789978,53.841561,0            -1.790096,53.841615,0            -1.790316,53.841653,0            -1.790439,53.841665,0            -1.790686,53.841684,0            -1.790857,53.841697,0            -1.791152,53.841719,0            -1.791319,53.841735,0            -1.791453,53.841751,0            -1.791689,53.841773,0            -1.79186,53.841795,0            -1.792038,53.841824,0            -1.792274,53.841855,0            -1.792418,53.841881,0            -1.792547,53.841909,0            -1.792703,53.841925,0            -1.792799,53.841941,0            -1.792917,53.841944,0            -1.792992,53.841941,0            -1.793089,53.841909,0            -1.793121,53.841877,0            -1.793186,53.841821,0            -1.793239,53.84171,0            -1.793239,53.841627,0            -1.793261,53.841567,0            -1.793298,53.841476,0            -1.793261,53.841453,0            -1.792885,53.841396,0            -1.792595,53.841355,0            -1.792274,53.841311,0            -1.792032,53.841276,0            -1.791898,53.841257,0          </coordinates></LineString></Placemark><Placemark><name>Start</name><styleUrl>#icon-503-62AF44-nodesc</styleUrl><Point><coordinates>            -1.79215,53.841298,0          </coordinates></Point></Placemark><Placemark><name>Finish</name><styleUrl>#icon-503-DB4436-nodesc</styleUrl><Point><coordinates>            -1.791957,53.841267,0          </coordinates></Point></Placemark></Folder></Document></kml>