<?xml version="1.0" encoding="UTF-8"?><kml xmlns="http://www.opengis.net/kml/2.2"><Document><name>Saltwell junior parkrun</name><description/><Style id="icon-1899-0F9D58-nodesc-normal"><IconStyle><color>ff589d0f</color><scale>1</scale><Icon><href>https://www.gstatic.com/mapspro/images/stock/503-wht-blank_maps.png</href></Icon><hotSpot x="32" xunits="pixels" y="64" yunits="insetPixels"/></IconStyle><LabelStyle><scale>0</scale></LabelStyle><BalloonStyle><text><![CDATA[<h3>$[name]</h3>]]></text></BalloonStyle></Style><Style id="icon-1899-0F9D58-nodesc-highlight"><IconStyle><color>ff589d0f</color><scale>1</scale><Icon><href>https://www.gstatic.com/mapspro/images/stock/503-wht-blank_maps.png</href></Icon><hotSpot x="32" xunits="pixels" y="64" yunits="insetPixels"/></IconStyle><LabelStyle><scale>1</scale></LabelStyle><BalloonStyle><text><![CDATA[<h3>$[name]</h3>]]></text></BalloonStyle></Style><StyleMap id="icon-1899-0F9D58-nodesc"><Pair><key>normal</key><styleUrl>#icon-1899-0F9D58-nodesc-normal</styleUrl></Pair><Pair><key>highlight</key><styleUrl>#icon-1899-0F9D58-nodesc-highlight</styleUrl></Pair></StyleMap><Style id="icon-1899-FF5252-nodesc-normal"><IconStyle><color>ff5252ff</color><scale>1</scale><Icon><href>https://www.gstatic.com/mapspro/images/stock/503-wht-blank_maps.png</href></Icon><hotSpot x="32" xunits="pixels" y="64" yunits="insetPixels"/></IconStyle><LabelStyle><scale>0</scale></LabelStyle><BalloonStyle><text><![CDATA[<h3>$[name]</h3>]]></text></BalloonStyle></Style><Style id="icon-1899-FF5252-nodesc-highlight"><IconStyle><color>ff5252ff</color><scale>1</scale><Icon><href>https://www.gstatic.com/mapspro/images/stock/503-wht-blank_maps.png</href></Icon><hotSpot x="32" xunits="pixels" y="64" yunits="insetPixels"/></IconStyle><LabelStyle><scale>1</scale></LabelStyle><BalloonStyle><text><![CDATA[<h3>$[name]</h3>]]></text></BalloonStyle></Style><StyleMap id="icon-1899-FF5252-nodesc"><Pair><key>normal</key><styleUrl>#icon-1899-FF5252-nodesc-normal</styleUrl></Pair><Pair><key>highlight</key><styleUrl>#icon-1899-FF5252-nodesc-highlight</styleUrl></Pair></StyleMap><Style id="line-0288D1-5456-nodesc-normal"><LineStyle><color>ffd18802</color><width>5.456</width></LineStyle><BalloonStyle><text><![CDATA[<h3>$[name]</h3>]]></text></BalloonStyle></Style><Style id="line-0288D1-5456-nodesc-highlight"><LineStyle><color>ffd18802</color><width>8.184</width></LineStyle><BalloonStyle><text><![CDATA[<h3>$[name]</h3>]]></text></BalloonStyle></Style><StyleMap id="line-0288D1-5456-nodesc"><Pair><key>normal</key><styleUrl>#line-0288D1-5456-nodesc-normal</styleUrl></Pair><Pair><key>highlight</key><styleUrl>#line-0288D1-5456-nodesc-highlight</styleUrl></Pair></StyleMap><Folder><name>Untitled layer</name><Placemark><name>Course</name><styleUrl>#line-0288D1-5456-nodesc</styleUrl><LineString><tessellate>1</tessellate><coordinates>            -1.605371,54.947129,0            -1.6048711,54.9471596,0            -1.6039,54.947225,0            -1.603203,54.947282,0            -1.603145,54.947261,0            -1.603114,54.946898,0            -1.6032174,54.9468185,0            -1.6034603,54.9467206,0            -1.604064,54.946502,0            -1.6042873,54.9463657,0            -1.604532,54.946174,0            -1.604607,54.946025,0            -1.604615,54.945757,0            -1.6046102,54.9456117,0            -1.604659,54.945448,0            -1.604698,54.945339,0            -1.604709,54.945237,0            -1.6046296,54.9451259,0            -1.604505,54.945001,0            -1.604422,54.944849,0            -1.604473,54.944635,0            -1.604443,54.944464,0            -1.604383,54.944326,0            -1.604219,54.944096,0            -1.6042413,54.9440553,0            -1.604505,54.944033,0            -1.604798,54.943952,0            -1.604866,54.943963,0            -1.604969,54.943999,0            -1.605367,54.94396,0            -1.604969,54.943999,0            -1.605164,54.9444146,0            -1.6058424,54.9443021,0            -1.605836,54.944292,0            -1.606124,54.944498,0            -1.606243,54.94462,0            -1.606303,54.944642,0            -1.606408,54.944655,0            -1.606651,54.944713,0            -1.606744,54.944759,0            -1.6068396,54.9448534,0            -1.606903,54.944954,0            -1.606912,54.945161,0            -1.6068721,54.9453496,0            -1.606883,54.945469,0            -1.6068618,54.9456211,0            -1.606708,54.945818,0            -1.606454,54.94592,0            -1.606424,54.945949,0            -1.606401,54.9460262,0            -1.60648,54.946091,0            -1.6067513,54.9462522,0            -1.6070142,54.9463647,0            -1.607227,54.946443,0            -1.607216,54.946489,0            -1.606724,54.946771,0            -1.6064778,54.9469193,0            -1.605792,54.947065,0            -1.605371,54.947129,0            -1.6051527,54.9460752,0            -1.60514,54.946031,0            -1.60506,54.946003,0            -1.604891,54.945971,0            -1.604807,54.945931,0            -1.604615,54.945757,0          </coordinates></LineString></Placemark><Placemark><name>Finish</name><styleUrl>#icon-1899-FF5252-nodesc</styleUrl><Point><coordinates>            -1.605836,54.944292,0          </coordinates></Point></Placemark><Placemark><name>Start</name><styleUrl>#icon-1899-0F9D58-nodesc</styleUrl><Point><coordinates>            -1.605367,54.94396,0          </coordinates></Point></Placemark></Folder></Document></kml>