<?xml version="1.0" encoding="UTF-8"?><kml xmlns="http://www.opengis.net/kml/2.2"><Document><name>Sandall Park junior parkrun (from March 2024)</name><description/><Style id="icon-1899-FFEA00-nodesc-normal"><IconStyle><color>ff00eaff</color><scale>1</scale><Icon><href>https://www.gstatic.com/mapspro/images/stock/503-wht-blank_maps.png</href></Icon><hotSpot x="32" xunits="pixels" y="64" yunits="insetPixels"/></IconStyle><LabelStyle><scale>0</scale></LabelStyle><BalloonStyle><text><![CDATA[<h3>$[name]</h3>]]></text></BalloonStyle></Style><Style id="icon-1899-FFEA00-nodesc-highlight"><IconStyle><color>ff00eaff</color><scale>1</scale><Icon><href>https://www.gstatic.com/mapspro/images/stock/503-wht-blank_maps.png</href></Icon><hotSpot x="32" xunits="pixels" y="64" yunits="insetPixels"/></IconStyle><LabelStyle><scale>1</scale></LabelStyle><BalloonStyle><text><![CDATA[<h3>$[name]</h3>]]></text></BalloonStyle></Style><StyleMap id="icon-1899-FFEA00-nodesc"><Pair><key>normal</key><styleUrl>#icon-1899-FFEA00-nodesc-normal</styleUrl></Pair><Pair><key>highlight</key><styleUrl>#icon-1899-FFEA00-nodesc-highlight</styleUrl></Pair></StyleMap><Style id="line-0288D1-4100-nodesc-normal"><LineStyle><color>ffd18802</color><width>4.1</width></LineStyle><BalloonStyle><text><![CDATA[<h3>$[name]</h3>]]></text></BalloonStyle></Style><Style id="line-0288D1-4100-nodesc-highlight"><LineStyle><color>ffd18802</color><width>6.15</width></LineStyle><BalloonStyle><text><![CDATA[<h3>$[name]</h3>]]></text></BalloonStyle></Style><StyleMap id="line-0288D1-4100-nodesc"><Pair><key>normal</key><styleUrl>#line-0288D1-4100-nodesc-normal</styleUrl></Pair><Pair><key>highlight</key><styleUrl>#line-0288D1-4100-nodesc-highlight</styleUrl></Pair></StyleMap><Folder><name>Sandall Juniors</name><Placemark><name>Course</name><styleUrl>#line-0288D1-4100-nodesc</styleUrl><LineString><tessellate>1</tessellate><coordinates>            -1.091439,53.544619,0            -1.09099,53.544453,0            -1.090542,53.544287,0            -1.090243,53.544177,0            -1.089922,53.544215,0            -1.0898821,53.5443438,0            -1.08936,53.544988,0            -1.089247,53.545069,0            -1.0890944,53.5452891,0            -1.089182,53.545374,0            -1.08993,53.545651,0            -1.090071,53.545714,0            -1.08993,53.545651,0            -1.089182,53.545374,0            -1.0890432,53.5453413,0            -1.0888518,53.5454088,0            -1.0887113,53.5454181,0            -1.088493,53.545388,0            -1.088308,53.545396,0            -1.088025,53.545478,0            -1.0878758,53.5455386,0            -1.0878058,53.5456111,0            -1.087826,53.545854,0            -1.087696,53.545988,0            -1.087545,53.546058,0            -1.0873851,53.546002,0            -1.087223,53.54587,0            -1.086966,53.54571,0            -1.086697,53.545535,0            -1.086595,53.545424,0            -1.086574,53.545322,0            -1.086558,53.545159,0            -1.086563,53.545111,0            -1.086874,53.544882,0            -1.086509,53.545144,0            -1.086102,53.545452,0            -1.086408,53.545701,0            -1.086813,53.545903,0            -1.0871848,53.5460986,0            -1.0875515,53.5462973,0            -1.087723,53.546326,0            -1.087975,53.546294,0            -1.0882961,53.5459937,0            -1.0885948,53.545725,0            -1.088867,53.54546,0            -1.088888,53.545443,0            -1.0890432,53.5453413,0            -1.0888518,53.5454088,0            -1.0887113,53.5454181,0            -1.088425,53.545389,0            -1.088408,53.54539,0            -1.088125,53.545443,0            -1.0878758,53.5455386,0            -1.0878058,53.5456111,0            -1.087826,53.545854,0            -1.087696,53.545988,0            -1.087545,53.546058,0            -1.087545,53.546055,0            -1.0873851,53.546002,0            -1.087223,53.54587,0            -1.086966,53.54571,0            -1.086697,53.545535,0            -1.086595,53.545424,0            -1.086574,53.545322,0            -1.086563,53.545111,0            -1.086874,53.544882,0            -1.086509,53.545144,0            -1.0862527,53.5453315,0            -1.086102,53.545452,0            -1.086408,53.545701,0            -1.086813,53.545903,0            -1.0875515,53.5462973,0            -1.087723,53.546326,0            -1.087975,53.546294,0            -1.0882961,53.5459937,0            -1.0885948,53.545725,0            -1.088888,53.545443,0            -1.0890711,53.545322,0            -1.089247,53.545069,0            -1.08936,53.544988,0            -1.0898821,53.5443438,0            -1.089922,53.544215,0            -1.090243,53.544177,0          </coordinates></LineString></Placemark><Placemark><name>Start/Finish</name><styleUrl>#icon-1899-FFEA00-nodesc</styleUrl><Point><coordinates>            -1.091439,53.544619,0          </coordinates></Point></Placemark></Folder></Document></kml>