<?xml version="1.0" encoding="UTF-8"?><kml xmlns="http://www.opengis.net/kml/2.2"><Document><name>Sence Valley Forest parkrun regular course (from July 2024)</name><description/><Style id="icon-1899-FFD600-nodesc-normal"><IconStyle><color>ff00d6ff</color><scale>1</scale><Icon><href>https://www.gstatic.com/mapspro/images/stock/503-wht-blank_maps.png</href></Icon><hotSpot x="32" xunits="pixels" y="64" yunits="insetPixels"/></IconStyle><LabelStyle><scale>0</scale></LabelStyle><BalloonStyle><text><![CDATA[<h3>$[name]</h3>]]></text></BalloonStyle></Style><Style id="icon-1899-FFD600-nodesc-highlight"><IconStyle><color>ff00d6ff</color><scale>1</scale><Icon><href>https://www.gstatic.com/mapspro/images/stock/503-wht-blank_maps.png</href></Icon><hotSpot x="32" xunits="pixels" y="64" yunits="insetPixels"/></IconStyle><LabelStyle><scale>1</scale></LabelStyle><BalloonStyle><text><![CDATA[<h3>$[name]</h3>]]></text></BalloonStyle></Style><StyleMap id="icon-1899-FFD600-nodesc"><Pair><key>normal</key><styleUrl>#icon-1899-FFD600-nodesc-normal</styleUrl></Pair><Pair><key>highlight</key><styleUrl>#icon-1899-FFD600-nodesc-highlight</styleUrl></Pair></StyleMap><Style id="line-0288D1-3906-nodesc-normal"><LineStyle><color>ffd18802</color><width>3.906</width></LineStyle><BalloonStyle><text><![CDATA[<h3>$[name]</h3>]]></text></BalloonStyle></Style><Style id="line-0288D1-3906-nodesc-highlight"><LineStyle><color>ffd18802</color><width>5.859</width></LineStyle><BalloonStyle><text><![CDATA[<h3>$[name]</h3>]]></text></BalloonStyle></Style><StyleMap id="line-0288D1-3906-nodesc"><Pair><key>normal</key><styleUrl>#line-0288D1-3906-nodesc-normal</styleUrl></Pair><Pair><key>highlight</key><styleUrl>#line-0288D1-3906-nodesc-highlight</styleUrl></Pair></StyleMap><Folder><name>Untitled layer</name><Placemark><name>Course</name><styleUrl>#line-0288D1-3906-nodesc</styleUrl><LineString><tessellate>1</tessellate><coordinates>            -1.408484,52.696856,0            -1.40887,52.696011,0            -1.409063,52.694802,0            -1.409514,52.694503,0            -1.410629,52.694386,0            -1.411616,52.694581,0            -1.41284,52.694945,0            -1.413312,52.695231,0            -1.411895,52.695673,0            -1.411316,52.695842,0            -1.411016,52.697078,0            -1.411509,52.69765,0            -1.412282,52.698287,0            -1.413698,52.698924,0            -1.413698,52.699028,0            -1.409556,52.700901,0            -1.408763,52.700849,0            -1.407926,52.700368,0            -1.407668,52.699938,0            -1.407518,52.699184,0            -1.407904,52.69856,0            -1.408376,52.698274,0            -1.409728,52.697845,0            -1.410694,52.697494,0            -1.41108,52.696856,0            -1.411295,52.695998,0            -1.411509,52.695751,0            -1.413634,52.695153,0            -1.413698,52.69475,0            -1.413977,52.694607,0            -1.413784,52.694451,0            -1.414063,52.694113,0            -1.414556,52.693904,0            -1.415136,52.6941,0            -1.415801,52.69423,0            -1.414578,52.694646,0            -1.413827,52.695101,0            -1.412153,52.695569,0            -1.411273,52.695881,0            -1.411037,52.697,0            -1.411745,52.697871,0            -1.412496,52.698378,0            -1.413891,52.699002,0            -1.41211,52.699717,0            -1.409514,52.700927,0            -1.408527,52.700758,0            -1.407818,52.70025,0            -1.407518,52.699275,0            -1.407861,52.698625,0            -1.408269,52.698326,0            -1.410544,52.697533,0            -1.410866,52.697221,0            -1.411273,52.69605,0            -1.411702,52.695686,0            -1.41344,52.695192,0            -1.411295,52.694516,0            -1.411016,52.694477,0            -1.41078,52.694386,0            -1.409685,52.694477,0            -1.409149,52.694698,0            -1.408999,52.695049,0            -1.408934,52.695712,0            -1.408741,52.696388,0            -1.408419,52.697039,0          </coordinates></LineString></Placemark><Placemark><name>Start and Finish</name><styleUrl>#icon-1899-FFD600-nodesc</styleUrl><Point><coordinates>            -1.408473,52.696928,0          </coordinates></Point></Placemark></Folder></Document></kml>