<?xml version="1.0" encoding="UTF-8"?><kml xmlns="http://www.opengis.net/kml/2.2"><Document><name>Sharpham Road Playing Fields parkrun</name><description/><Style id="icon-1899-0288D1-nodesc-normal"><IconStyle><color>ffd18802</color><scale>1</scale><Icon><href>https://www.gstatic.com/mapspro/images/stock/503-wht-blank_maps.png</href></Icon><hotSpot x="32" xunits="pixels" y="64" yunits="insetPixels"/></IconStyle><LabelStyle><scale>0</scale></LabelStyle><BalloonStyle><text><![CDATA[<h3>$[name]</h3>]]></text></BalloonStyle></Style><Style id="icon-1899-0288D1-nodesc-highlight"><IconStyle><color>ffd18802</color><scale>1</scale><Icon><href>https://www.gstatic.com/mapspro/images/stock/503-wht-blank_maps.png</href></Icon><hotSpot x="32" xunits="pixels" y="64" yunits="insetPixels"/></IconStyle><LabelStyle><scale>1</scale></LabelStyle><BalloonStyle><text><![CDATA[<h3>$[name]</h3>]]></text></BalloonStyle></Style><StyleMap id="icon-1899-0288D1-nodesc"><Pair><key>normal</key><styleUrl>#icon-1899-0288D1-nodesc-normal</styleUrl></Pair><Pair><key>highlight</key><styleUrl>#icon-1899-0288D1-nodesc-highlight</styleUrl></Pair></StyleMap><Style id="icon-1899-0F9D58-nodesc-normal"><IconStyle><color>ff589d0f</color><scale>1</scale><Icon><href>https://www.gstatic.com/mapspro/images/stock/503-wht-blank_maps.png</href></Icon><hotSpot x="32" xunits="pixels" y="64" yunits="insetPixels"/></IconStyle><LabelStyle><scale>0</scale></LabelStyle><BalloonStyle><text><![CDATA[<h3>$[name]</h3>]]></text></BalloonStyle></Style><Style id="icon-1899-0F9D58-nodesc-highlight"><IconStyle><color>ff589d0f</color><scale>1</scale><Icon><href>https://www.gstatic.com/mapspro/images/stock/503-wht-blank_maps.png</href></Icon><hotSpot x="32" xunits="pixels" y="64" yunits="insetPixels"/></IconStyle><LabelStyle><scale>1</scale></LabelStyle><BalloonStyle><text><![CDATA[<h3>$[name]</h3>]]></text></BalloonStyle></Style><StyleMap id="icon-1899-0F9D58-nodesc"><Pair><key>normal</key><styleUrl>#icon-1899-0F9D58-nodesc-normal</styleUrl></Pair><Pair><key>highlight</key><styleUrl>#icon-1899-0F9D58-nodesc-highlight</styleUrl></Pair></StyleMap><Style id="icon-1899-9C27B0-nodesc-normal"><IconStyle><color>ffb0279c</color><scale>1</scale><Icon><href>https://www.gstatic.com/mapspro/images/stock/503-wht-blank_maps.png</href></Icon><hotSpot x="32" xunits="pixels" y="64" yunits="insetPixels"/></IconStyle><LabelStyle><scale>0</scale></LabelStyle><BalloonStyle><text><![CDATA[<h3>$[name]</h3>]]></text></BalloonStyle></Style><Style id="icon-1899-9C27B0-nodesc-highlight"><IconStyle><color>ffb0279c</color><scale>1</scale><Icon><href>https://www.gstatic.com/mapspro/images/stock/503-wht-blank_maps.png</href></Icon><hotSpot x="32" xunits="pixels" y="64" yunits="insetPixels"/></IconStyle><LabelStyle><scale>1</scale></LabelStyle><BalloonStyle><text><![CDATA[<h3>$[name]</h3>]]></text></BalloonStyle></Style><StyleMap id="icon-1899-9C27B0-nodesc"><Pair><key>normal</key><styleUrl>#icon-1899-9C27B0-nodesc-normal</styleUrl></Pair><Pair><key>highlight</key><styleUrl>#icon-1899-9C27B0-nodesc-highlight</styleUrl></Pair></StyleMap><Style id="icon-1899-F57C00-nodesc-normal"><IconStyle><color>ff007cf5</color><scale>1</scale><Icon><href>https://www.gstatic.com/mapspro/images/stock/503-wht-blank_maps.png</href></Icon><hotSpot x="32" xunits="pixels" y="64" yunits="insetPixels"/></IconStyle><LabelStyle><scale>0</scale></LabelStyle><BalloonStyle><text><![CDATA[<h3>$[name]</h3>]]></text></BalloonStyle></Style><Style id="icon-1899-F57C00-nodesc-highlight"><IconStyle><color>ff007cf5</color><scale>1</scale><Icon><href>https://www.gstatic.com/mapspro/images/stock/503-wht-blank_maps.png</href></Icon><hotSpot x="32" xunits="pixels" y="64" yunits="insetPixels"/></IconStyle><LabelStyle><scale>1</scale></LabelStyle><BalloonStyle><text><![CDATA[<h3>$[name]</h3>]]></text></BalloonStyle></Style><StyleMap id="icon-1899-F57C00-nodesc"><Pair><key>normal</key><styleUrl>#icon-1899-F57C00-nodesc-normal</styleUrl></Pair><Pair><key>highlight</key><styleUrl>#icon-1899-F57C00-nodesc-highlight</styleUrl></Pair></StyleMap><Style id="icon-1899-FF5252-nodesc-normal"><IconStyle><color>ff5252ff</color><scale>1</scale><Icon><href>https://www.gstatic.com/mapspro/images/stock/503-wht-blank_maps.png</href></Icon><hotSpot x="32" xunits="pixels" y="64" yunits="insetPixels"/></IconStyle><LabelStyle><scale>0</scale></LabelStyle><BalloonStyle><text><![CDATA[<h3>$[name]</h3>]]></text></BalloonStyle></Style><Style id="icon-1899-FF5252-nodesc-highlight"><IconStyle><color>ff5252ff</color><scale>1</scale><Icon><href>https://www.gstatic.com/mapspro/images/stock/503-wht-blank_maps.png</href></Icon><hotSpot x="32" xunits="pixels" y="64" yunits="insetPixels"/></IconStyle><LabelStyle><scale>1</scale></LabelStyle><BalloonStyle><text><![CDATA[<h3>$[name]</h3>]]></text></BalloonStyle></Style><StyleMap id="icon-1899-FF5252-nodesc"><Pair><key>normal</key><styleUrl>#icon-1899-FF5252-nodesc-normal</styleUrl></Pair><Pair><key>highlight</key><styleUrl>#icon-1899-FF5252-nodesc-highlight</styleUrl></Pair></StyleMap><Style id="line-0288D1-5650-nodesc-normal"><LineStyle><color>ffd18802</color><width>5.65</width></LineStyle><BalloonStyle><text><![CDATA[<h3>$[name]</h3>]]></text></BalloonStyle></Style><Style id="line-0288D1-5650-nodesc-highlight"><LineStyle><color>ffd18802</color><width>8.475</width></LineStyle><BalloonStyle><text><![CDATA[<h3>$[name]</h3>]]></text></BalloonStyle></Style><StyleMap id="line-0288D1-5650-nodesc"><Pair><key>normal</key><styleUrl>#line-0288D1-5650-nodesc-normal</styleUrl></Pair><Pair><key>highlight</key><styleUrl>#line-0288D1-5650-nodesc-highlight</styleUrl></Pair></StyleMap><Folder><name>Untitled layer</name><Placemark><name>Course</name><styleUrl>#line-0288D1-5650-nodesc</styleUrl><LineString><tessellate>1</tessellate><coordinates>            -2.793243,51.279464,0            -2.79356,51.279463,0            -2.793721,51.279464,0            -2.793857,51.279462,0            -2.793952,51.279467,0            -2.793984,51.279516,0            -2.793984,51.279584,0            -2.793996,51.279679,0            -2.794007,51.279871,0            -2.794034,51.280225,0            -2.79405,51.280433,0            -2.794084,51.280614,0            -2.79414,51.280787,0            -2.794226,51.280988,0            -2.794303,51.28116,0            -2.794377,51.281314,0            -2.794447,51.281418,0            -2.794492,51.281466,0            -2.794509,51.281514,0            -2.79447,51.28154,0            -2.794377,51.281544,0            -2.794188,51.281525,0            -2.793945,51.281494,0            -2.793673,51.281467,0            -2.793546,51.281457,0            -2.793378,51.281461,0            -2.793172,51.281481,0            -2.79286,51.281508,0            -2.792677,51.281522,0            -2.792656,51.281539,0            -2.792665,51.281558,0            -2.792895,51.281772,0            -2.793044,51.281906,0            -2.793269,51.282106,0            -2.793473,51.282297,0            -2.793609,51.282426,0            -2.793811,51.282613,0            -2.793968,51.282756,0            -2.794096,51.282875,0            -2.794211,51.283001,0            -2.794458,51.283224,0            -2.794636,51.283381,0            -2.794786,51.28351,0            -2.794899,51.283601,0            -2.795085,51.283758,0            -2.795277,51.283917,0            -2.795506,51.284092,0            -2.795679,51.284225,0            -2.795758,51.284289,0            -2.795797,51.284378,0            -2.795844,51.284453,0            -2.796036,51.284603,0            -2.796284,51.28477,0            -2.796464,51.284882,0            -2.796611,51.284984,0            -2.796752,51.285078,0            -2.796893,51.285164,0            -2.797062,51.285266,0            -2.79731,51.285408,0            -2.797462,51.28549,0            -2.797629,51.285584,0            -2.797781,51.285668,0            -2.797853,51.285695,0            -2.797934,51.285697,0            -2.79799,51.285696,0            -2.79804,51.285715,0            -2.798057,51.285746,0            -2.798028,51.285762,0            -2.797973,51.285764,0            -2.797914,51.285747,0            -2.79783,51.285708,0            -2.797766,51.285676,0            -2.797686,51.285636,0            -2.797608,51.285592,0            -2.79753,51.285546,0            -2.797446,51.285499,0            -2.79737,51.285455,0            -2.797294,51.285415,0            -2.797168,51.285346,0            -2.797045,51.285275,0            -2.796958,51.285221,0            -2.796874,51.285169,0            -2.796807,51.28513,0            -2.796734,51.285085,0            -2.796662,51.28504,0            -2.79659,51.284992,0            -2.796519,51.284942,0            -2.796445,51.284891,0            -2.796359,51.284836,0            -2.796265,51.284777,0            -2.796142,51.284693,0            -2.796019,51.284608,0            -2.795918,51.284534,0            -2.795826,51.284458,0            -2.79578,51.284383,0            -2.79574,51.284293,0            -2.795661,51.284227,0            -2.795579,51.284164,0            -2.79549,51.284096,0            -2.795375,51.284008,0            -2.795258,51.28392,0            -2.795166,51.283843,0            -2.794975,51.283686,0            -2.794824,51.283561,0            -2.794691,51.283449,0            -2.794529,51.283305,0            -2.794439,51.283228,0            -2.794317,51.283117,0            -2.794196,51.283004,0            -2.794078,51.28288,0            -2.793951,51.28276,0            -2.793796,51.282618,0            -2.793598,51.282432,0            -2.793457,51.282301,0            -2.793253,51.282109,0            -2.793029,51.28191,0            -2.79288,51.281776,0            -2.792766,51.281671,0            -2.792606,51.281521,0            -2.792437,51.281351,0            -2.792245,51.281167,0            -2.792109,51.281036,0            -2.791838,51.280779,0            -2.791695,51.28065,0            -2.791582,51.280546,0            -2.791416,51.280386,0            -2.791311,51.280324,0            -2.791165,51.280255,0            -2.790995,51.280151,0            -2.790843,51.280023,0            -2.790475,51.279678,0            -2.790269,51.279484,0            -2.789919,51.279155,0            -2.789717,51.278966,0            -2.789392,51.278662,0            -2.789247,51.278533,0            -2.789038,51.278344,0            -2.788869,51.2782,0            -2.788812,51.278162,0            -2.788782,51.278139,0            -2.788765,51.278125,0            -2.788788,51.278113,0            -2.788808,51.278129,0            -2.788832,51.278147,0            -2.788892,51.278192,0            -2.789058,51.278343,0            -2.789266,51.278529,0            -2.789415,51.278658,0            -2.789647,51.278879,0            -2.78974,51.278964,0            -2.790016,51.279231,0            -2.790112,51.279316,0            -2.790287,51.279482,0            -2.790387,51.279576,0            -2.790495,51.279674,0            -2.790678,51.279846,0            -2.790865,51.280018,0            -2.790937,51.280081,0            -2.791012,51.280145,0            -2.791093,51.280195,0            -2.79118,51.28025,0            -2.791326,51.280315,0            -2.791427,51.28037,0            -2.791539,51.280368,0            -2.791908,51.280703,0            -2.7931889,51.280489,0            -2.793236,51.280416,0            -2.793126,51.279852,0            -2.793236,51.280416,0            -2.7931889,51.280489,0            -2.791908,51.280703,0            -2.792219,51.28101,0            -2.792458,51.28123,0            -2.792553,51.281321,0            -2.7926,51.281359,0            -2.792702,51.281375,0            -2.792827,51.281378,0            -2.792974,51.281358,0            -2.793103,51.281337,0            -2.79322,51.281318,0            -2.793339,51.2813,0            -2.793426,51.281283,0            -2.793538,51.281257,0            -2.793656,51.281234,0            -2.793748,51.281229,0            -2.793868,51.28124,0            -2.793965,51.281264,0            -2.794088,51.281292,0            -2.794214,51.281327,0            -2.794333,51.281364,0            -2.794403,51.28139,0            -2.79445,51.281419,0          </coordinates></LineString></Placemark><Placemark><name>Old level crossing</name><styleUrl>#icon-1899-0288D1-nodesc</styleUrl><Point><coordinates>            -2.792677,51.281522,0          </coordinates></Point></Placemark><Placemark><name>Lap 1/2 split</name><styleUrl>#icon-1899-F57C00-nodesc</styleUrl><Point><coordinates>            -2.791908,51.280703,0          </coordinates></Point></Placemark><Placemark><name>Log benches</name><styleUrl>#icon-1899-9C27B0-nodesc</styleUrl><Point><coordinates>            -2.798028,51.285762,0          </coordinates></Point></Placemark><Placemark><name>Old loading dock</name><styleUrl>#icon-1899-9C27B0-nodesc</styleUrl><Point><coordinates>            -2.788812,51.278162,0          </coordinates></Point></Placemark><Placemark><name>Finish</name><styleUrl>#icon-1899-FF5252-nodesc</styleUrl><Point><coordinates>            -2.793126,51.279852,0          </coordinates></Point></Placemark><Placemark><name>Start</name><styleUrl>#icon-1899-0F9D58-nodesc</styleUrl><Point><coordinates>            -2.793229,51.279474,0          </coordinates></Point></Placemark></Folder></Document></kml>