<?xml version="1.0" encoding="UTF-8"?><kml xmlns="http://www.opengis.net/kml/2.2"><Document><name>Sheringham parkrun</name><description/><Style id="icon-1899-FFEA00-nodesc-normal"><IconStyle><color>ff00eaff</color><scale>1</scale><Icon><href>https://www.gstatic.com/mapspro/images/stock/503-wht-blank_maps.png</href></Icon><hotSpot x="32" xunits="pixels" y="64" yunits="insetPixels"/></IconStyle><LabelStyle><scale>0</scale></LabelStyle><BalloonStyle><text><![CDATA[<h3>$[name]</h3>]]></text></BalloonStyle></Style><Style id="icon-1899-FFEA00-nodesc-highlight"><IconStyle><color>ff00eaff</color><scale>1</scale><Icon><href>https://www.gstatic.com/mapspro/images/stock/503-wht-blank_maps.png</href></Icon><hotSpot x="32" xunits="pixels" y="64" yunits="insetPixels"/></IconStyle><LabelStyle><scale>1</scale></LabelStyle><BalloonStyle><text><![CDATA[<h3>$[name]</h3>]]></text></BalloonStyle></Style><StyleMap id="icon-1899-FFEA00-nodesc"><Pair><key>normal</key><styleUrl>#icon-1899-FFEA00-nodesc-normal</styleUrl></Pair><Pair><key>highlight</key><styleUrl>#icon-1899-FFEA00-nodesc-highlight</styleUrl></Pair></StyleMap><Style id="line-0288D1-5650-nodesc-normal"><LineStyle><color>ffd18802</color><width>5.65</width></LineStyle><BalloonStyle><text><![CDATA[<h3>$[name]</h3>]]></text></BalloonStyle></Style><Style id="line-0288D1-5650-nodesc-highlight"><LineStyle><color>ffd18802</color><width>8.475</width></LineStyle><BalloonStyle><text><![CDATA[<h3>$[name]</h3>]]></text></BalloonStyle></Style><StyleMap id="line-0288D1-5650-nodesc"><Pair><key>normal</key><styleUrl>#line-0288D1-5650-nodesc-normal</styleUrl></Pair><Pair><key>highlight</key><styleUrl>#line-0288D1-5650-nodesc-highlight</styleUrl></Pair></StyleMap><Folder><name>Untitled layer</name><Placemark><name>Course</name><styleUrl>#line-0288D1-5650-nodesc</styleUrl><LineString><tessellate>1</tessellate><coordinates>            1.177952,52.926973,0            1.177947,52.927144,0            1.177919,52.927251,0            1.177879,52.927356,0            1.177879,52.927489,0            1.177879,52.927602,0            1.17789,52.927709,0            1.177884,52.927819,0            1.177858,52.927912,0            1.177825,52.927996,0            1.177772,52.928077,0            1.177718,52.928148,0            1.177648,52.928223,0            1.177477,52.928356,0            1.177343,52.928446,0            1.177235,52.928562,0            1.177074,52.928718,0            1.176967,52.928789,0            1.17687,52.928857,0            1.176742,52.928921,0            1.176576,52.928989,0            1.176484,52.929028,0            1.176377,52.929057,0            1.176275,52.929083,0            1.176162,52.929099,0            1.17606,52.929119,0            1.175969,52.929144,0            1.175835,52.929177,0            1.175583,52.929193,0            1.175347,52.929225,0            1.17509,52.929251,0            1.174918,52.929248,0            1.174741,52.929267,0            1.174553,52.92928,0            1.174403,52.92929,0            1.174156,52.929313,0            1.173995,52.929332,0            1.173834,52.929335,0            1.1737,52.929368,0            1.173518,52.929394,0            1.173357,52.929406,0            1.173142,52.929429,0            1.17289,52.929426,0            1.172558,52.929419,0            1.172354,52.929406,0            1.172064,52.929374,0            1.171758,52.929342,0            1.171581,52.929316,0            1.171409,52.929287,0            1.171238,52.929261,0            1.171093,52.929245,0            1.170953,52.929229,0            1.170808,52.929222,0            1.170626,52.929209,0            1.170465,52.929206,0            1.170336,52.929219,0            1.169954,52.929274,0            1.169696,52.929313,0            1.169417,52.929371,0            1.16917,52.929429,0            1.168924,52.929487,0            1.168688,52.929559,0            1.168495,52.92963,0            1.168344,52.929694,0            1.168087,52.929791,0            1.167937,52.929895,0            1.167776,52.929992,0            1.167668,52.930095,0            1.167583,52.930179,0            1.167497,52.930257,0            1.167432,52.93038,0            1.167362,52.930519,0            1.167266,52.930596,0            1.167137,52.930674,0            1.166933,52.93079,0            1.166762,52.930881,0            1.166601,52.930984,0            1.16644,52.931088,0            1.166289,52.931152,0            1.166161,52.931224,0            1.166064,52.931269,0            1.165925,52.931327,0            1.165807,52.931372,0            1.165635,52.931424,0            1.165259,52.931495,0            1.165056,52.931508,0            1.164841,52.931534,0            1.164648,52.93154,0            1.164369,52.931553,0            1.164187,52.931553,0            1.163993,52.931573,0            1.164191,52.931738,0            1.164269,52.931822,0            1.164333,52.931893,0            1.164376,52.931947,0            1.164414,52.932003,0            1.164438,52.932057,0            1.164454,52.932113,0            1.164457,52.932152,0            1.164454,52.932218,0            1.164449,52.932278,0            1.164424,52.932353,0            1.164408,52.932414,0            1.164379,52.932485,0            1.164347,52.932614,0            1.164312,52.932731,0            1.16429,52.932812,0            1.164269,52.93288,0            1.164258,52.932915,0            1.164242,52.932983,0            1.164237,52.933056,0            1.164248,52.933127,0            1.164264,52.93319,0            1.164285,52.933274,0            1.164312,52.933357,0            1.164328,52.933428,0            1.164344,52.933494,0            1.164355,52.933559,0            1.164347,52.933589,0            1.164325,52.93363,0            1.164304,52.93366,0            1.16428,52.933688,0            1.164203,52.933746,0            1.164063,52.933775,0            1.163945,52.933788,0            1.163827,52.933792,0            1.163688,52.933779,0            1.163559,52.933762,0            1.16343,52.93374,0            1.163286,52.933701,0            1.163152,52.933666,0            1.162765,52.933562,0            1.162653,52.933539,0            1.16254,52.933507,0            1.162438,52.933491,0            1.162342,52.933488,0            1.1621,52.933514,0            1.161735,52.933539,0            1.161446,52.933559,0            1.161092,52.933585,0            1.160872,52.933614,0            1.160437,52.933646,0            1.160056,52.933672,0            1.159756,52.933704,0            1.159509,52.933717,0            1.159257,52.93373,0            1.159016,52.933737,0            1.158817,52.933743,0            1.15857,52.93375,0            1.158297,52.93375,0            1.158028,52.93375,0            1.157846,52.93375,0            1.157669,52.933737,0            1.15753,52.933724,0            1.157428,52.933711,0            1.157256,52.933688,0            1.157063,52.933656,0            1.156864,52.933617,0            1.156644,52.933585,0            1.156489,52.933546,0            1.156333,52.933504,0            1.156199,52.933478,0            1.15607,52.933455,0            1.155893,52.933423,0            1.155727,52.933387,0            1.155582,52.933394,0            1.155475,52.933394,0            1.155319,52.933478,0            1.155185,52.933568,0            1.155035,52.933659,0            1.154955,52.933737,0            1.154912,52.933792,0            1.154869,52.933853,0            1.154853,52.933903,0            1.154842,52.933963,0            1.154842,52.934039,0            1.154847,52.934083,0            1.154874,52.934138,0            1.15492,52.934189,0            1.154987,52.934236,0            1.15504,52.934268,0            1.155116,52.934294,0            1.155234,52.934335,0            1.155335,52.934367,0            1.15548,52.93439,0            1.155659,52.934422,0            1.15575,52.934444,0            1.155819,52.934448,0            1.155903,52.93446,0            1.156064,52.934483,0            1.156199,52.934509,0            1.156306,52.934541,0            1.156435,52.934593,0            1.156569,52.934651,0            1.156681,52.934693,0            1.156799,52.934735,0            1.156934,52.934784,0            1.157041,52.934826,0            1.157164,52.934868,0            1.157293,52.934897,0            1.157438,52.934933,0            1.157561,52.934955,0            1.157658,52.934971,0            1.15784,52.934981,0            1.15798,52.934984,0            1.158098,52.934994,0            1.15821,52.935004,0            1.15835,52.93501,0            1.1585,52.935023,0            1.158693,52.935039,0            1.158865,52.935068,0            1.158999,52.935094,0            1.159144,52.935127,0            1.159267,52.935152,0            1.159412,52.935185,0            1.159597,52.935214,0            1.159712,52.935236,0            1.159804,52.935253,0            1.15993,52.935274,0            1.160017,52.93529,0            1.160056,52.935304,0            1.160082,52.935318,0            1.160104,52.935339,0            1.160121,52.935369,0            1.160126,52.935401,0            1.160111,52.935434,0            1.160099,52.935487,0            1.160058,52.935606,0            1.160033,52.935678,0            1.160012,52.935766,0            1.159993,52.935813,0            1.159974,52.935873,0            1.159966,52.935922,0            1.159969,52.935956,0            1.159972,52.935991,0            1.15999,52.936027,0            1.160028,52.936061,0            1.160087,52.936095,0            1.160151,52.936114,0            1.160232,52.936124,0            1.160326,52.936129,0            1.160476,52.936132,0            1.160602,52.936134,0            1.160699,52.936137,0            1.160763,52.936134,0            1.160846,52.936124,0            1.160916,52.936114,0            1.161028,52.936096,0            1.161117,52.936082,0            1.16123,52.936074,0            1.161316,52.936051,0            1.161399,52.936032,0            1.161492,52.936001,0            1.1616,52.935967,0            1.161747,52.93592,0            1.161809,52.935901,0            1.161865,52.935891,0            1.16197,52.935875,0            1.162058,52.935865,0            1.162155,52.935852,0            1.162281,52.935842,0            1.16249,52.935818,0            1.162665,52.935799,0            1.162887,52.935778,0            1.162893,52.935765,0            1.163005,52.935744,0            1.163121,52.935713,0            1.163241,52.935665,0            1.163362,52.935634,0            1.163451,52.935582,0            1.163571,52.935513,0            1.163652,52.935464,0            1.16378,52.935382,0            1.164008,52.935227,0            1.164164,52.93511,0            1.164293,52.935012,0            1.164365,52.934942,0            1.164432,52.934863,0            1.164483,52.934787,0            1.164518,52.934717,0            1.16455,52.934649,0            1.164561,52.934586,0            1.164569,52.934523,0            1.164564,52.934447,0            1.164568,52.934294,0            1.164557,52.934178,0            1.16454,52.934098,0            1.16451,52.934036,0            1.164488,52.93399,0            1.164459,52.933939,0            1.164384,52.933855,0            1.16435,52.933808,0            1.16433,52.933759,0            1.164336,52.933722,0            1.164348,52.933685,0            1.164367,52.933656,0            1.164383,52.933617,0            1.164395,52.933577,0            1.164391,52.93355,0            1.164378,52.933495,0            1.164359,52.933423,0            1.164346,52.933372,0            1.164327,52.933304,0            1.164312,52.933247,0            1.164299,52.933188,0            1.164281,52.933126,0            1.164271,52.933082,0            1.164268,52.93304,0            1.164273,52.932994,0            1.164289,52.93293,0            1.164303,52.932874,0            1.164318,52.932827,0            1.164334,52.932778,0            1.164344,52.932734,0            1.164362,52.932676,0            1.164378,52.932617,0            1.164391,52.932563,0            1.164409,52.932502,0            1.164424,52.932456,0            1.164441,52.932409,0            1.164449,52.932368,0            1.164464,52.932326,0            1.164474,52.932284,0            1.164485,52.932247,0            1.164485,52.93221,0            1.164496,52.932155,0            1.164491,52.932114,0            1.164484,52.932068,0            1.164462,52.932013,0            1.164438,52.931966,0            1.164414,52.931924,0            1.16436,52.931856,0            1.16431,52.9318,0            1.164267,52.931749,0            1.164208,52.931701,0            1.164138,52.931636,0            1.164092,52.931601,0            1.164159,52.931583,0            1.164267,52.931581,0            1.16439,52.93158,0            1.164497,52.931572,0            1.164653,52.93157,0            1.164755,52.931562,0            1.164867,52.931555,0            1.164952,52.931542,0            1.165056,52.931528,0            1.165153,52.931521,0            1.165252,52.931512,0            1.165329,52.9315,0            1.165412,52.931486,0            1.165474,52.931474,0            1.165554,52.931458,0            1.165637,52.931443,0            1.1657,52.931428,0            1.165757,52.931411,0            1.165826,52.931388,0            1.165875,52.931367,0            1.165935,52.931344,0            1.166009,52.931312,0            1.166078,52.931283,0            1.166133,52.931259,0            1.166182,52.931238,0            1.16625,52.9312,0            1.1663,52.931171,0            1.166357,52.931146,0            1.166406,52.931123,0            1.166453,52.931106,0            1.166506,52.931072,0            1.166552,52.931044,0            1.166599,52.931011,0            1.166654,52.930977,0            1.166697,52.930949,0            1.166746,52.930916,0            1.166791,52.930885,0            1.166848,52.930855,0            1.166931,52.930816,0            1.167008,52.930776,0            1.167068,52.93074,0            1.167155,52.93069,0            1.167221,52.930651,0            1.167284,52.93061,0            1.167328,52.93058,0            1.167356,52.930554,0            1.167387,52.930533,0            1.167414,52.930494,0            1.167422,52.930468,0            1.167444,52.930429,0            1.167454,52.930403,0            1.167469,52.930365,0            1.167491,52.930319,0            1.167511,52.930277,0            1.167532,52.930253,0            1.167563,52.930222,0            1.167603,52.930186,0            1.167644,52.930147,0            1.167686,52.930107,0            1.167739,52.930057,0            1.167772,52.930023,0            1.167806,52.929993,0            1.167866,52.929959,0            1.167928,52.929922,0            1.167971,52.929893,0            1.168024,52.92986,0            1.168091,52.929812,0            1.168113,52.929799,0            1.168214,52.929762,0            1.168293,52.929734,0            1.168342,52.929714,0            1.168394,52.929692,0            1.168459,52.929664,0            1.168515,52.92964,0            1.168566,52.929622,0            1.168608,52.929604,0            1.168659,52.929587,0            1.168703,52.929572,0            1.168778,52.92955,0            1.16885,52.929525,0            1.16893,52.929504,0            1.169003,52.929486,0            1.169112,52.929461,0            1.169227,52.929433,0            1.169324,52.92941,0            1.169418,52.929387,0            1.169484,52.929374,0            1.169548,52.92936,0            1.169652,52.92934,0            1.169742,52.929322,0            1.169836,52.929309,0            1.169913,52.929296,0            1.170039,52.929277,0            1.170131,52.929264,0            1.170216,52.929253,0            1.17029,52.929242,0            1.170382,52.92923,0            1.170441,52.929226,0            1.170485,52.929222,0            1.170554,52.929224,0            1.170658,52.929227,0            1.170752,52.929234,0            1.170846,52.92924,0            1.170928,52.929245,0            1.170994,52.929247,0            1.171069,52.92926,0            1.171187,52.929272,0            1.171272,52.929284,0            1.171353,52.929295,0            1.171424,52.929306,0            1.171507,52.929318,0            1.171582,52.929331,0            1.17166,52.929344,0            1.171754,52.929356,0            1.171829,52.929365,0            1.171903,52.929371,0            1.171973,52.92938,0            1.172046,52.929388,0            1.17213,52.929397,0            1.172222,52.929407,0            1.172294,52.929416,0            1.172364,52.929423,0            1.172441,52.929428,0            1.172524,52.929432,0            1.172576,52.929434,0            1.172662,52.929436,0            1.172744,52.929436,0            1.172818,52.929441,0            1.172945,52.929441,0            1.17302,52.929441,0            1.173091,52.929443,0            1.173145,52.929444,0            1.173209,52.929437,0            1.173265,52.929433,0            1.17333,52.929427,0            1.173379,52.929422,0            1.173436,52.929416,0            1.173496,52.929412,0            1.173551,52.929405,0            1.173609,52.929398,0            1.173664,52.929389,0            1.173704,52.929383,0            1.173752,52.929371,0            1.173792,52.92936,0            1.173834,52.929351,0            1.173896,52.929348,0            1.173947,52.929348,0            1.173992,52.92935,0            1.174035,52.929342,0            1.174108,52.929336,0            1.174169,52.929329,0            1.174226,52.929321,0            1.174306,52.929314,0            1.174378,52.929308,0            1.174432,52.929302,0            1.174518,52.929296,0            1.174612,52.929292,0            1.174676,52.929286,0            1.174734,52.92928,0            1.174789,52.929275,0            1.174847,52.929268,0            1.174906,52.929264,0            1.174959,52.929263,0            1.175029,52.929264,0            1.175085,52.929264,0            1.175143,52.929259,0            1.175218,52.929252,0            1.175282,52.929244,0            1.175348,52.92924,0            1.175441,52.929226,0            1.175541,52.929213,0            1.175606,52.929205,0            1.175682,52.929201,0            1.175746,52.929197,0            1.175811,52.929192,0            1.175851,52.929188,0            1.175911,52.929174,0            1.175982,52.929155,0            1.176036,52.929141,0            1.176079,52.929128,0            1.176127,52.92912,0            1.176176,52.929112,0            1.176235,52.929104,0            1.176298,52.929095,0            1.17635,52.929083,0            1.176394,52.929071,0            1.176433,52.92906,0            1.176481,52.929046,0            1.176539,52.929028,0            1.176586,52.929006,0            1.17663,52.928987,0            1.17668,52.928968,0            1.176736,52.928946,0            1.176802,52.928916,0            1.176854,52.928888,0            1.176889,52.928871,0            1.176925,52.928846,0            1.176974,52.928809,0            1.177022,52.928775,0            1.177081,52.92874,0            1.177114,52.928711,0            1.177155,52.928673,0            1.177199,52.928633,0            1.177247,52.928582,0            1.177286,52.928542,0            1.177322,52.928501,0            1.177357,52.928462,0            1.177393,52.92844,0            1.177422,52.928414,0            1.177486,52.928373,0            1.177529,52.928339,0            1.177581,52.928299,0            1.177627,52.928263,0            1.177662,52.928236,0            1.177692,52.92821,0            1.177731,52.928169,0            1.177761,52.92814,0            1.17779,52.928099,0            1.17782,52.928056,0            1.177851,52.928009,0            1.177872,52.927967,0            1.177887,52.927926,0            1.1779,52.927884,0            1.177911,52.92785,0            1.177916,52.927818,0            1.17792,52.927778,0            1.177922,52.927732,0            1.177919,52.927676,0            1.177912,52.927558,0            1.177911,52.927464,0            1.17791,52.927407,0            1.177914,52.927354,0            1.17793,52.927297,0            1.177944,52.927248,0            1.177961,52.927208,0            1.17797,52.927165,0            1.177978,52.927081,0            1.177978,52.926969,0            1.17798,52.926902,0            1.177995,52.926779,0            1.177995,52.926705,0            1.178032,52.926634,0            1.178134,52.926566,0            1.178215,52.926488,0            1.178301,52.926407,0            1.178392,52.926378,0            1.179941,52.926154,0            1.18015,52.925928,0            1.180317,52.925728,0            1.180435,52.925556,0            1.180515,52.925462,0            1.180537,52.925407,0            1.180558,52.925326,0            1.18058,52.925168,0            1.180585,52.925042,0            1.18057,52.924994,0            1.18056,52.924958,0            1.180494,52.924939,0            1.180036,52.924869,0          </coordinates></LineString></Placemark><Placemark><name>Start/Finish</name><styleUrl>#icon-1899-FFEA00-nodesc</styleUrl><Point><coordinates>            1.180036,52.924869,0          </coordinates></Point></Placemark></Folder></Document></kml>