<?xml version="1.0" encoding="UTF-8"?><kml xmlns="http://www.opengis.net/kml/2.2"><Document><name>Shipley Country parkrun</name><description/><Style id="icon-1534-0288D1-nodesc-normal"><IconStyle><color>ffd18802</color><scale>1</scale><Icon><href>https://www.gstatic.com/mapspro/images/stock/503-wht-blank_maps.png</href></Icon></IconStyle><LabelStyle><scale>0</scale></LabelStyle><BalloonStyle><text><![CDATA[<h3>$[name]</h3>]]></text></BalloonStyle></Style><Style id="icon-1534-0288D1-nodesc-highlight"><IconStyle><color>ffd18802</color><scale>1</scale><Icon><href>https://www.gstatic.com/mapspro/images/stock/503-wht-blank_maps.png</href></Icon></IconStyle><LabelStyle><scale>1</scale></LabelStyle><BalloonStyle><text><![CDATA[<h3>$[name]</h3>]]></text></BalloonStyle></Style><StyleMap id="icon-1534-0288D1-nodesc"><Pair><key>normal</key><styleUrl>#icon-1534-0288D1-nodesc-normal</styleUrl></Pair><Pair><key>highlight</key><styleUrl>#icon-1534-0288D1-nodesc-highlight</styleUrl></Pair></StyleMap><Style id="icon-1644-0288D1-nodesc-normal"><IconStyle><color>ffd18802</color><scale>1</scale><Icon><href>https://www.gstatic.com/mapspro/images/stock/503-wht-blank_maps.png</href></Icon></IconStyle><LabelStyle><scale>0</scale></LabelStyle><BalloonStyle><text><![CDATA[<h3>$[name]</h3>]]></text></BalloonStyle></Style><Style id="icon-1644-0288D1-nodesc-highlight"><IconStyle><color>ffd18802</color><scale>1</scale><Icon><href>https://www.gstatic.com/mapspro/images/stock/503-wht-blank_maps.png</href></Icon></IconStyle><LabelStyle><scale>1</scale></LabelStyle><BalloonStyle><text><![CDATA[<h3>$[name]</h3>]]></text></BalloonStyle></Style><StyleMap id="icon-1644-0288D1-nodesc"><Pair><key>normal</key><styleUrl>#icon-1644-0288D1-nodesc-normal</styleUrl></Pair><Pair><key>highlight</key><styleUrl>#icon-1644-0288D1-nodesc-highlight</styleUrl></Pair></StyleMap><Style id="icon-1899-0F9D58-nodesc-normal"><IconStyle><color>ff589d0f</color><scale>1</scale><Icon><href>https://www.gstatic.com/mapspro/images/stock/503-wht-blank_maps.png</href></Icon><hotSpot x="32" xunits="pixels" y="64" yunits="insetPixels"/></IconStyle><LabelStyle><scale>0</scale></LabelStyle><BalloonStyle><text><![CDATA[<h3>$[name]</h3>]]></text></BalloonStyle></Style><Style id="icon-1899-0F9D58-nodesc-highlight"><IconStyle><color>ff589d0f</color><scale>1</scale><Icon><href>https://www.gstatic.com/mapspro/images/stock/503-wht-blank_maps.png</href></Icon><hotSpot x="32" xunits="pixels" y="64" yunits="insetPixels"/></IconStyle><LabelStyle><scale>1</scale></LabelStyle><BalloonStyle><text><![CDATA[<h3>$[name]</h3>]]></text></BalloonStyle></Style><StyleMap id="icon-1899-0F9D58-nodesc"><Pair><key>normal</key><styleUrl>#icon-1899-0F9D58-nodesc-normal</styleUrl></Pair><Pair><key>highlight</key><styleUrl>#icon-1899-0F9D58-nodesc-highlight</styleUrl></Pair></StyleMap><Style id="icon-1899-FF5252-nodesc-normal"><IconStyle><color>ff5252ff</color><scale>1</scale><Icon><href>https://www.gstatic.com/mapspro/images/stock/503-wht-blank_maps.png</href></Icon><hotSpot x="32" xunits="pixels" y="64" yunits="insetPixels"/></IconStyle><LabelStyle><scale>0</scale></LabelStyle><BalloonStyle><text><![CDATA[<h3>$[name]</h3>]]></text></BalloonStyle></Style><Style id="icon-1899-FF5252-nodesc-highlight"><IconStyle><color>ff5252ff</color><scale>1</scale><Icon><href>https://www.gstatic.com/mapspro/images/stock/503-wht-blank_maps.png</href></Icon><hotSpot x="32" xunits="pixels" y="64" yunits="insetPixels"/></IconStyle><LabelStyle><scale>1</scale></LabelStyle><BalloonStyle><text><![CDATA[<h3>$[name]</h3>]]></text></BalloonStyle></Style><StyleMap id="icon-1899-FF5252-nodesc"><Pair><key>normal</key><styleUrl>#icon-1899-FF5252-nodesc-normal</styleUrl></Pair><Pair><key>highlight</key><styleUrl>#icon-1899-FF5252-nodesc-highlight</styleUrl></Pair></StyleMap><Style id="line-0288D1-5069-nodesc-normal"><LineStyle><color>ffd18802</color><width>5.069</width></LineStyle><BalloonStyle><text><![CDATA[<h3>$[name]</h3>]]></text></BalloonStyle></Style><Style id="line-0288D1-5069-nodesc-highlight"><LineStyle><color>ffd18802</color><width>7.6035</width></LineStyle><BalloonStyle><text><![CDATA[<h3>$[name]</h3>]]></text></BalloonStyle></Style><StyleMap id="line-0288D1-5069-nodesc"><Pair><key>normal</key><styleUrl>#line-0288D1-5069-nodesc-normal</styleUrl></Pair><Pair><key>highlight</key><styleUrl>#line-0288D1-5069-nodesc-highlight</styleUrl></Pair></StyleMap><Folder><name>Derbyshire</name><Placemark><name>Parking </name><styleUrl>#icon-1644-0288D1-nodesc</styleUrl><Point><coordinates>            -1.358979,53.004235,0          </coordinates></Point></Placemark><Placemark><name>Parking</name><styleUrl>#icon-1644-0288D1-nodesc</styleUrl><Point><coordinates>            -1.358721,53.003125,0          </coordinates></Point></Placemark><Placemark><name>Cafe</name><styleUrl>#icon-1534-0288D1-nodesc</styleUrl><Point><coordinates>            -1.359783,53.002211,0          </coordinates></Point></Placemark><Placemark><name>Course</name><styleUrl>#line-0288D1-5069-nodesc</styleUrl><LineString><tessellate>1</tessellate><coordinates>            -1.360116,53.001691,0            -1.360459,53.001136,0            -1.359858,53.000955,0            -1.360094,53.000555,0            -1.359987,53.000219,0            -1.359665,52.999961,0            -1.358872,52.999586,0            -1.358228,52.999044,0            -1.357863,52.998696,0            -1.357198,52.997843,0            -1.356597,52.997262,0            -1.355245,52.995945,0            -1.359644,52.994382,0            -1.360717,52.997172,0            -1.36136,52.999096,0            -1.361489,53.000181,0            -1.36121,53.001097,0            -1.360953,53.00164,0            -1.360094,53.002402,0            -1.359494,53.00257,0            -1.358528,53.002828,0            -1.357562,53.002866,0            -1.356704,53.00275,0            -1.355867,53.002841,0            -1.35458,53.002544,0            -1.353486,53.002169,0            -1.353014,53.001846,0            -1.352391,53.001485,0            -1.351984,53.000736,0            -1.352713,53.000542,0            -1.353486,52.999961,0            -1.354022,52.999483,0            -1.354623,52.999044,0            -1.355202,52.998825,0            -1.355953,52.998696,0            -1.356876,52.998592,0            -1.35767,52.998644,0            -1.358378,52.999186,0            -1.359065,52.99969,0            -1.359858,53.000116,0            -1.360116,53.000555,0            -1.359858,53.000968,0            -1.360459,53.001136,0            -1.360138,53.001601,0            -1.359451,53.001924,0            -1.359065,53.002156,0            -1.358807,53.002595,0            -1.358657,53.002789,0            -1.35782,53.002866,0            -1.356833,53.002789,0            -1.356018,53.002841,0            -1.355567,53.002815,0            -1.354859,53.002608,0            -1.354258,53.002427,0            -1.353614,53.002234,0            -1.352799,53.001743,0            -1.351962,53.0008,0            -1.352541,53.000594,0            -1.353292,53.00009,0            -1.353915,52.999561,0            -1.354816,52.998967,0            -1.356189,52.99867,0            -1.35767,52.998631,0            -1.358657,52.999406,0            -1.359665,53,0            -1.360202,53.000568,0            -1.359837,53.000981,0          </coordinates></LineString></Placemark><Placemark><name>Finish </name><styleUrl>#icon-1899-FF5252-nodesc</styleUrl><Point><coordinates>            -1.359858,53.000968,0          </coordinates></Point></Placemark><Placemark><name>Start</name><styleUrl>#icon-1899-0F9D58-nodesc</styleUrl><Point><coordinates>            -1.360116,53.001691,0          </coordinates></Point></Placemark></Folder></Document></kml>