<?xml version="1.0" encoding="UTF-8"?><kml xmlns="http://www.opengis.net/kml/2.2"><Document><name>Shrewsbury parkrun (from June 2024)</name><description/><Style id="icon-123-nodesc-normal"><IconStyle><scale>1.1</scale><Icon><href>https://www.gstatic.com/mapspro/images/stock/123-red-dot.png</href></Icon><hotSpot x="16" xunits="pixels" y="32" yunits="insetPixels"/></IconStyle><LabelStyle><scale>0</scale></LabelStyle><BalloonStyle><text><![CDATA[<h3>$[name]</h3>]]></text></BalloonStyle></Style><Style id="icon-123-nodesc-highlight"><IconStyle><scale>1.1</scale><Icon><href>https://www.gstatic.com/mapspro/images/stock/123-red-dot.png</href></Icon><hotSpot x="16" xunits="pixels" y="32" yunits="insetPixels"/></IconStyle><LabelStyle><scale>1.1</scale></LabelStyle><BalloonStyle><text><![CDATA[<h3>$[name]</h3>]]></text></BalloonStyle></Style><StyleMap id="icon-123-nodesc"><Pair><key>normal</key><styleUrl>#icon-123-nodesc-normal</styleUrl></Pair><Pair><key>highlight</key><styleUrl>#icon-123-nodesc-highlight</styleUrl></Pair></StyleMap><Style id="icon-61-nodesc-normal"><IconStyle><scale>1.1</scale><Icon><href>https://www.gstatic.com/mapspro/images/stock/61-green-dot.png</href></Icon><hotSpot x="16" xunits="pixels" y="32" yunits="insetPixels"/></IconStyle><LabelStyle><scale>0</scale></LabelStyle><BalloonStyle><text><![CDATA[<h3>$[name]</h3>]]></text></BalloonStyle></Style><Style id="icon-61-nodesc-highlight"><IconStyle><scale>1.1</scale><Icon><href>https://www.gstatic.com/mapspro/images/stock/61-green-dot.png</href></Icon><hotSpot x="16" xunits="pixels" y="32" yunits="insetPixels"/></IconStyle><LabelStyle><scale>1.1</scale></LabelStyle><BalloonStyle><text><![CDATA[<h3>$[name]</h3>]]></text></BalloonStyle></Style><StyleMap id="icon-61-nodesc"><Pair><key>normal</key><styleUrl>#icon-61-nodesc-normal</styleUrl></Pair><Pair><key>highlight</key><styleUrl>#icon-61-nodesc-highlight</styleUrl></Pair></StyleMap><Style id="line-0288D1-3906-nodesc-normal"><LineStyle><color>ffd18802</color><width>3.906</width></LineStyle><BalloonStyle><text><![CDATA[<h3>$[name]</h3>]]></text></BalloonStyle></Style><Style id="line-0288D1-3906-nodesc-highlight"><LineStyle><color>ffd18802</color><width>5.859</width></LineStyle><BalloonStyle><text><![CDATA[<h3>$[name]</h3>]]></text></BalloonStyle></Style><StyleMap id="line-0288D1-3906-nodesc"><Pair><key>normal</key><styleUrl>#line-0288D1-3906-nodesc-normal</styleUrl></Pair><Pair><key>highlight</key><styleUrl>#line-0288D1-3906-nodesc-highlight</styleUrl></Pair></StyleMap><Folder><name>Shrewbury parkrun routes.gpx</name><Placemark><name>Start </name><styleUrl>#icon-61-nodesc</styleUrl><Point><coordinates>            -2.762175,52.705602,60.8          </coordinates></Point></Placemark><Placemark><name>Finish</name><styleUrl>#icon-123-nodesc</styleUrl><Point><coordinates>            -2.755225,52.703779,0          </coordinates></Point></Placemark><Placemark><name>Course</name><styleUrl>#line-0288D1-3906-nodesc</styleUrl><LineString><tessellate>1</tessellate><coordinates>            -2.762175,52.705602,60.8            -2.762193,52.705609,60.4            -2.762216,52.705615,61.2            -2.762238,52.70562,61.4            -2.762262,52.705628,61            -2.762289,52.705633,60.8            -2.76232,52.705638,60.6            -2.762351,52.705643,60.6            -2.762382,52.705648,60.6            -2.762411,52.705658,60.6            -2.762438,52.705669,60.6            -2.762466,52.705682,60.6            -2.762496,52.705696,60.4            -2.762529,52.705711,60.4            -2.762561,52.705728,60.4            -2.762586,52.705744,60.4            -2.762613,52.705758,60.4            -2.762641,52.705772,60.4            -2.76267,52.705791,60.4            -2.762695,52.70581,60.4            -2.76272,52.70583,60.2            -2.762745,52.705847,60.2            -2.76277,52.705861,60.2            -2.762794,52.705877,60.2            -2.76282,52.705894,60.2            -2.76285,52.705907,60.2            -2.762879,52.705922,60.2            -2.762904,52.705938,60.2            -2.762925,52.705952,60.2            -2.762948,52.70597,60            -2.762968,52.705991,60            -2.762986,52.706013,60            -2.763001,52.706035,60            -2.763017,52.70606,60            -2.763033,52.706085,60.2            -2.763045,52.706111,60.2            -2.763058,52.706133,60.2            -2.763072,52.706155,60.4            -2.763086,52.706176,60.4            -2.763099,52.706196,60.4            -2.763114,52.706218,60.2            -2.763131,52.706242,60.2            -2.763142,52.706265,60            -2.763152,52.706286,60            -2.763169,52.706309,60            -2.763186,52.70633,60            -2.763199,52.706351,60            -2.763207,52.706373,59.8            -2.763219,52.706394,59.8            -2.763228,52.706414,59.8            -2.763236,52.706435,59.8            -2.76325,52.706454,59.8            -2.763261,52.706472,59.8            -2.763272,52.706491,59.8            -2.763283,52.706512,59.8            -2.763291,52.706534,59.8            -2.763302,52.706555,60            -2.763311,52.706574,60            -2.763316,52.706593,60            -2.763318,52.706613,60.2            -2.763314,52.706632,60            -2.763297,52.706653,60            -2.763269,52.706673,60            -2.763236,52.706691,60            -2.763199,52.706706,60            -2.763162,52.70672,60            -2.763122,52.706732,59.8            -2.763088,52.706747,59.8            -2.763056,52.706763,59.8            -2.763026,52.706776,59.8            -2.762997,52.70679,59.8            -2.762968,52.706803,59.8            -2.762939,52.706817,59.6            -2.762905,52.706826,59.8            -2.762873,52.706836,59.8            -2.762841,52.706846,60            -2.762809,52.706871,60            -2.762776,52.706884,60            -2.762748,52.706899,60.2            -2.762719,52.706906,60.4            -2.762685,52.706913,60.6            -2.762653,52.706919,60.6            -2.76262,52.706926,60.6            -2.762586,52.706933,60.6            -2.762552,52.706945,60.8            -2.762522,52.706956,60.6            -2.762494,52.706965,60.6            -2.762459,52.706969,60.8            -2.762432,52.706964,60.8            -2.762403,52.706973,60.8            -2.762374,52.706979,60.8            -2.762346,52.706986,60.6            -2.762312,52.706991,60.8            -2.76229,52.706996,60.8            -2.76229,52.70701,60.8            -2.762248,52.707007,61            -2.76221,52.707006,60.8            -2.762166,52.707011,61            -2.762132,52.707017,61            -2.762095,52.707026,61            -2.762062,52.707034,61.2            -2.762032,52.707038,61.4            -2.761998,52.707038,61.6            -2.761967,52.707039,61.8            -2.761938,52.707045,62            -2.761909,52.707052,62.2            -2.76188,52.707059,62.4            -2.761846,52.707064,62.8            -2.761813,52.707069,63            -2.761786,52.707075,63            -2.761757,52.707087,63            -2.76173,52.707095,63            -2.761696,52.707102,63            -2.761662,52.707109,63            -2.76163,52.707118,63            -2.761599,52.707126,63.2            -2.761566,52.707132,63.4            -2.761527,52.707137,63.8            -2.761493,52.707142,64            -2.761462,52.707148,64            -2.761435,52.707157,64.2            -2.761412,52.707164,64.2            -2.761381,52.707169,64.2            -2.761346,52.707174,64.4            -2.761313,52.70718,64.4            -2.761282,52.707189,64.6            -2.761253,52.707201,64.6            -2.761217,52.707207,64.8            -2.761184,52.707215,64.8            -2.761151,52.707223,65            -2.761119,52.707232,65            -2.761092,52.707243,65.2            -2.761058,52.707253,65.4            -2.761024,52.707261,65.6            -2.760989,52.707269,65.8            -2.760953,52.707283,65.8            -2.760925,52.707293,65.8            -2.760896,52.7073,66.2            -2.760866,52.707305,66.2            -2.760832,52.707312,66.4            -2.7608,52.707319,66.4            -2.760773,52.70733,66.6            -2.760747,52.707339,66.8            -2.760718,52.707346,67            -2.760683,52.707351,67.4            -2.760651,52.707357,67.6            -2.76062,52.707366,67.6            -2.760589,52.707373,67.8            -2.760559,52.707379,68            -2.760529,52.707384,68.4            -2.760504,52.707389,68.6            -2.760476,52.707395,68.8            -2.760447,52.707401,68.8            -2.760418,52.707407,69            -2.760384,52.70741,69.2            -2.760351,52.707415,69.4            -2.76032,52.707421,69.6            -2.760284,52.707426,69.6            -2.760253,52.707429,69.6            -2.760215,52.707434,69.6            -2.760181,52.707439,69.8            -2.76015,52.707442,69.8            -2.760116,52.707445,70            -2.760086,52.707451,70            -2.760058,52.707458,70.4            -2.76003,52.707465,70.6            -2.759997,52.707474,70.8            -2.759962,52.707485,70.8            -2.759934,52.707492,70.8            -2.759906,52.7075,71            -2.759883,52.707502,71            -2.759854,52.707504,71            -2.759819,52.707503,71.2            -2.759787,52.707497,71.4            -2.759762,52.707484,71.8            -2.759735,52.707474,72            -2.759713,52.707459,72            -2.759694,52.707441,72.4            -2.759675,52.707422,72.6            -2.759655,52.707403,72.8            -2.759633,52.707383,73            -2.759619,52.70736,73            -2.759603,52.707335,73            -2.759588,52.70731,73            -2.759575,52.707285,73            -2.759561,52.707261,73            -2.759547,52.707237,72.8            -2.759531,52.707212,72.6            -2.759513,52.707189,72.4            -2.759493,52.707168,72.4            -2.759474,52.707147,72.4            -2.759458,52.707126,72.2            -2.759441,52.707105,72.2            -2.759423,52.707082,72.2            -2.759407,52.70706,72            -2.759388,52.707039,72            -2.759369,52.70702,72            -2.75935,52.707003,72            -2.759329,52.706987,72            -2.759313,52.706973,72.2            -2.75929,52.706955,72.4            -2.759265,52.706937,72.2            -2.75924,52.706919,72.4            -2.759213,52.706902,72.4            -2.759184,52.706885,72.4            -2.759158,52.706869,72.4            -2.759135,52.706852,72.4            -2.759113,52.706831,72.4            -2.759093,52.706813,72.4            -2.75908,52.706793,72.2            -2.759076,52.706772,72.2            -2.759087,52.706753,72            -2.759105,52.706739,71.8            -2.759127,52.706727,71.8            -2.759153,52.706718,71.6            -2.759183,52.706708,71.6            -2.759213,52.706699,71.6            -2.75924,52.70669,71.2            -2.759273,52.706676,71.4            -2.759306,52.706663,71            -2.759339,52.706649,70.8            -2.759371,52.706635,70.6            -2.759402,52.706622,70.4            -2.759433,52.70661,70.4            -2.759463,52.706598,70.4            -2.759493,52.706586,70.4            -2.759524,52.706573,70.4            -2.75955,52.706562,70.4            -2.75957,52.706551,70.2            -2.759583,52.706537,70.2            -2.759598,52.706519,70.2            -2.759619,52.706499,70.2            -2.759651,52.70647,70.2            -2.759679,52.706444,70            -2.759704,52.706418,69.8            -2.759732,52.706391,69.8            -2.759754,52.706366,69.6            -2.759765,52.706339,69.4            -2.759766,52.706313,69.2            -2.759756,52.706285,69            -2.759734,52.706264,68.8            -2.759707,52.70625,68.6            -2.75968,52.706236,68.4            -2.75965,52.706218,68.4            -2.759625,52.706205,68.4            -2.759602,52.706194,68.4            -2.759576,52.706183,68.2            -2.759555,52.706172,68.2            -2.759538,52.706163,68.4            -2.759512,52.706147,68.4            -2.759481,52.706138,68.4            -2.759452,52.706125,68.4            -2.759428,52.706114,68.4            -2.759403,52.706106,68.4            -2.759381,52.706094,68.6            -2.759364,52.706079,68.6            -2.759348,52.706063,68.6            -2.759346,52.706042,68.8            -2.759357,52.706022,68.6            -2.759377,52.706005,68.6            -2.759403,52.705988,68.4            -2.759426,52.705968,68            -2.759447,52.705949,67.8            -2.759472,52.705933,67.8            -2.759499,52.705915,67.6            -2.759525,52.705897,67.4            -2.759553,52.705879,67.2            -2.759579,52.705864,67.2            -2.759601,52.705851,66.8            -2.759624,52.705834,66.6            -2.759647,52.70582,66.4            -2.759673,52.705806,66            -2.759701,52.705792,65.8            -2.759723,52.70578,65.4            -2.759744,52.705768,65.2            -2.759764,52.705758,65            -2.759788,52.705738,64.6            -2.759819,52.705714,64.4            -2.759849,52.705693,64.2            -2.75988,52.705672,64            -2.759913,52.705653,63.8            -2.75994,52.705638,63.4            -2.759962,52.705625,63            -2.759987,52.705611,63            -2.760017,52.705595,62.8            -2.760051,52.705579,62.4            -2.760083,52.705563,62.2            -2.760122,52.705539,61.8            -2.760154,52.705521,61.8            -2.760187,52.705502,61.6            -2.760217,52.70548,61.6            -2.760242,52.705463,61.4            -2.760275,52.705444,61.4            -2.76033,52.705415,61            -2.760367,52.705391,61            -2.760411,52.705367,60.8            -2.760446,52.705351,60.2            -2.760483,52.705341,60            -2.760514,52.705327,59.8            -2.760549,52.705324,59.8            -2.760584,52.705325,60            -2.760618,52.705326,59.8            -2.760648,52.705329,60            -2.760686,52.705339,60            -2.760722,52.70535,60            -2.760755,52.70536,60            -2.760793,52.705368,59.8            -2.760827,52.705378,59.8            -2.760861,52.705389,59.6            -2.760893,52.7054,59.6            -2.760924,52.705411,59.6            -2.760954,52.705424,59.6            -2.760985,52.705437,59.6            -2.761013,52.705449,59.6            -2.761042,52.705459,59.6            -2.761073,52.705467,59.4            -2.761103,52.705476,59.4            -2.761137,52.705486,59.4            -2.761169,52.705496,59.2            -2.7612,52.705507,59.4            -2.761235,52.705515,59.2            -2.761277,52.705523,59.4            -2.761313,52.705528,59.6            -2.761353,52.705535,59.4            -2.761391,52.705539,59.6            -2.761429,52.705545,59.6            -2.761467,52.70555,59.4            -2.761506,52.705555,59.6            -2.761551,52.705559,59.4            -2.761586,52.705567,59.2            -2.761623,52.705573,59.4            -2.761657,52.705581,59.2            -2.761689,52.705591,59.4            -2.76173,52.705598,59.4            -2.761772,52.705601,59.2            -2.761812,52.705604,59.4            -2.761848,52.705608,59.2            -2.761883,52.705613,59.2            -2.761919,52.70562,59.4            -2.761962,52.705629,59.2            -2.762006,52.705636,59.4            -2.762047,52.705642,59.6            -2.762088,52.705651,59.6            -2.762127,52.705658,59.8            -2.762171,52.705667,59.8            -2.762215,52.705678,59.8            -2.762256,52.705689,60            -2.762297,52.705701,59.8            -2.762335,52.705712,59.6            -2.762371,52.705723,59.8            -2.762405,52.705733,59.8            -2.762434,52.705745,59.8            -2.762464,52.705756,59.6            -2.762495,52.705767,59.4            -2.762534,52.705768,59.6            -2.762573,52.705771,59.6            -2.762605,52.70578,59.6            -2.762634,52.705794,59.6            -2.762661,52.705808,59.4            -2.762688,52.705818,59.4            -2.762716,52.705833,59.6            -2.762745,52.705845,59.6            -2.762773,52.705858,59.4            -2.762802,52.705874,59.4            -2.762828,52.705891,59.4            -2.762857,52.705908,59.4            -2.762884,52.705924,60.2            -2.762911,52.705941,59.6            -2.762933,52.705961,59.6            -2.762955,52.705982,59.8            -2.762975,52.706002,59.4            -2.762994,52.706018,59.8            -2.76301,52.706033,59.6            -2.763024,52.70605,59.6            -2.763038,52.70607,59.6            -2.76305,52.706088,59.6            -2.763059,52.706105,59.4            -2.763068,52.706121,59.4            -2.763074,52.70614,59.4            -2.763082,52.706157,59.4            -2.76309,52.70617,59.4            -2.763102,52.706191,59.4            -2.76311,52.706212,59.4            -2.763119,52.706234,60.2            -2.763132,52.706258,59.4            -2.763141,52.706277,59.6            -2.76316,52.706298,60.6            -2.763167,52.706319,59.8            -2.763175,52.706338,59.8            -2.763185,52.706357,60            -2.763196,52.706386,59.8            -2.763213,52.706409,59.8            -2.763229,52.706433,60            -2.76324,52.706458,60            -2.763253,52.706481,60.2            -2.763268,52.706507,60.2            -2.763278,52.706531,60.2            -2.763292,52.706554,60.4            -2.763305,52.706579,60            -2.763318,52.706601,59.8            -2.763327,52.706623,60.4            -2.763336,52.70665,60.2            -2.763346,52.706674,60            -2.763358,52.706694,61            -2.763377,52.706726,60.4            -2.763397,52.706752,60.2            -2.76342,52.706775,60.2            -2.763436,52.706807,60            -2.763452,52.706828,60            -2.763468,52.706853,60            -2.763488,52.706882,59.8            -2.763513,52.706906,59.6            -2.763527,52.706927,59.8            -2.763538,52.706946,59.6            -2.76355,52.706968,59.8            -2.763561,52.706994,59.8            -2.763576,52.70702,59.6            -2.763586,52.707044,59.8            -2.763592,52.707064,60            -2.763608,52.707086,60            -2.763622,52.707112,60.2            -2.763632,52.707134,60            -2.76364,52.707154,60            -2.763654,52.707178,60.2            -2.763664,52.7072,60            -2.763676,52.707223,59.8            -2.763688,52.707248,60            -2.763702,52.707273,59.8            -2.763715,52.7073,59.8            -2.763723,52.707325,60            -2.763734,52.70735,59.8            -2.763743,52.707376,59.8            -2.76375,52.707404,60            -2.763751,52.707429,60            -2.763753,52.707451,60            -2.763751,52.70747,60            -2.763746,52.707493,60            -2.76374,52.707517,59.8            -2.763733,52.707539,60            -2.763725,52.707567,59.8            -2.763716,52.707591,59.8            -2.763702,52.70761,60            -2.763692,52.707628,59.8            -2.763683,52.707642,59.8            -2.763672,52.707655,60            -2.763661,52.707675,59.8            -2.763649,52.707703,59.8            -2.763635,52.707728,60            -2.763623,52.707752,59.8            -2.763609,52.707776,60            -2.763595,52.707801,60.2            -2.763582,52.707826,60.2            -2.763564,52.707847,60.2            -2.763544,52.707871,60.6            -2.763527,52.707896,60.4            -2.763509,52.707919,60.6            -2.76349,52.707941,60.8            -2.763471,52.707966,60.6            -2.763454,52.70799,60.8            -2.763433,52.708009,60.8            -2.76341,52.708029,60.6            -2.763386,52.708049,60.6            -2.763364,52.708068,60.4            -2.763343,52.708091,60.2            -2.763323,52.708112,60.2            -2.763298,52.70813,60.2            -2.76327,52.708148,60            -2.763245,52.708165,60.2            -2.763222,52.708185,60.4            -2.763194,52.708203,60.4            -2.763161,52.70822,60.6            -2.763131,52.708236,60.8            -2.763102,52.708255,60.8            -2.763071,52.708273,61            -2.763043,52.708294,61            -2.763016,52.708316,61            -2.762991,52.708337,61            -2.762967,52.708353,61            -2.762937,52.708371,60.8            -2.76293,52.708395,60.6            -2.762905,52.708413,60.6            -2.762873,52.708423,60.2            -2.762844,52.708427,60            -2.762816,52.708425,60.2            -2.762784,52.708423,60            -2.762755,52.708421,60.2            -2.762715,52.708425,60.4            -2.762674,52.708423,60.4            -2.762639,52.70842,60.4            -2.762602,52.708419,60.4            -2.76257,52.708418,60.2            -2.762547,52.708421,60.2            -2.76251,52.70842,60.2            -2.76247,52.708413,60            -2.762433,52.708405,60.2            -2.762399,52.7084,60.2            -2.762365,52.708396,60            -2.762321,52.708391,60.4            -2.762273,52.708386,60.4            -2.762234,52.70838,60.2            -2.762195,52.708376,60.4            -2.762154,52.708371,60.6            -2.762118,52.708366,60.4            -2.762076,52.708364,60.6            -2.762041,52.708362,60.8            -2.762002,52.708362,60.8            -2.761962,52.70836,61            -2.761924,52.708358,61            -2.761879,52.708358,61            -2.761836,52.708356,61.2            -2.761795,52.708352,61.8            -2.761753,52.708346,62.4            -2.761711,52.70834,62.6            -2.761671,52.708338,62.8            -2.761636,52.708335,63            -2.761598,52.708332,63.4            -2.76156,52.70833,63.8            -2.761521,52.70833,64            -2.761484,52.70833,64.4            -2.761449,52.70833,64.6            -2.761414,52.708329,64.8            -2.76138,52.708328,65.2            -2.761346,52.708327,65.4            -2.761316,52.708326,65.8            -2.761288,52.708322,66.2            -2.761263,52.708319,66.4            -2.761228,52.708322,66.8            -2.761198,52.708316,67            -2.76117,52.708311,67.2            -2.761134,52.708307,67.6            -2.761096,52.708303,67.8            -2.76106,52.708299,68            -2.761019,52.708294,68.6            -2.760973,52.708286,68.4            -2.760938,52.708275,68.8            -2.760896,52.708269,69            -2.760866,52.708255,69.2            -2.760836,52.708241,69.4            -2.760809,52.708224,69.2            -2.760784,52.708208,69.4            -2.760759,52.708191,69.6            -2.760736,52.708173,69.6            -2.760718,52.708151,70            -2.760695,52.708132,70.2            -2.760671,52.708115,70.2            -2.760645,52.708097,70.4            -2.760618,52.708079,70.8            -2.760588,52.708063,70.8            -2.76056,52.708045,71            -2.760531,52.708028,71            -2.760505,52.708014,71            -2.760481,52.707999,71.2            -2.760453,52.707984,71.2            -2.760426,52.707969,71.2            -2.760394,52.707951,71.2            -2.760363,52.707932,71.2            -2.760332,52.707916,71.2            -2.760297,52.707899,71.4            -2.760261,52.70788,71.4            -2.760229,52.707861,71.2            -2.760192,52.707841,71.4            -2.760156,52.707822,71.4            -2.76012,52.707803,71.2            -2.760086,52.707783,71.4            -2.760056,52.707763,71.4            -2.760029,52.707744,71.4            -2.760004,52.707721,71.6            -2.759984,52.707698,71.8            -2.75996,52.707675,71.8            -2.759936,52.707652,72            -2.759911,52.707632,72            -2.759888,52.707613,72            -2.759865,52.707593,72.2            -2.759833,52.707575,72.2            -2.759808,52.707558,72            -2.759782,52.70754,72.2            -2.759756,52.707523,72.2            -2.759728,52.707507,72            -2.759699,52.707491,72.2            -2.75967,52.707471,72.2            -2.759641,52.707449,72            -2.759615,52.707429,72.2            -2.759591,52.707406,72.2            -2.759569,52.707385,72.2            -2.759545,52.707364,72.4            -2.759519,52.707341,72.2            -2.759496,52.707315,72.4            -2.759477,52.707289,72.6            -2.759461,52.707264,72.6            -2.759451,52.707239,72.8            -2.75944,52.707215,73            -2.759427,52.707193,72.8            -2.759416,52.707168,73            -2.759401,52.707145,73            -2.759385,52.707125,73            -2.759369,52.707104,73            -2.75935,52.707083,73            -2.75933,52.707063,73            -2.759311,52.707042,73            -2.75929,52.707024,73            -2.759272,52.707006,72.6            -2.759255,52.706987,72.6            -2.759237,52.706966,72.6            -2.75922,52.706945,72.4            -2.759203,52.706924,72.6            -2.759183,52.706903,72.8            -2.759161,52.706882,72.6            -2.75914,52.70686,72.6            -2.759121,52.706835,72.6            -2.759101,52.706811,72.4            -2.759083,52.70679,72.4            -2.759071,52.70677,72.4            -2.759074,52.70675,72.2            -2.759089,52.706732,72.2            -2.759113,52.706717,72.2            -2.759143,52.706705,71.8            -2.759177,52.706695,71.8            -2.759209,52.706686,71.8            -2.759236,52.706678,71.2            -2.759265,52.706666,72.6            -2.7593,52.706651,72.8            -2.75933,52.706642,71.8            -2.759362,52.706628,72.6            -2.75939,52.706618,72.6            -2.759422,52.706608,72.2            -2.759453,52.706595,72.6            -2.759484,52.706584,72.6            -2.759513,52.706575,72.4            -2.759537,52.706567,72.4            -2.759553,52.706558,72.4            -2.759568,52.706546,72.2            -2.759587,52.706528,72.2            -2.759609,52.70651,72            -2.759644,52.706479,71.8            -2.759666,52.706456,71.8            -2.759688,52.706431,71.6            -2.759703,52.706403,71.4            -2.759728,52.706363,71.4            -2.759733,52.706334,71.2            -2.759718,52.706315,71            -2.759697,52.706299,71            -2.759673,52.706285,70.8            -2.759647,52.706274,70.6            -2.759617,52.706261,70.6            -2.759585,52.706248,70.4            -2.759551,52.706231,70.2            -2.75952,52.706213,70.4            -2.759487,52.706196,70.2            -2.759456,52.706182,70            -2.759423,52.706167,70.2            -2.759393,52.706152,70            -2.759367,52.706134,70            -2.759341,52.706114,70.2            -2.75932,52.706091,70.2            -2.759307,52.70606,70            -2.759305,52.706035,70.2            -2.759315,52.706011,70            -2.759337,52.705987,70.2            -2.759363,52.705962,70.2            -2.759392,52.705942,70            -2.759424,52.705921,70            -2.759453,52.705901,70            -2.75948,52.705883,69.6            -2.759509,52.705867,69.4            -2.759534,52.705851,69            -2.759557,52.705832,68.4            -2.759582,52.70581,68.4            -2.759604,52.70579,68.2            -2.759627,52.705774,67.8            -2.759654,52.70576,67.6            -2.759679,52.705744,67.4            -2.759701,52.705728,67.2            -2.759722,52.705712,67            -2.759743,52.705694,66.6            -2.759768,52.705675,66.2            -2.759796,52.705656,66            -2.759823,52.705641,65.6            -2.759853,52.705619,65.2            -2.759891,52.7056,65            -2.759929,52.705576,64.6            -2.759962,52.705554,64.4            -2.759996,52.705539,64.4            -2.760028,52.705523,64.2            -2.76006,52.705506,64            -2.760092,52.705489,64            -2.760123,52.705475,63.6            -2.760159,52.705459,63.4            -2.760194,52.705441,63.4            -2.760229,52.705417,63.2            -2.760255,52.705396,63            -2.760274,52.705375,63            -2.760292,52.705348,62.8            -2.760296,52.705322,62.4            -2.760292,52.705297,62.4            -2.760271,52.705276,62.2            -2.76024,52.705252,62.2            -2.760204,52.705221,62.2            -2.760179,52.705204,62            -2.760148,52.70519,62            -2.760109,52.705173,62            -2.760071,52.705162,61.8            -2.76003,52.705156,61.8            -2.759996,52.705147,61.8            -2.759964,52.705136,61.6            -2.75993,52.705125,61.6            -2.759895,52.705115,61.8            -2.759862,52.705104,61.6            -2.759829,52.705094,61.8            -2.759796,52.705082,61.8            -2.759764,52.70507,61.6            -2.759731,52.705057,61.8            -2.759696,52.705042,61.8            -2.759663,52.705029,61.4            -2.759634,52.705015,61.6            -2.759609,52.705006,61.6            -2.759576,52.704998,61.4            -2.759543,52.70499,61.4            -2.759513,52.70498,61.4            -2.759481,52.70497,61.2            -2.759446,52.70496,61.4            -2.759418,52.704952,61.4            -2.759392,52.704946,61.2            -2.759361,52.704938,61.4            -2.759335,52.704927,61.4            -2.759307,52.704915,61.2            -2.759277,52.704903,61.4            -2.759236,52.704891,61.4            -2.759198,52.704874,61.2            -2.759164,52.70486,61.4            -2.759123,52.704845,61.6            -2.759083,52.704833,61.4            -2.759047,52.704823,61.2            -2.759016,52.704811,61.4            -2.758988,52.704796,61            -2.758958,52.70478,61            -2.758929,52.704766,61            -2.758901,52.704754,60.6            -2.75887,52.70475,60.6            -2.758838,52.704748,61            -2.758809,52.704744,60.6            -2.758783,52.704738,60.6            -2.758745,52.704727,61            -2.75871,52.70472,60.8            -2.758679,52.704711,60.8            -2.758648,52.704705,60.6            -2.758618,52.704699,60.4            -2.758593,52.704688,60.4            -2.75856,52.704674,60.4            -2.758528,52.704661,60.4            -2.75849,52.704641,60.6            -2.758441,52.70463,60.6            -2.758394,52.704618,60.8            -2.758347,52.704606,60.8            -2.758301,52.704598,61.2            -2.758263,52.704588,61            -2.758218,52.704581,61            -2.758177,52.704571,61.4            -2.75814,52.704564,61.2            -2.758103,52.70456,61.2            -2.758073,52.704554,61.4            -2.758038,52.704547,61.4            -2.757994,52.704538,61.2            -2.757948,52.704526,61.4            -2.757906,52.704513,61.4            -2.757867,52.704503,61.2            -2.757822,52.704488,61.4            -2.757776,52.704476,61.6            -2.757736,52.704462,61.6            -2.757696,52.704453,61.8            -2.75765,52.704443,61.8            -2.757612,52.704432,61.8            -2.75757,52.704421,62            -2.757527,52.704406,62            -2.757489,52.70439,61.8            -2.757453,52.704374,61.8            -2.757418,52.70436,62            -2.757388,52.704346,61.8            -2.757359,52.704337,61.8            -2.757333,52.70433,61.8            -2.757307,52.704324,61.6            -2.757282,52.704313,61.6            -2.757256,52.704299,61.6            -2.757231,52.704283,61.4            -2.757202,52.704269,61.4            -2.757165,52.704256,61.6            -2.757131,52.704241,61.6            -2.757092,52.704227,61.6            -2.757052,52.704212,61.8            -2.757013,52.704203,61.6            -2.756973,52.704193,61.6            -2.756928,52.704185,61.8            -2.756888,52.704174,61.6            -2.756847,52.704164,61.4            -2.756803,52.704155,61.4            -2.756759,52.704143,61.4            -2.756716,52.704134,61.4            -2.756673,52.704124,61.4            -2.756639,52.704113,61.4            -2.756604,52.704105,61.6            -2.756565,52.704099,61.8            -2.756535,52.704091,61.8            -2.756502,52.704079,61.8            -2.756471,52.704072,62            -2.756437,52.70406,61.8            -2.756403,52.704052,61.8            -2.756362,52.70404,61.8            -2.756325,52.704029,61.8            -2.756289,52.704019,61.8            -2.75625,52.704008,62            -2.756215,52.703995,62            -2.756178,52.703981,62            -2.756121,52.703966,62.2            -2.756078,52.703959,62            -2.75604,52.703953,61.8            -2.755994,52.703945,61.8            -2.755953,52.703934,61.8            -2.755912,52.703925,61.6            -2.755865,52.703914,61.8            -2.755821,52.703897,61.6            -2.755783,52.703889,61.4            -2.755744,52.703882,61.6            -2.755702,52.703869,61.6            -2.75566,52.703858,61.4            -2.755619,52.703851,61.6            -2.755578,52.703843,61.6            -2.755537,52.703839,61.4            -2.75549,52.703834,61.6            -2.755445,52.703828,61.6            -2.755401,52.703819,61.4            -2.755358,52.703809,61.6            -2.755315,52.703805,61.8            -2.755281,52.703801,61.4            -2.755245,52.703796,61.6            -2.75521,52.703789,61.6            -2.755176,52.703783,61.4            -2.755144,52.703781,61.6            -2.755115,52.70378,61.6            -2.755082,52.703778,61.4            -2.75505,52.703776,61.6            -2.755015,52.703773,61.6            -2.75498,52.703768,61.4            -2.754947,52.703765,61.6            -2.754913,52.703766,61.6            -2.754876,52.703767,61.4            -2.754841,52.703764,61.6            -2.754806,52.70376,61.6            -2.754773,52.703755,61.4            -2.754738,52.703755,61.6            -2.754703,52.703756,61.6            -2.75467,52.703757,61.6            -2.754642,52.703752,61.8            -2.754613,52.703745,61.8            -2.754577,52.703739,61.8            -2.754539,52.703736,62            -2.7545,52.703732,62            -2.754464,52.703732,61.8            -2.754428,52.70373,61.8            -2.754384,52.703728,61.8            -2.754341,52.703729,61.6            -2.754297,52.703729,61.4            -2.754253,52.703725,61.8            -2.75421,52.703722,61.4            -2.754159,52.703718,61.4            -2.75411,52.703714,61.6            -2.754067,52.703711,61.4            -2.754025,52.703708,61.4            -2.753988,52.703704,61.6            -2.753942,52.703705,61.4            -2.753888,52.703705,61.4            -2.753852,52.703706,61.6            -2.753818,52.703705,61.6            -2.753785,52.703703,61.4            -2.753737,52.703701,61.6            -2.753677,52.703698,61.6            -2.753622,52.703696,61.6            -2.753571,52.703693,61.6            -2.753523,52.70369,61.4            -2.753489,52.703691,61.4            -2.75344,52.70369,61.4            -2.75339,52.70369,61.4            -2.753346,52.70369,61.4            -2.753304,52.703692,61.4            -2.75327,52.703691,61.4            -2.753231,52.703688,61.2            -2.753186,52.703686,61.4            -2.753144,52.703684,61.4            -2.753103,52.703684,61.2            -2.753071,52.703685,61.4            -2.753033,52.703686,61.4            -2.752997,52.703689,61.2            -2.752958,52.70369,61.4            -2.752912,52.703694,61.4            -2.752873,52.703697,61.2            -2.752832,52.703701,61.4            -2.752789,52.703706,61.4            -2.752755,52.703711,61.2            -2.752722,52.703716,61.2            -2.752685,52.703723,61.2            -2.752646,52.703732,61            -2.752602,52.703742,61            -2.752544,52.703758,61.2            -2.752499,52.703773,61.2            -2.75245,52.703787,61            -2.752391,52.703803,61.2            -2.752343,52.703815,61            -2.752297,52.703819,61            -2.752258,52.703821,61.2            -2.752222,52.703827,61            -2.752188,52.703838,61            -2.752152,52.70385,61            -2.752117,52.703853,61            -2.752083,52.703864,61            -2.752051,52.703872,61            -2.752019,52.703882,61            -2.751993,52.703893,60.8            -2.751959,52.703903,61            -2.751913,52.703913,60.8            -2.751872,52.703925,60.6            -2.751832,52.703937,60.8            -2.751784,52.703951,60.8            -2.75174,52.703962,60.6            -2.751702,52.703971,60.8            -2.751661,52.703978,60.8            -2.751622,52.703992,60.8            -2.751573,52.704004,60.8            -2.751529,52.704015,60.8            -2.751487,52.704027,60.6            -2.751447,52.704037,60.4            -2.751412,52.704045,60.4            -2.751378,52.704053,60.2            -2.751348,52.704052,60.2            -2.751312,52.704058,60.4            -2.751278,52.704064,60.2            -2.751239,52.704073,60.2            -2.751205,52.704086,60.4            -2.751168,52.704098,60.4            -2.751135,52.704111,60.4            -2.751102,52.70412,60.4            -2.751074,52.704132,60.4            -2.751041,52.704139,60.4            -2.751001,52.704148,60.4            -2.750967,52.704158,60.4            -2.75093,52.704172,60.4            -2.75089,52.704186,60.4            -2.75085,52.704203,60.4            -2.750818,52.704211,60.4            -2.750781,52.704221,60.4            -2.750751,52.70423,60.4            -2.75072,52.704241,60.4            -2.750688,52.704254,60.4            -2.750655,52.704267,60.4            -2.750621,52.704281,60.4            -2.750585,52.704294,60.6            -2.75055,52.704307,60.6            -2.750517,52.70432,60.6            -2.750485,52.704333,60.8            -2.750454,52.704349,60.8            -2.750417,52.704363,60.8            -2.750376,52.704372,61            -2.750339,52.704384,61.2            -2.750303,52.704397,61.2            -2.750269,52.704407,61.2            -2.750232,52.70442,61            -2.750196,52.704431,61.2            -2.750162,52.70444,61            -2.750132,52.704447,60.8            -2.750103,52.704461,61            -2.750076,52.704479,60.8            -2.75005,52.704496,60.6            -2.750024,52.70452,60.8            -2.749999,52.704538,60.8            -2.749975,52.704556,60.8            -2.749951,52.704584,60.8            -2.749929,52.704607,60.8            -2.749908,52.704627,60.8            -2.749886,52.704642,60.8            -2.749863,52.704667,60.8            -2.749844,52.704684,60.8            -2.749824,52.704704,61            -2.7498,52.704725,60.8            -2.749771,52.704745,60.8            -2.749739,52.704766,61            -2.749706,52.704775,61            -2.74968,52.704777,61            -2.749658,52.70478,61            -2.749655,52.704768,61.2            -2.749664,52.704758,61.4            -2.749682,52.704748,61.6            -2.749701,52.704744,61.6            -2.749724,52.704734,61.8            -2.749747,52.704733,61.8            -2.749764,52.704726,61.8            -2.749787,52.704718,61.8            -2.74982,52.70471,61.6            -2.749851,52.704692,61.4            -2.749879,52.704675,61.6            -2.749911,52.704652,61.4            -2.749944,52.704632,61.2            -2.749975,52.704612,61.4            -2.750008,52.704591,61.4            -2.750038,52.704577,61            -2.750064,52.704565,61.2            -2.750093,52.704552,61.2            -2.750121,52.704542,61            -2.750153,52.704528,61            -2.750185,52.704511,61            -2.750216,52.704497,61            -2.750248,52.704482,61            -2.75028,52.704471,61            -2.750312,52.704457,60.8            -2.750342,52.704445,61            -2.750372,52.704431,61            -2.7504,52.704418,60.8            -2.750432,52.704402,60.8            -2.750462,52.704385,60.8            -2.750497,52.704366,60.8            -2.75053,52.704355,61            -2.750564,52.704341,60.8            -2.750594,52.704328,60.8            -2.750626,52.704315,60.8            -2.750656,52.7043,60.8            -2.750685,52.704287,60.4            -2.750717,52.704275,60.6            -2.75075,52.704261,60.4            -2.750783,52.70425,60.4            -2.750815,52.704236,60.4            -2.750846,52.704222,60.4            -2.750879,52.704206,60.4            -2.750906,52.704192,60.6            -2.750935,52.704182,60.4            -2.750964,52.704174,60.2            -2.750996,52.704161,60.4            -2.75103,52.704148,60.4            -2.751064,52.704137,60.2            -2.751098,52.704126,60.6            -2.751135,52.704114,60.4            -2.751169,52.704103,60.6            -2.751201,52.704087,60.8            -2.751234,52.704072,60.8            -2.751266,52.704059,60.6            -2.751302,52.704042,60.8            -2.751339,52.704025,60.8            -2.751372,52.704011,60.8            -2.751406,52.703998,61            -2.751439,52.703985,61            -2.751471,52.703973,60.8            -2.751506,52.703962,61            -2.751542,52.703951,61            -2.75158,52.70394,61            -2.751618,52.703928,61            -2.751653,52.703919,61            -2.751693,52.703912,61            -2.75173,52.703907,61            -2.751765,52.703898,61            -2.751805,52.703889,60.8            -2.751843,52.703881,60.8            -2.751877,52.703873,61            -2.751921,52.703862,61            -2.751963,52.703854,60.8            -2.751996,52.703845,61.2            -2.75203,52.70384,61            -2.752079,52.703821,61            -2.752116,52.703813,61.2            -2.752156,52.703806,61.4            -2.752207,52.703795,61            -2.752249,52.703789,61.4            -2.752288,52.703781,61.4            -2.752329,52.703769,61.4            -2.75237,52.703761,61.6            -2.75241,52.70375,61.8            -2.752453,52.70374,61.8            -2.752494,52.703731,61.8            -2.752533,52.703718,61.8            -2.752577,52.70371,61.6            -2.752615,52.703704,61.4            -2.752654,52.703699,61.4            -2.752687,52.703698,61.4            -2.752724,52.703694,61.2            -2.752764,52.703686,61.4            -2.752806,52.703679,61.4            -2.752848,52.703669,61.4            -2.752899,52.703662,61.8            -2.752952,52.703657,61.6            -2.753002,52.703653,61.4            -2.753047,52.703653,61.6            -2.753095,52.703652,61.6            -2.753138,52.703651,61.6            -2.753181,52.703649,61.6            -2.753227,52.703641,61.6            -2.753274,52.70363,61.6            -2.753319,52.703625,61.6            -2.753353,52.703624,61.6            -2.753387,52.703625,61.6            -2.753415,52.703628,61.6            -2.753444,52.703634,61.8            -2.753476,52.703641,61.6            -2.753506,52.70365,61.6            -2.753541,52.703655,61.8            -2.753577,52.703665,61.8            -2.753621,52.70367,61.6            -2.75366,52.703677,61.4            -2.753695,52.703685,61.4            -2.753728,52.703693,61.6            -2.753763,52.703701,61.6            -2.753795,52.703708,62.8            -2.753833,52.703714,62.2            -2.753872,52.703718,62            -2.753912,52.70372,62.6            -2.753951,52.703722,61.6            -2.753988,52.703727,61.8            -2.754025,52.703735,62            -2.754066,52.703739,61.8            -2.754107,52.703741,61.8            -2.754146,52.703744,61.8            -2.754181,52.70375,61.8            -2.754221,52.703754,61.8            -2.754262,52.703755,62            -2.754296,52.703756,62            -2.754334,52.703758,62            -2.75438,52.703758,62.2            -2.754424,52.703756,62.2            -2.754464,52.703754,62            -2.754503,52.70376,62.2            -2.754544,52.703769,62.2            -2.754575,52.703778,62.2            -2.754609,52.703783,62.2            -2.754641,52.703787,62.2            -2.75468,52.70379,62.2            -2.754727,52.703791,62.2            -2.754773,52.703794,62.2            -2.754814,52.703799,61.8            -2.754849,52.703805,61.8            -2.754884,52.703811,62            -2.75492,52.703819,61.6            -2.754956,52.703825,61.6            -2.754997,52.703829,61.8            -2.755029,52.703836,61.8            -2.755063,52.703841,61.6            -2.755114,52.703843,61.8            -2.755175,52.703836,61.8            -2.755219,52.703838,61.8            -2.755251,52.703843,62            -2.755291,52.703845,62            -2.755335,52.70385,62            -2.755386,52.703853,62.2            -2.755438,52.703856,62.2            -2.755491,52.703863,62.2            -2.755536,52.703866,62.4            -2.755573,52.703876,62.4            -2.755616,52.703888,62.4            -2.755656,52.7039,62.4            -2.755705,52.70391,62.4            -2.755759,52.703917,62.4            -2.755804,52.703926,62.4            -2.755843,52.703935,62.2            -2.75589,52.703943,62            -2.755945,52.703948,62            -2.755989,52.703957,62            -2.756031,52.70397,61.8            -2.756073,52.703982,61.8            -2.756112,52.703991,62            -2.756149,52.704005,62            -2.756189,52.704018,62            -2.756228,52.704029,62            -2.756273,52.704034,62            -2.75632,52.704043,61.8            -2.756369,52.704048,61.8            -2.756418,52.704055,61.6            -2.756465,52.704061,61.8            -2.756523,52.704063,61.4            -2.756571,52.704068,61.8            -2.75662,52.704073,62            -2.756663,52.704081,60.8            -2.756702,52.704089,61.6            -2.756743,52.704096,61.6            -2.756787,52.704103,61.4            -2.756826,52.704113,61.6            -2.756863,52.704123,61.6            -2.756916,52.704133,61.6            -2.75696,52.704144,61.6            -2.757002,52.704157,61.6            -2.757037,52.70417,61.6            -2.75707,52.704183,61.6            -2.757102,52.704196,61.6            -2.757139,52.704207,61.6            -2.757178,52.704218,61.4            -2.757216,52.704229,61.6            -2.757255,52.704241,61.4            -2.757295,52.704252,61.4            -2.757334,52.704265,61.6            -2.757367,52.704277,61.4            -2.757403,52.704288,61.4            -2.757439,52.704301,61.6            -2.757478,52.704313,61.6            -2.75752,52.704326,61.6            -2.757558,52.704337,61.6            -2.757598,52.704346,61.6            -2.757635,52.70436,61.6            -2.757666,52.704374,61.8            -2.757705,52.704389,61.8            -2.757745,52.704403,61.6            -2.757784,52.704415,61.6            -2.757822,52.704426,61.6            -2.75786,52.704439,61.6            -2.757896,52.704452,61.4            -2.757935,52.704462,61.6            -2.757974,52.70447,61.6            -2.758015,52.704479,61.4            -2.758057,52.704487,61.4            -2.758097,52.704496,61.4            -2.758134,52.704508,61.2            -2.758167,52.704518,61.2            -2.758201,52.704526,61.2            -2.758237,52.704536,61            -2.758271,52.704547,60.8            -2.758306,52.704561,61            -2.758347,52.704573,60.8            -2.758391,52.704588,60.8            -2.758435,52.704599,61            -2.758478,52.704614,61.2            -2.758517,52.704623,61            -2.758552,52.704631,61            -2.758594,52.704639,61            -2.758638,52.704647,61            -2.758677,52.704656,60.8            -2.758723,52.704662,60.8            -2.758769,52.704669,60.6            -2.758808,52.704684,60.6            -2.758853,52.704697,60.8            -2.758895,52.704706,60.8            -2.758929,52.704718,60.8            -2.758963,52.704726,61            -2.758997,52.704735,61            -2.759043,52.704739,61            -2.759078,52.70475,61            -2.759106,52.704765,61            -2.759132,52.704775,61            -2.759162,52.704786,61            -2.759197,52.704801,61            -2.759228,52.704815,61            -2.75926,52.704828,61            -2.759285,52.704848,61.2            -2.759306,52.704868,61            -2.759324,52.704887,61            -2.759353,52.7049,61.2            -2.759391,52.704914,61.2            -2.759431,52.704926,61.4            -2.759471,52.704938,61.4            -2.759509,52.704949,61.6            -2.759543,52.704959,61.6            -2.759579,52.70497,61.6            -2.759621,52.704984,61.6            -2.759662,52.704998,61.4            -2.759696,52.705012,61.2            -2.759729,52.705025,61.4            -2.759761,52.705042,61.4            -2.759794,52.70506,61.4            -2.759828,52.705076,61.6            -2.759862,52.705092,61.6            -2.759892,52.705107,61.4            -2.759923,52.705122,61.6            -2.759954,52.705135,61.6            -2.759982,52.705149,61.4            -2.76001,52.705163,61.6            -2.760041,52.70518,60.8            -2.76007,52.705193,60.6            -2.760103,52.705208,61.2            -2.760135,52.705217,60.4            -2.760169,52.705227,60.6            -2.760204,52.705239,61.2            -2.760239,52.705248,61            -2.760271,52.70526,60.8            -2.760306,52.705275,61            -2.760336,52.70529,61            -2.760366,52.705306,61            -2.760392,52.705322,61            -2.760419,52.70534,61            -2.760449,52.705362,61            -2.760478,52.705379,61            -2.760513,52.705395,61            -2.760544,52.705408,60.8            -2.760577,52.705423,61            -2.76061,52.705442,61            -2.760644,52.705458,61            -2.760679,52.705474,61            -2.760713,52.705493,61            -2.760742,52.705509,61            -2.760772,52.705526,61            -2.760813,52.705536,61            -2.760851,52.705545,60.8            -2.760891,52.705554,60.8            -2.76093,52.705563,60.6            -2.760967,52.705573,60.6            -2.761006,52.705585,60.6            -2.761044,52.705593,60.4            -2.761087,52.705598,60.6            -2.761123,52.705608,60.6            -2.761159,52.705617,60.6            -2.761202,52.705623,60.6            -2.761245,52.705626,60.8            -2.761293,52.705623,60.8            -2.761333,52.705628,61            -2.761368,52.705637,61            -2.761403,52.705645,60.8            -2.761439,52.70565,60.8            -2.761469,52.705658,60.8            -2.761514,52.705655,60.6            -2.761554,52.705658,60.8            -2.761594,52.705664,60.8            -2.761631,52.70567,60.6            -2.761668,52.705677,60.8            -2.761704,52.705685,60.8            -2.76174,52.705692,60.6            -2.761789,52.705695,60.8            -2.761827,52.705705,60.6            -2.761863,52.705714,60.4            -2.761907,52.70572,60.6            -2.761954,52.705727,60.6            -2.761996,52.705736,60.4            -2.76204,52.705743,60.6            -2.762082,52.705752,60.6            -2.762119,52.705762,60.4            -2.762157,52.70577,60.6            -2.762185,52.705782,60.6            -2.762217,52.70579,60.6            -2.762269,52.705787,60.8            -2.762307,52.705794,60.6            -2.762344,52.705803,60.4            -2.762378,52.705816,60.6            -2.762417,52.705823,60.6            -2.762455,52.705832,60.6            -2.762503,52.705836,60.6            -2.762534,52.705846,60.6            -2.762568,52.705853,60.6            -2.762613,52.705858,60.8            -2.762657,52.705869,60.8            -2.762687,52.705882,60.6            -2.762719,52.705894,60.8            -2.762748,52.705906,60.8            -2.762771,52.705918,60.8            -2.762805,52.705928,61            -2.762824,52.705944,61            -2.76284,52.705959,60.8            -2.762863,52.70597,61            -2.762879,52.705986,61            -2.762894,52.705999,61            -2.762906,52.706014,61.2            -2.762919,52.706031,61.2            -2.762932,52.70605,61.2            -2.762948,52.706062,61.4            -2.762962,52.706081,61.4            -2.762972,52.706105,61.4            -2.762996,52.706123,61.4            -2.763015,52.70614,61.6            -2.763028,52.706157,61.8            -2.763045,52.706178,61.8            -2.763061,52.706202,61.8            -2.763075,52.706224,62            -2.76309,52.70624,62            -2.763096,52.70626,62            -2.763106,52.706282,61.8            -2.763114,52.706297,61.6            -2.763122,52.706313,61.6            -2.763133,52.706339,61.4            -2.76315,52.706363,61.4            -2.763163,52.706388,61.4            -2.763176,52.706407,61.4            -2.76319,52.706424,61.6            -2.763202,52.706444,61.8            -2.76322,52.706465,61.6            -2.763232,52.706484,61.6            -2.763242,52.706503,61.6            -2.763256,52.706522,61.4            -2.763292,52.706548,61.4            -2.763314,52.70657,60            -2.763336,52.706595,59.8            -2.763359,52.706621,59            -2.763382,52.706642,59.2            -2.763408,52.706667,58.6            -2.763437,52.70668,58.2            -2.763454,52.706708,58.8            -2.763468,52.706733,58.6            -2.763481,52.706751,58.4            -2.763496,52.706774,58.2            -2.763509,52.706797,58.2            -2.763524,52.706821,58            -2.763537,52.706845,58            -2.763545,52.706871,58            -2.763553,52.706891,58            -2.76356,52.70691,58.2            -2.763581,52.706948,58            -2.7636,52.706977,58            -2.763611,52.707009,58            -2.763627,52.707041,58            -2.763645,52.707069,57.6            -2.763664,52.707095,57.8            -2.763681,52.707123,57.8            -2.763696,52.707148,57.6            -2.76371,52.707179,57.8            -2.763722,52.707206,57.8            -2.763735,52.707232,57.6            -2.76375,52.707258,57.8            -2.763765,52.707286,57.8            -2.763773,52.707314,57.6            -2.763781,52.707341,57.6            -2.763782,52.707368,57.6            -2.763788,52.707397,57.6            -2.763788,52.707422,57.4            -2.763782,52.707446,57.6            -2.763778,52.707473,57.4            -2.763774,52.707497,57.4            -2.763768,52.707525,57.4            -2.763753,52.707549,57.4            -2.763744,52.707577,57.4            -2.763734,52.707601,57.4            -2.763724,52.707625,57.6            -2.763713,52.707648,57.6            -2.763695,52.707673,57.6            -2.76368,52.707696,57.6            -2.763667,52.707714,57.8            -2.763658,52.707733,58            -2.76365,52.707754,58            -2.763635,52.707774,57.8            -2.763618,52.707798,57.8            -2.763602,52.707818,58            -2.763587,52.707839,57.8            -2.763565,52.707867,58            -2.763544,52.707892,58            -2.763523,52.707916,57.8            -2.763504,52.707941,57.8            -2.763482,52.707966,57.8            -2.763465,52.707989,57.4            -2.763451,52.708009,57.6            -2.76343,52.708028,57.4            -2.763409,52.708049,57.2            -2.763383,52.708068,57.4            -2.763356,52.708089,57.2            -2.763333,52.70811,57            -2.763313,52.708126,57.2            -2.76329,52.708143,57            -2.763267,52.70816,57            -2.76324,52.708175,57.2            -2.763212,52.708194,57.2            -2.763181,52.708214,57            -2.763153,52.708231,57.2            -2.763126,52.708247,57            -2.763104,52.708264,56.8            -2.763082,52.708281,56.8            -2.763054,52.708301,56.6            -2.763023,52.708322,56.6            -2.762995,52.708344,56.4            -2.762962,52.708365,56.4            -2.762925,52.708386,56.4            -2.762892,52.708394,56.4            -2.762857,52.7084,56.6            -2.762819,52.708402,56.4            -2.762785,52.708406,56.6            -2.762744,52.708424,56.8            -2.762708,52.70843,57            -2.762672,52.708427,57            -2.762632,52.708427,57.2            -2.762597,52.708421,57.4            -2.762558,52.708416,57.4            -2.76252,52.70841,57.6            -2.762478,52.708405,57.6            -2.762444,52.7084,57.4            -2.762406,52.7084,57.4            -2.762368,52.7084,57.4            -2.76233,52.708399,57.2            -2.762295,52.708402,57.2            -2.762261,52.708398,57.2            -2.762225,52.708394,57            -2.762179,52.708397,57            -2.76214,52.708395,57.4            -2.762101,52.708392,57.4            -2.762056,52.708392,57.6            -2.762018,52.708383,58.2            -2.761989,52.708373,58            -2.761949,52.708365,58.4            -2.761913,52.70836,59            -2.761867,52.708358,59.2            -2.761823,52.708353,59.4            -2.761784,52.708349,59.6            -2.761747,52.708346,59.8            -2.761718,52.708339,60.2            -2.761683,52.708337,60.4            -2.761647,52.708336,60.8            -2.761614,52.708334,61            -2.761579,52.708335,61.2            -2.761549,52.708331,61.6            -2.761518,52.708327,61.8            -2.761483,52.708325,62.2            -2.761448,52.708322,62.6            -2.761411,52.708315,62.8            -2.761376,52.708307,63.2            -2.761345,52.708303,63.2            -2.761311,52.708298,63.2            -2.761281,52.708293,63.8            -2.761247,52.708286,64            -2.761221,52.708276,64.2            -2.761195,52.70827,64.6            -2.761164,52.708266,64.6            -2.761133,52.708261,65            -2.761102,52.708256,65.2            -2.761064,52.708253,65.4            -2.761023,52.708247,66            -2.760978,52.70824,65.8            -2.760936,52.708234,66.2            -2.760901,52.708226,66.2            -2.760864,52.708222,66.4            -2.760837,52.70821,66.6            -2.760815,52.708195,66.6            -2.760791,52.708176,67            -2.760768,52.708156,67.4            -2.760741,52.708142,67.4            -2.76071,52.70813,67.4            -2.760681,52.708116,67.8            -2.760655,52.708103,67.8            -2.760623,52.708091,68            -2.760593,52.708075,68            -2.760564,52.70806,68            -2.76053,52.708049,68.2            -2.760496,52.708036,68.2            -2.760465,52.708022,68            -2.760436,52.708007,68.2            -2.76041,52.707991,68.2            -2.760385,52.707973,68.2            -2.760362,52.707953,68.4            -2.760338,52.707935,68.6            -2.760315,52.707916,68.4            -2.760289,52.707895,68.8            -2.76026,52.707876,68.8            -2.760235,52.707859,68.6            -2.760209,52.707836,68.8            -2.760179,52.707816,68.8            -2.760153,52.707797,68.8            -2.76013,52.707779,68.6            -2.760106,52.70776,68.6            -2.760084,52.707741,68.4            -2.76006,52.707721,68.6            -2.760037,52.707704,68.6            -2.760018,52.707688,68.4            -2.759999,52.70767,68.4            -2.75997,52.70765,68.8            -2.759942,52.707634,68.8            -2.759911,52.707615,69            -2.759881,52.7076,69.2            -2.759854,52.707584,69.2            -2.759826,52.707568,69.2            -2.759798,52.707552,69.4            -2.759774,52.707535,69.4            -2.75975,52.70752,69.4            -2.759728,52.707506,69.6            -2.759704,52.707493,69.8            -2.75968,52.707477,69.8            -2.759654,52.707454,70.2            -2.759625,52.70743,70.2            -2.759601,52.707404,70.2            -2.75958,52.707373,70.4            -2.759562,52.707342,70.6            -2.759546,52.707312,70.4            -2.759517,52.707278,70.2            -2.759486,52.707246,70.2            -2.75946,52.707218,69.8            -2.759429,52.707188,69.6            -2.759404,52.70716,69.4            -2.759379,52.707134,69            -2.759354,52.707112,69            -2.75933,52.707092,69.2            -2.759311,52.707071,69            -2.759291,52.707053,69            -2.759271,52.707031,69.2            -2.759251,52.707007,69            -2.759231,52.706985,69            -2.75921,52.706962,69.2            -2.759188,52.706939,69.2            -2.759163,52.706916,69.2            -2.759132,52.706895,69.4            -2.759105,52.706872,69.4            -2.759083,52.70685,69.4            -2.759063,52.706828,69.6            -2.759047,52.706806,69.4            -2.759038,52.706782,69            -2.759037,52.706758,69.2            -2.759052,52.706735,69.2            -2.759078,52.706714,69            -2.759108,52.706697,69            -2.759136,52.706684,69            -2.759162,52.706674,69            -2.759184,52.706668,69            -2.759214,52.706659,69            -2.759241,52.70665,68.8            -2.759269,52.706641,68.6            -2.759298,52.706629,68.4            -2.759336,52.706612,68.2            -2.759372,52.706597,67.8            -2.759404,52.706581,67.8            -2.759443,52.706564,67.6            -2.759478,52.706546,67.4            -2.759508,52.706529,67.6            -2.75954,52.706511,67.4            -2.759574,52.706488,67.2            -2.759607,52.706461,67.2            -2.759635,52.706437,67            -2.759661,52.706414,66.8            -2.759681,52.706393,66.8            -2.759697,52.706376,66.6            -2.759711,52.706358,66.4            -2.759725,52.706324,66.4            -2.759725,52.706291,66            -2.759707,52.706266,65.8            -2.759679,52.706245,65.6            -2.759648,52.706227,65.4            -2.759614,52.706213,65.4            -2.759577,52.7062,65.6            -2.759543,52.706187,65.4            -2.759512,52.706174,65.4            -2.759474,52.706162,65.8            -2.759439,52.706151,65.6            -2.759406,52.706137,66            -2.759376,52.706121,66            -2.759348,52.706104,65.8            -2.759309,52.706095,66            -2.759275,52.706082,66.2            -2.759241,52.706078,65.8            -2.759221,52.706068,66            -2.759207,52.706055,66            -2.759211,52.706038,65.8            -2.759219,52.706022,66            -2.759237,52.706006,65.8            -2.759262,52.705991,65.4            -2.759285,52.705975,65.4            -2.75931,52.705961,65            -2.759337,52.705944,65            -2.759371,52.705926,64.8            -2.75941,52.705909,64.6            -2.759443,52.70589,64.4            -2.759471,52.705873,64.2            -2.7595,52.705857,63.6            -2.759529,52.70584,63.4            -2.759548,52.705828,63.2            -2.759572,52.705815,62.6            -2.759601,52.705801,62.6            -2.759635,52.705782,62.4            -2.759666,52.705765,62            -2.759695,52.705748,62            -2.759728,52.70573,61.6            -2.759766,52.705712,61.2            -2.759801,52.705691,61.2            -2.759837,52.705668,61            -2.759872,52.705648,60.6            -2.759902,52.705628,60.4            -2.759932,52.705611,60.2            -2.759963,52.705593,59.8            -2.759994,52.70557,59.8            -2.760029,52.705547,59.6            -2.760063,52.705525,59.2            -2.760097,52.705507,59.2            -2.760128,52.705492,59            -2.760158,52.705474,58.6            -2.760191,52.705458,58.6            -2.760217,52.705439,58.6            -2.760233,52.705416,58.4            -2.760242,52.705382,58.2            -2.760239,52.705359,58.2            -2.760231,52.705332,57.8            -2.760219,52.705304,57.8            -2.760195,52.705283,57.4            -2.760168,52.705265,57            -2.760148,52.70525,57.2            -2.760123,52.705232,57.2            -2.760098,52.705214,57            -2.760067,52.705197,57.2            -2.760034,52.705181,57.2            -2.760003,52.705168,56.8            -2.759977,52.705154,57.2            -2.759957,52.705141,57.2            -2.759934,52.705129,57            -2.759908,52.705116,56.8            -2.75988,52.705105,56.8            -2.759852,52.705093,56.6            -2.759828,52.705079,56.6            -2.759802,52.705068,56.6            -2.759772,52.705061,56.4            -2.759742,52.705051,56.4            -2.759709,52.70504,56.6            -2.759672,52.70503,56.4            -2.759635,52.70502,56.4            -2.759587,52.70501,56.6            -2.75955,52.705,56.6            -2.75951,52.704984,56.4            -2.759473,52.704967,56.4            -2.759437,52.704953,56.4            -2.759401,52.704939,56.4            -2.759353,52.704921,56.6            -2.759306,52.704906,56.6            -2.75926,52.704899,56.4            -2.759217,52.704886,56.6            -2.759174,52.704871,56.8            -2.759138,52.704857,56.6            -2.759107,52.704844,56.6            -2.759061,52.704831,56.4            -2.75903,52.70482,56.2            -2.759,52.704809,56.2            -2.758975,52.704798,56.2            -2.758946,52.704787,55.8            -2.758921,52.704777,55.8            -2.758875,52.704768,55.6            -2.75884,52.704756,55.6            -2.758802,52.704752,55.4            -2.758776,52.704744,55.4            -2.758746,52.704733,55.2            -2.758713,52.704722,55.2            -2.758675,52.704712,55.4            -2.758634,52.704702,55.6            -2.758595,52.704693,55.8            -2.758558,52.704682,56.2            -2.758523,52.704672,56.2            -2.75849,52.704661,56.2            -2.758461,52.704646,56.4            -2.758431,52.704633,56.4            -2.758398,52.704622,56.2            -2.758358,52.704611,56.4            -2.7583,52.7046,56.6            -2.758261,52.704595,56.6            -2.758225,52.704588,56.8            -2.758191,52.704578,56.8            -2.758151,52.704566,56.6            -2.758119,52.704552,56.8            -2.758086,52.704544,56.8            -2.75805,52.704537,56.6            -2.758015,52.704527,56.6            -2.757979,52.704518,56.8            -2.757944,52.704509,56.6            -2.757909,52.704499,56.6            -2.757875,52.70449,56.8            -2.757847,52.704483,56.4            -2.757814,52.704475,56.4            -2.757766,52.704463,56.6            -2.757738,52.704456,56.4            -2.757706,52.704447,56.4            -2.757663,52.704432,56.6            -2.757631,52.704421,56.6            -2.757594,52.70441,56.6            -2.757558,52.704395,56.6            -2.757522,52.704379,56.6            -2.757494,52.704365,56.6            -2.757455,52.70435,56.8            -2.757419,52.70434,56.8            -2.757384,52.704327,56.8            -2.757337,52.70431,56.8            -2.757289,52.704296,57            -2.757253,52.704284,57            -2.757214,52.704272,57            -2.757176,52.704265,57            -2.757126,52.704253,56.8            -2.757077,52.704241,56.8            -2.757033,52.704232,56.8            -2.756999,52.704225,56.8            -2.756967,52.704218,56.8            -2.756921,52.704208,57            -2.756877,52.704197,57            -2.756829,52.704186,57            -2.75678,52.704168,57            -2.756746,52.704155,57            -2.756709,52.704146,56.8            -2.756662,52.704137,56.8            -2.756609,52.704127,56.6            -2.756563,52.704111,56.4            -2.756521,52.704098,56.6            -2.756473,52.704085,56.6            -2.756429,52.704073,56.4            -2.756383,52.704064,56.4            -2.756335,52.704051,56.4            -2.756292,52.70404,56.4            -2.756248,52.704029,56.4            -2.756199,52.704017,56.4            -2.756157,52.704009,56.4            -2.756112,52.704002,56.4            -2.756073,52.703996,56.6            -2.756037,52.703988,56.4            -2.755999,52.703976,56.4            -2.75596,52.703963,56.6            -2.755918,52.703949,56.6            -2.75588,52.703939,56.6            -2.755831,52.70393,56.6            -2.755785,52.703917,56.8            -2.755739,52.703907,56.8            -2.755692,52.703899,56.8            -2.755645,52.703889,56.8            -2.7556,52.703881,56.6            -2.755558,52.703875,56.6            -2.755513,52.703867,56.6            -2.75547,52.703858,56.8            -2.755429,52.70385,56.8            -2.755381,52.703841,56.8            -2.755327,52.703831,56.8            -2.755281,52.70382,57            -2.755241,52.703811,57.2            -2.755196,52.703801,57.2            -2.755154,52.703795,57.2            -2.755108,52.70379,57.2            -2.755058,52.703785,57.2            -2.755007,52.703781,57.2            -2.754975,52.703775,57            -2.754942,52.703768,57            -2.754908,52.703759,57            -2.754877,52.703752,56.8            -2.754841,52.703746,56.8            -2.754796,52.70374,57            -2.754763,52.703738,56.8            -2.754735,52.703736,57            -2.754702,52.703736,57.2            -2.754667,52.703736,57            -2.754622,52.703736,57            -2.754577,52.703736,57.2            -2.754539,52.703734,57            -2.754503,52.703732,57            -2.754469,52.703734,57            -2.754436,52.703731,57            -2.754398,52.703728,57            -2.754355,52.703724,57            -2.754318,52.703719,57            -2.754279,52.703714,57            -2.75424,52.703709,57            -2.7542,52.703709,57.2            -2.754161,52.70371,57            -2.754119,52.703709,57            -2.75407,52.703707,56.8            -2.754025,52.703704,56.6            -2.753979,52.703699,56.6            -2.753936,52.703693,56.6            -2.753886,52.70369,56.6            -2.75384,52.70369,56.6            -2.753787,52.703693,56.8            -2.753736,52.703697,56.8            -2.753695,52.7037,56.8            -2.753653,52.703703,57            -2.753616,52.703704,57            -2.753571,52.703703,56.8            -2.753529,52.703704,57            -2.753486,52.703702,57            -2.753454,52.703695,57            -2.75341,52.703692,57            -2.753373,52.703688,57            -2.753316,52.703692,57            -2.753279,52.703688,57            -2.753247,52.703684,57            -2.753206,52.70368,56.8            -2.75315,52.703684,56.8            -2.753115,52.70368,57            -2.753084,52.703682,56.8            -2.753039,52.703685,56.8            -2.752999,52.703689,56.8            -2.752962,52.703696,56.8            -2.752924,52.703705,56.8            -2.752881,52.70371,57            -2.752848,52.703715,57            -2.752822,52.703722,57            -2.752792,52.70373,57.2            -2.752763,52.703732,57.2            -2.752723,52.703733,57            -2.752689,52.703735,57.2            -2.752661,52.703738,57            -2.752636,52.703745,57            -2.752607,52.703753,57          </coordinates></LineString></Placemark></Folder></Document></kml>