<?xml version="1.0" encoding="UTF-8"?><kml xmlns="http://www.opengis.net/kml/2.2"><Document><name>Skinadin parkrun</name><description/><Style id="icon-1899-FFEA00-nodesc-normal"><IconStyle><color>ff00eaff</color><scale>1</scale><Icon><href>https://www.gstatic.com/mapspro/images/stock/503-wht-blank_maps.png</href></Icon><hotSpot x="32" xunits="pixels" y="64" yunits="insetPixels"/></IconStyle><LabelStyle><scale>0</scale></LabelStyle><BalloonStyle><text><![CDATA[<h3>$[name]</h3>]]></text></BalloonStyle></Style><Style id="icon-1899-FFEA00-nodesc-highlight"><IconStyle><color>ff00eaff</color><scale>1</scale><Icon><href>https://www.gstatic.com/mapspro/images/stock/503-wht-blank_maps.png</href></Icon><hotSpot x="32" xunits="pixels" y="64" yunits="insetPixels"/></IconStyle><LabelStyle><scale>1</scale></LabelStyle><BalloonStyle><text><![CDATA[<h3>$[name]</h3>]]></text></BalloonStyle></Style><StyleMap id="icon-1899-FFEA00-nodesc"><Pair><key>normal</key><styleUrl>#icon-1899-FFEA00-nodesc-normal</styleUrl></Pair><Pair><key>highlight</key><styleUrl>#icon-1899-FFEA00-nodesc-highlight</styleUrl></Pair></StyleMap><Style id="line-0288D1-5069-nodesc-normal"><LineStyle><color>ffd18802</color><width>5.069</width></LineStyle><BalloonStyle><text><![CDATA[<h3>$[name]</h3>]]></text></BalloonStyle></Style><Style id="line-0288D1-5069-nodesc-highlight"><LineStyle><color>ffd18802</color><width>7.6035</width></LineStyle><BalloonStyle><text><![CDATA[<h3>$[name]</h3>]]></text></BalloonStyle></Style><StyleMap id="line-0288D1-5069-nodesc"><Pair><key>normal</key><styleUrl>#line-0288D1-5069-nodesc-normal</styleUrl></Pair><Pair><key>highlight</key><styleUrl>#line-0288D1-5069-nodesc-highlight</styleUrl></Pair></StyleMap><Folder><name>Untitled layer</name><Placemark><name>Course</name><styleUrl>#line-0288D1-5069-nodesc</styleUrl><LineString><tessellate>1</tessellate><coordinates>            -5.941069,57.259092,0            -5.940618,57.258791,0            -5.939073,57.258698,0            -5.938386,57.258965,0            -5.937871,57.259011,0            -5.937185,57.25886,0            -5.936691,57.258837,0            -5.935576,57.25922,0            -5.93476,57.259916,0            -5.931112,57.261611,0            -5.928645,57.262226,0            -5.926799,57.2624,0            -5.923001,57.260938,0            -5.921628,57.25965,0            -5.921928,57.25929,0            -5.919868,57.257526,0            -5.919504,57.25698,0            -5.919761,57.256864,0            -5.919568,57.25662,0            -5.919611,57.256365,0            -5.919525,57.256226,0            -5.919697,57.255588,0            -5.919868,57.255193,0            -5.919933,57.254856,0            -5.919504,57.254601,0            -5.91856,57.25423,0            -5.918324,57.254032,0            -5.918366,57.253788,0            -5.918731,57.253522,0            -5.918388,57.252988,0            -5.91798,57.252698,0            -5.918324,57.25257,0            -5.91989,57.252465,0            -5.920319,57.252233,0          </coordinates></LineString></Placemark><Placemark><name>Start/Finish</name><styleUrl>#icon-1899-FFEA00-nodesc</styleUrl><Point><coordinates>            -5.941069,57.259092,0          </coordinates></Point></Placemark></Folder></Document></kml>