<?xml version="1.0" encoding="UTF-8"?><kml xmlns="http://www.opengis.net/kml/2.2"><Document><name>Somerdale Pavilion parkrun</name><description/><Style id="icon-1899-0F9D58-nodesc-normal"><IconStyle><color>ff589d0f</color><scale>1</scale><Icon><href>https://www.gstatic.com/mapspro/images/stock/503-wht-blank_maps.png</href></Icon><hotSpot x="32" xunits="pixels" y="64" yunits="insetPixels"/></IconStyle><LabelStyle><scale>0</scale></LabelStyle><BalloonStyle><text><![CDATA[<h3>$[name]</h3>]]></text></BalloonStyle></Style><Style id="icon-1899-0F9D58-nodesc-highlight"><IconStyle><color>ff589d0f</color><scale>1</scale><Icon><href>https://www.gstatic.com/mapspro/images/stock/503-wht-blank_maps.png</href></Icon><hotSpot x="32" xunits="pixels" y="64" yunits="insetPixels"/></IconStyle><LabelStyle><scale>1</scale></LabelStyle><BalloonStyle><text><![CDATA[<h3>$[name]</h3>]]></text></BalloonStyle></Style><StyleMap id="icon-1899-0F9D58-nodesc"><Pair><key>normal</key><styleUrl>#icon-1899-0F9D58-nodesc-normal</styleUrl></Pair><Pair><key>highlight</key><styleUrl>#icon-1899-0F9D58-nodesc-highlight</styleUrl></Pair></StyleMap><Style id="icon-1899-FF5252-nodesc-normal"><IconStyle><color>ff5252ff</color><scale>1</scale><Icon><href>https://www.gstatic.com/mapspro/images/stock/503-wht-blank_maps.png</href></Icon><hotSpot x="32" xunits="pixels" y="64" yunits="insetPixels"/></IconStyle><LabelStyle><scale>0</scale></LabelStyle><BalloonStyle><text><![CDATA[<h3>$[name]</h3>]]></text></BalloonStyle></Style><Style id="icon-1899-FF5252-nodesc-highlight"><IconStyle><color>ff5252ff</color><scale>1</scale><Icon><href>https://www.gstatic.com/mapspro/images/stock/503-wht-blank_maps.png</href></Icon><hotSpot x="32" xunits="pixels" y="64" yunits="insetPixels"/></IconStyle><LabelStyle><scale>1</scale></LabelStyle><BalloonStyle><text><![CDATA[<h3>$[name]</h3>]]></text></BalloonStyle></Style><StyleMap id="icon-1899-FF5252-nodesc"><Pair><key>normal</key><styleUrl>#icon-1899-FF5252-nodesc-normal</styleUrl></Pair><Pair><key>highlight</key><styleUrl>#icon-1899-FF5252-nodesc-highlight</styleUrl></Pair></StyleMap><Style id="line-0288D1-5650-nodesc-normal"><LineStyle><color>ffd18802</color><width>5.65</width></LineStyle><BalloonStyle><text><![CDATA[<h3>$[name]</h3>]]></text></BalloonStyle></Style><Style id="line-0288D1-5650-nodesc-highlight"><LineStyle><color>ffd18802</color><width>8.475</width></LineStyle><BalloonStyle><text><![CDATA[<h3>$[name]</h3>]]></text></BalloonStyle></Style><StyleMap id="line-0288D1-5650-nodesc"><Pair><key>normal</key><styleUrl>#line-0288D1-5650-nodesc-normal</styleUrl></Pair><Pair><key>highlight</key><styleUrl>#line-0288D1-5650-nodesc-highlight</styleUrl></Pair></StyleMap><Folder><name>Untitled layer</name><Placemark><name>Course</name><styleUrl>#line-0288D1-5650-nodesc</styleUrl><LineString><tessellate>1</tessellate><coordinates>            -2.495851,51.42669,0            -2.495774,51.426624,0            -2.49568,51.426514,0            -2.495603,51.426398,0            -2.495535,51.426308,0            -2.495445,51.426162,0            -2.495348,51.426032,0            -2.495239,51.425946,0            -2.49506,51.425932,0            -2.494841,51.425948,0            -2.494619,51.425974,0            -2.494326,51.426002,0            -2.49405,51.42603,0            -2.493864,51.426016,0            -2.493719,51.426024,0            -2.493528,51.426092,0            -2.493378,51.426212,0            -2.493285,51.426322,0            -2.493272,51.42634,0            -2.493156,51.426486,0            -2.493025,51.42661,0            -2.493029,51.426664,0            -2.493117,51.426632,0            -2.493256,51.426532,0            -2.493315,51.4265,0            -2.493356,51.42647,0            -2.493413,51.426428,0            -2.49362,51.426354,0            -2.493651,51.426346,0            -2.493712,51.426357,0            -2.493736,51.426392,0            -2.49374,51.426492,0            -2.493764,51.426644,0            -2.493799,51.426808,0            -2.493788,51.42693,0            -2.493722,51.427028,0            -2.493658,51.427042,0            -2.493576,51.42703,0            -2.493462,51.427012,0            -2.49333,51.427002,0            -2.493214,51.427011,0            -2.493095,51.426988,0            -2.49301,51.42696,0            -2.492959,51.426944,0            -2.492875,51.42687,0            -2.492825,51.426868,0            -2.492716,51.426938,0            -2.492694,51.42696,0            -2.492586,51.42708,0            -2.49249,51.42719,0            -2.492356,51.427326,0            -2.492306,51.427367,0            -2.492313,51.427384,0            -2.492356,51.427406,0            -2.492415,51.427443,0            -2.49247,51.427466,0            -2.492798,51.427117,0            -2.492607,51.427505,0            -2.493007,51.42775,0            -2.493231,51.427828,0            -2.4935,51.427894,0            -2.493742,51.427968,0            -2.493922,51.428024,0            -2.494137,51.428102,0            -2.494293,51.428188,0            -2.494442,51.428272,0            -2.494482,51.428272,0            -2.4946,51.428272,0            -2.494665,51.428178,0            -2.49457,51.428102,0            -2.494482,51.42809,0            -2.494351,51.428072,0            -2.494155,51.428015,0            -2.494008,51.427952,0            -2.494052,51.42782,0            -2.494071,51.427741,0            -2.49398,51.427694,0            -2.493784,51.427612,0            -2.493603,51.4276,0            -2.493517,51.427656,0            -2.493541,51.427732,0            -2.493583,51.427772,0            -2.493636,51.42785,0            -2.493675,51.427938,0            -2.493626,51.427925,0            -2.493576,51.427908,0            -2.493519,51.427892,0            -2.493332,51.4278,0            -2.493112,51.427686,0            -2.493007,51.427544,0            -2.492978,51.427434,0            -2.492958,51.427414,0            -2.49297,51.427385,0            -2.492925,51.427325,0            -2.492827,51.427262,0            -2.492903,51.427214,0            -2.492964,51.427234,0            -2.493086,51.427276,0            -2.493111,51.427286,0            -2.493197,51.427324,0            -2.493258,51.427358,0            -2.493387,51.42743,0            -2.493549,51.427518,0            -2.493747,51.427552,0            -2.4939,51.427582,0            -2.493941,51.427586,0            -2.494014,51.427569,0            -2.494025,51.427548,0            -2.493996,51.427468,0            -2.493989,51.427433,0            -2.49405,51.427396,0            -2.494103,51.427362,0            -2.494165,51.427336,0            -2.494263,51.427288,0            -2.494374,51.427174,0            -2.494489,51.427176,0            -2.494508,51.427197,0            -2.494528,51.427225,0            -2.494563,51.427246,0            -2.494672,51.427236,0            -2.494795,51.427256,0            -2.49483,51.427306,0            -2.494834,51.427322,0            -2.494844,51.427371,0            -2.494897,51.427382,0            -2.49495,51.427348,0            -2.494966,51.427326,0            -2.495066,51.427294,0            -2.495112,51.427272,0            -2.495226,51.427237,0            -2.495325,51.42716,0            -2.495345,51.427138,0            -2.495353,51.427116,0            -2.495332,51.42708,0            -2.495287,51.427052,0            -2.495227,51.427052,0            -2.495019,51.427088,0            -2.494993,51.42712,0            -2.494972,51.427156,0            -2.494965,51.427168,0            -2.494898,51.42721,0            -2.494818,51.427215,0            -2.494738,51.427184,0            -2.494618,51.427124,0            -2.494372,51.427063,0            -2.494174,51.427073,0            -2.494136,51.427053,0            -2.494126,51.427024,0            -2.494123,51.426965,0            -2.493993,51.426971,0            -2.493854,51.426952,0            -2.493859,51.42679,0            -2.493844,51.426628,0            -2.493937,51.426586,0            -2.493942,51.426508,0            -2.493926,51.426374,0            -2.493986,51.426338,0            -2.494059,51.426332,0            -2.494297,51.426318,0            -2.494374,51.426336,0            -2.494482,51.426401,0            -2.494715,51.426433,0            -2.494956,51.426488,0            -2.495114,51.42657,0            -2.495205,51.426641,0            -2.495238,51.426758,0            -2.495212,51.426784,0            -2.495163,51.42682,0            -2.495109,51.426867,0            -2.495022,51.426876,0            -2.494929,51.426856,0            -2.494843,51.426816,0            -2.494796,51.426756,0            -2.494807,51.426666,0            -2.494883,51.426616,0            -2.495027,51.42659,0            -2.495073,51.426608,0            -2.495142,51.426652,0            -2.495182,51.426702,0            -2.495165,51.426732,0            -2.495127,51.426778,0            -2.495078,51.426792,0            -2.494984,51.426794,0            -2.494894,51.426742,0            -2.494892,51.426716,0            -2.494922,51.426688,0            -2.495001,51.426678,0            -2.495055,51.426708,0            -2.495013,51.426724,0            -2.494949,51.426744,0            -2.494976,51.426758,0            -2.495056,51.426742,0            -2.495083,51.426682,0            -2.495047,51.426666,0            -2.494968,51.426664,0            -2.494893,51.426686,0            -2.494873,51.426708,0            -2.494858,51.426754,0            -2.494959,51.426832,0            -2.494997,51.426842,0            -2.495107,51.426832,0            -2.495195,51.426756,0            -2.495198,51.426728,0            -2.495178,51.426654,0            -2.495081,51.42659,0            -2.495041,51.426582,0            -2.494864,51.426608,0            -2.494753,51.426688,0            -2.49475,51.426792,0            -2.494775,51.42681,0            -2.494825,51.42685,0            -2.49488,51.426878,0            -2.494976,51.426902,0            -2.495044,51.426908,0            -2.495109,51.426888,0            -2.495146,51.426874,0            -2.495273,51.426766,0            -2.49526,51.426646,0            -2.49511,51.426536,0            -2.494884,51.426426,0            -2.494895,51.42633,0            -2.494869,51.42624,0            -2.494831,51.426086,0            -2.494815,51.426066,0            -2.49489,51.426066,0            -2.494978,51.426148,0            -2.494996,51.426168,0            -2.495032,51.426214,0            -2.495033,51.42623,0            -2.495054,51.426242,0            -2.495147,51.4263,0            -2.495215,51.42638,0            -2.495254,51.426406,0            -2.495408,51.42649,0            -2.495524,51.426555,0            -2.495618,51.426615,0            -2.495744,51.426668,0            -2.495869,51.426695,0            -2.495832,51.426677,0            -2.495624,51.426424,0            -2.495603,51.426398,0            -2.495481,51.426222,0            -2.495392,51.426098,0            -2.495302,51.425978,0          </coordinates></LineString></Placemark><Placemark><name>Finish</name><styleUrl>#icon-1899-FF5252-nodesc</styleUrl><Point><coordinates>            -2.494414,51.426272,0          </coordinates></Point></Placemark><Placemark><name>Start</name><styleUrl>#icon-1899-0F9D58-nodesc</styleUrl><Point><coordinates>            -2.495552,51.426342,0          </coordinates></Point></Placemark></Folder></Document></kml>