<?xml version="1.0" encoding="UTF-8"?><kml xmlns="http://www.opengis.net/kml/2.2"><Document><name>Southern Town junior parkrun</name><description/><Style id="icon-1899-FFEA00-nodesc-normal"><IconStyle><color>ff00eaff</color><scale>1</scale><Icon><href>https://www.gstatic.com/mapspro/images/stock/503-wht-blank_maps.png</href></Icon><hotSpot x="32" xunits="pixels" y="64" yunits="insetPixels"/></IconStyle><LabelStyle><scale>0</scale></LabelStyle><BalloonStyle><text><![CDATA[<h3>$[name]</h3>]]></text></BalloonStyle></Style><Style id="icon-1899-FFEA00-nodesc-highlight"><IconStyle><color>ff00eaff</color><scale>1</scale><Icon><href>https://www.gstatic.com/mapspro/images/stock/503-wht-blank_maps.png</href></Icon><hotSpot x="32" xunits="pixels" y="64" yunits="insetPixels"/></IconStyle><LabelStyle><scale>1</scale></LabelStyle><BalloonStyle><text><![CDATA[<h3>$[name]</h3>]]></text></BalloonStyle></Style><StyleMap id="icon-1899-FFEA00-nodesc"><Pair><key>normal</key><styleUrl>#icon-1899-FFEA00-nodesc-normal</styleUrl></Pair><Pair><key>highlight</key><styleUrl>#icon-1899-FFEA00-nodesc-highlight</styleUrl></Pair></StyleMap><Style id="line-0288D1-5000-nodesc-normal"><LineStyle><color>ffd18802</color><width>5</width></LineStyle><BalloonStyle><text><![CDATA[<h3>$[name]</h3>]]></text></BalloonStyle></Style><Style id="line-0288D1-5000-nodesc-highlight"><LineStyle><color>ffd18802</color><width>7.5</width></LineStyle><BalloonStyle><text><![CDATA[<h3>$[name]</h3>]]></text></BalloonStyle></Style><StyleMap id="line-0288D1-5000-nodesc"><Pair><key>normal</key><styleUrl>#line-0288D1-5000-nodesc-normal</styleUrl></Pair><Pair><key>highlight</key><styleUrl>#line-0288D1-5000-nodesc-highlight</styleUrl></Pair></StyleMap><Folder><name>Untitled layer</name><Placemark><name>Course</name><styleUrl>#line-0288D1-5000-nodesc</styleUrl><LineString><tessellate>1</tessellate><coordinates>            -1.287772,51.65876,0            -1.287767,51.65876,0            -1.287768,51.658757,0            -1.287778,51.658501,0            -1.287723,51.658301,0            -1.28752,51.657829,0            -1.287529,51.657719,0            -1.28754,51.65772,0            -1.288474,51.65787,0            -1.288645,51.657943,0            -1.289162,51.658268,0            -1.289254,51.65847,0            -1.289253,51.658604,0            -1.289252,51.65865,0            -1.289213,51.65874,0            -1.289177,51.658761,0            -1.2891429,51.6590613,0            -1.2891601,51.6592584,0            -1.289141,51.6593274,0            -1.2890457,51.6593592,0            -1.288894,51.659351,0            -1.28865,51.659312,0            -1.287768,51.659242,0            -1.286775,51.659188,0            -1.28664,51.659156,0            -1.286548,51.659109,0            -1.286214,51.65894,0            -1.286128,51.658871,0            -1.286064,51.65861,0            -1.286123,51.658441,0            -1.28616,51.658333,0            -1.28614,51.658113,0            -1.286037,51.65792,0            -1.286025,51.657711,0            -1.286053,51.6575,0            -1.28734,51.657691,0            -1.287529,51.657719,0            -1.288474,51.65787,0            -1.288645,51.657943,0            -1.288919,51.658115,0            -1.289162,51.658268,0            -1.289254,51.65847,0            -1.289252,51.65865,0            -1.289213,51.65874,0            -1.289177,51.658761,0            -1.2891429,51.6590613,0            -1.2891601,51.6592584,0            -1.289141,51.6593274,0            -1.2890457,51.6593592,0            -1.288894,51.659351,0            -1.28865,51.659312,0            -1.287768,51.659242,0            -1.28712,51.659207,0            -1.286775,51.659188,0            -1.28664,51.659156,0            -1.286214,51.65894,0            -1.286128,51.658871,0            -1.286075,51.658655,0            -1.286064,51.65861,0            -1.28616,51.658333,0            -1.28614,51.658113,0            -1.28606,51.657963,0            -1.286037,51.65792,0            -1.286025,51.657711,0            -1.286053,51.6575,0            -1.2872,51.65767,0            -1.287529,51.657719,0            -1.288468,51.657869,0            -1.288645,51.657943,0            -1.289162,51.658268,0            -1.289188,51.658324,0            -1.289187,51.658324,0            -1.289254,51.65847,0            -1.289252,51.65865,0            -1.289213,51.65874,0            -1.289177,51.658761,0            -1.2891429,51.6590613,0            -1.2891601,51.6592584,0            -1.289141,51.6593274,0            -1.2890457,51.6593592,0            -1.288894,51.659351,0            -1.28865,51.659312,0            -1.288064,51.659266,0            -1.287768,51.659242,0            -1.287688,51.659186,0            -1.287658,51.6591,0            -1.28775,51.658814,0            -1.287753,51.658804,0          </coordinates></LineString></Placemark><Placemark><name>Start/Finish</name><styleUrl>#icon-1899-FFEA00-nodesc</styleUrl><Point><coordinates>            -1.287772,51.65876,51          </coordinates></Point></Placemark></Folder></Document></kml>