<?xml version="1.0" encoding="UTF-8"?><kml xmlns="http://www.opengis.net/kml/2.2"><Document><name>Southwick Country parkrun (from Jul 2025)</name><description>Southwick Country parkrun</description><Style id="icon-503-62AF44-nodesc-normal"><IconStyle><color>ff44af62</color><scale>1.1</scale><Icon><href>https://www.gstatic.com/mapspro/images/stock/503-wht-blank_maps.png</href></Icon><hotSpot x="16" xunits="pixels" y="32" yunits="insetPixels"/></IconStyle><LabelStyle><scale>0</scale></LabelStyle><BalloonStyle><text><![CDATA[<h3>$[name]</h3>]]></text></BalloonStyle></Style><Style id="icon-503-62AF44-nodesc-highlight"><IconStyle><color>ff44af62</color><scale>1.1</scale><Icon><href>https://www.gstatic.com/mapspro/images/stock/503-wht-blank_maps.png</href></Icon><hotSpot x="16" xunits="pixels" y="32" yunits="insetPixels"/></IconStyle><LabelStyle><scale>1.1</scale></LabelStyle><BalloonStyle><text><![CDATA[<h3>$[name]</h3>]]></text></BalloonStyle></Style><StyleMap id="icon-503-62AF44-nodesc"><Pair><key>normal</key><styleUrl>#icon-503-62AF44-nodesc-normal</styleUrl></Pair><Pair><key>highlight</key><styleUrl>#icon-503-62AF44-nodesc-highlight</styleUrl></Pair></StyleMap><Style id="icon-503-DB4436-nodesc-normal"><IconStyle><color>ff3644db</color><scale>1.1</scale><Icon><href>https://www.gstatic.com/mapspro/images/stock/503-wht-blank_maps.png</href></Icon><hotSpot x="16" xunits="pixels" y="32" yunits="insetPixels"/></IconStyle><LabelStyle><scale>0</scale></LabelStyle><BalloonStyle><text><![CDATA[<h3>$[name]</h3>]]></text></BalloonStyle></Style><Style id="icon-503-DB4436-nodesc-highlight"><IconStyle><color>ff3644db</color><scale>1.1</scale><Icon><href>https://www.gstatic.com/mapspro/images/stock/503-wht-blank_maps.png</href></Icon><hotSpot x="16" xunits="pixels" y="32" yunits="insetPixels"/></IconStyle><LabelStyle><scale>1.1</scale></LabelStyle><BalloonStyle><text><![CDATA[<h3>$[name]</h3>]]></text></BalloonStyle></Style><StyleMap id="icon-503-DB4436-nodesc"><Pair><key>normal</key><styleUrl>#icon-503-DB4436-nodesc-normal</styleUrl></Pair><Pair><key>highlight</key><styleUrl>#icon-503-DB4436-nodesc-highlight</styleUrl></Pair></StyleMap><Style id="line-0000FF-5000-nodesc-normal"><LineStyle><color>ffff0000</color><width>5</width></LineStyle><BalloonStyle><text><![CDATA[<h3>$[name]</h3>]]></text></BalloonStyle></Style><Style id="line-0000FF-5000-nodesc-highlight"><LineStyle><color>ffff0000</color><width>7.5</width></LineStyle><BalloonStyle><text><![CDATA[<h3>$[name]</h3>]]></text></BalloonStyle></Style><StyleMap id="line-0000FF-5000-nodesc"><Pair><key>normal</key><styleUrl>#line-0000FF-5000-nodesc-normal</styleUrl></Pair><Pair><key>highlight</key><styleUrl>#line-0000FF-5000-nodesc-highlight</styleUrl></Pair></StyleMap><Folder><name>Untitled layer</name><Placemark><name>Course</name><styleUrl>#line-0000FF-5000-nodesc</styleUrl><LineString><tessellate>1</tessellate><coordinates>            -2.234083,51.30645,0            -2.234296,51.306592,0            -2.234507,51.306698,0            -2.234762,51.306763,0            -2.235077,51.306793,0            -2.235318,51.306838,0            -2.235479,51.306784,0            -2.235859,51.306618,0            -2.236231,51.306443,0            -2.236504,51.306311,0            -2.236607,51.306244,0            -2.236952,51.306055,0            -2.237347,51.305851,0            -2.237455,51.305747,0            -2.237501,51.305649,0            -2.23754,51.305545,0            -2.237589,51.305505,0            -2.237735,51.305453,0            -2.237893,51.30531,0            -2.238079,51.305186,0            -2.238373,51.30504,0            -2.238558,51.304942,0            -2.238792,51.304749,0            -2.238792,51.304671,0            -2.238754,51.304582,0            -2.238671,51.304523,0            -2.238456,51.304436,0            -2.238271,51.304368,0            -2.238195,51.304321,0            -2.238089,51.304228,0            -2.238002,51.304126,0            -2.237955,51.304032,0            -2.237888,51.30396,0            -2.237845,51.303907,0            -2.237877,51.303866,0            -2.23812,51.303731,0            -2.238244,51.303653,0            -2.238294,51.30359,0            -2.238298,51.303483,0            -2.238104,51.303305,0            -2.237644,51.30293,0            -2.237448,51.302821,0            -2.237169,51.302696,0            -2.236768,51.302555,0            -2.236344,51.302458,0            -2.235977,51.302415,0            -2.235836,51.302418,0            -2.235698,51.30245,0            -2.235458,51.302517,0            -2.235195,51.30255,0            -2.234351,51.302623,0            -2.233988,51.302604,0            -2.233757,51.302619,0            -2.233301,51.302699,0            -2.232856,51.302796,0            -2.232395,51.302887,0            -2.232295,51.302894,0            -2.232067,51.302865,0            -2.231976,51.302885,0            -2.231804,51.302937,0            -2.231584,51.302956,0            -2.230968,51.302984,0            -2.229809,51.30305,0            -2.229567,51.30307,0            -2.229353,51.303128,0            -2.229066,51.303209,0            -2.229066,51.303256,0            -2.229187,51.30335,0            -2.22935,51.30345,0            -2.229462,51.303507,0            -2.22992,51.303687,0            -2.230214,51.303819,0            -2.230595,51.304034,0            -2.231008,51.304296,0            -2.231517,51.30453,0            -2.23181,51.304631,0            -2.232199,51.304753,0            -2.232358,51.304813,0            -2.232484,51.304892,0            -2.232557,51.304966,0            -2.232657,51.305134,0            -2.232759,51.305269,0            -2.232944,51.305403,0            -2.233154,51.305502,0            -2.233571,51.305702,0            -2.233729,51.305812,0            -2.233789,51.305909,0            -2.233809,51.306072,0            -2.233836,51.306223,0            -2.233886,51.306313,0            -2.234083,51.306449,0          </coordinates></LineString></Placemark><Placemark><name>Finish</name><styleUrl>#icon-503-DB4436-nodesc</styleUrl><Point><coordinates>            -2.2304228,51.3030315,0          </coordinates></Point></Placemark><Placemark><name>Start</name><styleUrl>#icon-503-62AF44-nodesc</styleUrl><Point><coordinates>            -2.232358,51.3048185,0          </coordinates></Point></Placemark></Folder></Document></kml>