<?xml version="1.0" encoding="UTF-8"?><kml xmlns="http://www.opengis.net/kml/2.2"><Document><name>South Park junior parkrun</name><description/><Style id="icon-1899-0F9D58-nodesc-normal"><IconStyle><color>ff589d0f</color><scale>1</scale><Icon><href>https://www.gstatic.com/mapspro/images/stock/503-wht-blank_maps.png</href></Icon><hotSpot x="32" xunits="pixels" y="64" yunits="insetPixels"/></IconStyle><LabelStyle><scale>0</scale></LabelStyle><BalloonStyle><text><![CDATA[<h3>$[name]</h3>]]></text></BalloonStyle></Style><Style id="icon-1899-0F9D58-nodesc-highlight"><IconStyle><color>ff589d0f</color><scale>1</scale><Icon><href>https://www.gstatic.com/mapspro/images/stock/503-wht-blank_maps.png</href></Icon><hotSpot x="32" xunits="pixels" y="64" yunits="insetPixels"/></IconStyle><LabelStyle><scale>1</scale></LabelStyle><BalloonStyle><text><![CDATA[<h3>$[name]</h3>]]></text></BalloonStyle></Style><StyleMap id="icon-1899-0F9D58-nodesc"><Pair><key>normal</key><styleUrl>#icon-1899-0F9D58-nodesc-normal</styleUrl></Pair><Pair><key>highlight</key><styleUrl>#icon-1899-0F9D58-nodesc-highlight</styleUrl></Pair></StyleMap><Style id="icon-1899-FF5252-nodesc-normal"><IconStyle><color>ff5252ff</color><scale>1</scale><Icon><href>https://www.gstatic.com/mapspro/images/stock/503-wht-blank_maps.png</href></Icon><hotSpot x="32" xunits="pixels" y="64" yunits="insetPixels"/></IconStyle><LabelStyle><scale>0</scale></LabelStyle><BalloonStyle><text><![CDATA[<h3>$[name]</h3>]]></text></BalloonStyle></Style><Style id="icon-1899-FF5252-nodesc-highlight"><IconStyle><color>ff5252ff</color><scale>1</scale><Icon><href>https://www.gstatic.com/mapspro/images/stock/503-wht-blank_maps.png</href></Icon><hotSpot x="32" xunits="pixels" y="64" yunits="insetPixels"/></IconStyle><LabelStyle><scale>1</scale></LabelStyle><BalloonStyle><text><![CDATA[<h3>$[name]</h3>]]></text></BalloonStyle></Style><StyleMap id="icon-1899-FF5252-nodesc"><Pair><key>normal</key><styleUrl>#icon-1899-FF5252-nodesc-normal</styleUrl></Pair><Pair><key>highlight</key><styleUrl>#icon-1899-FF5252-nodesc-highlight</styleUrl></Pair></StyleMap><Style id="line-0288D1-4681-nodesc-normal"><LineStyle><color>ffd18802</color><width>4.681</width></LineStyle><BalloonStyle><text><![CDATA[<h3>$[name]</h3>]]></text></BalloonStyle></Style><Style id="line-0288D1-4681-nodesc-highlight"><LineStyle><color>ffd18802</color><width>7.0215</width></LineStyle><BalloonStyle><text><![CDATA[<h3>$[name]</h3>]]></text></BalloonStyle></Style><StyleMap id="line-0288D1-4681-nodesc"><Pair><key>normal</key><styleUrl>#line-0288D1-4681-nodesc-normal</styleUrl></Pair><Pair><key>highlight</key><styleUrl>#line-0288D1-4681-nodesc-highlight</styleUrl></Pair></StyleMap><Folder><name>Untitled layer</name><Placemark><name>Course</name><styleUrl>#line-0288D1-4681-nodesc</styleUrl><LineString><tessellate>1</tessellate><coordinates>            -1.561196,54.514968,0            -1.560006,54.514686,0            -1.559151,54.514483,0            -1.558377,54.51428,0            -1.557714,54.51415,0            -1.557394,54.514074,0            -1.554997,54.513512,0            -1.554829,54.513487,0            -1.554396,54.513398,0            -1.554148,54.51335,0            -1.553899,54.513321,0            -1.553737,54.513336,0            -1.553686,54.513351,0            -1.553672,54.513389,0            -1.553733,54.513772,0            -1.553782,54.514164,0            -1.553862,54.51425,0            -1.553979,54.514317,0            -1.554173,54.514378,0            -1.554441,54.514409,0            -1.555269,54.514448,0            -1.555594,54.514453,0            -1.555709,54.514455,0            -1.555877,54.514482,0            -1.557111,54.51475,0            -1.557615,54.514827,0            -1.557891,54.514887,0            -1.558034,54.514941,0            -1.558141,54.514968,0            -1.558425,54.515089,0            -1.558554,54.515326,0            -1.558586,54.515376,0            -1.558683,54.515425,0            -1.559018,54.515511,0            -1.559466,54.515587,0            -1.559642,54.515629,0            -1.559737,54.515644,0            -1.559806,54.515684,0            -1.559898,54.515843,0            -1.559981,54.515914,0            -1.559428,54.516086,0            -1.559394,54.516058,0            -1.559338,54.516045,0            -1.559278,54.516031,0            -1.559228,54.51578,0            -1.559179,54.515737,0            -1.559049,54.515692,0            -1.558705,54.515619,0            -1.558525,54.515582,0            -1.558414,54.515536,0            -1.558312,54.515464,0            -1.558211,54.515343,0            -1.558127,54.51522,0            -1.557901,54.515133,0            -1.557757,54.515106,0            -1.557649,54.515096,0            -1.557342,54.51513,0            -1.557175,54.51517,0            -1.557047,54.515282,0            -1.556957,54.515403,0            -1.55694,54.51551,0            -1.556982,54.515612,0            -1.557032,54.515682,0            -1.557109,54.515743,0            -1.557284,54.515797,0            -1.557353,54.515837,0            -1.557406,54.515892,0            -1.557437,54.515935,0            -1.557442,54.516014,0            -1.557392,54.516235,0            -1.55744,54.516293,0            -1.557525,54.516373,0            -1.55768,54.516432,0            -1.557832,54.516458,0            -1.558114,54.516569,0            -1.558128,54.516618,0            -1.558184,54.516666,0            -1.558906,54.516941,0            -1.559809,54.516599,0            -1.560505,54.516272,0            -1.561262,54.515862,0            -1.561565,54.515695,0            -1.562078,54.515454,0            -1.562282,54.515349,0            -1.562333,54.515296,0            -1.562336,54.515245,0            -1.562279,54.51522,0            -1.560308,54.514762,0          </coordinates></LineString></Placemark><Placemark><name>Finish</name><styleUrl>#icon-1899-FF5252-nodesc</styleUrl><Point><coordinates>            -1.560306,54.514765,0          </coordinates></Point></Placemark><Placemark><name>Start</name><styleUrl>#icon-1899-0F9D58-nodesc</styleUrl><Point><coordinates>            -1.561184,54.51497,0          </coordinates></Point></Placemark></Folder></Document></kml>