<?xml version="1.0" encoding="UTF-8"?><kml xmlns="http://www.opengis.net/kml/2.2"><Document><name><![CDATA[St Mary's parkrun]]></name><description/><Style id="icon-1899-FFEA00-nodesc-normal"><IconStyle><color>ff00eaff</color><scale>1</scale><Icon><href>https://www.gstatic.com/mapspro/images/stock/503-wht-blank_maps.png</href></Icon><hotSpot x="32" xunits="pixels" y="64" yunits="insetPixels"/></IconStyle><LabelStyle><scale>0</scale></LabelStyle><BalloonStyle><text><![CDATA[<h3>$[name]</h3>]]></text></BalloonStyle></Style><Style id="icon-1899-FFEA00-nodesc-highlight"><IconStyle><color>ff00eaff</color><scale>1</scale><Icon><href>https://www.gstatic.com/mapspro/images/stock/503-wht-blank_maps.png</href></Icon><hotSpot x="32" xunits="pixels" y="64" yunits="insetPixels"/></IconStyle><LabelStyle><scale>1</scale></LabelStyle><BalloonStyle><text><![CDATA[<h3>$[name]</h3>]]></text></BalloonStyle></Style><StyleMap id="icon-1899-FFEA00-nodesc"><Pair><key>normal</key><styleUrl>#icon-1899-FFEA00-nodesc-normal</styleUrl></Pair><Pair><key>highlight</key><styleUrl>#icon-1899-FFEA00-nodesc-highlight</styleUrl></Pair></StyleMap><Style id="line-0288D1-5263-nodesc-normal"><LineStyle><color>ffd18802</color><width>5.263</width></LineStyle><BalloonStyle><text><![CDATA[<h3>$[name]</h3>]]></text></BalloonStyle></Style><Style id="line-0288D1-5263-nodesc-highlight"><LineStyle><color>ffd18802</color><width>7.8945</width></LineStyle><BalloonStyle><text><![CDATA[<h3>$[name]</h3>]]></text></BalloonStyle></Style><StyleMap id="line-0288D1-5263-nodesc"><Pair><key>normal</key><styleUrl>#line-0288D1-5263-nodesc-normal</styleUrl></Pair><Pair><key>highlight</key><styleUrl>#line-0288D1-5263-nodesc-highlight</styleUrl></Pair></StyleMap><Folder><name>Untitled layer</name><Placemark><name>Course</name><styleUrl>#line-0288D1-5263-nodesc</styleUrl><LineString><tessellate>1</tessellate><coordinates>            -2.76077,50.729509,0            -2.76055,50.728772,0            -2.761591,50.72865,0            -2.761945,50.729587,0            -2.761891,50.729757,0            -2.76246,50.730246,0            -2.762331,50.730803,0            -2.762664,50.731183,0            -2.763179,50.730972,0            -2.763259,50.730786,0            -2.763581,50.730966,0            -2.763793,50.731122,0            -2.764005,50.731196,0            -2.764187,50.731638,0            -2.764423,50.731876,0            -2.764583,50.731993,0            -2.764678,50.732216,0            -2.764518,50.732188,0            -2.764391,50.732084,0            -2.764294,50.731948,0            -2.763962,50.731578,0            -2.763833,50.731161,0            -2.763699,50.731079,0            -2.763415,50.731045,0            -2.76319,50.73098,0            -2.762643,50.731198,0            -2.762273,50.730766,0            -2.762123,50.730739,0            -2.761742,50.730729,0            -2.761208,50.730274,0            -2.760832,50.729751,0            -2.760452,50.728979,0            -2.760444,50.728584,0            -2.760425,50.728189,0            -2.7602,50.727586,0            -2.760039,50.726982,0            -2.760267,50.727756,0            -2.76055,50.728772,0          </coordinates></LineString></Placemark><Placemark><name>Start/Finish</name><styleUrl>#icon-1899-FFEA00-nodesc</styleUrl><Point><coordinates>            -2.760772,50.729447,0          </coordinates></Point></Placemark></Folder></Document></kml>