<?xml version="1.0" encoding="UTF-8"?><kml xmlns="http://www.opengis.net/kml/2.2"><Document><name>Stamford Park parkun</name><description/><Style id="icon-1899-0F9D58-nodesc-normal"><IconStyle><color>ff589d0f</color><scale>1</scale><Icon><href>https://www.gstatic.com/mapspro/images/stock/503-wht-blank_maps.png</href></Icon><hotSpot x="32" xunits="pixels" y="64" yunits="insetPixels"/></IconStyle><LabelStyle><scale>0</scale></LabelStyle><BalloonStyle><text><![CDATA[<h3>$[name]</h3>]]></text></BalloonStyle></Style><Style id="icon-1899-0F9D58-nodesc-highlight"><IconStyle><color>ff589d0f</color><scale>1</scale><Icon><href>https://www.gstatic.com/mapspro/images/stock/503-wht-blank_maps.png</href></Icon><hotSpot x="32" xunits="pixels" y="64" yunits="insetPixels"/></IconStyle><LabelStyle><scale>1</scale></LabelStyle><BalloonStyle><text><![CDATA[<h3>$[name]</h3>]]></text></BalloonStyle></Style><StyleMap id="icon-1899-0F9D58-nodesc"><Pair><key>normal</key><styleUrl>#icon-1899-0F9D58-nodesc-normal</styleUrl></Pair><Pair><key>highlight</key><styleUrl>#icon-1899-0F9D58-nodesc-highlight</styleUrl></Pair></StyleMap><Style id="icon-1899-FF5252-nodesc-normal"><IconStyle><color>ff5252ff</color><scale>1</scale><Icon><href>https://www.gstatic.com/mapspro/images/stock/503-wht-blank_maps.png</href></Icon><hotSpot x="32" xunits="pixels" y="64" yunits="insetPixels"/></IconStyle><LabelStyle><scale>0</scale></LabelStyle><BalloonStyle><text><![CDATA[<h3>$[name]</h3>]]></text></BalloonStyle></Style><Style id="icon-1899-FF5252-nodesc-highlight"><IconStyle><color>ff5252ff</color><scale>1</scale><Icon><href>https://www.gstatic.com/mapspro/images/stock/503-wht-blank_maps.png</href></Icon><hotSpot x="32" xunits="pixels" y="64" yunits="insetPixels"/></IconStyle><LabelStyle><scale>1</scale></LabelStyle><BalloonStyle><text><![CDATA[<h3>$[name]</h3>]]></text></BalloonStyle></Style><StyleMap id="icon-1899-FF5252-nodesc"><Pair><key>normal</key><styleUrl>#icon-1899-FF5252-nodesc-normal</styleUrl></Pair><Pair><key>highlight</key><styleUrl>#icon-1899-FF5252-nodesc-highlight</styleUrl></Pair></StyleMap><Style id="line-4186F0-5069-nodesc-normal"><LineStyle><color>fff08641</color><width>5.069</width></LineStyle><BalloonStyle><text><![CDATA[<h3>$[name]</h3>]]></text></BalloonStyle></Style><Style id="line-4186F0-5069-nodesc-highlight"><LineStyle><color>fff08641</color><width>7.6035</width></LineStyle><BalloonStyle><text><![CDATA[<h3>$[name]</h3>]]></text></BalloonStyle></Style><StyleMap id="line-4186F0-5069-nodesc"><Pair><key>normal</key><styleUrl>#line-4186F0-5069-nodesc-normal</styleUrl></Pair><Pair><key>highlight</key><styleUrl>#line-4186F0-5069-nodesc-highlight</styleUrl></Pair></StyleMap><Folder><name>Untitled layer</name><Placemark><name>Course</name><styleUrl>#line-4186F0-5069-nodesc</styleUrl><LineString><tessellate>1</tessellate><coordinates>            -2.067837,53.489732,0            -2.066759,53.490233,0            -2.065776,53.491598,0            -2.066028,53.492121,0            -2.06576,53.49253,0            -2.066061,53.49276,0            -2.065291,53.493051,0            -2.065522,53.493568,0            -2.066209,53.494002,0            -2.0663306,53.4945822,0            -2.066541,53.495074,0            -2.06686,53.49529,0            -2.0669453,53.4953061,0            -2.0663329,53.4955329,0            -2.065077,53.4959699,0            -2.063833,53.496104,0            -2.059895,53.497502,0            -2.059745,53.497834,0            -2.060104,53.497962,0            -2.060791,53.498,0            -2.0623744,53.4975433,0            -2.0637901,53.4971236,0            -2.064047,53.496755,0            -2.064756,53.496774,0            -2.06512,53.49665,0            -2.066381,53.495951,0            -2.0663329,53.4955329,0            -2.066541,53.495074,0            -2.067316,53.495523,0            -2.067423,53.49515,0            -2.067037,53.494674,0            -2.067042,53.494365,0            -2.067545,53.494355,0            -2.067799,53.494161,0            -2.067472,53.493253,0            -2.067209,53.492756,0            -2.066061,53.49276,0            -2.066911,53.492748,0            -2.0672881,53.4924246,0            -2.068899,53.490188,0            -2.067837,53.489732,0          </coordinates></LineString></Placemark><Placemark><name>Finish</name><styleUrl>#icon-1899-FF5252-nodesc</styleUrl><Point><coordinates>            -2.066017,53.491952,0          </coordinates></Point></Placemark><Placemark><name>Start</name><styleUrl>#icon-1899-0F9D58-nodesc</styleUrl><Point><coordinates>            -2.066097,53.490924,0          </coordinates></Point></Placemark></Folder></Document></kml>