<?xml version="1.0" encoding="UTF-8"?><kml xmlns="http://www.opengis.net/kml/2.2"><Document><name>Stanley Park junior parkrun</name><description/><Style id="icon-503-009D57-nodesc-normal"><IconStyle><color>ff579d00</color><scale>1.1</scale><Icon><href>https://www.gstatic.com/mapspro/images/stock/503-wht-blank_maps.png</href></Icon><hotSpot x="16" xunits="pixels" y="32" yunits="insetPixels"/></IconStyle><LabelStyle><scale>0</scale></LabelStyle><BalloonStyle><text><![CDATA[<h3>$[name]</h3>]]></text></BalloonStyle></Style><Style id="icon-503-009D57-nodesc-highlight"><IconStyle><color>ff579d00</color><scale>1.1</scale><Icon><href>https://www.gstatic.com/mapspro/images/stock/503-wht-blank_maps.png</href></Icon><hotSpot x="16" xunits="pixels" y="32" yunits="insetPixels"/></IconStyle><LabelStyle><scale>1.1</scale></LabelStyle><BalloonStyle><text><![CDATA[<h3>$[name]</h3>]]></text></BalloonStyle></Style><StyleMap id="icon-503-009D57-nodesc"><Pair><key>normal</key><styleUrl>#icon-503-009D57-nodesc-normal</styleUrl></Pair><Pair><key>highlight</key><styleUrl>#icon-503-009D57-nodesc-highlight</styleUrl></Pair></StyleMap><Style id="icon-503-DB4436-nodesc-normal"><IconStyle><color>ff3644db</color><scale>1.1</scale><Icon><href>https://www.gstatic.com/mapspro/images/stock/503-wht-blank_maps.png</href></Icon><hotSpot x="16" xunits="pixels" y="32" yunits="insetPixels"/></IconStyle><LabelStyle><scale>0</scale></LabelStyle><BalloonStyle><text><![CDATA[<h3>$[name]</h3>]]></text></BalloonStyle></Style><Style id="icon-503-DB4436-nodesc-highlight"><IconStyle><color>ff3644db</color><scale>1.1</scale><Icon><href>https://www.gstatic.com/mapspro/images/stock/503-wht-blank_maps.png</href></Icon><hotSpot x="16" xunits="pixels" y="32" yunits="insetPixels"/></IconStyle><LabelStyle><scale>1.1</scale></LabelStyle><BalloonStyle><text><![CDATA[<h3>$[name]</h3>]]></text></BalloonStyle></Style><StyleMap id="icon-503-DB4436-nodesc"><Pair><key>normal</key><styleUrl>#icon-503-DB4436-nodesc-normal</styleUrl></Pair><Pair><key>highlight</key><styleUrl>#icon-503-DB4436-nodesc-highlight</styleUrl></Pair></StyleMap><Style id="line-3949AB-5263-nodesc-normal"><LineStyle><color>ffab4939</color><width>5.263</width></LineStyle><BalloonStyle><text><![CDATA[<h3>$[name]</h3>]]></text></BalloonStyle></Style><Style id="line-3949AB-5263-nodesc-highlight"><LineStyle><color>ffab4939</color><width>7.8945</width></LineStyle><BalloonStyle><text><![CDATA[<h3>$[name]</h3>]]></text></BalloonStyle></Style><StyleMap id="line-3949AB-5263-nodesc"><Pair><key>normal</key><styleUrl>#line-3949AB-5263-nodesc-normal</styleUrl></Pair><Pair><key>highlight</key><styleUrl>#line-3949AB-5263-nodesc-highlight</styleUrl></Pair></StyleMap><Folder><name>Untitled layer</name><Placemark><name>Course</name><styleUrl>#line-3949AB-5263-nodesc</styleUrl><LineString><tessellate>1</tessellate><coordinates>            -2.965552,53.434033,0            -2.963396,53.434182,0            -2.96118,53.433156,0            -2.961019,53.433258,0            -2.96103,53.433508,0            -2.961202,53.433808,0            -2.961856,53.43407,0            -2.962886,53.434677,0            -2.963852,53.434818,0            -2.964903,53.434882,0            -2.96559,53.434991,0            -2.966781,53.435316,0            -2.967017,53.435157,0            -2.967167,53.434863,0            -2.967081,53.434594,0            -2.966899,53.434371,0            -2.966191,53.434006,0            -2.96339,53.434185,0            -2.96118,53.433156,0            -2.961019,53.433265,0            -2.961019,53.433495,0            -2.961212,53.433814,0            -2.96162,53.433962,0            -2.962382,53.434377,0            -2.962918,53.43469,0            -2.963841,53.434812,0            -2.964742,53.434876,0            -2.965386,53.434959,0            -2.96603,53.435112,0            -2.966641,53.435278,0            -2.96677,53.435323,0            -2.967017,53.435157,0            -2.967167,53.434869,0            -2.967081,53.434594,0            -2.966899,53.434371,0            -2.966191,53.434006,0          </coordinates></LineString></Placemark><Placemark><name>Start</name><styleUrl>#icon-503-009D57-nodesc</styleUrl><Point><coordinates>            -2.965552,53.434033,0          </coordinates></Point></Placemark><Placemark><name>Finish</name><styleUrl>#icon-503-DB4436-nodesc</styleUrl><Point><coordinates>            -2.966486,53.434156,0          </coordinates></Point></Placemark></Folder></Document></kml>