<?xml version="1.0" encoding="UTF-8"?><kml xmlns="http://www.opengis.net/kml/2.2"><Document><name>Stonehouse junior parkrun (from Nov 2025)</name><description/><Style id="icon-1899-0F9D58-normal"><IconStyle><color>ff589d0f</color><scale>1</scale><Icon><href>https://www.gstatic.com/mapspro/images/stock/503-wht-blank_maps.png</href></Icon><hotSpot x="32" xunits="pixels" y="64" yunits="insetPixels"/></IconStyle><LabelStyle><scale>0</scale></LabelStyle></Style><Style id="icon-1899-0F9D58-highlight"><IconStyle><color>ff589d0f</color><scale>1</scale><Icon><href>https://www.gstatic.com/mapspro/images/stock/503-wht-blank_maps.png</href></Icon><hotSpot x="32" xunits="pixels" y="64" yunits="insetPixels"/></IconStyle><LabelStyle><scale>1</scale></LabelStyle></Style><StyleMap id="icon-1899-0F9D58"><Pair><key>normal</key><styleUrl>#icon-1899-0F9D58-normal</styleUrl></Pair><Pair><key>highlight</key><styleUrl>#icon-1899-0F9D58-highlight</styleUrl></Pair></StyleMap><Style id="icon-1899-E65100-normal"><IconStyle><color>ff0051e6</color><scale>1</scale><Icon><href>https://www.gstatic.com/mapspro/images/stock/503-wht-blank_maps.png</href></Icon><hotSpot x="32" xunits="pixels" y="64" yunits="insetPixels"/></IconStyle><LabelStyle><scale>0</scale></LabelStyle></Style><Style id="icon-1899-E65100-highlight"><IconStyle><color>ff0051e6</color><scale>1</scale><Icon><href>https://www.gstatic.com/mapspro/images/stock/503-wht-blank_maps.png</href></Icon><hotSpot x="32" xunits="pixels" y="64" yunits="insetPixels"/></IconStyle><LabelStyle><scale>1</scale></LabelStyle></Style><StyleMap id="icon-1899-E65100"><Pair><key>normal</key><styleUrl>#icon-1899-E65100-normal</styleUrl></Pair><Pair><key>highlight</key><styleUrl>#icon-1899-E65100-highlight</styleUrl></Pair></StyleMap><Style id="line-0288D1-5263-normal"><LineStyle><color>ffd18802</color><width>5.263</width></LineStyle></Style><Style id="line-0288D1-5263-highlight"><LineStyle><color>ffd18802</color><width>7.8945</width></LineStyle></Style><StyleMap id="line-0288D1-5263"><Pair><key>normal</key><styleUrl>#line-0288D1-5263-normal</styleUrl></Pair><Pair><key>highlight</key><styleUrl>#line-0288D1-5263-highlight</styleUrl></Pair></StyleMap><Folder><name>untitled layer</name><Placemark><name>Course</name><description><![CDATA[description: <br>Latitude: <br>Longitude: ]]></description><styleUrl>#line-0288D1-5263</styleUrl><ExtendedData><Data name="description"><value/></Data><Data name="Latitude"><value/></Data><Data name="Longitude"><value/></Data></ExtendedData><LineString><tessellate>1</tessellate><coordinates>            -2.286894,51.753113,0            -2.289422,51.754083,0            -2.289073,51.754973,0            -2.287461,51.754973,0            -2.286851,51.753436,0            -2.289422,51.754083,0            -2.289073,51.754973,0            -2.287461,51.754973,0            -2.286851,51.753436,0            -2.289422,51.754083,0            -2.289073,51.754973,0            -2.287461,51.754973,0            -2.286851,51.753436,0            -2.287679,51.753975,0          </coordinates></LineString></Placemark><Placemark><name>Finish</name><description><![CDATA[description: Latitude: 51.753975<br>Longitude: -2.287679<br>Latitude: 51.753975<br>Longitude: -2.287679]]></description><styleUrl>#icon-1899-E65100</styleUrl><ExtendedData><Data name="description"><value>Latitude: 51.753975Longitude: -2.287679</value></Data><Data name="Latitude"><value>51.753975</value></Data><Data name="Longitude"><value>-2.287679</value></Data></ExtendedData><Point><coordinates>            -2.287679,51.753975,0          </coordinates></Point></Placemark><Placemark><name>Start</name><description><![CDATA[description: Latitude: 51.753113<br>Longitude: -2.286894<br>Latitude: 51.753113<br>Longitude: -2.286894]]></description><styleUrl>#icon-1899-0F9D58</styleUrl><ExtendedData><Data name="description"><value>Latitude: 51.753113Longitude: -2.286894</value></Data><Data name="Latitude"><value>51.753113</value></Data><Data name="Longitude"><value>-2.286894</value></Data></ExtendedData><Point><coordinates>            -2.286894,51.753113,0          </coordinates></Point></Placemark></Folder></Document></kml>