<?xml version="1.0" encoding="UTF-8"?><kml xmlns="http://www.opengis.net/kml/2.2"><Document><name>Strathclyde parkrun (from June 2023)</name><description/><Style id="icon-1899-7CB342-nodesc-normal"><IconStyle><color>ff42b37c</color><scale>1</scale><Icon><href>https://www.gstatic.com/mapspro/images/stock/503-wht-blank_maps.png</href></Icon><hotSpot x="32" xunits="pixels" y="64" yunits="insetPixels"/></IconStyle><LabelStyle><scale>0</scale></LabelStyle><BalloonStyle><text><![CDATA[<h3>$[name]</h3>]]></text></BalloonStyle></Style><Style id="icon-1899-7CB342-nodesc-highlight"><IconStyle><color>ff42b37c</color><scale>1</scale><Icon><href>https://www.gstatic.com/mapspro/images/stock/503-wht-blank_maps.png</href></Icon><hotSpot x="32" xunits="pixels" y="64" yunits="insetPixels"/></IconStyle><LabelStyle><scale>1</scale></LabelStyle><BalloonStyle><text><![CDATA[<h3>$[name]</h3>]]></text></BalloonStyle></Style><StyleMap id="icon-1899-7CB342-nodesc"><Pair><key>normal</key><styleUrl>#icon-1899-7CB342-nodesc-normal</styleUrl></Pair><Pair><key>highlight</key><styleUrl>#icon-1899-7CB342-nodesc-highlight</styleUrl></Pair></StyleMap><Style id="icon-1899-E65100-nodesc-normal"><IconStyle><color>ff0051e6</color><scale>1</scale><Icon><href>https://www.gstatic.com/mapspro/images/stock/503-wht-blank_maps.png</href></Icon><hotSpot x="32" xunits="pixels" y="64" yunits="insetPixels"/></IconStyle><LabelStyle><scale>0</scale></LabelStyle><BalloonStyle><text><![CDATA[<h3>$[name]</h3>]]></text></BalloonStyle></Style><Style id="icon-1899-E65100-nodesc-highlight"><IconStyle><color>ff0051e6</color><scale>1</scale><Icon><href>https://www.gstatic.com/mapspro/images/stock/503-wht-blank_maps.png</href></Icon><hotSpot x="32" xunits="pixels" y="64" yunits="insetPixels"/></IconStyle><LabelStyle><scale>1</scale></LabelStyle><BalloonStyle><text><![CDATA[<h3>$[name]</h3>]]></text></BalloonStyle></Style><StyleMap id="icon-1899-E65100-nodesc"><Pair><key>normal</key><styleUrl>#icon-1899-E65100-nodesc-normal</styleUrl></Pair><Pair><key>highlight</key><styleUrl>#icon-1899-E65100-nodesc-highlight</styleUrl></Pair></StyleMap><Style id="line-0288D1-5456-nodesc-normal"><LineStyle><color>ffd18802</color><width>5.456</width></LineStyle><BalloonStyle><text><![CDATA[<h3>$[name]</h3>]]></text></BalloonStyle></Style><Style id="line-0288D1-5456-nodesc-highlight"><LineStyle><color>ffd18802</color><width>8.184</width></LineStyle><BalloonStyle><text><![CDATA[<h3>$[name]</h3>]]></text></BalloonStyle></Style><StyleMap id="line-0288D1-5456-nodesc"><Pair><key>normal</key><styleUrl>#line-0288D1-5456-nodesc-normal</styleUrl></Pair><Pair><key>highlight</key><styleUrl>#line-0288D1-5456-nodesc-highlight</styleUrl></Pair></StyleMap><Folder><name>Untitled layer</name><Placemark><name>Course</name><styleUrl>#line-0288D1-5456-nodesc</styleUrl><LineString><tessellate>1</tessellate><coordinates>            -4.031013,55.789326,0            -4.031432,55.789639,0            -4.03264,55.790267,0            -4.033326,55.790599,0            -4.03382,55.790828,0            -4.034882,55.791341,0            -4.035633,55.791715,0            -4.036127,55.791956,0            -4.03647,55.792125,0            -4.036888,55.792379,0            -4.0375,55.792771,0            -4.038015,55.793199,0            -4.038905,55.79417,0            -4.03944,55.79483,0            -4.039789,55.795241,0            -4.039993,55.795485,0            -4.040647,55.796055,0            -4.040964,55.796299,0            -4.041271,55.796543,0            -4.042193,55.79708,0            -4.042815,55.797363,0            -4.043202,55.79749,0            -4.044264,55.797725,0            -4.045358,55.797972,0            -4.045787,55.798111,0            -4.046056,55.798219,0            -4.046367,55.798521,0            -4.046496,55.798828,0            -4.046442,55.799196,0            -4.046485,55.799293,0            -4.046817,55.799492,0            -4.046721,55.799763,0            -4.046571,55.799974,0            -4.046324,55.800107,0            -4.045766,55.800427,0            -4.045423,55.800511,0            -4.045165,55.800505,0            -4.04465,55.80033,0            -4.044167,55.80036,0            -4.043556,55.800288,0            -4.04273,55.79995,0            -4.041946,55.799522,0            -4.041378,55.799245,0            -4.040434,55.798623,0            -4.039447,55.797918,0            -4.038537,55.797538,0            -4.038344,55.797128,0            -4.038087,55.796923,0            -4.037486,55.796742,0            -4.036907,55.796645,0            -4.03607,55.796404,0            -4.035842,55.796455,0            -4.035735,55.796521,0            -4.035585,55.796515,0            -4.035477,55.796437,0            -4.03551,55.796358,0            -4.035617,55.796292,0            -4.036046,55.796382,0          </coordinates></LineString></Placemark><Placemark><name>Finish</name><styleUrl>#icon-1899-E65100-nodesc</styleUrl><Point><coordinates>            -4.03083,55.789174,0          </coordinates></Point></Placemark><Placemark><name>Start</name><styleUrl>#icon-1899-7CB342-nodesc</styleUrl><Point><coordinates>            -4.032895,55.790389,0          </coordinates></Point></Placemark></Folder></Document></kml>