<?xml version="1.0" encoding="UTF-8"?><kml xmlns="http://www.opengis.net/kml/2.2"><Document><name>Stratford Park parkrun, Stroud (from Feb 2023)</name><description/><Style id="icon-1899-0F9D58-nodesc-normal"><IconStyle><color>ff589d0f</color><scale>1</scale><Icon><href>https://www.gstatic.com/mapspro/images/stock/503-wht-blank_maps.png</href></Icon><hotSpot x="32" xunits="pixels" y="64" yunits="insetPixels"/></IconStyle><LabelStyle><scale>0</scale></LabelStyle><BalloonStyle><text><![CDATA[<h3>$[name]</h3>]]></text></BalloonStyle></Style><Style id="icon-1899-0F9D58-nodesc-highlight"><IconStyle><color>ff589d0f</color><scale>1</scale><Icon><href>https://www.gstatic.com/mapspro/images/stock/503-wht-blank_maps.png</href></Icon><hotSpot x="32" xunits="pixels" y="64" yunits="insetPixels"/></IconStyle><LabelStyle><scale>1</scale></LabelStyle><BalloonStyle><text><![CDATA[<h3>$[name]</h3>]]></text></BalloonStyle></Style><StyleMap id="icon-1899-0F9D58-nodesc"><Pair><key>normal</key><styleUrl>#icon-1899-0F9D58-nodesc-normal</styleUrl></Pair><Pair><key>highlight</key><styleUrl>#icon-1899-0F9D58-nodesc-highlight</styleUrl></Pair></StyleMap><Style id="icon-1899-FF5252-nodesc-normal"><IconStyle><color>ff5252ff</color><scale>1</scale><Icon><href>https://www.gstatic.com/mapspro/images/stock/503-wht-blank_maps.png</href></Icon><hotSpot x="32" xunits="pixels" y="64" yunits="insetPixels"/></IconStyle><LabelStyle><scale>0</scale></LabelStyle><BalloonStyle><text><![CDATA[<h3>$[name]</h3>]]></text></BalloonStyle></Style><Style id="icon-1899-FF5252-nodesc-highlight"><IconStyle><color>ff5252ff</color><scale>1</scale><Icon><href>https://www.gstatic.com/mapspro/images/stock/503-wht-blank_maps.png</href></Icon><hotSpot x="32" xunits="pixels" y="64" yunits="insetPixels"/></IconStyle><LabelStyle><scale>1</scale></LabelStyle><BalloonStyle><text><![CDATA[<h3>$[name]</h3>]]></text></BalloonStyle></Style><StyleMap id="icon-1899-FF5252-nodesc"><Pair><key>normal</key><styleUrl>#icon-1899-FF5252-nodesc-normal</styleUrl></Pair><Pair><key>highlight</key><styleUrl>#icon-1899-FF5252-nodesc-highlight</styleUrl></Pair></StyleMap><Style id="line-0288D1-5429-nodesc-normal"><LineStyle><color>ffd18802</color><width>5.429</width></LineStyle><BalloonStyle><text><![CDATA[<h3>$[name]</h3>]]></text></BalloonStyle></Style><Style id="line-0288D1-5429-nodesc-highlight"><LineStyle><color>ffd18802</color><width>8.1435</width></LineStyle><BalloonStyle><text><![CDATA[<h3>$[name]</h3>]]></text></BalloonStyle></Style><StyleMap id="line-0288D1-5429-nodesc"><Pair><key>normal</key><styleUrl>#line-0288D1-5429-nodesc-normal</styleUrl></Pair><Pair><key>highlight</key><styleUrl>#line-0288D1-5429-nodesc-highlight</styleUrl></Pair></StyleMap><Folder><name>Untitled layer</name><Placemark><name>Course</name><styleUrl>#line-0288D1-5429-nodesc</styleUrl><LineString><tessellate>1</tessellate><coordinates>            -2.225081,51.749284,0            -2.225395,51.749334,0            -2.225543,51.7492465,0            -2.2255323,51.7489808,0            -2.225676,51.748625,0            -2.225247,51.7487815,0            -2.2249236,51.7487417,0            -2.224262,51.748629,0            -2.223325,51.748567,0            -2.223299,51.748536,0            -2.223173,51.748642,0            -2.2231075,51.749738,0            -2.223353,51.750821,0            -2.223504,51.750978,0            -2.223592,51.7511,0            -2.223497,51.751325,0            -2.223554,51.751516,0            -2.224173,51.751933,0            -2.2250338,51.7526201,0            -2.225222,51.752593,0            -2.225164,51.751991,0            -2.225897,51.751565,0            -2.226926,51.75148,0            -2.227371,51.751347,0            -2.2279273,51.751111,0            -2.228317,51.750835,0            -2.227159,51.751191,0            -2.225894,51.751334,0            -2.2257309,51.7513153,0            -2.225522,51.750958,0            -2.2253247,51.7506195,0            -2.224988,51.750354,0            -2.2245512,51.7501467,0            -2.224286,51.750225,0            -2.2236762,51.7502361,0            -2.223464,51.750209,0            -2.223443,51.750126,0            -2.223408,51.7498243,0            -2.2233868,51.7496048,0            -2.223591,51.749538,0            -2.22413,51.74939,0            -2.22489,51.749101,0            -2.225109,51.748952,0            -2.225247,51.7487815,0          </coordinates></LineString></Placemark><Placemark><name>Finish</name><styleUrl>#icon-1899-FF5252-nodesc</styleUrl><Point><coordinates>            -2.225081,51.749284,47.4          </coordinates></Point></Placemark><Placemark><name>Start</name><styleUrl>#icon-1899-0F9D58-nodesc</styleUrl><Point><coordinates>            -2.225002,51.74905,45          </coordinates></Point></Placemark></Folder></Document></kml>