<?xml version="1.0" encoding="UTF-8"?><kml xmlns="http://www.opengis.net/kml/2.2"><Document><name>Stratford-upon-Avon Rec junior parkrun</name><description/><Style id="icon-1899-FFEA00-nodesc-normal"><IconStyle><color>ff00eaff</color><scale>1</scale><Icon><href>https://www.gstatic.com/mapspro/images/stock/503-wht-blank_maps.png</href></Icon><hotSpot x="32" xunits="pixels" y="64" yunits="insetPixels"/></IconStyle><LabelStyle><scale>0</scale></LabelStyle><BalloonStyle><text><![CDATA[<h3>$[name]</h3>]]></text></BalloonStyle></Style><Style id="icon-1899-FFEA00-nodesc-highlight"><IconStyle><color>ff00eaff</color><scale>1</scale><Icon><href>https://www.gstatic.com/mapspro/images/stock/503-wht-blank_maps.png</href></Icon><hotSpot x="32" xunits="pixels" y="64" yunits="insetPixels"/></IconStyle><LabelStyle><scale>1</scale></LabelStyle><BalloonStyle><text><![CDATA[<h3>$[name]</h3>]]></text></BalloonStyle></Style><StyleMap id="icon-1899-FFEA00-nodesc"><Pair><key>normal</key><styleUrl>#icon-1899-FFEA00-nodesc-normal</styleUrl></Pair><Pair><key>highlight</key><styleUrl>#icon-1899-FFEA00-nodesc-highlight</styleUrl></Pair></StyleMap><Style id="line-0288D1-5263-nodesc-normal"><LineStyle><color>ffd18802</color><width>5.263</width></LineStyle><BalloonStyle><text><![CDATA[<h3>$[name]</h3>]]></text></BalloonStyle></Style><Style id="line-0288D1-5263-nodesc-highlight"><LineStyle><color>ffd18802</color><width>7.8945</width></LineStyle><BalloonStyle><text><![CDATA[<h3>$[name]</h3>]]></text></BalloonStyle></Style><StyleMap id="line-0288D1-5263-nodesc"><Pair><key>normal</key><styleUrl>#line-0288D1-5263-nodesc-normal</styleUrl></Pair><Pair><key>highlight</key><styleUrl>#line-0288D1-5263-nodesc-highlight</styleUrl></Pair></StyleMap><Folder><name>Untitled layer</name><Placemark><name>Course</name><styleUrl>#line-0288D1-5263-nodesc</styleUrl><LineString><tessellate>1</tessellate><coordinates>            -1.702916,52.18729,0            -1.701482,52.18717,0            -1.701503,52.186787,0            -1.701237,52.186361,0            -1.701224,52.185376,0            -1.701211,52.1853,0            -1.70127,52.185246,0            -1.701382,52.185226,0            -1.701559,52.185208,0            -1.701806,52.185208,0            -1.702058,52.185216,0            -1.702224,52.185249,0            -1.702334,52.18527,0            -1.702514,52.185367,0            -1.702624,52.185423,0            -1.702796,52.185524,0            -1.702871,52.185584,0            -1.702911,52.185657,0            -1.702941,52.185726,0            -1.702959,52.185795,0            -1.702978,52.185856,0            -1.703134,52.185905,0            -1.703343,52.185913,0            -1.703506,52.185904,0            -1.703775,52.185908,0            -1.703997,52.1859,0            -1.7043,52.185874,0            -1.704558,52.185938,0            -1.704711,52.185986,0            -1.704794,52.186002,0            -1.704979,52.185996,0            -1.705132,52.185966,0            -1.705328,52.185948,0            -1.705435,52.185946,0            -1.705524,52.186004,0            -1.70565,52.186098,0            -1.705829,52.186234,0            -1.705891,52.186288,0            -1.706036,52.186433,0            -1.70606,52.186591,0            -1.706057,52.18716,0            -1.706052,52.187339,0            -1.706028,52.187505,0            -1.705972,52.18764,0            -1.705937,52.187708,0            -1.705682,52.188145,0            -1.705381,52.188571,0            -1.705317,52.188638,0            -1.705212,52.18873,0            -1.70507,52.188852,0            -1.705344,52.188633,0            -1.705387,52.188569,0            -1.705548,52.188362,0            -1.705733,52.188041,0            -1.705915,52.187754,0            -1.705982,52.187614,0            -1.706025,52.187504,0            -1.706047,52.187227,0            -1.706049,52.187112,0            -1.706065,52.186588,0            -1.706041,52.186502,0            -1.706047,52.186431,0            -1.705888,52.186274,0            -1.705821,52.186226,0            -1.705722,52.186132,0            -1.705566,52.185982,0            -1.705467,52.18595,0            -1.705258,52.185946,0            -1.705057,52.185979,0            -1.704834,52.185984,0            -1.704625,52.18595,0            -1.704335,52.185876,0            -1.704156,52.185882,0            -1.703933,52.185902,0            -1.703788,52.185902,0            -1.703547,52.185907,0            -1.703388,52.185917,0            -1.703177,52.185902,0            -1.703037,52.185848,0            -1.702986,52.185772,0            -1.702892,52.185584,0            -1.702668,52.185432,0            -1.702514,52.185359,0            -1.702418,52.18531,0            -1.702342,52.18527,0            -1.702163,52.185234,0            -1.701865,52.185206,0            -1.701637,52.185205,0            -1.70142,52.185216,0            -1.701296,52.185239,0            -1.701216,52.185285,0            -1.701236,52.185476,0            -1.701232,52.185989,0            -1.701235,52.186357,0            -1.701484,52.186767,0            -1.701492,52.186944,0            -1.701465,52.187163,0            -1.702812,52.187293,0            -1.70313,52.187199,0          </coordinates></LineString></Placemark><Placemark><name>Start/Finish</name><styleUrl>#icon-1899-FFEA00-nodesc</styleUrl><Point><coordinates>            -1.702917,52.187268,0          </coordinates></Point></Placemark></Folder></Document></kml>