<?xml version="1.0" encoding="UTF-8"?><kml xmlns="http://www.opengis.net/kml/2.2"><Document><name>Sutton Park parkrun Regular Course (from Oct 2023)</name><description/><Style id="icon-1644-0288D1-nodesc-normal"><IconStyle><color>ffd18802</color><scale>1</scale><Icon><href>https://www.gstatic.com/mapspro/images/stock/503-wht-blank_maps.png</href></Icon></IconStyle><LabelStyle><scale>0</scale></LabelStyle><BalloonStyle><text><![CDATA[<h3>$[name]</h3>]]></text></BalloonStyle></Style><Style id="icon-1644-0288D1-nodesc-highlight"><IconStyle><color>ffd18802</color><scale>1</scale><Icon><href>https://www.gstatic.com/mapspro/images/stock/503-wht-blank_maps.png</href></Icon></IconStyle><LabelStyle><scale>1</scale></LabelStyle><BalloonStyle><text><![CDATA[<h3>$[name]</h3>]]></text></BalloonStyle></Style><StyleMap id="icon-1644-0288D1-nodesc"><Pair><key>normal</key><styleUrl>#icon-1644-0288D1-nodesc-normal</styleUrl></Pair><Pair><key>highlight</key><styleUrl>#icon-1644-0288D1-nodesc-highlight</styleUrl></Pair></StyleMap><Style id="icon-1899-0F9D58-nodesc-normal"><IconStyle><color>ff589d0f</color><scale>1</scale><Icon><href>https://www.gstatic.com/mapspro/images/stock/503-wht-blank_maps.png</href></Icon><hotSpot x="32" xunits="pixels" y="64" yunits="insetPixels"/></IconStyle><LabelStyle><scale>0</scale></LabelStyle><BalloonStyle><text><![CDATA[<h3>$[name]</h3>]]></text></BalloonStyle></Style><Style id="icon-1899-0F9D58-nodesc-highlight"><IconStyle><color>ff589d0f</color><scale>1</scale><Icon><href>https://www.gstatic.com/mapspro/images/stock/503-wht-blank_maps.png</href></Icon><hotSpot x="32" xunits="pixels" y="64" yunits="insetPixels"/></IconStyle><LabelStyle><scale>1</scale></LabelStyle><BalloonStyle><text><![CDATA[<h3>$[name]</h3>]]></text></BalloonStyle></Style><StyleMap id="icon-1899-0F9D58-nodesc"><Pair><key>normal</key><styleUrl>#icon-1899-0F9D58-nodesc-normal</styleUrl></Pair><Pair><key>highlight</key><styleUrl>#icon-1899-0F9D58-nodesc-highlight</styleUrl></Pair></StyleMap><Style id="icon-1899-FF5252-nodesc-normal"><IconStyle><color>ff5252ff</color><scale>1</scale><Icon><href>https://www.gstatic.com/mapspro/images/stock/503-wht-blank_maps.png</href></Icon><hotSpot x="32" xunits="pixels" y="64" yunits="insetPixels"/></IconStyle><LabelStyle><scale>0</scale></LabelStyle><BalloonStyle><text><![CDATA[<h3>$[name]</h3>]]></text></BalloonStyle></Style><Style id="icon-1899-FF5252-nodesc-highlight"><IconStyle><color>ff5252ff</color><scale>1</scale><Icon><href>https://www.gstatic.com/mapspro/images/stock/503-wht-blank_maps.png</href></Icon><hotSpot x="32" xunits="pixels" y="64" yunits="insetPixels"/></IconStyle><LabelStyle><scale>1</scale></LabelStyle><BalloonStyle><text><![CDATA[<h3>$[name]</h3>]]></text></BalloonStyle></Style><StyleMap id="icon-1899-FF5252-nodesc"><Pair><key>normal</key><styleUrl>#icon-1899-FF5252-nodesc-normal</styleUrl></Pair><Pair><key>highlight</key><styleUrl>#icon-1899-FF5252-nodesc-highlight</styleUrl></Pair></StyleMap><Style id="line-0288D1-3906-nodesc-normal"><LineStyle><color>ffd18802</color><width>3.906</width></LineStyle><BalloonStyle><text><![CDATA[<h3>$[name]</h3>]]></text></BalloonStyle></Style><Style id="line-0288D1-3906-nodesc-highlight"><LineStyle><color>ffd18802</color><width>5.859</width></LineStyle><BalloonStyle><text><![CDATA[<h3>$[name]</h3>]]></text></BalloonStyle></Style><StyleMap id="line-0288D1-3906-nodesc"><Pair><key>normal</key><styleUrl>#line-0288D1-3906-nodesc-normal</styleUrl></Pair><Pair><key>highlight</key><styleUrl>#line-0288D1-3906-nodesc-highlight</styleUrl></Pair></StyleMap><Folder><name>2/3 3SH</name><Placemark><name>Parking</name><styleUrl>#icon-1644-0288D1-nodesc</styleUrl><Point><coordinates>            -1.85164,52.561876,0          </coordinates></Point></Placemark><Placemark><name>Parking</name><styleUrl>#icon-1644-0288D1-nodesc</styleUrl><Point><coordinates>            -1.845364,52.557323,0          </coordinates></Point></Placemark><Placemark><name>Parking</name><styleUrl>#icon-1644-0288D1-nodesc</styleUrl><Point><coordinates>            -1.845309,52.556345,0          </coordinates></Point></Placemark><Placemark><name>Parking at Wyndley</name><styleUrl>#icon-1644-0288D1-nodesc</styleUrl><Point><coordinates>            -1.833076,52.560891,0          </coordinates></Point></Placemark><Placemark><name>Start</name><styleUrl>#icon-1899-0F9D58-nodesc</styleUrl><Point><coordinates>            -1.844344,52.5588138,0          </coordinates></Point></Placemark><Placemark><name>Finish</name><styleUrl>#icon-1899-FF5252-nodesc</styleUrl><Point><coordinates>            -1.8442878,52.5586898,0          </coordinates></Point></Placemark><Placemark><name>Course</name><styleUrl>#line-0288D1-3906-nodesc</styleUrl><LineString><tessellate>1</tessellate><coordinates>            -1.844344,52.558822,0            -1.844109,52.558874,0            -1.84396,52.558904,0            -1.843832,52.558924,0            -1.843728,52.558937,0            -1.843523,52.55902,0            -1.843223,52.559223,0            -1.842933,52.559464,0            -1.842643,52.559634,0            -1.842354,52.559836,0            -1.842096,52.559956,0            -1.841726,52.560113,0            -1.841436,52.560208,0            -1.841114,52.560371,0            -1.84082,52.560491,0            -1.840524,52.56069,0            -1.840385,52.560889,0            -1.840331,52.561091,0            -1.840583,52.561215,0            -1.840766,52.561365,0            -1.840798,52.5616,0            -1.840734,52.561926,0            -1.840664,52.56218,0            -1.840621,52.56236,0            -1.840691,52.562458,0            -1.84082,52.562477,0            -1.841463,52.562415,0            -1.842252,52.562347,0            -1.842917,52.562291,0            -1.84421,52.562177,0            -1.84568,52.562047,0            -1.847048,52.561913,0            -1.847935,52.561863,0            -1.848087,52.561964,0            -1.848241,52.562075,0            -1.848421,52.562244,0            -1.848485,52.562303,0            -1.848568,52.562386,0            -1.848606,52.562495,0            -1.84866,52.562624,0            -1.848788,52.562715,0            -1.849054,52.562748,0            -1.849183,52.563165,0            -1.84922,52.563426,0            -1.849263,52.563804,0            -1.84941,52.564067,0            -1.84966,52.564238,0            -1.849866,52.564339,0            -1.850285,52.564501,0            -1.850666,52.5647,0            -1.850977,52.564904,0            -1.851293,52.565101,0            -1.851631,52.565262,0            -1.852224,52.565543,0            -1.852736,52.5658,0            -1.853608,52.566286,0            -1.854434,52.566796,0            -1.855032,52.567193,0            -1.855212,52.567364,0            -1.855515,52.567744,0            -1.855918,52.568322,0            -1.856317,52.568785,0            -1.856585,52.569374,0            -1.85672,52.569786,0            -1.856828,52.570377,0            -1.856919,52.57092,0            -1.856938,52.571008,0            -1.856745,52.571085,0            -1.856557,52.571161,0            -1.856386,52.571122,0            -1.855849,52.570932,0            -1.85531,52.57078,0            -1.854851,52.570632,0            -1.854578,52.570547,0            -1.854256,52.570418,0            -1.85398,52.570281,0            -1.853451,52.569882,0            -1.853135,52.569655,0            -1.852917,52.569512,0            -1.852317,52.569143,0            -1.851627,52.568799,0            -1.851187,52.568612,0            -1.850112,52.568141,0            -1.849334,52.567859,0            -1.848669,52.567716,0            -1.84799,52.567558,0            -1.847524,52.567416,0            -1.847076,52.567258,0            -1.846547,52.567087,0            -1.84589,52.566868,0            -1.845563,52.566769,0            -1.844949,52.56663,0            -1.844098,52.566482,0            -1.8435,52.566355,0            -1.843178,52.566293,0            -1.842497,52.566291,0            -1.84203,52.566307,0            -1.841596,52.566312,0            -1.841049,52.566294,0            -1.84067,52.566242,0            -1.840485,52.566146,0            -1.840232,52.566077,0            -1.840098,52.565942,0            -1.840152,52.565657,0            -1.840331,52.565472,0            -1.840414,52.565296,0            -1.840471,52.565106,0            -1.840468,52.564967,0            -1.840613,52.564812,0            -1.840709,52.564654,0            -1.840656,52.564468,0            -1.840578,52.564364,0            -1.840446,52.564168,0            -1.840363,52.56396,0            -1.840414,52.563759,0            -1.840401,52.563658,0            -1.840299,52.56348,0            -1.840302,52.563149,0            -1.840334,52.562901,0            -1.840446,52.562671,0            -1.840516,52.56259,0            -1.840326,52.562652,0            -1.840063,52.562768,0            -1.839803,52.562937,0            -1.839489,52.563115,0            -1.839296,52.563175,0            -1.839084,52.56329,0            -1.838797,52.56336,0            -1.838597,52.562861,0            -1.838438,52.562368,0            -1.838271,52.562094,0            -1.838133,52.561776,0            -1.838011,52.561568,0            -1.837974,52.561431,0            -1.837641,52.561144,0            -1.837335,52.560902,0            -1.837383,52.560775,0            -1.83822,52.560506,0            -1.839693,52.560076,0            -1.840516,52.559856,0            -1.841181,52.55967,0            -1.84215,52.559392,0            -1.84329,52.559097,0            -1.84359,52.55896,0            -1.843966,52.558835,0            -1.844261,52.558711,0            -1.844274,52.558703,0          </coordinates></LineString></Placemark></Folder></Document></kml>