<?xml version="1.0" encoding="UTF-8"?><kml xmlns="http://www.opengis.net/kml/2.2"><Document><name>Tamworth Castle Grounds junior parkrun</name><description/><Style id="icon-1899-FFD600-nodesc-normal"><IconStyle><color>ff00d6ff</color><scale>1</scale><Icon><href>https://www.gstatic.com/mapspro/images/stock/503-wht-blank_maps.png</href></Icon><hotSpot x="32" xunits="pixels" y="64" yunits="insetPixels"/></IconStyle><LabelStyle><scale>0</scale></LabelStyle><BalloonStyle><text><![CDATA[<h3>$[name]</h3>]]></text></BalloonStyle></Style><Style id="icon-1899-FFD600-nodesc-highlight"><IconStyle><color>ff00d6ff</color><scale>1</scale><Icon><href>https://www.gstatic.com/mapspro/images/stock/503-wht-blank_maps.png</href></Icon><hotSpot x="32" xunits="pixels" y="64" yunits="insetPixels"/></IconStyle><LabelStyle><scale>1</scale></LabelStyle><BalloonStyle><text><![CDATA[<h3>$[name]</h3>]]></text></BalloonStyle></Style><StyleMap id="icon-1899-FFD600-nodesc"><Pair><key>normal</key><styleUrl>#icon-1899-FFD600-nodesc-normal</styleUrl></Pair><Pair><key>highlight</key><styleUrl>#icon-1899-FFD600-nodesc-highlight</styleUrl></Pair></StyleMap><Style id="line-0288D1-5000-nodesc-normal"><LineStyle><color>ffd18802</color><width>5</width></LineStyle><BalloonStyle><text><![CDATA[<h3>$[name]</h3>]]></text></BalloonStyle></Style><Style id="line-0288D1-5000-nodesc-highlight"><LineStyle><color>ffd18802</color><width>7.5</width></LineStyle><BalloonStyle><text><![CDATA[<h3>$[name]</h3>]]></text></BalloonStyle></Style><StyleMap id="line-0288D1-5000-nodesc"><Pair><key>normal</key><styleUrl>#line-0288D1-5000-nodesc-normal</styleUrl></Pair><Pair><key>highlight</key><styleUrl>#line-0288D1-5000-nodesc-highlight</styleUrl></Pair></StyleMap><Folder><name>Untitled layer</name><Placemark><name>Course</name><styleUrl>#line-0288D1-5000-nodesc</styleUrl><LineString><tessellate>1</tessellate><coordinates>            -1.6953,52.63039,0            -1.6953,52.6304,0            -1.69533,52.63045,0            -1.69547,52.63067,0            -1.69552,52.63075,0            -1.69558,52.63084,0            -1.69574,52.63109,0            -1.69583,52.63126,0            -1.696,52.63155,0            -1.69679,52.63135,0            -1.69692,52.63132,0            -1.69705,52.63129,0            -1.69713,52.63125,0            -1.69719,52.63119,0            -1.6972,52.63119,0            -1.69724,52.63111,0            -1.69725,52.63102,0            -1.69712,52.63068,0            -1.69705,52.63051,0            -1.69704,52.63046,0            -1.69692,52.63018,0            -1.6969,52.63006,0            -1.6969,52.62989,0            -1.69691,52.62975,0            -1.69693,52.62965,0            -1.69637,52.62978,0            -1.69609,52.62984,0            -1.69554,52.62996,0            -1.69526,52.63002,0            -1.6951,52.63006,0            -1.69495,52.63009,0            -1.69491,52.63009,0            -1.69489,52.63009,0            -1.69486,52.63009,0            -1.69485,52.63009,0            -1.69483,52.63009,0            -1.69455,52.63015,0            -1.69432,52.6302,0            -1.6943,52.6302,0            -1.69427,52.63021,0            -1.69428,52.63024,0            -1.69429,52.63026,0            -1.69432,52.63032,0            -1.6944,52.63047,0            -1.69441,52.63049,0            -1.69449,52.63066,0            -1.69453,52.63074,0            -1.69456,52.63084,0            -1.69462,52.63101,0            -1.69465,52.63109,0            -1.69475,52.63136,0            -1.69469,52.63142,0            -1.69464,52.63146,0            -1.69446,52.6316,0            -1.69432,52.63159,0            -1.69423,52.63158,0            -1.69413,52.63157,0            -1.69404,52.63155,0            -1.6939,52.6315,0            -1.69382,52.63147,0            -1.69364,52.63141,0            -1.69361,52.6314,0            -1.69352,52.63137,0            -1.69337,52.63134,0            -1.69324,52.63132,0            -1.69304,52.6313,0            -1.69298,52.6313,0            -1.69288,52.6313,0            -1.69273,52.6313,0            -1.69263,52.63131,0            -1.69248,52.63133,0            -1.69225,52.63135,0            -1.69204,52.63135,0            -1.69203,52.63135,0            -1.69182,52.63135,0            -1.69175,52.63135,0            -1.69166,52.63135,0            -1.69157,52.63134,0            -1.69153,52.63134,0            -1.69146,52.63133,0            -1.69099,52.63087,0            -1.69083,52.63071,0            -1.69067,52.63056,0            -1.69052,52.63041,0            -1.69036,52.63025,0            -1.69021,52.6301,0            -1.69013,52.63003,0            -1.69009,52.62999,0            -1.69005,52.62997,0            -1.69001,52.62994,0            -1.68994,52.62991,0            -1.68967,52.6298,0            -1.68927,52.62993,0            -1.68898,52.63003,0            -1.68892,52.63005,0            -1.68889,52.63006,0            -1.68888,52.63007,0            -1.68884,52.63009,0            -1.6888,52.63012,0            -1.68874,52.63017,0            -1.68871,52.63021,0            -1.6887,52.63022,0            -1.68852,52.63042,0            -1.68837,52.63058,0            -1.68834,52.63064,0            -1.6884,52.63068,0            -1.68845,52.63072,0            -1.6885,52.63074,0            -1.68853,52.63075,0            -1.68856,52.63076,0            -1.68857,52.63076,0            -1.68864,52.63079,0            -1.68882,52.63085,0            -1.68916,52.63096,0            -1.68955,52.63094,0            -1.68963,52.63094,0            -1.68968,52.63094,0            -1.68975,52.63094,0            -1.68979,52.63094,0            -1.68994,52.63096,0            -1.69004,52.63098,0            -1.69027,52.63102,0            -1.69032,52.63104,0            -1.69087,52.63118,0            -1.69127,52.63128,0            -1.69148,52.63133,0            -1.69153,52.63134,0            -1.69157,52.63134,0            -1.69166,52.63135,0            -1.69175,52.63135,0            -1.69182,52.63135,0            -1.69203,52.63135,0            -1.69204,52.63135,0            -1.69225,52.63135,0            -1.69248,52.63133,0            -1.69263,52.63131,0            -1.69273,52.6313,0            -1.69288,52.6313,0            -1.69298,52.6313,0            -1.69304,52.6313,0            -1.69324,52.63132,0            -1.69337,52.63134,0            -1.69352,52.63137,0            -1.69361,52.6314,0            -1.69364,52.63141,0            -1.69382,52.63147,0            -1.6939,52.6315,0            -1.69404,52.63155,0            -1.69413,52.63157,0            -1.69423,52.63158,0            -1.69432,52.63159,0            -1.69445,52.6316,0            -1.69447,52.6316,0            -1.69465,52.63161,0            -1.69473,52.63163,0            -1.69476,52.63163,0            -1.69488,52.63166,0            -1.69504,52.63169,0            -1.69506,52.63169,0            -1.69512,52.63171,0            -1.69514,52.63172,0            -1.69518,52.63172,0            -1.69524,52.63172,0            -1.6953,52.63172,0            -1.69532,52.63172,0            -1.69538,52.63171,0            -1.69556,52.63167,0            -1.6956,52.63166,0            -1.69575,52.63162,0            -1.696,52.63155,0            -1.69583,52.63126,0            -1.69574,52.63109,0            -1.69558,52.63084,0            -1.69552,52.63075,0            -1.69547,52.63067,0            -1.69533,52.63045,0            -1.6953,52.6304,0            -1.69529,52.63038,0          </coordinates></LineString></Placemark><Placemark><name>Start/Finish</name><styleUrl>#icon-1899-FFD600-nodesc</styleUrl><Point><coordinates>            -1.695288,52.630337,0          </coordinates></Point></Placemark></Folder></Document></kml>