<?xml version="1.0" encoding="UTF-8"?><kml xmlns="http://www.opengis.net/kml/2.2"><Document><name>Tetbury Goods Shed parkrun (from Apr 2025)</name><description/><Style id="icon-1899-0F9D58-nodesc-normal"><IconStyle><color>ff589d0f</color><scale>1</scale><Icon><href>https://www.gstatic.com/mapspro/images/stock/503-wht-blank_maps.png</href></Icon><hotSpot x="32" xunits="pixels" y="64" yunits="insetPixels"/></IconStyle><LabelStyle><scale>0</scale></LabelStyle><BalloonStyle><text><![CDATA[<h3>$[name]</h3>]]></text></BalloonStyle></Style><Style id="icon-1899-0F9D58-nodesc-highlight"><IconStyle><color>ff589d0f</color><scale>1</scale><Icon><href>https://www.gstatic.com/mapspro/images/stock/503-wht-blank_maps.png</href></Icon><hotSpot x="32" xunits="pixels" y="64" yunits="insetPixels"/></IconStyle><LabelStyle><scale>1</scale></LabelStyle><BalloonStyle><text><![CDATA[<h3>$[name]</h3>]]></text></BalloonStyle></Style><StyleMap id="icon-1899-0F9D58-nodesc"><Pair><key>normal</key><styleUrl>#icon-1899-0F9D58-nodesc-normal</styleUrl></Pair><Pair><key>highlight</key><styleUrl>#icon-1899-0F9D58-nodesc-highlight</styleUrl></Pair></StyleMap><Style id="icon-1899-FF5252-nodesc-normal"><IconStyle><color>ff5252ff</color><scale>1</scale><Icon><href>https://www.gstatic.com/mapspro/images/stock/503-wht-blank_maps.png</href></Icon><hotSpot x="32" xunits="pixels" y="64" yunits="insetPixels"/></IconStyle><LabelStyle><scale>0</scale></LabelStyle><BalloonStyle><text><![CDATA[<h3>$[name]</h3>]]></text></BalloonStyle></Style><Style id="icon-1899-FF5252-nodesc-highlight"><IconStyle><color>ff5252ff</color><scale>1</scale><Icon><href>https://www.gstatic.com/mapspro/images/stock/503-wht-blank_maps.png</href></Icon><hotSpot x="32" xunits="pixels" y="64" yunits="insetPixels"/></IconStyle><LabelStyle><scale>1</scale></LabelStyle><BalloonStyle><text><![CDATA[<h3>$[name]</h3>]]></text></BalloonStyle></Style><StyleMap id="icon-1899-FF5252-nodesc"><Pair><key>normal</key><styleUrl>#icon-1899-FF5252-nodesc-normal</styleUrl></Pair><Pair><key>highlight</key><styleUrl>#icon-1899-FF5252-nodesc-highlight</styleUrl></Pair></StyleMap><Style id="line-0288D1-5000-nodesc-normal"><LineStyle><color>ffd18802</color><width>5</width></LineStyle><BalloonStyle><text><![CDATA[<h3>$[name]</h3>]]></text></BalloonStyle></Style><Style id="line-0288D1-5000-nodesc-highlight"><LineStyle><color>ffd18802</color><width>7.5</width></LineStyle><BalloonStyle><text><![CDATA[<h3>$[name]</h3>]]></text></BalloonStyle></Style><StyleMap id="line-0288D1-5000-nodesc"><Pair><key>normal</key><styleUrl>#line-0288D1-5000-nodesc-normal</styleUrl></Pair><Pair><key>highlight</key><styleUrl>#line-0288D1-5000-nodesc-highlight</styleUrl></Pair></StyleMap><Folder><name>Untitled layer</name><Placemark><name>Course</name><styleUrl>#line-0288D1-5000-nodesc</styleUrl><LineString><tessellate>1</tessellate><coordinates>            -2.1558014,51.6371283,100            -2.155817,51.637179,100            -2.155824,51.637266,100            -2.155869,51.63753,100            -2.155883,51.637618,100            -2.155817,51.637824,100            -2.15578,51.637874,100            -2.15568,51.638009,100            -2.1555653,51.6379918,100            -2.1553749,51.6379469,101            -2.1553373,51.6379319,101            -2.155338,51.63793,101            -2.155301,51.637923,102            -2.155185,51.637999,103            -2.155116,51.638044,103            -2.155002,51.638176,103            -2.154643,51.63846,102            -2.154494,51.638588,101            -2.154298,51.638693,102            -2.153879,51.638788,102            -2.153269,51.638896,101            -2.153107,51.63891,101            -2.151983,51.639013,104            -2.150832,51.639162,102            -2.149613,51.639417,103            -2.148476,51.639663,104            -2.14721,51.639945,105            -2.146535,51.640096,106            -2.146011,51.64024,105            -2.145393,51.640429,107            -2.144764,51.640654,108            -2.144882,51.640736,105            -2.145072,51.640716,104            -2.145211,51.640719,104            -2.145319,51.640727,104            -2.14575,51.640735,106            -2.14594,51.640721,107            -2.146164,51.640704,109            -2.146713,51.640619,111            -2.146785,51.640625,112            -2.146831,51.640629,112            -2.146881,51.640617,113            -2.1468884,51.6405786,112            -2.1468937,51.6405153,111            -2.1469179,51.6404371,110            -2.1469152,51.6403555,109            -2.1469367,51.6402657,108            -2.1469903,51.6402207,107            -2.1471271,51.6401841,107            -2.1473658,51.6401392,107            -2.1476609,51.6400892,106            -2.1480122,51.6400226,106            -2.1484387,51.6399511,107            -2.1489456,51.6398811,106            -2.1491548,51.6398462,106            -2.149157,51.639851,106            -2.149525,51.639779,106            -2.14992,51.639725,107            -2.149977,51.639685,106            -2.150057,51.639694,106            -2.150179,51.639743,107            -2.150252,51.639773,108            -2.150465,51.639793,109            -2.150181,51.639936,110            -2.15004,51.639962,110            -2.149784,51.640009,109            -2.149252,51.640071,110            -2.148719,51.640194,112            -2.148719,51.640193,112            -2.147456,51.640485,113            -2.146831,51.640629,112            -2.146454,51.640744,112            -2.145495,51.641036,110            -2.14514,51.641203,110            -2.144464,51.641423,112            -2.14438,51.64147,112            -2.1442598,51.6414891,112            -2.1440774,51.6415124,112            -2.1438199,51.641549,111            -2.143541,51.6416089,112            -2.1433479,51.6417687,113            -2.1431601,51.6419885,112            -2.1429831,51.6422514,108            -2.1428651,51.6425144,106            -2.1428221,51.6426942,105            -2.142826,51.642696,105            -2.142784,51.642737,105            -2.142747,51.6428,105            -2.142453,51.643233,106            -2.14235,51.643362,106            -2.142249,51.643442,106            -2.142165,51.643452,107            -2.142132,51.643456,107            -2.142058,51.643432,109            -2.141918,51.643611,107            -2.141697,51.643848,107            -2.1414,51.644105,108            -2.141184,51.644265,108            -2.140111,51.645012,107            -2.139924,51.645132,107            -2.139379,51.645394,109            -2.1391,51.645481,109            -2.139379,51.645394,109            -2.139924,51.645132,107            -2.140333,51.644869,108            -2.1414,51.644105,108            -2.141803,51.643742,107            -2.142058,51.643432,109            -2.142221,51.643163,108            -2.142283,51.64306,108            -2.14256,51.642424,106            -2.142788,51.641943,106            -2.142982,51.641697,107            -2.143198,51.641496,107            -2.143731,51.641156,106            -2.144178,51.640925,107            -2.144666,51.640696,107            -2.144764,51.640654,108            -2.144882,51.640736,105            -2.145072,51.640716,104            -2.145211,51.640719,104            -2.145319,51.640727,104            -2.14575,51.640735,106            -2.146164,51.640704,109            -2.146449,51.640659,110            -2.146713,51.640619,111            -2.146831,51.640629,112            -2.146584,51.640704,112            -2.14544,51.641053,109            -2.14514,51.641203,110            -2.144863,51.641293,111            -2.144464,51.641423,112            -2.144405,51.641456,112            -2.1442384,51.6414891,112            -2.1440452,51.6415157,112            -2.1438172,51.6415507,112            -2.1435624,51.641604,112            -2.1433854,51.6417355,113            -2.1432191,51.6419152,113            -2.143085,51.642105,110            -2.1429563,51.6423014,107            -2.1428597,51.6425261,106            -2.1428248,51.6426959,105            -2.142784,51.642737,105            -2.142747,51.6428,105            -2.142604,51.643021,106            -2.142372,51.643334,106            -2.14235,51.643362,106            -2.142249,51.643442,106            -2.142218,51.643446,106            -2.142132,51.643456,107            -2.142067,51.643435,108            -2.142058,51.643432,109            -2.142202,51.643194,108            -2.142351,51.642904,108            -2.142511,51.642536,106            -2.142699,51.642105,106            -2.142788,51.641943,106            -2.142881,51.641825,107            -2.143025,51.641643,107            -2.143157,51.641531,107            -2.143609,51.641234,106            -2.144239,51.640894,107            -2.144764,51.640654,108            -2.145051,51.640551,107            -2.145393,51.640429,107            -2.146073,51.640223,105            -2.146535,51.640096,106            -2.147425,51.639897,106            -2.148807,51.639589,105            -2.150212,51.639292,104            -2.150921,51.639144,102            -2.151697,51.639041,103            -2.153209,51.638901,101            -2.153879,51.638788,102            -2.154334,51.638685,101            -2.154383,51.638655,101            -2.154494,51.638588,101            -2.154784,51.638339,102            -2.154904,51.63826,103            -2.154963,51.638221,103            -2.155116,51.638044,103            -2.155297,51.637926,102            -2.155337,51.63793,101            -2.1553668,51.6379452,101            -2.1554446,51.6379635,101            -2.1555546,51.6379885,100            -2.1556619,51.6380035,100            -2.1556807,51.6380035,100            -2.1557075,51.6379768,100            -2.155704,51.637976,100            -2.155817,51.637824,100            -2.155851,51.63772,100            -2.155883,51.637618,100            -2.155874,51.637562,100            -2.15585,51.637421,100            -2.1557906,51.6374058,100            -2.1557194,51.6371248,100          </coordinates></LineString></Placemark><Placemark><name>Finish</name><styleUrl>#icon-1899-FF5252-nodesc</styleUrl><Point><coordinates>            -2.1557194,51.6371248,100          </coordinates></Point></Placemark><Placemark><name>Start</name><styleUrl>#icon-1899-0F9D58-nodesc</styleUrl><Point><coordinates>            -2.1558014,51.6371283,100          </coordinates></Point></Placemark></Folder></Document></kml>