<?xml version="1.0" encoding="UTF-8"?><kml xmlns="http://www.opengis.net/kml/2.2"><Document><name>Walthamstow parkrun</name><description>3 anticlockwise laps plus 50m in red to finish</description><Style id="icon-123-nodesc-normal"><IconStyle><scale>1.1</scale><Icon><href>https://www.gstatic.com/mapspro/images/stock/123-red-dot.png</href></Icon><hotSpot x="16" xunits="pixels" y="32" yunits="insetPixels"/></IconStyle><LabelStyle><scale>0</scale></LabelStyle><BalloonStyle><text><![CDATA[<h3>$[name]</h3>]]></text></BalloonStyle></Style><Style id="icon-123-nodesc-highlight"><IconStyle><scale>1.1</scale><Icon><href>https://www.gstatic.com/mapspro/images/stock/123-red-dot.png</href></Icon><hotSpot x="16" xunits="pixels" y="32" yunits="insetPixels"/></IconStyle><LabelStyle><scale>1.1</scale></LabelStyle><BalloonStyle><text><![CDATA[<h3>$[name]</h3>]]></text></BalloonStyle></Style><StyleMap id="icon-123-nodesc"><Pair><key>normal</key><styleUrl>#icon-123-nodesc-normal</styleUrl></Pair><Pair><key>highlight</key><styleUrl>#icon-123-nodesc-highlight</styleUrl></Pair></StyleMap><Style id="icon-61-normal"><IconStyle><scale>1.1</scale><Icon><href>https://www.gstatic.com/mapspro/images/stock/61-green-dot.png</href></Icon><hotSpot x="16" xunits="pixels" y="32" yunits="insetPixels"/></IconStyle><LabelStyle><scale>0</scale></LabelStyle></Style><Style id="icon-61-highlight"><IconStyle><scale>1.1</scale><Icon><href>https://www.gstatic.com/mapspro/images/stock/61-green-dot.png</href></Icon><hotSpot x="16" xunits="pixels" y="32" yunits="insetPixels"/></IconStyle><LabelStyle><scale>1.1</scale></LabelStyle></Style><StyleMap id="icon-61"><Pair><key>normal</key><styleUrl>#icon-61-normal</styleUrl></Pair><Pair><key>highlight</key><styleUrl>#icon-61-highlight</styleUrl></Pair></StyleMap><Style id="line-0000FF-5000-nodesc-normal"><LineStyle><color>ffff0000</color><width>5</width></LineStyle><BalloonStyle><text><![CDATA[<h3>$[name]</h3>]]></text></BalloonStyle></Style><Style id="line-0000FF-5000-nodesc-highlight"><LineStyle><color>ffff0000</color><width>7.5</width></LineStyle><BalloonStyle><text><![CDATA[<h3>$[name]</h3>]]></text></BalloonStyle></Style><StyleMap id="line-0000FF-5000-nodesc"><Pair><key>normal</key><styleUrl>#line-0000FF-5000-nodesc-normal</styleUrl></Pair><Pair><key>highlight</key><styleUrl>#line-0000FF-5000-nodesc-highlight</styleUrl></Pair></StyleMap><Folder><name>Untitled layer</name><Placemark><name>Course</name><styleUrl>#line-0000FF-5000-nodesc</styleUrl><LineString><tessellate>1</tessellate><coordinates>            -0.009356,51.602612,0            -0.009398,51.601852,0            -0.009227,51.601414,0            -0.006459,51.601601,0            -0.005622,51.601639,0            -0.005729,51.602745,0            -0.005815,51.60321,0            -0.006073,51.603359,0            -0.005815,51.603611,0            -0.005794,51.604286,0            -0.005869,51.604805,0            -0.006073,51.604946,0            -0.006781,51.604816,0            -0.007457,51.604805,0            -0.0081,51.604733,0            -0.008701,51.60471,0            -0.009753,51.604446,0            -0.009967,51.604244,0            -0.010407,51.604164,0            -0.01031,51.603619,0            -0.00957,51.603523,0            -0.009077,51.603638,0            -0.008712,51.603813,0            -0.007317,51.603859,0            -0.007167,51.602791,0            -0.007628,51.602654,0            -0.00795,51.602737,0            -0.009291,51.602627,0          </coordinates></LineString></Placemark><Placemark><name>Start Line</name><description>Start between the trees</description><styleUrl>#icon-61</styleUrl><Point><coordinates>            -0.007639,51.602639,0          </coordinates></Point></Placemark><Placemark><name>Finish Line</name><styleUrl>#icon-123-nodesc</styleUrl><Point><coordinates>            -0.009398,51.601873,0          </coordinates></Point></Placemark></Folder></Document></kml>