<?xml version="1.0" encoding="UTF-8"?><kml xmlns="http://www.opengis.net/kml/2.2"><Document><name>Walton Promenade parkrun</name><description/><Style id="icon-1899-FFEA00-nodesc-normal"><IconStyle><color>ff00eaff</color><scale>1</scale><Icon><href>https://www.gstatic.com/mapspro/images/stock/503-wht-blank_maps.png</href></Icon><hotSpot x="32" xunits="pixels" y="64" yunits="insetPixels"/></IconStyle><LabelStyle><scale>0</scale></LabelStyle><BalloonStyle><text><![CDATA[<h3>$[name]</h3>]]></text></BalloonStyle></Style><Style id="icon-1899-FFEA00-nodesc-highlight"><IconStyle><color>ff00eaff</color><scale>1</scale><Icon><href>https://www.gstatic.com/mapspro/images/stock/503-wht-blank_maps.png</href></Icon><hotSpot x="32" xunits="pixels" y="64" yunits="insetPixels"/></IconStyle><LabelStyle><scale>1</scale></LabelStyle><BalloonStyle><text><![CDATA[<h3>$[name]</h3>]]></text></BalloonStyle></Style><StyleMap id="icon-1899-FFEA00-nodesc"><Pair><key>normal</key><styleUrl>#icon-1899-FFEA00-nodesc-normal</styleUrl></Pair><Pair><key>highlight</key><styleUrl>#icon-1899-FFEA00-nodesc-highlight</styleUrl></Pair></StyleMap><Style id="line-0288D1-5000-nodesc-normal"><LineStyle><color>ffd18802</color><width>5</width></LineStyle><BalloonStyle><text><![CDATA[<h3>$[name]</h3>]]></text></BalloonStyle></Style><Style id="line-0288D1-5000-nodesc-highlight"><LineStyle><color>ffd18802</color><width>7.5</width></LineStyle><BalloonStyle><text><![CDATA[<h3>$[name]</h3>]]></text></BalloonStyle></Style><StyleMap id="line-0288D1-5000-nodesc"><Pair><key>normal</key><styleUrl>#line-0288D1-5000-nodesc-normal</styleUrl></Pair><Pair><key>highlight</key><styleUrl>#line-0288D1-5000-nodesc-highlight</styleUrl></Pair></StyleMap><Folder><name>Untitled layer</name><Placemark><name>Course</name><styleUrl>#line-0288D1-5000-nodesc</styleUrl><LineString><tessellate>1</tessellate><coordinates>            1.26996,51.84593,0            1.26993,51.84592,0            1.26989,51.84589,0            1.26979,51.84581,0            1.26966,51.84569,0            1.26946,51.84551,0            1.26936,51.84543,0            1.26925,51.84531,0            1.26913,51.84522,0            1.2688,51.84492,0            1.26861,51.84476,0            1.26848,51.84462,0            1.26762,51.8437,0            1.26649,51.8425,0            1.26644,51.84244,0            1.26589,51.84185,0            1.26581,51.84176,0            1.26575,51.8417,0            1.2657,51.84167,0            1.26564,51.84167,0            1.26557,51.84169,0            1.26544,51.84174,0            1.26515,51.84183,0            1.26486,51.84187,0            1.26472,51.84186,0            1.26461,51.84183,0            1.2646,51.84183,0            1.26446,51.84178,0            1.26428,51.84174,0            1.26409,51.84166,0            1.26389,51.84159,0            1.26361,51.84147,0            1.26341,51.84138,0            1.26337,51.84137,0            1.26319,51.84127,0            1.26315,51.84125,0            1.26296,51.84113,0            1.26295,51.84112,0            1.26282,51.84102,0            1.26278,51.84098,0            1.26259,51.8408,0            1.26246,51.84068,0            1.26241,51.84063,0            1.26226,51.84047,0            1.26195,51.84017,0            1.26191,51.84012,0            1.2618,51.84001,0            1.26164,51.83986,0            1.26149,51.83971,0            1.26117,51.83941,0            1.26114,51.83937,0            1.26056,51.83879,0            1.25993,51.83815,0            1.25965,51.83787,0            1.2595,51.83772,0            1.25935,51.83757,0            1.25919,51.83741,0            1.25889,51.83711,0            1.25874,51.83696,0            1.2587,51.83692,0            1.25862,51.83684,0            1.25859,51.83682,0            1.25854,51.83679,0            1.2585,51.83677,0            1.25844,51.83672,0            1.25837,51.83666,0            1.25821,51.83651,0            1.25813,51.83644,0            1.25804,51.83636,0            1.25793,51.83626,0            1.2579,51.83624,0            1.25784,51.83621,0            1.25781,51.8362,0            1.25778,51.8362,0            1.25773,51.8362,0            1.25766,51.83619,0            1.25759,51.83618,0            1.25754,51.83617,0            1.2574,51.83613,0            1.2573,51.83609,0            1.25723,51.83606,0            1.25717,51.83602,0            1.25715,51.83601,0            1.25699,51.83588,0            1.25672,51.83567,0            1.25643,51.83546,0            1.25625,51.83533,0            1.25611,51.83522,0            1.25578,51.83499,0            1.25549,51.83478,0            1.25524,51.83459,0            1.25489,51.83434,0            1.25458,51.83411,0            1.25455,51.83409,0            1.25421,51.83382,0            1.2542,51.8338,0            1.25364,51.83339,0            1.25327,51.83312,0            1.25293,51.83284,0            1.25248,51.83247,0            1.25226,51.83229,0            1.25222,51.83226,0            1.25204,51.83211,0            1.25186,51.83197,0            1.25169,51.83183,0            1.25151,51.83169,0            1.25116,51.8314,0            1.25098,51.83126,0            1.25089,51.83118,0            1.25054,51.83089,0            1.25036,51.83075,0            1.25019,51.83061,0            1.25001,51.83046,0            1.24974,51.83023,0            1.24967,51.83017,0            1.24918,51.82977,0            1.24894,51.82958,0            1.24861,51.82931,0            1.24855,51.82926,0            1.24844,51.82917,0            1.24827,51.82902,0            1.24814,51.82891,0          </coordinates></LineString></Placemark><Placemark><name>Start/Finish</name><styleUrl>#icon-1899-FFEA00-nodesc</styleUrl><Point><coordinates>            1.269962,51.845931,0          </coordinates></Point></Placemark></Folder></Document></kml>