<?xml version="1.0" encoding="UTF-8"?><kml xmlns="http://www.opengis.net/kml/2.2"><Document><name>Warwick Racecourse parkrun</name><description/><Style id="icon-1502-0288D1-nodesc-normal"><IconStyle><color>ffd18802</color><scale>1</scale><Icon><href>https://www.gstatic.com/mapspro/images/stock/503-wht-blank_maps.png</href></Icon></IconStyle><LabelStyle><scale>0</scale></LabelStyle><BalloonStyle><text><![CDATA[<h3>$[name]</h3>]]></text></BalloonStyle></Style><Style id="icon-1502-0288D1-nodesc-highlight"><IconStyle><color>ffd18802</color><scale>1</scale><Icon><href>https://www.gstatic.com/mapspro/images/stock/503-wht-blank_maps.png</href></Icon></IconStyle><LabelStyle><scale>1</scale></LabelStyle><BalloonStyle><text><![CDATA[<h3>$[name]</h3>]]></text></BalloonStyle></Style><StyleMap id="icon-1502-0288D1-nodesc"><Pair><key>normal</key><styleUrl>#icon-1502-0288D1-nodesc-normal</styleUrl></Pair><Pair><key>highlight</key><styleUrl>#icon-1502-0288D1-nodesc-highlight</styleUrl></Pair></StyleMap><Style id="icon-1534-0288D1-normal"><IconStyle><color>ffd18802</color><scale>1</scale><Icon><href>https://www.gstatic.com/mapspro/images/stock/503-wht-blank_maps.png</href></Icon></IconStyle><LabelStyle><scale>0</scale></LabelStyle></Style><Style id="icon-1534-0288D1-highlight"><IconStyle><color>ffd18802</color><scale>1</scale><Icon><href>https://www.gstatic.com/mapspro/images/stock/503-wht-blank_maps.png</href></Icon></IconStyle><LabelStyle><scale>1</scale></LabelStyle></Style><StyleMap id="icon-1534-0288D1"><Pair><key>normal</key><styleUrl>#icon-1534-0288D1-normal</styleUrl></Pair><Pair><key>highlight</key><styleUrl>#icon-1534-0288D1-highlight</styleUrl></Pair></StyleMap><Style id="icon-1644-0288D1-normal"><IconStyle><color>ffd18802</color><scale>1</scale><Icon><href>https://www.gstatic.com/mapspro/images/stock/503-wht-blank_maps.png</href></Icon></IconStyle><LabelStyle><scale>0</scale></LabelStyle></Style><Style id="icon-1644-0288D1-highlight"><IconStyle><color>ffd18802</color><scale>1</scale><Icon><href>https://www.gstatic.com/mapspro/images/stock/503-wht-blank_maps.png</href></Icon></IconStyle><LabelStyle><scale>1</scale></LabelStyle></Style><StyleMap id="icon-1644-0288D1"><Pair><key>normal</key><styleUrl>#icon-1644-0288D1-normal</styleUrl></Pair><Pair><key>highlight</key><styleUrl>#icon-1644-0288D1-highlight</styleUrl></Pair></StyleMap><Style id="icon-1644-0288D1-nodesc-normal"><IconStyle><color>ffd18802</color><scale>1</scale><Icon><href>https://www.gstatic.com/mapspro/images/stock/503-wht-blank_maps.png</href></Icon></IconStyle><LabelStyle><scale>0</scale></LabelStyle><BalloonStyle><text><![CDATA[<h3>$[name]</h3>]]></text></BalloonStyle></Style><Style id="icon-1644-0288D1-nodesc-highlight"><IconStyle><color>ffd18802</color><scale>1</scale><Icon><href>https://www.gstatic.com/mapspro/images/stock/503-wht-blank_maps.png</href></Icon></IconStyle><LabelStyle><scale>1</scale></LabelStyle><BalloonStyle><text><![CDATA[<h3>$[name]</h3>]]></text></BalloonStyle></Style><StyleMap id="icon-1644-0288D1-nodesc"><Pair><key>normal</key><styleUrl>#icon-1644-0288D1-nodesc-normal</styleUrl></Pair><Pair><key>highlight</key><styleUrl>#icon-1644-0288D1-nodesc-highlight</styleUrl></Pair></StyleMap><Style id="icon-1733-0288D1-nodesc-normal"><IconStyle><color>ffd18802</color><scale>1</scale><Icon><href>https://www.gstatic.com/mapspro/images/stock/503-wht-blank_maps.png</href></Icon></IconStyle><LabelStyle><scale>0</scale></LabelStyle><BalloonStyle><text><![CDATA[<h3>$[name]</h3>]]></text></BalloonStyle></Style><Style id="icon-1733-0288D1-nodesc-highlight"><IconStyle><color>ffd18802</color><scale>1</scale><Icon><href>https://www.gstatic.com/mapspro/images/stock/503-wht-blank_maps.png</href></Icon></IconStyle><LabelStyle><scale>1</scale></LabelStyle><BalloonStyle><text><![CDATA[<h3>$[name]</h3>]]></text></BalloonStyle></Style><StyleMap id="icon-1733-0288D1-nodesc"><Pair><key>normal</key><styleUrl>#icon-1733-0288D1-nodesc-normal</styleUrl></Pair><Pair><key>highlight</key><styleUrl>#icon-1733-0288D1-nodesc-highlight</styleUrl></Pair></StyleMap><Style id="icon-1899-FFEA00-nodesc-normal"><IconStyle><color>ff00eaff</color><scale>1</scale><Icon><href>https://www.gstatic.com/mapspro/images/stock/503-wht-blank_maps.png</href></Icon><hotSpot x="32" xunits="pixels" y="64" yunits="insetPixels"/></IconStyle><LabelStyle><scale>0</scale></LabelStyle><BalloonStyle><text><![CDATA[<h3>$[name]</h3>]]></text></BalloonStyle></Style><Style id="icon-1899-FFEA00-nodesc-highlight"><IconStyle><color>ff00eaff</color><scale>1</scale><Icon><href>https://www.gstatic.com/mapspro/images/stock/503-wht-blank_maps.png</href></Icon><hotSpot x="32" xunits="pixels" y="64" yunits="insetPixels"/></IconStyle><LabelStyle><scale>1</scale></LabelStyle><BalloonStyle><text><![CDATA[<h3>$[name]</h3>]]></text></BalloonStyle></Style><StyleMap id="icon-1899-FFEA00-nodesc"><Pair><key>normal</key><styleUrl>#icon-1899-FFEA00-nodesc-normal</styleUrl></Pair><Pair><key>highlight</key><styleUrl>#icon-1899-FFEA00-nodesc-highlight</styleUrl></Pair></StyleMap><Style id="line-0288D1-5069-nodesc-normal"><LineStyle><color>ffd18802</color><width>5.069</width></LineStyle><BalloonStyle><text><![CDATA[<h3>$[name]</h3>]]></text></BalloonStyle></Style><Style id="line-0288D1-5069-nodesc-highlight"><LineStyle><color>ffd18802</color><width>7.6035</width></LineStyle><BalloonStyle><text><![CDATA[<h3>$[name]</h3>]]></text></BalloonStyle></Style><StyleMap id="line-0288D1-5069-nodesc"><Pair><key>normal</key><styleUrl>#line-0288D1-5069-nodesc-normal</styleUrl></Pair><Pair><key>highlight</key><styleUrl>#line-0288D1-5069-nodesc-highlight</styleUrl></Pair></StyleMap><Folder><name>Warwick Racecourse parkrun</name><Placemark><name>Turn Around</name><styleUrl>#icon-1502-0288D1-nodesc</styleUrl><Point><coordinates>            -1.595838,52.282488,0          </coordinates></Point></Placemark><Placemark><name>Parking</name><styleUrl>#icon-1644-0288D1-nodesc</styleUrl><Point><coordinates>            -1.594633,52.283833,0          </coordinates></Point></Placemark><Placemark><name>Parking</name><styleUrl>#icon-1644-0288D1-nodesc</styleUrl><Point><coordinates>            -1.59987,52.276476,0          </coordinates></Point></Placemark><Placemark><name>Parking</name><description>23-25 Linen Street, Warwick CV34 4DS, UK</description><styleUrl>#icon-1644-0288D1</styleUrl><Point><coordinates>            -1.592188,52.28111,0          </coordinates></Point></Placemark><Placemark><name>Post Run Cafe</name><description>Warwick Golf Centre</description><styleUrl>#icon-1534-0288D1</styleUrl><Point><coordinates>            -1.596832,52.281808,0          </coordinates></Point></Placemark><Placemark><name>Course</name><styleUrl>#line-0288D1-5069-nodesc</styleUrl><LineString><tessellate>1</tessellate><coordinates>            -1.595935,52.2808,0            -1.595955,52.280672,0            -1.595991,52.280436,0            -1.596022,52.2803,0            -1.596086,52.280129,0            -1.59621,52.279978,0            -1.596344,52.279863,0            -1.597159,52.280165,0            -1.59732,52.280194,0            -1.597486,52.280172,0            -1.598591,52.279715,0            -1.598677,52.279643,0            -1.599278,52.278343,0            -1.599364,52.27817,0            -1.599557,52.278032,0            -1.600447,52.277562,0            -1.602781,52.276325,0            -1.603258,52.276223,0            -1.603655,52.276223,0            -1.604101,52.276295,0            -1.604396,52.276436,0            -1.604642,52.276689,0            -1.604771,52.276978,0            -1.604809,52.277221,0            -1.60476,52.277749,0            -1.6046,52.278764,0            -1.604331,52.280739,0            -1.60402,52.282922,0            -1.603918,52.283614,0            -1.60387,52.283732,0            -1.603779,52.283873,0            -1.603693,52.283959,0            -1.603548,52.284074,0            -1.603242,52.284215,0            -1.60291,52.284294,0            -1.602572,52.28433,0            -1.60195,52.284352,0            -1.599884,52.284471,0            -1.599289,52.284497,0            -1.598034,52.284464,0            -1.5974,52.284448,0            -1.597041,52.284412,0            -1.596794,52.284359,0            -1.596558,52.284287,0            -1.596312,52.284162,0            -1.596172,52.284044,0            -1.596038,52.283854,0            -1.595941,52.283621,0            -1.595909,52.283355,0            -1.595818,52.283122,0            -1.595834,52.282781,0            -1.595838,52.282488,0          </coordinates></LineString></Placemark><Placemark><name>Toilets</name><styleUrl>#icon-1733-0288D1-nodesc</styleUrl><Point><coordinates>            -1.591484,52.28204,0          </coordinates></Point></Placemark><Placemark><name>Start/Finish</name><styleUrl>#icon-1899-FFEA00-nodesc</styleUrl><Point><coordinates>            -1.59594,52.280813,0          </coordinates></Point></Placemark></Folder></Document></kml>