<?xml version="1.0" encoding="UTF-8"?><kml xmlns="http://www.opengis.net/kml/2.2"><Document><name>Weymouth parkrun</name><description/><Style id="icon-1899-0F9D58-nodesc-normal"><IconStyle><color>ff589d0f</color><scale>1</scale><Icon><href>https://www.gstatic.com/mapspro/images/stock/503-wht-blank_maps.png</href></Icon><hotSpot x="32" xunits="pixels" y="64" yunits="insetPixels"/></IconStyle><LabelStyle><scale>0</scale></LabelStyle><BalloonStyle><text><![CDATA[<h3>$[name]</h3>]]></text></BalloonStyle></Style><Style id="icon-1899-0F9D58-nodesc-highlight"><IconStyle><color>ff589d0f</color><scale>1</scale><Icon><href>https://www.gstatic.com/mapspro/images/stock/503-wht-blank_maps.png</href></Icon><hotSpot x="32" xunits="pixels" y="64" yunits="insetPixels"/></IconStyle><LabelStyle><scale>1</scale></LabelStyle><BalloonStyle><text><![CDATA[<h3>$[name]</h3>]]></text></BalloonStyle></Style><StyleMap id="icon-1899-0F9D58-nodesc"><Pair><key>normal</key><styleUrl>#icon-1899-0F9D58-nodesc-normal</styleUrl></Pair><Pair><key>highlight</key><styleUrl>#icon-1899-0F9D58-nodesc-highlight</styleUrl></Pair></StyleMap><Style id="icon-1899-FF5252-nodesc-normal"><IconStyle><color>ff5252ff</color><scale>1</scale><Icon><href>https://www.gstatic.com/mapspro/images/stock/503-wht-blank_maps.png</href></Icon><hotSpot x="32" xunits="pixels" y="64" yunits="insetPixels"/></IconStyle><LabelStyle><scale>0</scale></LabelStyle><BalloonStyle><text><![CDATA[<h3>$[name]</h3>]]></text></BalloonStyle></Style><Style id="icon-1899-FF5252-nodesc-highlight"><IconStyle><color>ff5252ff</color><scale>1</scale><Icon><href>https://www.gstatic.com/mapspro/images/stock/503-wht-blank_maps.png</href></Icon><hotSpot x="32" xunits="pixels" y="64" yunits="insetPixels"/></IconStyle><LabelStyle><scale>1</scale></LabelStyle><BalloonStyle><text><![CDATA[<h3>$[name]</h3>]]></text></BalloonStyle></Style><StyleMap id="icon-1899-FF5252-nodesc"><Pair><key>normal</key><styleUrl>#icon-1899-FF5252-nodesc-normal</styleUrl></Pair><Pair><key>highlight</key><styleUrl>#icon-1899-FF5252-nodesc-highlight</styleUrl></Pair></StyleMap><Style id="line-4186F0-5263-normal"><LineStyle><color>fff08641</color><width>5.263</width></LineStyle></Style><Style id="line-4186F0-5263-highlight"><LineStyle><color>fff08641</color><width>7.8945</width></LineStyle></Style><StyleMap id="line-4186F0-5263"><Pair><key>normal</key><styleUrl>#line-4186F0-5263-normal</styleUrl></Pair><Pair><key>highlight</key><styleUrl>#line-4186F0-5263-highlight</styleUrl></Pair></StyleMap><Folder><name>Untitled layer</name><Placemark><name>Course</name><description>Lodmoor Country park route</description><styleUrl>#line-4186F0-5263</styleUrl><LineString><tessellate>1</tessellate><coordinates>            -2.447805,50.625249,0            -2.447269,50.625753,0            -2.447011,50.62597,0            -2.447118,50.626134,0            -2.44699,50.626379,0            -2.447247,50.626638,0            -2.447912,50.626937,0            -2.448599,50.627128,0            -2.449414,50.627386,0            -2.449801,50.627468,0            -2.449779,50.627972,0            -2.449844,50.628285,0            -2.449715,50.628611,0            -2.44965,50.628843,0            -2.449264,50.629128,0            -2.448792,50.629224,0            -2.44802,50.628775,0            -2.447376,50.628257,0            -2.446711,50.627876,0            -2.44641,50.62759,0            -2.445981,50.627468,0            -2.445616,50.627264,0            -2.444951,50.626828,0            -2.444758,50.626583,0            -2.444994,50.626447,0            -2.445209,50.626107,0            -2.44581,50.625821,0            -2.446367,50.62597,0            -2.446796,50.626297,0            -2.446968,50.626297,0            -2.447226,50.626583,0            -2.447612,50.626828,0            -2.448299,50.627046,0            -2.449071,50.627264,0            -2.449886,50.627509,0            -2.449779,50.627999,0            -2.449908,50.628325,0            -2.449715,50.628638,0            -2.449672,50.628856,0            -2.449886,50.62902,0            -2.449565,50.629265,0            -2.449543,50.629618,0            -2.44965,50.630149,0            -2.449779,50.63049,0            -2.449565,50.631293,0            -2.449951,50.631524,0            -2.450981,50.631606,0            -2.45156,50.631551,0            -2.451904,50.631429,0            -2.452075,50.631265,0            -2.452869,50.630925,0            -2.453298,50.630748,0            -2.453899,50.631347,0            -2.454564,50.632,0            -2.454822,50.632382,0            -2.455101,50.632518,0            -2.455594,50.632395,0            -2.455938,50.632327,0            -2.456495,50.632504,0            -2.457032,50.632654,0            -2.457225,50.632694,0            -2.457933,50.633443,0            -2.458083,50.633566,0            -2.458899,50.633865,0            -2.459006,50.634382,0            -2.459178,50.634913,0            -2.459564,50.635294,0            -2.459864,50.635403,0            -2.459714,50.635539,0            -2.459542,50.63524,0            -2.459092,50.634858,0            -2.459027,50.634409,0            -2.45892,50.633824,0            -2.457997,50.633552,0            -2.457139,50.632626,0            -2.456431,50.632518,0            -2.455938,50.632286,0            -2.455058,50.632504,0            -2.454714,50.632354,0            -2.454521,50.63196,0            -2.453298,50.630721,0            -2.452032,50.631293,0            -2.451818,50.63151,0            -2.45156,50.631551,0            -2.450723,50.631592,0            -2.450144,50.631538,0            -2.449522,50.631265,0            -2.449736,50.630462,0            -2.449672,50.63004,0            -2.449543,50.629523,0            -2.449586,50.629196,0            -2.449929,50.629033,0            -2.449672,50.628802,0            -2.449286,50.629115,0            -2.448771,50.629183,0            -2.447977,50.628706,0            -2.447226,50.628148,0            -2.446754,50.627863,0            -2.446346,50.627604,0            -2.445917,50.627454,0            -2.445509,50.627196,0            -2.444758,50.62661,0            -2.444994,50.62642,0            -2.445209,50.626148,0            -2.445767,50.625807,0            -2.446475,50.62593,0            -2.44656,50.626175,0            -2.446968,50.626365,0            -2.447076,50.62593,0            -2.447397,50.62563,0          </coordinates></LineString></Placemark><Placemark><name>Start</name><styleUrl>#icon-1899-0F9D58-nodesc</styleUrl><Point><coordinates>            -2.447805,50.625249,0          </coordinates></Point></Placemark><Placemark><name>Finish</name><styleUrl>#icon-1899-FF5252-nodesc</styleUrl><Point><coordinates>            -2.447247,50.625862,0          </coordinates></Point></Placemark></Folder></Document></kml>