<?xml version="1.0" encoding="UTF-8"?><kml xmlns="http://www.opengis.net/kml/2.2"><Document><name>Wimbledon Common parkrun (from May 2024)</name><description/><Style id="icon-123-nodesc-normal"><IconStyle><scale>1.1</scale><Icon><href>https://www.gstatic.com/mapspro/images/stock/123-red-dot.png</href></Icon><hotSpot x="16" xunits="pixels" y="32" yunits="insetPixels"/></IconStyle><LabelStyle><scale>0</scale></LabelStyle><BalloonStyle><text><![CDATA[<h3>$[name]</h3>]]></text></BalloonStyle></Style><Style id="icon-123-nodesc-highlight"><IconStyle><scale>1.1</scale><Icon><href>https://www.gstatic.com/mapspro/images/stock/123-red-dot.png</href></Icon><hotSpot x="16" xunits="pixels" y="32" yunits="insetPixels"/></IconStyle><LabelStyle><scale>1.1</scale></LabelStyle><BalloonStyle><text><![CDATA[<h3>$[name]</h3>]]></text></BalloonStyle></Style><StyleMap id="icon-123-nodesc"><Pair><key>normal</key><styleUrl>#icon-123-nodesc-normal</styleUrl></Pair><Pair><key>highlight</key><styleUrl>#icon-123-nodesc-highlight</styleUrl></Pair></StyleMap><Style id="icon-61-nodesc-normal"><IconStyle><scale>1.1</scale><Icon><href>https://www.gstatic.com/mapspro/images/stock/61-green-dot.png</href></Icon><hotSpot x="16" xunits="pixels" y="32" yunits="insetPixels"/></IconStyle><LabelStyle><scale>0</scale></LabelStyle><BalloonStyle><text><![CDATA[<h3>$[name]</h3>]]></text></BalloonStyle></Style><Style id="icon-61-nodesc-highlight"><IconStyle><scale>1.1</scale><Icon><href>https://www.gstatic.com/mapspro/images/stock/61-green-dot.png</href></Icon><hotSpot x="16" xunits="pixels" y="32" yunits="insetPixels"/></IconStyle><LabelStyle><scale>1.1</scale></LabelStyle><BalloonStyle><text><![CDATA[<h3>$[name]</h3>]]></text></BalloonStyle></Style><StyleMap id="icon-61-nodesc"><Pair><key>normal</key><styleUrl>#icon-61-nodesc-normal</styleUrl></Pair><Pair><key>highlight</key><styleUrl>#icon-61-nodesc-highlight</styleUrl></Pair></StyleMap><Style id="line-0288D1-3906-nodesc-normal"><LineStyle><color>ffd18802</color><width>3.906</width></LineStyle><BalloonStyle><text><![CDATA[<h3>$[name]</h3>]]></text></BalloonStyle></Style><Style id="line-0288D1-3906-nodesc-highlight"><LineStyle><color>ffd18802</color><width>5.859</width></LineStyle><BalloonStyle><text><![CDATA[<h3>$[name]</h3>]]></text></BalloonStyle></Style><StyleMap id="line-0288D1-3906-nodesc"><Pair><key>normal</key><styleUrl>#line-0288D1-3906-nodesc-normal</styleUrl></Pair><Pair><key>highlight</key><styleUrl>#line-0288D1-3906-nodesc-highlight</styleUrl></Pair></StyleMap><Style id="line-0288D1-4100-nodesc-normal"><LineStyle><color>ffd18802</color><width>4.1</width></LineStyle><BalloonStyle><text><![CDATA[<h3>$[name]</h3>]]></text></BalloonStyle></Style><Style id="line-0288D1-4100-nodesc-highlight"><LineStyle><color>ffd18802</color><width>6.15</width></LineStyle><BalloonStyle><text><![CDATA[<h3>$[name]</h3>]]></text></BalloonStyle></Style><StyleMap id="line-0288D1-4100-nodesc"><Pair><key>normal</key><styleUrl>#line-0288D1-4100-nodesc-normal</styleUrl></Pair><Pair><key>highlight</key><styleUrl>#line-0288D1-4100-nodesc-highlight</styleUrl></Pair></StyleMap><Folder><name>Untitled layer</name><Placemark><name>Start</name><styleUrl>#icon-61-nodesc</styleUrl><Point><coordinates>            -0.232215,51.442078,0          </coordinates></Point></Placemark><Placemark><name>Finish</name><styleUrl>#icon-123-nodesc</styleUrl><Point><coordinates>            -0.2299509,51.4380454,0          </coordinates></Point></Placemark><Placemark><name>Course</name><styleUrl>#line-0288D1-4100-nodesc</styleUrl><LineString><tessellate>1</tessellate><coordinates>            -0.23189,51.44067,0            -0.23047,51.43944,0            -0.23033,51.43902,0            -0.22961,51.43911,0            -0.22897,51.4393,0            -0.22791,51.43915,0            -0.22483,51.44019,0            -0.22318,51.4454,0            -0.22549,51.44587,0            -0.22745,51.44522,0            -0.22756,51.44503,0            -0.22776,51.44489,0            -0.22863,51.44472,0            -0.22947,51.44413,0            -0.2327,51.44286,0            -0.23204,51.44181,0            -0.23189,51.44067,0          </coordinates></LineString></Placemark><Placemark><name>Course</name><styleUrl>#line-0288D1-3906-nodesc</styleUrl><LineString><tessellate>1</tessellate><coordinates>            -0.23033,51.43902,0            -0.2302449,51.4386478,0            -0.2302664,51.4383535,0            -0.2299767,51.4380458,0          </coordinates></LineString></Placemark></Folder></Document></kml>