<?xml version="1.0" encoding="UTF-8"?><kml xmlns="http://www.opengis.net/kml/2.2"><Document><name>Wimpole Estate junior parkrun Winter Course (from oct 2024)</name><description/><Style id="icon-1899-FFEA00-nodesc-normal"><IconStyle><color>ff00eaff</color><scale>1</scale><Icon><href>https://www.gstatic.com/mapspro/images/stock/503-wht-blank_maps.png</href></Icon><hotSpot x="32" xunits="pixels" y="64" yunits="insetPixels"/></IconStyle><LabelStyle><scale>0</scale></LabelStyle><BalloonStyle><text><![CDATA[<h3>$[name]</h3>]]></text></BalloonStyle></Style><Style id="icon-1899-FFEA00-nodesc-highlight"><IconStyle><color>ff00eaff</color><scale>1</scale><Icon><href>https://www.gstatic.com/mapspro/images/stock/503-wht-blank_maps.png</href></Icon><hotSpot x="32" xunits="pixels" y="64" yunits="insetPixels"/></IconStyle><LabelStyle><scale>1</scale></LabelStyle><BalloonStyle><text><![CDATA[<h3>$[name]</h3>]]></text></BalloonStyle></Style><StyleMap id="icon-1899-FFEA00-nodesc"><Pair><key>normal</key><styleUrl>#icon-1899-FFEA00-nodesc-normal</styleUrl></Pair><Pair><key>highlight</key><styleUrl>#icon-1899-FFEA00-nodesc-highlight</styleUrl></Pair></StyleMap><Style id="line-0288D1-4681-nodesc-normal"><LineStyle><color>ffd18802</color><width>4.681</width></LineStyle><BalloonStyle><text><![CDATA[<h3>$[name]</h3>]]></text></BalloonStyle></Style><Style id="line-0288D1-4681-nodesc-highlight"><LineStyle><color>ffd18802</color><width>7.0215</width></LineStyle><BalloonStyle><text><![CDATA[<h3>$[name]</h3>]]></text></BalloonStyle></Style><StyleMap id="line-0288D1-4681-nodesc"><Pair><key>normal</key><styleUrl>#line-0288D1-4681-nodesc-normal</styleUrl></Pair><Pair><key>highlight</key><styleUrl>#line-0288D1-4681-nodesc-highlight</styleUrl></Pair></StyleMap><Folder><name>Untitled layer</name><Placemark><name>Course (outward)</name><styleUrl>#line-0288D1-4681-nodesc</styleUrl><LineString><tessellate>1</tessellate><coordinates>            -0.04987,52.140817,0            -0.049742,52.139435,0            -0.048497,52.139645,0            -0.047231,52.140238,0            -0.04618,52.140633,0            -0.044227,52.141002,0          </coordinates></LineString></Placemark><Placemark><name>Line 2</name><styleUrl>#line-0288D1-4681-nodesc</styleUrl><LineString><tessellate>1</tessellate><coordinates>            -0.049742,52.139435,0            -0.051844,52.139316,0            -0.053218,52.139211,0            -0.054033,52.13904,0            -0.054355,52.138618,0            -0.054848,52.138144,0            -0.055256,52.137802,0          </coordinates></LineString></Placemark><Placemark><name>Start/ Finish</name><styleUrl>#icon-1899-FFEA00-nodesc</styleUrl><Point><coordinates>            -0.0498807,52.1408104,0          </coordinates></Point></Placemark></Folder></Document></kml>