<?xml version="1.0" encoding="UTF-8"?><kml xmlns="http://www.opengis.net/kml/2.2"><Document><name>Winchester parkrun (from Jul 2025)</name><description>Winchester parkrun</description><Style id="icon-1219-nodesc-normal"><IconStyle><scale>1.1</scale><Icon><href>https://www.gstatic.com/mapspro/images/stock/1219-fac-wc-unisex.png</href></Icon></IconStyle><LabelStyle><scale>0</scale></LabelStyle><BalloonStyle><text><![CDATA[<h3>$[name]</h3>]]></text></BalloonStyle></Style><Style id="icon-1219-nodesc-highlight"><IconStyle><scale>1.1</scale><Icon><href>https://www.gstatic.com/mapspro/images/stock/1219-fac-wc-unisex.png</href></Icon></IconStyle><LabelStyle><scale>1.1</scale></LabelStyle><BalloonStyle><text><![CDATA[<h3>$[name]</h3>]]></text></BalloonStyle></Style><StyleMap id="icon-1219-nodesc"><Pair><key>normal</key><styleUrl>#icon-1219-nodesc-normal</styleUrl></Pair><Pair><key>highlight</key><styleUrl>#icon-1219-nodesc-highlight</styleUrl></Pair></StyleMap><Style id="icon-1644-0288D1-nodesc-normal"><IconStyle><color>ffd18802</color><scale>1</scale><Icon><href>https://www.gstatic.com/mapspro/images/stock/503-wht-blank_maps.png</href></Icon></IconStyle><LabelStyle><scale>0</scale></LabelStyle><BalloonStyle><text><![CDATA[<h3>$[name]</h3>]]></text></BalloonStyle></Style><Style id="icon-1644-0288D1-nodesc-highlight"><IconStyle><color>ffd18802</color><scale>1</scale><Icon><href>https://www.gstatic.com/mapspro/images/stock/503-wht-blank_maps.png</href></Icon></IconStyle><LabelStyle><scale>1</scale></LabelStyle><BalloonStyle><text><![CDATA[<h3>$[name]</h3>]]></text></BalloonStyle></Style><StyleMap id="icon-1644-0288D1-nodesc"><Pair><key>normal</key><styleUrl>#icon-1644-0288D1-nodesc-normal</styleUrl></Pair><Pair><key>highlight</key><styleUrl>#icon-1644-0288D1-nodesc-highlight</styleUrl></Pair></StyleMap><Style id="icon-1899-0F9D58-nodesc-normal"><IconStyle><color>ff589d0f</color><scale>1</scale><Icon><href>https://www.gstatic.com/mapspro/images/stock/503-wht-blank_maps.png</href></Icon><hotSpot x="32" xunits="pixels" y="64" yunits="insetPixels"/></IconStyle><LabelStyle><scale>0</scale></LabelStyle><BalloonStyle><text><![CDATA[<h3>$[name]</h3>]]></text></BalloonStyle></Style><Style id="icon-1899-0F9D58-nodesc-highlight"><IconStyle><color>ff589d0f</color><scale>1</scale><Icon><href>https://www.gstatic.com/mapspro/images/stock/503-wht-blank_maps.png</href></Icon><hotSpot x="32" xunits="pixels" y="64" yunits="insetPixels"/></IconStyle><LabelStyle><scale>1</scale></LabelStyle><BalloonStyle><text><![CDATA[<h3>$[name]</h3>]]></text></BalloonStyle></Style><StyleMap id="icon-1899-0F9D58-nodesc"><Pair><key>normal</key><styleUrl>#icon-1899-0F9D58-nodesc-normal</styleUrl></Pair><Pair><key>highlight</key><styleUrl>#icon-1899-0F9D58-nodesc-highlight</styleUrl></Pair></StyleMap><Style id="icon-1899-FF5252-nodesc-normal"><IconStyle><color>ff5252ff</color><scale>1</scale><Icon><href>https://www.gstatic.com/mapspro/images/stock/503-wht-blank_maps.png</href></Icon><hotSpot x="32" xunits="pixels" y="64" yunits="insetPixels"/></IconStyle><LabelStyle><scale>0</scale></LabelStyle><BalloonStyle><text><![CDATA[<h3>$[name]</h3>]]></text></BalloonStyle></Style><Style id="icon-1899-FF5252-nodesc-highlight"><IconStyle><color>ff5252ff</color><scale>1</scale><Icon><href>https://www.gstatic.com/mapspro/images/stock/503-wht-blank_maps.png</href></Icon><hotSpot x="32" xunits="pixels" y="64" yunits="insetPixels"/></IconStyle><LabelStyle><scale>1</scale></LabelStyle><BalloonStyle><text><![CDATA[<h3>$[name]</h3>]]></text></BalloonStyle></Style><StyleMap id="icon-1899-FF5252-nodesc"><Pair><key>normal</key><styleUrl>#icon-1899-FF5252-nodesc-normal</styleUrl></Pair><Pair><key>highlight</key><styleUrl>#icon-1899-FF5252-nodesc-highlight</styleUrl></Pair></StyleMap><Style id="line-0288D1-7000-nodesc-normal"><LineStyle><color>ffd18802</color><width>7</width></LineStyle><BalloonStyle><text><![CDATA[<h3>$[name]</h3>]]></text></BalloonStyle></Style><Style id="line-0288D1-7000-nodesc-highlight"><LineStyle><color>ffd18802</color><width>10.5</width></LineStyle><BalloonStyle><text><![CDATA[<h3>$[name]</h3>]]></text></BalloonStyle></Style><StyleMap id="line-0288D1-7000-nodesc"><Pair><key>normal</key><styleUrl>#line-0288D1-7000-nodesc-normal</styleUrl></Pair><Pair><key>highlight</key><styleUrl>#line-0288D1-7000-nodesc-highlight</styleUrl></Pair></StyleMap><Folder><name>Untitled layer</name><Placemark><name>Course</name><styleUrl>#line-0288D1-7000-nodesc</styleUrl><LineString><tessellate>1</tessellate><coordinates>            -1.308567,51.068991,0            -1.30858,51.069062,0            -1.308631,51.069127,0            -1.309481,51.069371,0            -1.309627,51.069414,0            -1.309881,51.069461,0            -1.309627,51.069414,0            -1.309753,51.069415,0            -1.309944,51.069409,0            -1.31012,51.069394,0            -1.310316,51.069363,0            -1.310446,51.069317,0            -1.310548,51.069274,0            -1.310644,51.069213,0            -1.310759,51.069084,0            -1.310823,51.068944,0            -1.310886,51.06879,0            -1.310941,51.06864,0            -1.310928,51.068506,0            -1.310815,51.068451,0            -1.309333,51.06812,0            -1.309226,51.06811,0            -1.308944,51.068486,0            -1.308479,51.0691,0            -1.308404,51.069137,0            -1.30808,51.069025,0            -1.308087,51.068934,0            -1.308989,51.067852,0            -1.309811,51.066987,0            -1.310013,51.066808,0            -1.309994,51.066757,0            -1.309766,51.066737,0            -1.309423,51.066859,0            -1.308307,51.067573,0            -1.308286,51.067641,0            -1.305621,51.069139,0            -1.30567,51.069368,0            -1.3059,51.06954,0            -1.306882,51.069881,0            -1.307059,51.069914,0            -1.30715,51.069901,0            -1.307241,51.06987,0            -1.307864,51.06921,0            -1.308009,51.069077,0            -1.308076,51.069044,0            -1.308395,51.069157,0            -1.308394,51.069239,0            -1.307734,51.069988,0            -1.30768,51.0701,0            -1.307638,51.070213,0            -1.307702,51.070391,0            -1.308062,51.070548,0            -1.308609,51.070731,0            -1.309172,51.070918,0            -1.309196,51.070922,0            -1.309277,51.070915,0            -1.3093213,51.0709029,0            -1.309358,51.070881,0            -1.3092877,51.0708915,0            -1.3092322,51.0708851,0            -1.30851,51.070638,0            -1.3092322,51.0708851,0            -1.3092877,51.0708915,0            -1.309358,51.070881,0            -1.3093213,51.0709029,0            -1.309358,51.070881,0            -1.309692,51.070376,0            -1.309734,51.070292,0            -1.309736,51.070236,0            -1.309725,51.070158,0            -1.309706,51.070033,0            -1.309662,51.069869,0            -1.309566,51.069695,0            -1.30954,51.069648,0            -1.309474,51.069555,0            -1.309353,51.069467,0            -1.308845,51.069281,0            -1.308685,51.069228,0            -1.308576,51.069189,0            -1.308581,51.069159,0            -1.30863,51.06913,0          </coordinates></LineString></Placemark><Placemark><name>Finish</name><styleUrl>#icon-1899-FF5252-nodesc</styleUrl><Point><coordinates>            -1.30851,51.0706317,0          </coordinates></Point></Placemark><Placemark><name>Start</name><styleUrl>#icon-1899-0F9D58-nodesc</styleUrl><Point><coordinates>            -1.3098826,51.0694578,0          </coordinates></Point></Placemark><Placemark><name>Parking</name><styleUrl>#icon-1644-0288D1-nodesc</styleUrl><Point><coordinates>            -1.31159,51.068781,0          </coordinates></Point></Placemark><Placemark><name>Overflow parking</name><styleUrl>#icon-1644-0288D1-nodesc</styleUrl><Point><coordinates>            -1.312373,51.065905,0          </coordinates></Point></Placemark><Placemark><name>Overflow parking</name><styleUrl>#icon-1644-0288D1-nodesc</styleUrl><Point><coordinates>            -1.309562,51.072644,0          </coordinates></Point></Placemark><Placemark><name>Toilets</name><styleUrl>#icon-1219-nodesc</styleUrl><Point><coordinates>            -1.311509,51.067016,0          </coordinates></Point></Placemark></Folder></Document></kml>