<?xml version="1.0" encoding="UTF-8"?><kml xmlns="http://www.opengis.net/kml/2.2"><Document><name>Wisbech parkrun (from March 2024)</name><description/><Style id="icon-1899-FFEA00-nodesc-normal"><IconStyle><color>ff00eaff</color><scale>1</scale><Icon><href>https://www.gstatic.com/mapspro/images/stock/503-wht-blank_maps.png</href></Icon><hotSpot x="32" xunits="pixels" y="64" yunits="insetPixels"/></IconStyle><LabelStyle><scale>0</scale></LabelStyle><BalloonStyle><text><![CDATA[<h3>$[name]</h3>]]></text></BalloonStyle></Style><Style id="icon-1899-FFEA00-nodesc-highlight"><IconStyle><color>ff00eaff</color><scale>1</scale><Icon><href>https://www.gstatic.com/mapspro/images/stock/503-wht-blank_maps.png</href></Icon><hotSpot x="32" xunits="pixels" y="64" yunits="insetPixels"/></IconStyle><LabelStyle><scale>1</scale></LabelStyle><BalloonStyle><text><![CDATA[<h3>$[name]</h3>]]></text></BalloonStyle></Style><StyleMap id="icon-1899-FFEA00-nodesc"><Pair><key>normal</key><styleUrl>#icon-1899-FFEA00-nodesc-normal</styleUrl></Pair><Pair><key>highlight</key><styleUrl>#icon-1899-FFEA00-nodesc-highlight</styleUrl></Pair></StyleMap><Style id="line-0288D1-4100-nodesc-normal"><LineStyle><color>ffd18802</color><width>4.1</width></LineStyle><BalloonStyle><text><![CDATA[<h3>$[name]</h3>]]></text></BalloonStyle></Style><Style id="line-0288D1-4100-nodesc-highlight"><LineStyle><color>ffd18802</color><width>6.15</width></LineStyle><BalloonStyle><text><![CDATA[<h3>$[name]</h3>]]></text></BalloonStyle></Style><StyleMap id="line-0288D1-4100-nodesc"><Pair><key>normal</key><styleUrl>#line-0288D1-4100-nodesc-normal</styleUrl></Pair><Pair><key>highlight</key><styleUrl>#line-0288D1-4100-nodesc-highlight</styleUrl></Pair></StyleMap><Folder><name>Wisbech</name><Placemark><name>Course</name><styleUrl>#line-0288D1-4100-nodesc</styleUrl><LineString><tessellate>1</tessellate><coordinates>            0.165532,52.666435,0            0.1657,52.666481,0            0.165816,52.666539,0            0.16666,52.667183,0            0.166823,52.667219,0            0.166422,52.667949,0            0.166186,52.668206,0            0.165881,52.668766,0            0.165704,52.668798,0            0.164491,52.668473,0            0.164427,52.668404,0            0.164491,52.66831,0            0.16462,52.668174,0            0.164877,52.668074,0            0.165011,52.667777,0            0.165215,52.667668,0            0.165577,52.667621,0            0.165762,52.667377,0            0.165486,52.667292,0            0.164969,52.667018,0            0.164668,52.666683,0            0.16462,52.666496,0            0.164808,52.666386,0            0.16509,52.66627,0            0.165178,52.666169,0            0.165213,52.666081,0            0.165572,52.664495,0            0.166414,52.665003,0            0.166817,52.665445,0            0.167042,52.666128,0            0.167138,52.666551,0            0.166945,52.666795,0            0.166822,52.667218,0          </coordinates></LineString></Placemark><Placemark><name>Start/finish</name><styleUrl>#icon-1899-FFEA00-nodesc</styleUrl><Point><coordinates>            0.165532,52.666435,0          </coordinates></Point></Placemark></Folder></Document></kml>