<?xml version="1.0" encoding="UTF-8"?><kml xmlns="http://www.opengis.net/kml/2.2"><Document><name>Woodgate Valley Country Park parkrun</name><description/><Style id="icon-1899-0F9D58-nodesc-normal"><IconStyle><color>ff589d0f</color><scale>1</scale><Icon><href>https://www.gstatic.com/mapspro/images/stock/503-wht-blank_maps.png</href></Icon><hotSpot x="32" xunits="pixels" y="64" yunits="insetPixels"/></IconStyle><LabelStyle><scale>0</scale></LabelStyle><BalloonStyle><text><![CDATA[<h3>$[name]</h3>]]></text></BalloonStyle></Style><Style id="icon-1899-0F9D58-nodesc-highlight"><IconStyle><color>ff589d0f</color><scale>1</scale><Icon><href>https://www.gstatic.com/mapspro/images/stock/503-wht-blank_maps.png</href></Icon><hotSpot x="32" xunits="pixels" y="64" yunits="insetPixels"/></IconStyle><LabelStyle><scale>1</scale></LabelStyle><BalloonStyle><text><![CDATA[<h3>$[name]</h3>]]></text></BalloonStyle></Style><StyleMap id="icon-1899-0F9D58-nodesc"><Pair><key>normal</key><styleUrl>#icon-1899-0F9D58-nodesc-normal</styleUrl></Pair><Pair><key>highlight</key><styleUrl>#icon-1899-0F9D58-nodesc-highlight</styleUrl></Pair></StyleMap><Style id="icon-1899-FF5252-nodesc-normal"><IconStyle><color>ff5252ff</color><scale>1</scale><Icon><href>https://www.gstatic.com/mapspro/images/stock/503-wht-blank_maps.png</href></Icon><hotSpot x="32" xunits="pixels" y="64" yunits="insetPixels"/></IconStyle><LabelStyle><scale>0</scale></LabelStyle><BalloonStyle><text><![CDATA[<h3>$[name]</h3>]]></text></BalloonStyle></Style><Style id="icon-1899-FF5252-nodesc-highlight"><IconStyle><color>ff5252ff</color><scale>1</scale><Icon><href>https://www.gstatic.com/mapspro/images/stock/503-wht-blank_maps.png</href></Icon><hotSpot x="32" xunits="pixels" y="64" yunits="insetPixels"/></IconStyle><LabelStyle><scale>1</scale></LabelStyle><BalloonStyle><text><![CDATA[<h3>$[name]</h3>]]></text></BalloonStyle></Style><StyleMap id="icon-1899-FF5252-nodesc"><Pair><key>normal</key><styleUrl>#icon-1899-FF5252-nodesc-normal</styleUrl></Pair><Pair><key>highlight</key><styleUrl>#icon-1899-FF5252-nodesc-highlight</styleUrl></Pair></StyleMap><Style id="line-0288D1-5263-nodesc-normal"><LineStyle><color>ffd18802</color><width>5.263</width></LineStyle><BalloonStyle><text><![CDATA[<h3>$[name]</h3>]]></text></BalloonStyle></Style><Style id="line-0288D1-5263-nodesc-highlight"><LineStyle><color>ffd18802</color><width>7.8945</width></LineStyle><BalloonStyle><text><![CDATA[<h3>$[name]</h3>]]></text></BalloonStyle></Style><StyleMap id="line-0288D1-5263-nodesc"><Pair><key>normal</key><styleUrl>#line-0288D1-5263-nodesc-normal</styleUrl></Pair><Pair><key>highlight</key><styleUrl>#line-0288D1-5263-nodesc-highlight</styleUrl></Pair></StyleMap><Folder><name>Untitled layer</name><Placemark><name>Course</name><styleUrl>#line-0288D1-5263-nodesc</styleUrl><LineString><tessellate>1</tessellate><coordinates>            -2.005915,52.449479,0            -2.005486,52.449273,0            -2.005142,52.44906,0            -2.004907,52.448904,0            -2.004746,52.448854,0            -2.004595,52.448841,0            -2.004434,52.448815,0            -2.003989,52.448809,0            -2.003775,52.448799,0            -2.003619,52.448799,0            -2.003356,52.448815,0            -2.003061,52.448792,0            -2.002825,52.44877,0            -2.002605,52.448737,0            -2.002369,52.448678,0            -2.002273,52.448645,0            -2.002079,52.448632,0            -2.001817,52.448642,0            -2.001446,52.448665,0            -2.001275,52.448652,0            -2.001108,52.448626,0            -2.000937,52.448613,0            -2.000787,52.448636,0            -2.000583,52.448658,0            -2.000143,52.448626,0            -1.999778,52.448613,0            -1.99929,52.448586,0            -1.998947,52.44855,0            -1.998512,52.448577,0            -1.998303,52.448613,0            -1.998115,52.448668,0            -1.997938,52.448737,0            -1.997772,52.44875,0            -1.997536,52.448675,0            -1.997364,52.448632,0            -1.997209,52.448636,0            -1.996967,52.448577,0            -1.996651,52.44856,0            -1.996259,52.448596,0            -1.996018,52.448678,0            -1.995766,52.448737,0            -1.995508,52.44877,0            -1.995213,52.448743,0            -1.994913,52.448688,0            -1.99472,52.448671,0            -1.994451,52.448678,0            -1.993968,52.448711,0            -1.993561,52.44872,0            -1.993287,52.448766,0            -1.993008,52.448809,0            -1.992418,52.448806,0            -1.992107,52.448825,0            -1.991892,52.448809,0            -1.991699,52.448776,0            -1.991538,52.448704,0            -1.991345,52.448603,0            -1.991238,52.44856,0            -1.990798,52.448446,0            -1.990385,52.448253,0            -1.989886,52.448138,0            -1.989612,52.448102,0            -1.989334,52.448096,0            -1.989038,52.448109,0            -1.988636,52.448188,0            -1.988459,52.448188,0            -1.988261,52.448148,0            -1.98803,52.448083,0            -1.987724,52.447985,0            -1.987515,52.447965,0            -1.987086,52.448014,0            -1.986737,52.448001,0            -1.986431,52.448001,0            -1.986115,52.448021,0            -1.985342,52.448018,0            -1.985144,52.447939,0            -1.984913,52.447851,0            -1.984597,52.447834,0            -1.984168,52.44788,0            -1.983926,52.447903,0            -1.983647,52.447893,0            -1.983352,52.447828,0            -1.98303,52.447834,0            -1.982735,52.447913,0            -1.982178,52.448037,0            -1.981909,52.448073,0            -1.981571,52.448096,0            -1.981051,52.448086,0            -1.980815,52.448073,0            -1.980268,52.448129,0            -1.979667,52.448227,0            -1.979458,52.44826,0            -1.979045,52.448289,0            -1.978288,52.448338,0            -1.979109,52.448292,0            -1.979501,52.44826,0            -1.979758,52.448214,0            -1.980375,52.448125,0            -1.980874,52.448076,0            -1.981131,52.448093,0            -1.981625,52.448099,0            -1.981974,52.448073,0            -1.982236,52.448037,0            -1.9828,52.447906,0            -1.9831,52.447844,0            -1.98339,52.447834,0            -1.983701,52.4479,0            -1.983974,52.44791,0            -1.984227,52.447887,0            -1.984656,52.447834,0            -1.984946,52.447864,0            -1.985187,52.447955,0            -1.985391,52.448024,0            -1.986158,52.448021,0            -1.986485,52.448004,0            -1.98678,52.448004,0            -1.98714,52.448014,0            -1.987553,52.447965,0            -1.987767,52.448004,0            -1.988073,52.448096,0            -1.988304,52.448155,0            -1.988502,52.448188,0            -1.988679,52.448188,0            -1.989076,52.448109,0            -1.989371,52.448099,0            -1.98965,52.448109,0            -1.98994,52.448148,0            -1.990428,52.448276,0            -1.990836,52.448459,0            -1.991276,52.448577,0            -1.991377,52.448619,0            -1.99156,52.44872,0            -1.991737,52.448786,0            -1.991946,52.448815,0            -1.992171,52.448828,0            -1.992482,52.448806,0            -1.993067,52.448806,0            -1.993341,52.448763,0            -1.993598,52.448724,0            -1.994028,52.448711,0            -1.9945,52.448678,0            -1.994773,52.448678,0            -1.994966,52.448698,0            -1.995261,52.448747,0            -1.995556,52.448773,0            -1.995808,52.44873,0            -1.996055,52.448671,0            -1.996307,52.448593,0            -1.996699,52.44856,0            -1.997005,52.448586,0            -1.997246,52.448639,0            -1.997391,52.448645,0            -1.997579,52.448694,0            -1.99782,52.448756,0            -1.997976,52.448737,0            -1.998147,52.448662,0            -1.99834,52.448609,0            -1.99856,52.44858,0            -1.998984,52.448557,0            -1.999344,52.448593,0            -1.999816,52.448619,0            -2.000191,52.448636,0            -2.000626,52.448662,0            -2.000835,52.448632,0            -2.000985,52.448616,0            -2.001162,52.448639,0            -2.001323,52.448658,0            -2.001865,52.448645,0            -2.002122,52.448639,0            -2.002316,52.448658,0            -2.002643,52.44875,0            -2.002879,52.448783,0            -2.00312,52.448802,0            -2.00342,52.448819,0            -2.003683,52.448802,0            -2.003839,52.448806,0            -2.004054,52.448815,0            -2.004483,52.448828,0            -2.004649,52.448854,0            -2.004799,52.448861,0            -2.004944,52.44893,0            -2.00518,52.44909,0            -2.005523,52.449293,0            -2.005878,52.449459,0            -2.005958,52.449459,0            -2.006248,52.449214,0            -2.006516,52.448972,0            -2.006843,52.448609,0            -2.007261,52.448204,0            -2.007353,52.448102,0            -2.007519,52.447988,0            -2.007567,52.44792,0            -2.007594,52.447854,0            -2.007744,52.447648,0            -2.007809,52.447563,0            -2.00797,52.447452,0            -2.008082,52.447305,0            -2.008152,52.4472,0            -2.008243,52.447056,0            -2.008345,52.446837,0            -2.008447,52.446664,0            -2.008511,52.446474,0            -2.008576,52.446164,0            -2.008629,52.445814,0            -2.008667,52.445588,0            -2.008678,52.445497,0            -2.008753,52.44535,0            -2.008882,52.445137,0            -2.008758,52.44498,0            -2.008688,52.444702,0            -2.007406,52.444617,0            -2.007294,52.44463,0            -2.007224,52.444725,0            -2.007176,52.444846,0            -2.006891,52.444902,0            -2.006441,52.444892,0            -2.006038,52.444938,0            -2.005936,52.444934,0            -2.005641,52.444849,0            -2.004805,52.444699,0            -2.004955,52.444019,0            -2.005899,52.444084,0          </coordinates></LineString></Placemark><Placemark><name>Finish</name><styleUrl>#icon-1899-FF5252-nodesc</styleUrl><Point><coordinates>            -2.005899,52.444084,0          </coordinates></Point></Placemark><Placemark><name>Start</name><styleUrl>#icon-1899-0F9D58-nodesc</styleUrl><Point><coordinates>            -2.005915,52.449479,0          </coordinates></Point></Placemark></Folder></Document></kml>