<?xml version="1.0" encoding="UTF-8"?><kml xmlns="http://www.opengis.net/kml/2.2"><Document><name>Worcester parkrun regular course (from Aug 2024)</name><description/><Style id="icon-123-nodesc-normal"><IconStyle><scale>1.1</scale><Icon><href>https://www.gstatic.com/mapspro/images/stock/123-red-dot.png</href></Icon><hotSpot x="16" xunits="pixels" y="32" yunits="insetPixels"/></IconStyle><LabelStyle><scale>0</scale></LabelStyle><BalloonStyle><text><![CDATA[<h3>$[name]</h3>]]></text></BalloonStyle></Style><Style id="icon-123-nodesc-highlight"><IconStyle><scale>1.1</scale><Icon><href>https://www.gstatic.com/mapspro/images/stock/123-red-dot.png</href></Icon><hotSpot x="16" xunits="pixels" y="32" yunits="insetPixels"/></IconStyle><LabelStyle><scale>1.1</scale></LabelStyle><BalloonStyle><text><![CDATA[<h3>$[name]</h3>]]></text></BalloonStyle></Style><StyleMap id="icon-123-nodesc"><Pair><key>normal</key><styleUrl>#icon-123-nodesc-normal</styleUrl></Pair><Pair><key>highlight</key><styleUrl>#icon-123-nodesc-highlight</styleUrl></Pair></StyleMap><Style id="icon-61-nodesc-normal"><IconStyle><scale>1.1</scale><Icon><href>https://www.gstatic.com/mapspro/images/stock/61-green-dot.png</href></Icon><hotSpot x="16" xunits="pixels" y="32" yunits="insetPixels"/></IconStyle><LabelStyle><scale>0</scale></LabelStyle><BalloonStyle><text><![CDATA[<h3>$[name]</h3>]]></text></BalloonStyle></Style><Style id="icon-61-nodesc-highlight"><IconStyle><scale>1.1</scale><Icon><href>https://www.gstatic.com/mapspro/images/stock/61-green-dot.png</href></Icon><hotSpot x="16" xunits="pixels" y="32" yunits="insetPixels"/></IconStyle><LabelStyle><scale>1.1</scale></LabelStyle><BalloonStyle><text><![CDATA[<h3>$[name]</h3>]]></text></BalloonStyle></Style><StyleMap id="icon-61-nodesc"><Pair><key>normal</key><styleUrl>#icon-61-nodesc-normal</styleUrl></Pair><Pair><key>highlight</key><styleUrl>#icon-61-nodesc-highlight</styleUrl></Pair></StyleMap><Style id="line-0288D1-4294-nodesc-normal"><LineStyle><color>ffd18802</color><width>4.294</width></LineStyle><BalloonStyle><text><![CDATA[<h3>$[name]</h3>]]></text></BalloonStyle></Style><Style id="line-0288D1-4294-nodesc-highlight"><LineStyle><color>ffd18802</color><width>6.441</width></LineStyle><BalloonStyle><text><![CDATA[<h3>$[name]</h3>]]></text></BalloonStyle></Style><StyleMap id="line-0288D1-4294-nodesc"><Pair><key>normal</key><styleUrl>#line-0288D1-4294-nodesc-normal</styleUrl></Pair><Pair><key>highlight</key><styleUrl>#line-0288D1-4294-nodesc-highlight</styleUrl></Pair></StyleMap><Folder><name>Worcester parkrun Primary 12082024.gpx</name><Placemark><name>Start</name><styleUrl>#icon-61-nodesc</styleUrl><Point><coordinates>            -2.182773,52.184817,55.4          </coordinates></Point></Placemark><Placemark><name>Finish</name><styleUrl>#icon-123-nodesc</styleUrl><Point><coordinates>            -2.182888,52.185887,60.8          </coordinates></Point></Placemark><Placemark><name>Course</name><styleUrl>#line-0288D1-4294-nodesc</styleUrl><LineString><tessellate>1</tessellate><coordinates>            -2.182773,52.184817,55.4            -2.182799,52.184818,55.4            -2.182721,52.184767,55.4            -2.182688,52.184749,55.4            -2.182614,52.184681,55.5            -2.182547,52.184627,55.5            -2.182456,52.184538,55.5            -2.182179,52.184371,55.2            -2.182119,52.18437,55.2            -2.181931,52.184384,55.3            -2.181465,52.184452,56            -2.181402,52.184464,56.1            -2.180956,52.184502,57            -2.180528,52.184577,58.1            -2.180396,52.18471,58.6            -2.180373,52.184792,58.9            -2.180369,52.184835,59            -2.180374,52.184913,59.3            -2.18038,52.184952,59.4            -2.180393,52.185113,60            -2.18039,52.185306,60.7            -2.180392,52.185385,61            -2.180389,52.18546,61.3            -2.180384,52.185498,61.5            -2.180382,52.185606,61.9            -2.180411,52.185659,62.1            -2.180456,52.185672,62.1            -2.180577,52.185677,62            -2.180646,52.185676,61.9            -2.181182,52.185664,61.2            -2.181589,52.18567,61            -2.181709,52.18567,61            -2.181819,52.185674,61            -2.181873,52.185682,61            -2.181982,52.18571,60.9            -2.182032,52.185728,60.9            -2.182465,52.185826,60.9            -2.182844,52.185886,60.8            -2.183086,52.185906,60.8            -2.183111,52.185919,60.8            -2.1831,52.185972,60.9            -2.183068,52.185993,60.9            -2.182781,52.18607,61.4            -2.182584,52.18617,61.8            -2.182413,52.18641,62.6            -2.182356,52.186504,62.9            -2.182278,52.186632,63.4            -2.18219,52.186716,63.7            -2.182105,52.186746,63.9            -2.182002,52.186733,64.2            -2.181853,52.186682,64.7            -2.181722,52.186647,65.2            -2.181417,52.186658,65.6            -2.181232,52.186661,65.7            -2.180983,52.186666,65.7            -2.18092,52.186664,65.8            -2.180856,52.186668,65.8            -2.18055,52.186675,66.1            -2.180489,52.186672,66.1            -2.180433,52.186678,66.2            -2.180339,52.186723,66.3            -2.180265,52.186784,66.4            -2.180218,52.186933,67.1            -2.180212,52.186965,67.2            -2.180142,52.187171,67.9            -2.180125,52.187341,68.4            -2.180065,52.187512,68.9            -2.180003,52.187799,69.6            -2.179995,52.187911,69.8            -2.179922,52.188062,70.1            -2.179876,52.188212,70.3            -2.179827,52.188317,70.5            -2.179785,52.188414,70.7            -2.17975,52.188483,70.8            -2.179723,52.18867,71            -2.179727,52.188869,71.1            -2.179725,52.188908,71.1            -2.179672,52.189203,71.2            -2.179677,52.189425,71.6            -2.179742,52.189696,72.9            -2.179782,52.189818,73.6            -2.17987,52.190032,74.3            -2.180019,52.190143,74.1            -2.180276,52.190146,73.3            -2.180473,52.190142,72.5            -2.180537,52.190139,72.3            -2.18057,52.190136,72.1            -2.180605,52.190128,72            -2.180645,52.190126,71.8            -2.18088,52.19018,71.1            -2.181124,52.190187,70.5            -2.181171,52.190181,70.4            -2.181212,52.190164,70.3            -2.181264,52.190109,70.1            -2.181399,52.190028,69.8            -2.181473,52.190012,69.7            -2.181822,52.189939,69.2            -2.181878,52.189952,69.1            -2.181959,52.190004,69            -2.182165,52.190134,69.1            -2.182286,52.19021,69.1            -2.182395,52.190225,69.1            -2.182577,52.190239,69.2            -2.182669,52.190271,69.2            -2.182747,52.190403,69.3            -2.182817,52.190515,69.4            -2.182818,52.190548,69.4            -2.182855,52.190634,69.4            -2.182928,52.190802,69.5            -2.182865,52.19105,69.9            -2.182966,52.191306,70.3            -2.183262,52.191572,70.4            -2.183299,52.191583,70.5            -2.183365,52.19158,70.4            -2.183525,52.191507,70.3            -2.183585,52.191502,70.3            -2.183703,52.191505,70.2            -2.18406,52.191481,70.2            -2.184114,52.191474,70.3            -2.184304,52.191453,70.4            -2.18446,52.191411,70.4            -2.184577,52.191387,70.4            -2.184638,52.191347,70.3            -2.184671,52.191333,70.3            -2.184778,52.191287,70.1            -2.184828,52.191244,70            -2.184856,52.191223,70            -2.184907,52.191149,69.7            -2.184807,52.190968,69.2            -2.184732,52.190765,68.7            -2.184716,52.190723,68.6            -2.184666,52.190557,68.1            -2.184599,52.19035,67.5            -2.184514,52.190212,67.2            -2.184482,52.190176,67.1            -2.184451,52.190114,67            -2.184446,52.190057,66.9            -2.184447,52.189798,66.5            -2.184579,52.1897,66.1            -2.184812,52.189634,65.6            -2.184915,52.1896,65.4            -2.185186,52.189516,64.8            -2.185409,52.189418,64.3            -2.185755,52.189306,63.8            -2.185997,52.189177,63.4            -2.186164,52.188974,63.1            -2.186212,52.188836,62.9            -2.186305,52.188716,62.8            -2.186401,52.188641,62.7            -2.186541,52.188576,62.4            -2.186778,52.188434,62            -2.187048,52.188288,61.7            -2.187224,52.188137,61.5            -2.18724,52.188017,61.4            -2.187226,52.187986,61.4            -2.187124,52.187819,61.3            -2.18707,52.187734,61.3            -2.187003,52.187675,61.3            -2.186921,52.187515,61.4            -2.186905,52.187466,61.4            -2.186943,52.187439,61.4            -2.18707,52.187342,61.3            -2.18714,52.187304,61.3            -2.187274,52.187168,61.1            -2.187297,52.187107,61            -2.187448,52.186829,60.7            -2.187621,52.186525,60            -2.187644,52.186387,59.6            -2.187648,52.186361,59.5            -2.187653,52.186297,59.3            -2.187662,52.186131,58.7            -2.187634,52.185978,58.2            -2.187624,52.185827,58            -2.187633,52.185804,57.9            -2.187752,52.185661,57.8            -2.187761,52.185637,57.8            -2.187729,52.18559,57.8            -2.187687,52.185559,57.8            -2.187552,52.185554,57.7            -2.187491,52.185541,57.7            -2.187392,52.18551,57.7            -2.187334,52.185505,57.6            -2.187205,52.185501,57.6            -2.18709,52.185477,57.5            -2.186906,52.185441,57.3            -2.186637,52.185423,57.1            -2.186588,52.185408,57.1            -2.18631,52.185346,56.8            -2.185984,52.185288,56.5            -2.185864,52.185263,56.4            -2.185828,52.185275,56.3            -2.185799,52.185295,56.3            -2.185766,52.185353,56.3            -2.185731,52.185369,56.2            -2.185622,52.185378,56.2            -2.185386,52.185313,56            -2.185299,52.185317,56.1            -2.185155,52.185387,56.2            -2.185102,52.185515,56.5            -2.184987,52.185742,57            -2.184727,52.186022,57.7            -2.184436,52.186187,58.7            -2.184253,52.186197,59.1            -2.184012,52.186132,59.6            -2.183969,52.186101,59.7            -2.183797,52.18595,60.3            -2.183575,52.185941,60.6            -2.183211,52.185964,60.9            -2.182764,52.186089,61.4            -2.182551,52.186215,62            -2.182371,52.186489,62.8            -2.182152,52.186745,63.8            -2.181939,52.186762,64.3            -2.181647,52.186714,65.3            -2.181516,52.186709,65.5            -2.18093,52.1867,65.8            -2.180643,52.186698,66            -2.180509,52.186696,66.1            -2.180447,52.186701,66.2            -2.180345,52.186735,66.3            -2.18021,52.186914,67.1            -2.180152,52.187112,67.7            -2.180125,52.187258,68.1            -2.180095,52.187388,68.6            -2.180078,52.18742,68.7            -2.180034,52.187627,69.2            -2.180022,52.187805,69.6            -2.17995,52.188011,70            -2.179878,52.188222,70.4            -2.179865,52.188268,70.4            -2.179847,52.188315,70.5            -2.179762,52.18847,70.7            -2.179722,52.188553,70.9            -2.179705,52.188634,71            -2.179705,52.188677,71            -2.179719,52.18875,71            -2.179709,52.188975,71.1            -2.17971,52.18902,71.1            -2.179678,52.189248,71.3            -2.179675,52.189295,71.3            -2.179687,52.189475,71.8            -2.179697,52.189513,71.9            -2.179745,52.189735,73.1            -2.179785,52.189836,73.7            -2.179834,52.189962,74.1            -2.179908,52.190112,74.3            -2.179964,52.190151,74.2            -2.180071,52.190165,74            -2.180218,52.190158,73.5            -2.180382,52.190146,72.9            -2.180468,52.190136,72.5            -2.180553,52.190134,72.2            -2.180693,52.190154,71.7            -2.180764,52.190164,71.4            -2.18105,52.190181,70.7            -2.181193,52.190156,70.3            -2.181336,52.19005,70            -2.181542,52.189995,69.6            -2.181737,52.189945,69.3            -2.181844,52.189956,69.1            -2.181894,52.189981,69.1            -2.182006,52.19006,69            -2.182084,52.190127,69            -2.182164,52.190183,69.1            -2.182288,52.190229,69.1            -2.182418,52.190252,69.2            -2.182666,52.190293,69.2            -2.182801,52.190429,69.3            -2.182889,52.190559,69.4            -2.182957,52.190843,69.5            -2.182895,52.191023,69.8            -2.182891,52.191065,69.9            -2.182965,52.191275,70.3            -2.183022,52.191324,70.3            -2.183238,52.191549,70.4            -2.183357,52.191573,70.5            -2.18339,52.191563,70.4            -2.18349,52.191502,70.3            -2.183725,52.191485,70.2            -2.184038,52.191477,70.2            -2.184317,52.19147,70.4            -2.184436,52.191439,70.4            -2.18473,52.191289,70.1            -2.184872,52.191195,69.9            -2.184887,52.191109,69.6            -2.184863,52.191023,69.4            -2.184821,52.190909,69.1            -2.184815,52.190866,69            -2.184765,52.190695,68.6            -2.184728,52.19055,68.1            -2.184677,52.190473,67.9            -2.184577,52.190277,67.4            -2.184544,52.190236,67.3            -2.184516,52.190178,67.1            -2.184458,52.190099,67            -2.184434,52.190029,66.9            -2.184425,52.189994,66.8            -2.184425,52.189897,66.6            -2.184449,52.189812,66.5            -2.18455,52.189762,66.2            -2.184844,52.189665,65.6            -2.184912,52.189647,65.5            -2.185127,52.189587,65.1            -2.185245,52.189531,64.8            -2.185522,52.189376,64.1            -2.185671,52.189334,63.9            -2.185743,52.189313,63.8            -2.185829,52.189272,63.6            -2.186025,52.189173,63.4            -2.186063,52.189145,63.3            -2.18611,52.189028,63.1            -2.186205,52.188875,62.9            -2.186281,52.188753,62.8            -2.186544,52.188614,62.5            -2.186735,52.188515,62.2            -2.186789,52.188473,62.1            -2.186839,52.188436,62            -2.186892,52.1884,61.9            -2.187014,52.188346,61.8            -2.187062,52.188325,61.7            -2.187107,52.188305,61.7            -2.187217,52.188236,61.6            -2.187233,52.188215,61.5            -2.187276,52.188156,61.5            -2.187267,52.188098,61.4            -2.187183,52.187914,61.3            -2.187134,52.187767,61.3            -2.187115,52.187734,61.3            -2.186954,52.187595,61.3            -2.186888,52.187491,61.4            -2.186904,52.187418,61.4            -2.187005,52.187343,61.3            -2.187059,52.18731,61.3            -2.187218,52.187215,61.2            -2.187274,52.187149,61.1            -2.187294,52.187107,61            -2.187315,52.187066,61            -2.187335,52.187024,61            -2.187413,52.186908,60.8            -2.187577,52.186661,60.3            -2.187601,52.186617,60.2            -2.18761,52.186574,60.1            -2.18763,52.186428,59.7            -2.187622,52.186316,59.4            -2.187622,52.186264,59.2            -2.187643,52.186116,58.7            -2.187655,52.18606,58.5            -2.187613,52.185882,58.1            -2.187597,52.185836,58            -2.187598,52.185791,57.9            -2.187669,52.185737,57.9            -2.18776,52.185635,57.8            -2.187751,52.185613,57.8            -2.187713,52.185595,57.8            -2.187574,52.185581,57.7            -2.187188,52.185533,57.6            -2.18713,52.185518,57.6            -2.187075,52.185496,57.5            -2.18695,52.185453,57.4            -2.186794,52.185422,57.3            -2.186259,52.185287,56.9            -2.186177,52.185286,56.8            -2.186117,52.185288,56.7            -2.185911,52.18528,56.6            -2.185834,52.185255,56.4            -2.185798,52.185272,56.4            -2.185774,52.185303,56.3            -2.185754,52.185339,56.3            -2.18573,52.18536,56.2            -2.185691,52.185384,56.2            -2.185556,52.185369,56.1            -2.185352,52.185333,56            -2.185297,52.185346,56            -2.18522,52.1854,56.1            -2.185087,52.185463,56.2            -2.185048,52.185498,56.4            -2.185004,52.185594,56.7            -2.185008,52.185694,56.9            -2.184926,52.185769,57.1            -2.184806,52.18594,57.5            -2.184767,52.185976,57.6            -2.184674,52.186051,57.9            -2.184515,52.18614,58.4            -2.18438,52.186183,58.7            -2.184234,52.186194,59.1            -2.184094,52.186164,59.4            -2.183986,52.186115,59.6            -2.183921,52.18604,59.9            -2.183892,52.186003,60            -2.183751,52.185943,60.4            -2.183682,52.185939,60.4            -2.183468,52.185942,60.7            -2.183248,52.185917,60.8            -2.182963,52.185882,60.8            -2.182888,52.185887,60.8          </coordinates></LineString></Placemark></Folder></Document></kml>