<?xml version="1.0" encoding="UTF-8"?><kml xmlns="http://www.opengis.net/kml/2.2"><Document><name>Wyre Forest parkrun</name><description/><Style id="icon-1899-0F9D58-nodesc-normal"><IconStyle><color>ff589d0f</color><scale>1</scale><Icon><href>https://www.gstatic.com/mapspro/images/stock/503-wht-blank_maps.png</href></Icon><hotSpot x="32" xunits="pixels" y="64" yunits="insetPixels"/></IconStyle><LabelStyle><scale>0</scale></LabelStyle><BalloonStyle><text><![CDATA[<h3>$[name]</h3>]]></text></BalloonStyle></Style><Style id="icon-1899-0F9D58-nodesc-highlight"><IconStyle><color>ff589d0f</color><scale>1</scale><Icon><href>https://www.gstatic.com/mapspro/images/stock/503-wht-blank_maps.png</href></Icon><hotSpot x="32" xunits="pixels" y="64" yunits="insetPixels"/></IconStyle><LabelStyle><scale>1</scale></LabelStyle><BalloonStyle><text><![CDATA[<h3>$[name]</h3>]]></text></BalloonStyle></Style><StyleMap id="icon-1899-0F9D58-nodesc"><Pair><key>normal</key><styleUrl>#icon-1899-0F9D58-nodesc-normal</styleUrl></Pair><Pair><key>highlight</key><styleUrl>#icon-1899-0F9D58-nodesc-highlight</styleUrl></Pair></StyleMap><Style id="icon-1899-FF5252-nodesc-normal"><IconStyle><color>ff5252ff</color><scale>1</scale><Icon><href>https://www.gstatic.com/mapspro/images/stock/503-wht-blank_maps.png</href></Icon><hotSpot x="32" xunits="pixels" y="64" yunits="insetPixels"/></IconStyle><LabelStyle><scale>0</scale></LabelStyle><BalloonStyle><text><![CDATA[<h3>$[name]</h3>]]></text></BalloonStyle></Style><Style id="icon-1899-FF5252-nodesc-highlight"><IconStyle><color>ff5252ff</color><scale>1</scale><Icon><href>https://www.gstatic.com/mapspro/images/stock/503-wht-blank_maps.png</href></Icon><hotSpot x="32" xunits="pixels" y="64" yunits="insetPixels"/></IconStyle><LabelStyle><scale>1</scale></LabelStyle><BalloonStyle><text><![CDATA[<h3>$[name]</h3>]]></text></BalloonStyle></Style><StyleMap id="icon-1899-FF5252-nodesc"><Pair><key>normal</key><styleUrl>#icon-1899-FF5252-nodesc-normal</styleUrl></Pair><Pair><key>highlight</key><styleUrl>#icon-1899-FF5252-nodesc-highlight</styleUrl></Pair></StyleMap><Style id="line-4186F0-5650-nodesc-normal"><LineStyle><color>fff08641</color><width>5.65</width></LineStyle><BalloonStyle><text><![CDATA[<h3>$[name]</h3>]]></text></BalloonStyle></Style><Style id="line-4186F0-5650-nodesc-highlight"><LineStyle><color>fff08641</color><width>8.475</width></LineStyle><BalloonStyle><text><![CDATA[<h3>$[name]</h3>]]></text></BalloonStyle></Style><StyleMap id="line-4186F0-5650-nodesc"><Pair><key>normal</key><styleUrl>#line-4186F0-5650-nodesc-normal</styleUrl></Pair><Pair><key>highlight</key><styleUrl>#line-4186F0-5650-nodesc-highlight</styleUrl></Pair></StyleMap><Folder><name>Untitled layer</name><Placemark><name>Course</name><styleUrl>#line-4186F0-5650-nodesc</styleUrl><LineString><tessellate>1</tessellate><coordinates>            -2.371005,52.366573,148            -2.37097,52.366707,148            -2.370849,52.366943,148            -2.370788,52.367129,149            -2.370813,52.367324,149            -2.370858,52.367404,150            -2.371096,52.367532,151            -2.371777,52.367859,153            -2.372042,52.367932,153            -2.372151,52.367943,153            -2.372344,52.367926,154            -2.37312,52.367735,155            -2.373328,52.367722,156            -2.373846,52.367767,156            -2.3742,52.367839,156            -2.374256,52.367868,156            -2.374325,52.367958,156            -2.374429,52.368141,155            -2.374659,52.368354,155            -2.374841,52.368496,154            -2.375052,52.368715,154            -2.375418,52.369198,152            -2.37568,52.36961,152            -2.375861,52.370081,152            -2.375965,52.37046,150            -2.375929,52.370667,150            -2.375692,52.371324,149            -2.375692,52.371577,148            -2.375693,52.371872,146            -2.375352,52.372272,144            -2.375221,52.372466,143            -2.375052,52.372862,142            -2.375109,52.373021,142            -2.37539,52.37338,141            -2.37552,52.37348,141            -2.375956,52.373557,139            -2.376822,52.373683,136            -2.37711,52.373805,135            -2.377197,52.373868,135            -2.377258,52.373968,135            -2.377306,52.374503,136            -2.377428,52.374719,135            -2.377662,52.374962,134            -2.378634,52.375673,131            -2.378852,52.375935,130            -2.378952,52.376254,130            -2.378989,52.376517,130            -2.379037,52.37661,130            -2.37912,52.376671,130            -2.379833,52.376775,126            -2.380009,52.376814,125            -2.381731,52.37758,118            -2.381533,52.377795,119            -2.38142,52.377917,119            -2.381337,52.377974,119            -2.381229,52.378014,119            -2.381125,52.378032,120            -2.380702,52.378028,121            -2.38037,52.378043,121            -2.379103,52.378272,120            -2.378229,52.378376,118            -2.377301,52.378522,117            -2.377101,52.378529,118            -2.376794,52.378507,118            -2.376499,52.378442,119            -2.376075,52.378289,121            -2.375898,52.378275,122            -2.375231,52.378343,121            -2.374972,52.378356,121            -2.374415,52.378384,123            -2.373561,52.37838,125            -2.372861,52.378393,125            -2.372708,52.378373,124            -2.37248,52.378302,124            -2.372382,52.378199,124            -2.372295,52.377938,125            -2.372308,52.377813,125            -2.372388,52.377594,126            -2.372518,52.377381,127            -2.372651,52.377163,128            -2.372707,52.377002,128            -2.372722,52.37692,129            -2.372644,52.376754,128            -2.372516,52.376578,127            -2.372238,52.376286,127            -2.371963,52.376054,127            -2.371416,52.375683,126            -2.37109,52.375354,125            -2.37089,52.375186,126            -2.370614,52.375086,126            -2.370426,52.375055,126            -2.369661,52.374998,125            -2.368564,52.374973,121            -2.368316,52.374909,121            -2.367922,52.374684,122            -2.367705,52.374712,121            -2.367361,52.374661,120            -2.366208,52.374375,116            -2.365902,52.374338,114            -2.36568,52.374276,113            -2.365375,52.374076,111            -2.365342,52.374054,111            -2.365682,52.373293,112            -2.366392,52.372845,119            -2.367052,52.371475,131            -2.367081,52.371477,131            -2.368884,52.370647,129            -2.368852,52.370648,128            -2.368827,52.370877,128            -2.368756,52.371035,128            -2.368557,52.371396,127            -2.368329,52.371683,125            -2.368281,52.37178,125            -2.3682,52.372256,125            -2.367972,52.372864,127            -2.367882,52.373005,127            -2.367416,52.37353,127            -2.367359,52.373626,126            -2.367309,52.373786,125            -2.367313,52.373911,125            -2.367426,52.374147,125            -2.367517,52.374278,124            -2.367785,52.37458,122            -2.367922,52.374684,122            -2.36817,52.37483,121            -2.368506,52.374566,126            -2.368855,52.374114,131            -2.36914,52.373822,134            -2.369385,52.373466,135            -2.369578,52.373466,136            -2.369729,52.373348,136            -2.369857,52.372955,135            -2.370351,52.372313,136            -2.37078,52.371225,139            -2.371145,52.370688,142            -2.37166,52.370269,144            -2.371709,52.37033,144            -2.37166,52.370269,144            -2.371574,52.370099,145            -2.371338,52.369902,145            -2.371334,52.369665,146            -2.371333,52.369593,146            -2.371445,52.369155,149            -2.371724,52.368736,151            -2.372175,52.368448,153            -2.372544,52.368304,154          </coordinates></LineString></Placemark><Placemark><name>Finish</name><styleUrl>#icon-1899-FF5252-nodesc</styleUrl><Point><coordinates>            -2.372544,52.368304,154          </coordinates></Point></Placemark><Placemark><name>Start</name><styleUrl>#icon-1899-0F9D58-nodesc</styleUrl><Point><coordinates>            -2.371005,52.366573,148          </coordinates></Point></Placemark><Placemark><name>plotaroute.com</name></Placemark></Folder></Document></kml>