<?xml version="1.0" encoding="UTF-8"?><kml xmlns="http://www.opengis.net/kml/2.2"><Document><name>Yarborough Leisure Centre parkrun</name><description/><Style id="icon-1899-0F9D58-nodesc-normal"><IconStyle><color>ff589d0f</color><scale>1</scale><Icon><href>https://www.gstatic.com/mapspro/images/stock/503-wht-blank_maps.png</href></Icon><hotSpot x="32" xunits="pixels" y="64" yunits="insetPixels"/></IconStyle><LabelStyle><scale>0</scale></LabelStyle><BalloonStyle><text><![CDATA[<h3>$[name]</h3>]]></text></BalloonStyle></Style><Style id="icon-1899-0F9D58-nodesc-highlight"><IconStyle><color>ff589d0f</color><scale>1</scale><Icon><href>https://www.gstatic.com/mapspro/images/stock/503-wht-blank_maps.png</href></Icon><hotSpot x="32" xunits="pixels" y="64" yunits="insetPixels"/></IconStyle><LabelStyle><scale>1</scale></LabelStyle><BalloonStyle><text><![CDATA[<h3>$[name]</h3>]]></text></BalloonStyle></Style><StyleMap id="icon-1899-0F9D58-nodesc"><Pair><key>normal</key><styleUrl>#icon-1899-0F9D58-nodesc-normal</styleUrl></Pair><Pair><key>highlight</key><styleUrl>#icon-1899-0F9D58-nodesc-highlight</styleUrl></Pair></StyleMap><Style id="icon-1899-FF5252-nodesc-normal"><IconStyle><color>ff5252ff</color><scale>1</scale><Icon><href>https://www.gstatic.com/mapspro/images/stock/503-wht-blank_maps.png</href></Icon><hotSpot x="32" xunits="pixels" y="64" yunits="insetPixels"/></IconStyle><LabelStyle><scale>0</scale></LabelStyle><BalloonStyle><text><![CDATA[<h3>$[name]</h3>]]></text></BalloonStyle></Style><Style id="icon-1899-FF5252-nodesc-highlight"><IconStyle><color>ff5252ff</color><scale>1</scale><Icon><href>https://www.gstatic.com/mapspro/images/stock/503-wht-blank_maps.png</href></Icon><hotSpot x="32" xunits="pixels" y="64" yunits="insetPixels"/></IconStyle><LabelStyle><scale>1</scale></LabelStyle><BalloonStyle><text><![CDATA[<h3>$[name]</h3>]]></text></BalloonStyle></Style><StyleMap id="icon-1899-FF5252-nodesc"><Pair><key>normal</key><styleUrl>#icon-1899-FF5252-nodesc-normal</styleUrl></Pair><Pair><key>highlight</key><styleUrl>#icon-1899-FF5252-nodesc-highlight</styleUrl></Pair></StyleMap><Style id="line-0288D1-5000-nodesc-normal"><LineStyle><color>ffd18802</color><width>5</width></LineStyle><BalloonStyle><text><![CDATA[<h3>$[name]</h3>]]></text></BalloonStyle></Style><Style id="line-0288D1-5000-nodesc-highlight"><LineStyle><color>ffd18802</color><width>7.5</width></LineStyle><BalloonStyle><text><![CDATA[<h3>$[name]</h3>]]></text></BalloonStyle></Style><StyleMap id="line-0288D1-5000-nodesc"><Pair><key>normal</key><styleUrl>#line-0288D1-5000-nodesc-normal</styleUrl></Pair><Pair><key>highlight</key><styleUrl>#line-0288D1-5000-nodesc-highlight</styleUrl></Pair></StyleMap><Folder><name>Untitled layer</name><Placemark><name>Course</name><styleUrl>#line-0288D1-5000-nodesc</styleUrl><LineString><tessellate>1</tessellate><coordinates>            -0.54287,53.24725,81            -0.54284,53.24727,81            -0.54271,53.24737,81            -0.54248,53.24759,81            -0.54245,53.24762,81            -0.54244,53.24766,81            -0.54245,53.24769,81            -0.5425,53.24776,81            -0.54256,53.24781,81            -0.54267,53.24787,81            -0.54285,53.24798,81            -0.54296,53.24803,81            -0.543,53.24806,80            -0.54306,53.24812,80            -0.5431,53.24817,80            -0.54373,53.24944,80            -0.54376,53.24953,80            -0.54371,53.24958,80            -0.5428,53.24974,80            -0.54235,53.24982,80            -0.5423,53.24989,79            -0.54264,53.25132,79            -0.54267,53.25144,79            -0.54277,53.25152,79            -0.54287,53.25156,79            -0.54302,53.25156,79            -0.54404,53.2514,79            -0.54413,53.25138,80            -0.54417,53.25134,80            -0.54429,53.25103,80            -0.54422,53.25067,80            -0.54396,53.2494,80            -0.54373,53.24944,80            -0.54376,53.24953,80            -0.54371,53.24958,80            -0.54279,53.24974,80            -0.54235,53.24982,80            -0.5423,53.24989,79            -0.54263,53.25126,79            -0.54267,53.25144,79            -0.54277,53.25152,79            -0.54287,53.25156,79            -0.54302,53.25156,79            -0.54404,53.2514,79            -0.54413,53.25138,80            -0.54417,53.25134,80            -0.54429,53.25103,80            -0.54422,53.25067,80            -0.54396,53.2494,80            -0.546,53.24909,80            -0.54599,53.24898,81            -0.54601,53.24894,82            -0.54608,53.2489,83            -0.5463,53.24883,83            -0.54636,53.24879,83            -0.54634,53.24873,83            -0.54571,53.24767,83            -0.54538,53.24712,83            -0.54527,53.24702,83            -0.54511,53.24694,83            -0.54496,53.24687,84            -0.54475,53.24684,84            -0.54459,53.24685,84            -0.54324,53.24713,83            -0.543,53.2472,83            -0.54284,53.24727,82            -0.54271,53.24737,81            -0.54248,53.24759,81            -0.54245,53.24762,81            -0.54244,53.24766,81            -0.54245,53.24769,81            -0.5425,53.24776,81            -0.54256,53.24781,81            -0.54267,53.24787,81            -0.54285,53.24798,81            -0.54296,53.24803,81            -0.543,53.24806,80            -0.54306,53.24812,80            -0.5431,53.24817,80            -0.54337,53.24872,80            -0.54373,53.24944,80            -0.54376,53.24953,80            -0.54371,53.24958,80            -0.54275,53.24975,80            -0.54235,53.24982,80            -0.5423,53.24989,79            -0.54263,53.25129,79            -0.54267,53.25144,79            -0.54277,53.25152,79            -0.54287,53.25156,79            -0.54302,53.25156,79            -0.54404,53.2514,79            -0.54413,53.25138,80            -0.54417,53.25134,80            -0.54429,53.25103,80            -0.54423,53.25071,80            -0.54396,53.2494,80            -0.546,53.24909,80            -0.54599,53.24898,81            -0.54602,53.24893,82            -0.54608,53.2489,83            -0.5463,53.24883,83            -0.54636,53.24879,83            -0.54634,53.24873,83            -0.54571,53.24767,83            -0.54538,53.24712,83            -0.54527,53.24702,83            -0.54511,53.24694,83            -0.54496,53.24687,84            -0.54484,53.24685,84            -0.54475,53.24684,84            -0.54459,53.24685,84            -0.54324,53.24713,83            -0.543,53.2472,83            -0.54284,53.24727,82            -0.54271,53.24737,81            -0.54248,53.24759,81            -0.54245,53.24762,81            -0.54244,53.24766,81            -0.54245,53.24769,81            -0.5425,53.24776,81            -0.54256,53.24781,81            -0.54267,53.24787,81            -0.54285,53.24798,81            -0.54296,53.24803,81            -0.543,53.24806,80            -0.54306,53.24812,80            -0.5431,53.24817,80            -0.54337,53.24872,80            -0.54373,53.24944,80            -0.54376,53.24953,80            -0.54371,53.24958,80            -0.54235,53.24982,80            -0.5423,53.24989,80            -0.54262,53.25124,79            -0.54267,53.25144,79            -0.54277,53.25152,79            -0.54287,53.25156,79            -0.54302,53.25156,79            -0.54404,53.2514,79            -0.54413,53.25138,80            -0.54417,53.25134,80            -0.54429,53.25103,80            -0.54422,53.2507,80            -0.54396,53.2494,80            -0.546,53.24909,80            -0.54599,53.24898,81            -0.54602,53.24893,82            -0.54608,53.2489,83            -0.5463,53.24883,83            -0.54636,53.24879,83            -0.54634,53.24873,83            -0.54571,53.24767,83            -0.54538,53.24712,83            -0.54527,53.24702,83            -0.54511,53.24694,83            -0.54496,53.24687,84            -0.54486,53.24686,84            -0.54475,53.24684,84            -0.54459,53.24685,84            -0.54334,53.24711,83          </coordinates></LineString></Placemark><Placemark><name>Finish</name><styleUrl>#icon-1899-FF5252-nodesc</styleUrl><Point><coordinates>            -0.54334,53.24711,83          </coordinates></Point></Placemark><Placemark><name>Start</name><styleUrl>#icon-1899-0F9D58-nodesc</styleUrl><Point><coordinates>            -0.54287,53.24725,81          </coordinates></Point></Placemark></Folder></Document></kml>