<?xml version="1.0" encoding="UTF-8"?><kml xmlns="http://www.opengis.net/kml/2.2"><Document><name>Arrow Rest parkrun (from Nov 2022)</name><description/><Style id="icon-1899-0F9D58-nodesc-normal"><IconStyle><color>ff589d0f</color><scale>1</scale><Icon><href>https://www.gstatic.com/mapspro/images/stock/503-wht-blank_maps.png</href></Icon><hotSpot x="32" xunits="pixels" y="64" yunits="insetPixels"/></IconStyle><LabelStyle><scale>0</scale></LabelStyle><BalloonStyle><text><![CDATA[<h3>$[name]</h3>]]></text></BalloonStyle></Style><Style id="icon-1899-0F9D58-nodesc-highlight"><IconStyle><color>ff589d0f</color><scale>1</scale><Icon><href>https://www.gstatic.com/mapspro/images/stock/503-wht-blank_maps.png</href></Icon><hotSpot x="32" xunits="pixels" y="64" yunits="insetPixels"/></IconStyle><LabelStyle><scale>1</scale></LabelStyle><BalloonStyle><text><![CDATA[<h3>$[name]</h3>]]></text></BalloonStyle></Style><StyleMap id="icon-1899-0F9D58-nodesc"><Pair><key>normal</key><styleUrl>#icon-1899-0F9D58-nodesc-normal</styleUrl></Pair><Pair><key>highlight</key><styleUrl>#icon-1899-0F9D58-nodesc-highlight</styleUrl></Pair></StyleMap><Style id="icon-1899-FF5252-nodesc-normal"><IconStyle><color>ff5252ff</color><scale>1</scale><Icon><href>https://www.gstatic.com/mapspro/images/stock/503-wht-blank_maps.png</href></Icon><hotSpot x="32" xunits="pixels" y="64" yunits="insetPixels"/></IconStyle><LabelStyle><scale>0</scale></LabelStyle><BalloonStyle><text><![CDATA[<h3>$[name]</h3>]]></text></BalloonStyle></Style><Style id="icon-1899-FF5252-nodesc-highlight"><IconStyle><color>ff5252ff</color><scale>1</scale><Icon><href>https://www.gstatic.com/mapspro/images/stock/503-wht-blank_maps.png</href></Icon><hotSpot x="32" xunits="pixels" y="64" yunits="insetPixels"/></IconStyle><LabelStyle><scale>1</scale></LabelStyle><BalloonStyle><text><![CDATA[<h3>$[name]</h3>]]></text></BalloonStyle></Style><StyleMap id="icon-1899-FF5252-nodesc"><Pair><key>normal</key><styleUrl>#icon-1899-FF5252-nodesc-normal</styleUrl></Pair><Pair><key>highlight</key><styleUrl>#icon-1899-FF5252-nodesc-highlight</styleUrl></Pair></StyleMap><Style id="line-0288D1-5069-nodesc-normal"><LineStyle><color>ffd18802</color><width>5.069</width></LineStyle><BalloonStyle><text><![CDATA[<h3>$[name]</h3>]]></text></BalloonStyle></Style><Style id="line-0288D1-5069-nodesc-highlight"><LineStyle><color>ffd18802</color><width>7.6035</width></LineStyle><BalloonStyle><text><![CDATA[<h3>$[name]</h3>]]></text></BalloonStyle></Style><StyleMap id="line-0288D1-5069-nodesc"><Pair><key>normal</key><styleUrl>#line-0288D1-5069-nodesc-normal</styleUrl></Pair><Pair><key>highlight</key><styleUrl>#line-0288D1-5069-nodesc-highlight</styleUrl></Pair></StyleMap><Folder><name>Untitled layer</name><Placemark><name>course</name><styleUrl>#line-0288D1-5069-nodesc</styleUrl><LineString><tessellate>1</tessellate><coordinates>            27.831396,-25.780994,0            27.831471,-25.780956,0            27.831546,-25.781033,0            27.831364,-25.781246,0            27.831203,-25.78113,0            27.831246,-25.780869,0            27.831213,-25.780685,0            27.831235,-25.780521,0            27.832844,-25.779671,0            27.831449,-25.777255,0            27.830838,-25.777468,0            27.830816,-25.777623,0            27.830291,-25.777816,0            27.83043,-25.778212,0            27.829582,-25.778511,0            27.82947,-25.77827,0            27.829414,-25.77813,0            27.829346,-25.778009,0            27.828853,-25.778154,0            27.828102,-25.778386,0            27.824755,-25.779497,0            27.824594,-25.779555,0            27.824529,-25.779627,0            27.824594,-25.779719,0            27.82468,-25.779874,0            27.824744,-25.779999,0            27.824851,-25.780192,0            27.825044,-25.780569,0            27.825066,-25.780772,0            27.825034,-25.780975,0            27.824969,-25.781197,0            27.825012,-25.781419,0            27.82513,-25.781487,0            27.825296,-25.781642,0            27.825506,-25.781767,0            27.825645,-25.781758,0            27.82579,-25.781695,0            27.825763,-25.781468,0            27.825709,-25.781246,0            27.82586,-25.781062,0            27.825967,-25.780878,0            27.826031,-25.780676,0            27.826375,-25.780241,0            27.826578,-25.780086,0            27.826729,-25.779951,0            27.826847,-25.779883,0            27.826943,-25.779854,0            27.827126,-25.779796,0            27.827276,-25.779777,0            27.827448,-25.779758,0            27.827608,-25.779729,0            27.827737,-25.779671,0            27.827877,-25.779593,0            27.827973,-25.779622,0            27.82807,-25.77968,0            27.828231,-25.779758,0            27.828392,-25.779729,0            27.828531,-25.779729,0            27.828671,-25.779719,0            27.828821,-25.7797,0            27.828939,-25.779584,0            27.828939,-25.779458,0            27.828885,-25.779362,0            27.828789,-25.779255,0            27.82866,-25.779188,0            27.828563,-25.77911,0            27.828424,-25.779004,0            27.828338,-25.77883,0            27.828284,-25.778734,0            27.828102,-25.778734,0            27.827973,-25.778666,0            27.827898,-25.778579,0            27.828091,-25.778511,0            27.828799,-25.778289,0            27.829786,-25.778627,0            27.829969,-25.778714,0            27.830098,-25.778782,0            27.830323,-25.778917,0            27.830516,-25.779043,0            27.830602,-25.779236,0            27.830773,-25.779536,0            27.830924,-25.779777,0            27.831052,-25.780096,0            27.831138,-25.78027,0            27.831246,-25.780444,0            27.834829,-25.778569,0            27.834829,-25.778463,0            27.834743,-25.778308,0            27.834593,-25.778048,0            27.834453,-25.777845,0            27.834357,-25.777738,0            27.834346,-25.777623,0            27.834314,-25.777545,0            27.834153,-25.7774,0            27.834024,-25.777265,0            27.83381,-25.77713,0            27.833692,-25.776995,0            27.833595,-25.776879,0            27.833295,-25.776637,0            27.830688,-25.777439,0            27.830688,-25.777584,0            27.830323,-25.777719,0            27.830591,-25.778338,0            27.830645,-25.77855,0            27.831417,-25.78026,0            27.831996,-25.77997,0            27.833059,-25.779932,0            27.833273,-25.779874,0            27.833413,-25.779835,0            27.83352,-25.779825,0            27.83367,-25.779806,0            27.833815,-25.779791,0            27.834227,-25.779759,0            27.834338,-25.779823,0            27.834236,-25.779951,0            27.834144,-25.780089,0            27.834079,-25.78022,0            27.83396,-25.780279,0            27.833842,-25.780347,0            27.833702,-25.780299,0            27.833542,-25.780221,0            27.833418,-25.780197,0            27.833238,-25.78033,0            27.833166,-25.780502,0            27.832941,-25.780598,0            27.83285,-25.780675,0            27.833005,-25.780859,0            27.833045,-25.780994,0            27.833075,-25.781168,0            27.832954,-25.781298,0            27.83279,-25.781255,0            27.83264,-25.781188,0            27.83249,-25.781081,0            27.832377,-25.781009,0            27.832254,-25.780907,0            27.832147,-25.780849,0            27.831996,-25.78082,0            27.831887,-25.780796,0            27.831755,-25.780733,0            27.831589,-25.780685,0            27.831364,-25.780569,0            27.831342,-25.780859,0          </coordinates></LineString></Placemark><Placemark><name>Start</name><styleUrl>#icon-1899-0F9D58-nodesc</styleUrl><Point><coordinates>            27.831653,-25.781057,0          </coordinates></Point></Placemark><Placemark><name>End</name><styleUrl>#icon-1899-FF5252-nodesc</styleUrl><Point><coordinates>            27.83102,-25.780883,0          </coordinates></Point></Placemark></Folder></Document></kml>