<?xml version="1.0" encoding="UTF-8"?><kml xmlns="http://www.opengis.net/kml/2.2"><Document><name>Asidlale Adventure parkrun</name><description/><Style id="icon-1899-FFEA00-nodesc-normal"><IconStyle><color>ff00eaff</color><scale>1</scale><Icon><href>https://www.gstatic.com/mapspro/images/stock/503-wht-blank_maps.png</href></Icon><hotSpot x="32" xunits="pixels" y="64" yunits="insetPixels"/></IconStyle><LabelStyle><scale>0</scale></LabelStyle><BalloonStyle><text><![CDATA[<h3>$[name]</h3>]]></text></BalloonStyle></Style><Style id="icon-1899-FFEA00-nodesc-highlight"><IconStyle><color>ff00eaff</color><scale>1</scale><Icon><href>https://www.gstatic.com/mapspro/images/stock/503-wht-blank_maps.png</href></Icon><hotSpot x="32" xunits="pixels" y="64" yunits="insetPixels"/></IconStyle><LabelStyle><scale>1</scale></LabelStyle><BalloonStyle><text><![CDATA[<h3>$[name]</h3>]]></text></BalloonStyle></Style><StyleMap id="icon-1899-FFEA00-nodesc"><Pair><key>normal</key><styleUrl>#icon-1899-FFEA00-nodesc-normal</styleUrl></Pair><Pair><key>highlight</key><styleUrl>#icon-1899-FFEA00-nodesc-highlight</styleUrl></Pair></StyleMap><Style id="line-0288D1-4488-nodesc-normal"><LineStyle><color>ffd18802</color><width>4.488</width></LineStyle><BalloonStyle><text><![CDATA[<h3>$[name]</h3>]]></text></BalloonStyle></Style><Style id="line-0288D1-4488-nodesc-highlight"><LineStyle><color>ffd18802</color><width>6.732</width></LineStyle><BalloonStyle><text><![CDATA[<h3>$[name]</h3>]]></text></BalloonStyle></Style><StyleMap id="line-0288D1-4488-nodesc"><Pair><key>normal</key><styleUrl>#line-0288D1-4488-nodesc-normal</styleUrl></Pair><Pair><key>highlight</key><styleUrl>#line-0288D1-4488-nodesc-highlight</styleUrl></Pair></StyleMap><Folder><name>Untitled layer</name><Placemark><name>Start/Finish</name><styleUrl>#icon-1899-FFEA00-nodesc</styleUrl><Point><coordinates>            28.068332,-26.008646,0          </coordinates></Point></Placemark><Placemark><name>Course</name><styleUrl>#line-0288D1-4488-nodesc</styleUrl><LineString><tessellate>1</tessellate><coordinates>            28.0683427,-26.0086364,0            28.0680437,-26.0089134,0            28.0679447,-26.0090794,0            28.0678177,-26.0094284,0            28.0676717,-26.0095564,0            28.0678437,-26.0098564,0            28.0680357,-26.0099314,0            28.0683187,-26.0101094,0            28.0686727,-26.0101324,0            28.0690947,-26.0100654,0            28.0693447,-26.0101504,0            28.0694457,-26.0104714,0            28.0696517,-26.0106854,0            28.0699897,-26.0106954,0            28.0704197,-26.0108864,0            28.0707047,-26.0109214,0            28.0705127,-26.0111714,0            28.0705977,-26.0113824,0            28.0705867,-26.0114904,0            28.0705317,-26.0115434,0            28.0701847,-26.0113774,0            28.0700837,-26.0113984,0            28.0700637,-26.0115154,0            28.0702097,-26.0118574,0            28.0703457,-26.0120254,0            28.0703687,-26.0121334,0            28.0702977,-26.0122604,0            28.0701727,-26.0124704,0            28.0703397,-26.0124784,0            28.0706167,-26.0124904,0            28.0707227,-26.0125464,0            28.0708127,-26.0127194,0            28.0709331,-26.0128005,0            28.0710517,-26.0129394,0            28.0711757,-26.0128714,0            28.0712747,-26.0128584,0            28.0715237,-26.0130534,0            28.0715837,-26.0132374,0            28.0718327,-26.0139844,0            28.0722537,-26.0152814,0            28.0725417,-26.0162574,0            28.0724667,-26.0167684,0            28.0698397,-26.0177674,0            28.0699017,-26.0170914,0            28.0696917,-26.0147796,0            28.0700157,-26.0141026,0            28.0704687,-26.0135296,0            28.0701627,-26.0132466,0            28.0699967,-26.0132176,0            28.0695947,-26.0139586,0            28.0694107,-26.0143356,0            28.0691927,-26.0146086,0            28.0692947,-26.0149116,0            28.0692687,-26.0152296,0            28.0691027,-26.0157146,0            28.0689327,-26.0160016,0            28.0687327,-26.0161306,0            28.0683797,-26.0161456,0            28.0681657,-26.0161076,0            28.0672747,-26.0169756,0            28.0670007,-26.0169836,0            28.0667837,-26.0168946,0            28.0665657,-26.0167606,0            28.0665597,-26.0166046,0            28.0671437,-26.0164736,0            28.0675487,-26.0165026,0            28.0678007,-26.0162796,0            28.0680507,-26.0160856,0            28.0680117,-26.0158966,0            28.0674198,-26.0154989,0            28.067179,-26.0157204,0            28.0670454,-26.0159226,0            28.0669497,-26.0160446,0            28.0668257,-26.0162376,0            28.0658357,-26.0158116,0            28.0653747,-26.0154956,0            28.0651817,-26.0150554,0            28.065297,-26.014857,0            28.065872,-26.014617,0            28.066578,-26.01428,0            28.066609,-26.013947,0            28.066244,-26.013674,0            28.065749,-26.013713,0            28.065316,-26.01401,0            28.064527,-26.0142,0            28.064206,-26.014037,0            28.0640017,-26.0136634,0            28.06394,-26.013065,0            28.063677,-26.013005,0            28.063032,-26.013068,0            28.064093,-26.012991,0            28.06425,-26.012734,0            28.064398,-26.012671,0            28.064916,-26.012353,0            28.0650637,-26.0117724,0            28.065408,-26.011183,0            28.065633,-26.010987,0            28.066017,-26.010769,0            28.066123,-26.010631,0            28.066709,-26.010523,0            28.067002,-26.010389,0            28.067279,-26.009989,0            28.067555,-26.009851,0            28.067661,-26.009566,0          </coordinates></LineString></Placemark></Folder></Document></kml>