<?xml version="1.0" encoding="UTF-8"?><kml xmlns="http://www.opengis.net/kml/2.2"><Document><name>Blades Hotel parkrun</name><description/><Style id="icon-1899-0F9D58-nodesc-normal"><IconStyle><color>ff589d0f</color><scale>1</scale><Icon><href>https://www.gstatic.com/mapspro/images/stock/503-wht-blank_maps.png</href></Icon><hotSpot x="32" xunits="pixels" y="64" yunits="insetPixels"/></IconStyle><LabelStyle><scale>0</scale></LabelStyle><BalloonStyle><text><![CDATA[<h3>$[name]</h3>]]></text></BalloonStyle></Style><Style id="icon-1899-0F9D58-nodesc-highlight"><IconStyle><color>ff589d0f</color><scale>1</scale><Icon><href>https://www.gstatic.com/mapspro/images/stock/503-wht-blank_maps.png</href></Icon><hotSpot x="32" xunits="pixels" y="64" yunits="insetPixels"/></IconStyle><LabelStyle><scale>1</scale></LabelStyle><BalloonStyle><text><![CDATA[<h3>$[name]</h3>]]></text></BalloonStyle></Style><StyleMap id="icon-1899-0F9D58-nodesc"><Pair><key>normal</key><styleUrl>#icon-1899-0F9D58-nodesc-normal</styleUrl></Pair><Pair><key>highlight</key><styleUrl>#icon-1899-0F9D58-nodesc-highlight</styleUrl></Pair></StyleMap><Style id="icon-1899-FF5252-nodesc-normal"><IconStyle><color>ff5252ff</color><scale>1</scale><Icon><href>https://www.gstatic.com/mapspro/images/stock/503-wht-blank_maps.png</href></Icon><hotSpot x="32" xunits="pixels" y="64" yunits="insetPixels"/></IconStyle><LabelStyle><scale>0</scale></LabelStyle><BalloonStyle><text><![CDATA[<h3>$[name]</h3>]]></text></BalloonStyle></Style><Style id="icon-1899-FF5252-nodesc-highlight"><IconStyle><color>ff5252ff</color><scale>1</scale><Icon><href>https://www.gstatic.com/mapspro/images/stock/503-wht-blank_maps.png</href></Icon><hotSpot x="32" xunits="pixels" y="64" yunits="insetPixels"/></IconStyle><LabelStyle><scale>1</scale></LabelStyle><BalloonStyle><text><![CDATA[<h3>$[name]</h3>]]></text></BalloonStyle></Style><StyleMap id="icon-1899-FF5252-nodesc"><Pair><key>normal</key><styleUrl>#icon-1899-FF5252-nodesc-normal</styleUrl></Pair><Pair><key>highlight</key><styleUrl>#icon-1899-FF5252-nodesc-highlight</styleUrl></Pair></StyleMap><Style id="line-0288D1-5000-nodesc-normal"><LineStyle><color>ffd18802</color><width>5</width></LineStyle><BalloonStyle><text><![CDATA[<h3>$[name]</h3>]]></text></BalloonStyle></Style><Style id="line-0288D1-5000-nodesc-highlight"><LineStyle><color>ffd18802</color><width>7.5</width></LineStyle><BalloonStyle><text><![CDATA[<h3>$[name]</h3>]]></text></BalloonStyle></Style><StyleMap id="line-0288D1-5000-nodesc"><Pair><key>normal</key><styleUrl>#line-0288D1-5000-nodesc-normal</styleUrl></Pair><Pair><key>highlight</key><styleUrl>#line-0288D1-5000-nodesc-highlight</styleUrl></Pair></StyleMap><Folder><name>Untitled layer</name><Placemark><name>Course</name><styleUrl>#line-0288D1-5000-nodesc</styleUrl><LineString><tessellate>1</tessellate><coordinates>            28.333896,-25.64678,1228.8            28.333915,-25.646768,1228.8            28.333907,-25.646789,1228.8            28.333905,-25.646775,1228.8            28.333877,-25.646773,1228.6            28.33387,-25.646773,1228.6            28.333867,-25.646773,1228.6            28.333856,-25.646778,1228.4            28.333853,-25.646779,1228.4            28.333852,-25.646779,1228.4            28.333853,-25.646778,1228.4            28.333853,-25.646781,1228.6            28.333853,-25.646783,1228.6            28.333852,-25.646783,1228.4            28.333853,-25.646783,1228.4            28.333851,-25.646781,1228.6            28.333867,-25.646776,1228.6            28.333881,-25.646769,1228.8            28.333907,-25.646756,1228.8            28.333928,-25.646758,1228.8            28.333958,-25.646757,1228.8            28.333986,-25.646761,1228.8            28.334013,-25.646766,1228.8            28.334049,-25.64677,1228.8            28.334081,-25.646766,1228.8            28.334114,-25.646766,1229            28.334145,-25.646762,1229            28.334178,-25.646761,1229            28.334204,-25.646756,1229            28.33424,-25.646756,1228.8            28.334265,-25.646751,1228.8            28.3343,-25.646751,1228.8            28.334326,-25.646743,1228.8            28.334356,-25.646744,1228.8            28.33438,-25.646739,1228.8            28.334411,-25.64674,1228.8            28.334439,-25.646735,1228.8            28.334471,-25.646744,1228.8            28.334498,-25.646748,1229            28.334536,-25.646753,1229.4            28.334565,-25.646753,1229.6            28.334596,-25.64675,1229.6            28.334624,-25.646746,1229.6            28.334651,-25.646733,1229.6            28.334675,-25.64672,1229.4            28.334696,-25.646703,1229.4            28.334718,-25.646683,1229.2            28.334731,-25.646664,1229.2            28.334752,-25.646638,1229.2            28.334759,-25.64662,1229.2            28.334768,-25.646593,1229            28.334769,-25.646573,1228.8            28.334768,-25.646546,1228.6            28.334764,-25.64652,1228.2            28.33476,-25.646494,1228            28.334764,-25.646466,1227.8            28.334756,-25.64644,1227.6            28.334757,-25.646408,1227.4            28.334753,-25.646385,1227.2            28.33474,-25.646354,1227            28.334734,-25.646329,1226.8            28.334727,-25.646302,1226.6            28.334723,-25.646273,1226.6            28.334713,-25.64625,1226.4            28.334703,-25.646219,1226            28.334692,-25.646201,1225.8            28.334678,-25.646172,1225.8            28.334663,-25.646152,1225.6            28.334644,-25.646131,1225.4            28.334626,-25.64611,1225.2            28.334609,-25.646095,1225            28.334593,-25.646068,1225            28.334577,-25.646054,1224.8            28.334557,-25.646032,1224.8            28.33454,-25.646014,1224.6            28.334521,-25.645997,1224.4            28.334504,-25.645974,1224.2            28.334482,-25.645954,1224.2            28.334456,-25.645932,1224            28.334438,-25.645918,1224            28.334411,-25.645901,1224            28.334393,-25.645895,1224            28.334364,-25.645889,1224            28.334341,-25.645889,1223.8            28.334315,-25.645896,1223.8            28.334288,-25.645897,1223.8            28.334262,-25.645904,1223.6            28.334231,-25.645908,1223.6            28.334212,-25.645914,1223.6            28.334181,-25.645921,1223.6            28.334163,-25.645931,1223.6            28.334132,-25.645937,1223.6            28.334112,-25.64594,1223.6            28.334084,-25.645947,1223.6            28.334058,-25.64595,1223.6            28.33403,-25.645954,1223.6            28.334001,-25.645949,1223.6            28.333977,-25.645943,1223.8            28.333948,-25.645933,1223.6            28.333925,-25.645931,1223.6            28.333894,-25.645921,1223.6            28.333875,-25.645917,1223.6            28.333845,-25.645913,1223.6            28.33382,-25.645911,1223.6            28.33379,-25.645913,1223.6            28.333765,-25.645915,1223.6            28.333734,-25.64592,1223.6            28.33371,-25.645925,1223.6            28.33368,-25.645933,1223.6            28.333651,-25.645941,1223.6            28.333619,-25.645952,1223.6            28.333589,-25.645959,1223.6            28.333557,-25.645964,1223.6            28.333526,-25.645957,1223.6            28.3335,-25.645948,1223.4            28.333478,-25.645932,1223.4            28.333459,-25.64591,1223.4            28.333441,-25.645881,1223.4            28.333423,-25.645859,1223.2            28.333406,-25.645835,1223.2            28.333389,-25.645813,1223.2            28.333368,-25.645794,1223            28.333352,-25.64578,1223            28.333324,-25.645767,1222.8            28.3333,-25.645758,1222.8            28.333274,-25.645758,1222.8            28.333246,-25.645756,1222.8            28.333218,-25.645766,1222.8            28.333186,-25.645774,1222.8            28.333165,-25.645781,1222.8            28.333141,-25.645793,1223            28.333121,-25.645807,1223            28.333098,-25.645825,1223            28.333075,-25.645844,1223            28.333059,-25.645861,1222.8            28.333038,-25.645882,1222.8            28.333021,-25.645899,1223            28.332996,-25.645915,1223            28.332977,-25.64593,1223            28.33295,-25.645944,1223.2            28.33293,-25.64595,1223.2            28.332904,-25.645961,1223.2            28.332886,-25.645967,1223            28.33286,-25.645982,1223            28.332841,-25.645998,1223            28.33283,-25.646013,1223            28.332822,-25.646032,1223.2            28.332826,-25.646053,1223.2            28.332834,-25.64608,1223.2            28.33284,-25.646098,1223.2            28.332848,-25.646126,1223.4            28.332859,-25.646146,1223.4            28.33287,-25.64617,1223.4            28.332884,-25.64619,1223.4            28.3329,-25.646211,1223.4            28.332916,-25.646227,1223.4            28.332936,-25.64625,1223.4            28.332948,-25.646267,1223.4            28.332966,-25.646287,1223.6            28.332978,-25.646309,1223.8            28.332986,-25.646325,1224.2            28.333001,-25.646348,1224.8            28.333014,-25.646368,1225.2            28.333027,-25.646381,1225.6            28.333043,-25.646402,1225.8            28.333054,-25.646417,1226.2            28.333064,-25.646438,1226.4            28.333062,-25.646454,1226.6            28.333063,-25.646471,1226.8            28.333065,-25.646491,1226.8            28.333073,-25.646505,1227            28.33308,-25.646526,1227            28.333078,-25.646546,1227            28.333068,-25.646566,1227            28.333059,-25.646586,1227            28.333055,-25.646611,1227.2            28.333045,-25.646632,1227.2            28.333044,-25.646649,1227.2            28.333038,-25.646674,1227.2            28.333036,-25.646695,1227.2            28.333038,-25.646715,1227.2            28.333038,-25.646737,1227.2            28.333039,-25.646757,1227.4            28.333038,-25.646777,1227.4            28.333043,-25.646797,1227.4            28.333054,-25.646819,1227.4            28.333069,-25.646835,1227.4            28.333089,-25.646854,1227.6            28.333106,-25.646872,1227.6            28.333121,-25.646886,1227.8            28.333133,-25.64691,1228            28.33314,-25.646925,1228            28.333152,-25.646934,1228            28.333174,-25.646949,1227.6            28.333185,-25.646962,1227.4            28.333196,-25.646979,1227            28.333203,-25.647001,1226.8            28.333202,-25.647016,1226.6            28.333197,-25.647043,1226.2            28.333184,-25.647065,1226            28.333174,-25.647083,1225.6            28.333155,-25.647103,1225.4            28.333147,-25.647121,1225            28.333137,-25.647142,1224.8            28.333131,-25.647161,1224.6            28.333137,-25.647185,1224.6            28.333148,-25.647205,1224.6            28.333163,-25.647223,1225            28.333173,-25.647251,1225.2            28.333182,-25.647269,1225.6            28.333186,-25.647299,1226            28.33319,-25.647317,1226.2            28.333192,-25.647337,1226.4            28.333173,-25.647349,1226.6            28.333161,-25.647355,1226.8            28.333137,-25.647367,1226.8            28.333116,-25.647378,1226.6            28.333088,-25.647391,1226.4            28.333069,-25.647408,1226.2            28.333053,-25.647431,1226            28.333046,-25.647451,1225.8            28.333044,-25.647475,1225.8            28.333044,-25.647494,1226            28.333048,-25.647517,1226.2            28.333053,-25.647537,1226.6            28.333065,-25.64755,1227            28.333075,-25.647575,1227.6            28.333086,-25.647586,1228            28.333097,-25.647602,1228.6            28.33311,-25.647624,1229            28.33312,-25.647635,1229.6            28.333132,-25.647656,1230            28.33314,-25.647671,1230.4            28.333147,-25.647685,1230.8            28.333156,-25.647711,1231.2            28.33317,-25.647716,1231.4            28.333185,-25.647728,1231.8            28.3332,-25.647745,1232.2            28.333209,-25.647752,1232.6            28.33323,-25.647764,1233            28.333247,-25.647775,1233.6            28.333261,-25.647775,1233.8            28.333289,-25.647774,1234.2            28.333307,-25.647768,1234.2            28.333329,-25.647762,1234.2            28.333351,-25.647754,1234.2            28.333366,-25.647742,1234            28.333388,-25.647727,1234            28.3334,-25.647707,1234            28.333415,-25.64768,1234.2            28.333416,-25.647662,1234.2            28.333423,-25.647629,1234.2            28.333425,-25.64761,1234.2            28.333429,-25.647583,1234.2            28.333436,-25.647562,1234            28.333441,-25.647539,1234            28.333448,-25.647519,1233.8            28.333451,-25.647501,1233.8            28.333463,-25.647477,1233.6            28.333468,-25.647457,1233.6            28.333479,-25.647431,1233.8            28.333484,-25.647412,1233.8            28.333497,-25.647386,1233.8            28.333504,-25.647365,1233.8            28.333519,-25.647336,1233.8            28.333529,-25.647317,1233.8            28.333544,-25.647294,1233.6            28.333559,-25.647276,1233.6            28.333574,-25.647255,1233.6            28.333593,-25.647237,1233.4            28.33361,-25.647217,1233.4            28.333634,-25.647202,1233.2            28.333656,-25.647187,1233.2            28.333687,-25.647173,1233.4            28.333711,-25.64716,1233.4            28.333738,-25.647145,1233.4            28.333756,-25.64713,1233.6            28.333782,-25.647109,1233.6            28.3338,-25.647094,1233.6            28.333815,-25.647073,1233.6            28.333825,-25.647052,1233.6            28.333833,-25.647026,1233.4            28.333844,-25.647003,1233.2            28.333849,-25.64698,1233            28.333863,-25.646954,1232.8            28.333867,-25.646929,1232.8            28.333875,-25.646901,1232.8            28.333866,-25.646881,1232.8            28.333857,-25.646852,1232.6            28.333845,-25.646837,1232.6            28.333813,-25.646824,1232.6            28.333788,-25.646823,1232.4            28.333751,-25.646825,1232.2            28.333728,-25.646834,1232.2            28.333695,-25.646846,1232            28.333677,-25.646857,1232            28.333647,-25.646873,1232            28.333626,-25.646885,1232            28.333594,-25.646896,1232            28.333571,-25.646901,1232            28.33354,-25.646902,1232            28.333515,-25.6469,1231.8            28.333488,-25.646897,1231.8            28.333462,-25.646889,1231.6            28.333441,-25.646885,1231.6            28.333407,-25.646869,1231.4            28.333387,-25.646861,1231.4            28.333364,-25.646841,1231.2            28.333346,-25.646829,1231            28.333323,-25.646813,1230.8            28.333301,-25.646798,1230.8            28.333277,-25.646781,1230.6            28.333256,-25.64676,1230.4            28.333241,-25.646739,1230.4            28.333236,-25.646712,1230.2            28.333232,-25.646688,1230            28.333232,-25.646661,1229.8            28.333232,-25.64664,1229.6            28.333221,-25.646614,1229.4            28.333211,-25.646591,1229            28.333195,-25.646568,1228.8            28.333177,-25.646544,1228.8            28.333161,-25.646521,1228.6            28.333157,-25.646493,1228.4            28.33316,-25.646471,1228.2            28.33317,-25.646448,1228.2            28.333178,-25.646431,1228.2            28.333184,-25.646409,1228            28.333188,-25.646392,1228.2            28.333187,-25.646367,1228.2            28.333192,-25.646344,1228            28.333191,-25.646322,1228            28.333182,-25.646299,1227.8            28.333172,-25.646284,1227.8            28.333142,-25.64627,1227.6            28.33312,-25.646256,1227.4            28.333103,-25.646236,1227.2            28.333093,-25.646213,1227            28.333081,-25.646195,1226.8            28.333071,-25.64617,1226.6            28.333063,-25.646152,1226.2            28.333058,-25.646124,1226            28.333077,-25.646104,1225.6            28.333093,-25.646083,1225.4            28.333109,-25.646062,1225.4            28.333121,-25.64604,1225.4            28.333144,-25.646025,1225.4            28.333159,-25.646016,1225.4            28.333187,-25.646012,1225.2            28.333207,-25.646011,1225.4            28.333235,-25.646019,1225.6            28.333254,-25.646028,1225.8            28.333275,-25.646036,1226.2            28.333297,-25.646051,1226.6            28.33331,-25.646059,1226.8            28.333336,-25.646076,1227.2            28.333355,-25.646085,1227.2            28.333386,-25.646095,1227.4            28.33341,-25.646107,1227.6            28.333429,-25.646117,1227.6            28.33345,-25.646137,1227.8            28.333466,-25.64615,1227.8            28.333481,-25.646175,1228            28.333492,-25.646194,1228            28.333503,-25.646219,1228            28.333521,-25.646234,1228            28.333542,-25.646251,1228.2            28.333568,-25.64626,1228.4            28.333599,-25.646262,1228.4            28.333618,-25.646262,1228.6            28.333643,-25.646248,1228.8            28.333662,-25.646231,1228.8            28.333674,-25.646208,1228.6            28.33369,-25.646187,1228.4            28.3337,-25.646168,1228.4            28.333715,-25.646144,1228            28.333721,-25.646123,1228            28.333734,-25.646096,1227.8            28.333746,-25.646075,1227.6            28.333774,-25.646054,1227.4            28.333797,-25.646046,1227.2            28.333827,-25.646033,1227.2            28.333853,-25.646032,1227            28.333886,-25.646035,1227            28.33391,-25.646049,1226.8            28.333927,-25.646064,1226.8            28.333935,-25.646086,1227            28.333942,-25.646103,1227            28.333949,-25.646126,1227            28.33396,-25.646139,1227            28.333972,-25.646157,1227.2            28.333978,-25.646173,1227.2            28.333986,-25.646188,1227.4            28.333995,-25.646209,1227.6            28.334002,-25.646222,1227.8            28.33401,-25.646248,1228            28.334018,-25.646266,1228.2            28.334032,-25.646288,1228.2            28.334055,-25.64631,1228.2            28.334039,-25.646333,1228.4            28.33403,-25.646354,1228.6            28.334026,-25.646375,1228.6            28.334019,-25.646395,1228.8            28.334017,-25.646411,1229            28.334012,-25.646435,1229            28.334015,-25.64645,1229.2            28.334025,-25.646473,1229.2            28.334037,-25.646485,1229.2            28.334053,-25.646503,1229.4            28.334067,-25.646519,1229.4            28.334086,-25.646532,1229.6            28.334105,-25.646549,1229.6            28.334123,-25.646561,1229.8            28.334144,-25.64658,1229.8            28.334167,-25.646589,1229.8            28.334189,-25.646607,1230            28.334209,-25.646614,1230            28.334231,-25.64663,1230            28.33425,-25.646642,1230.2            28.334271,-25.646654,1230.2            28.334289,-25.64666,1230.4            28.334316,-25.646676,1230.4            28.334338,-25.646682,1230.4            28.334362,-25.646691,1230.4            28.334382,-25.646706,1230.4            28.334398,-25.64672,1230.6            28.334414,-25.646742,1230.6            28.334429,-25.646754,1230.8            28.334445,-25.646776,1231            28.334459,-25.646785,1231.2            28.334478,-25.646806,1231.4            28.334494,-25.646818,1231.6            28.334516,-25.646829,1231.8            28.334532,-25.646844,1231.8            28.334549,-25.646855,1232            28.334568,-25.646871,1232            28.334586,-25.646878,1232            28.334605,-25.646894,1232            28.334621,-25.646904,1232.2            28.334643,-25.646923,1232.2            28.334662,-25.646929,1232.4            28.334685,-25.646947,1232.4            28.334703,-25.646955,1232.6            28.334725,-25.646972,1232.8            28.334741,-25.646986,1232.8            28.334759,-25.647006,1233            28.334764,-25.647028,1233            28.334772,-25.647048,1233.2            28.334775,-25.647072,1233.2            28.334779,-25.647091,1233.4            28.334783,-25.647116,1233.6            28.33479,-25.64713,1233.8            28.334793,-25.647151,1234            28.334796,-25.647166,1234.2            28.334808,-25.64718,1234.4            28.33482,-25.647204,1234.8            28.334826,-25.647215,1235            28.334833,-25.64724,1235.4            28.334833,-25.647258,1235.6            28.334843,-25.647276,1236            28.334849,-25.6473,1236.2            28.334852,-25.647314,1236.6            28.334854,-25.64734,1237            28.334859,-25.647353,1237.4            28.334864,-25.647374,1237.6            28.334867,-25.647392,1237.8            28.334873,-25.647411,1238            28.334881,-25.647435,1238.2            28.334887,-25.647453,1238.4            28.334885,-25.647482,1238.6            28.33489,-25.6475,1238.8            28.334891,-25.647526,1239            28.334897,-25.647543,1239.2            28.3349,-25.647574,1239.4            28.334907,-25.647591,1239.6            28.334914,-25.647619,1239.6            28.33492,-25.647636,1239.8            28.334929,-25.647663,1239.8            28.33494,-25.647681,1240            28.334955,-25.647712,1240.2            28.334971,-25.647731,1240.4            28.334993,-25.647755,1240.6            28.33501,-25.647771,1240.8            28.335032,-25.64779,1241            28.335051,-25.647802,1241            28.335077,-25.64782,1241.2            28.335098,-25.647837,1241.4            28.33512,-25.647863,1241.6            28.335134,-25.647882,1241.8            28.335145,-25.647916,1242            28.33514,-25.647941,1242            28.335131,-25.647969,1242.2            28.335114,-25.647992,1242.2            28.335096,-25.648016,1242.2            28.33508,-25.648037,1242.2            28.335065,-25.648061,1242.2            28.335045,-25.648085,1242.4            28.335033,-25.648106,1242.4            28.33502,-25.648131,1242.4            28.335017,-25.648159,1242.4            28.335006,-25.648182,1242.4            28.335,-25.648204,1242.4            28.334992,-25.648227,1242.4            28.334997,-25.64825,1242.4            28.335,-25.648273,1242.6            28.33501,-25.648296,1242.6            28.335026,-25.648315,1242.8            28.335045,-25.648336,1242.8            28.335059,-25.648363,1243            28.33507,-25.648389,1243            28.335076,-25.648415,1243.2            28.335079,-25.648447,1243.2            28.335085,-25.648479,1243.4            28.335096,-25.648498,1243.2            28.335108,-25.648523,1243.4            28.335126,-25.648539,1243.4            28.335147,-25.648556,1243.4            28.335171,-25.648564,1243.4            28.335199,-25.648572,1243.6            28.335228,-25.648566,1243.6            28.335257,-25.648568,1243.6            28.335282,-25.648572,1243.6            28.335306,-25.648584,1243.6            28.335329,-25.648591,1243.8            28.335353,-25.648604,1243.8            28.335377,-25.648614,1244.2            28.335403,-25.648627,1244.4            28.335423,-25.648632,1244.6            28.335451,-25.648644,1245            28.335474,-25.648649,1245            28.335505,-25.648651,1245            28.335529,-25.648646,1245.2            28.335563,-25.648638,1245.2            28.335585,-25.648629,1245.2            28.335615,-25.648619,1245.4            28.335636,-25.648609,1245.4            28.335666,-25.6486,1245.4            28.335688,-25.648598,1245.4            28.335718,-25.648606,1245.4            28.335735,-25.648619,1245.2            28.335754,-25.648636,1245.2            28.335772,-25.648653,1245.2            28.335796,-25.648671,1245.2            28.335819,-25.648673,1245.2            28.335848,-25.648673,1245.4            28.335872,-25.648663,1245.8            28.335886,-25.648651,1246.2            28.33591,-25.648629,1246.4            28.335923,-25.648614,1246.6            28.335944,-25.648591,1246.8            28.335957,-25.648574,1246.8            28.335976,-25.648553,1246.8            28.335995,-25.64854,1246.8            28.336012,-25.648525,1247            28.336034,-25.648508,1247            28.336048,-25.64849,1247            28.336068,-25.64847,1247            28.336075,-25.648444,1247            28.336089,-25.64842,1247            28.3361,-25.648395,1247            28.336112,-25.648365,1247.2            28.336109,-25.648343,1247.2            28.336101,-25.64831,1247            28.336091,-25.648284,1246.8            28.336097,-25.648253,1246.8            28.336107,-25.648231,1246.6            28.33613,-25.648211,1246.4            28.336149,-25.648192,1246.4            28.33617,-25.648169,1246.4            28.336178,-25.648146,1246.6            28.336181,-25.648117,1246.6            28.336181,-25.648088,1246.8            28.336183,-25.648063,1246.8            28.33618,-25.648031,1246.8            28.336194,-25.648006,1246.6            28.336214,-25.647978,1246.4            28.336242,-25.647958,1246.2            28.336269,-25.647937,1246            28.3363,-25.647931,1245.8            28.336333,-25.647931,1245.8            28.336356,-25.64795,1245.8            28.336375,-25.647969,1246            28.336383,-25.647994,1246.2            28.336391,-25.648015,1246.4            28.336393,-25.648042,1246.6            28.336395,-25.648065,1246.8            28.336385,-25.648093,1246.8            28.336383,-25.648119,1246.8            28.336378,-25.648148,1246.8            28.336376,-25.648174,1246.8            28.336375,-25.648199,1246.8            28.336383,-25.648229,1247            28.336389,-25.648256,1247            28.336398,-25.648285,1247            28.336398,-25.648309,1247.2            28.336398,-25.648334,1247.2            28.33639,-25.64836,1247.2            28.336384,-25.648384,1247.4            28.336379,-25.64841,1247.4            28.336379,-25.648436,1247.4            28.336368,-25.648462,1247.6            28.336363,-25.648489,1247.4            28.336351,-25.648516,1247.4            28.336349,-25.648543,1247.2            28.336344,-25.64857,1247.2            28.336349,-25.648593,1247.2            28.336346,-25.648619,1247.4            28.336345,-25.648639,1247.4            28.336339,-25.648666,1247.4            28.336344,-25.648691,1247.4            28.336338,-25.648718,1247.4            28.336342,-25.648745,1247.4            28.336337,-25.648771,1247.4            28.336335,-25.648793,1247.2            28.336322,-25.648819,1247.2            28.336312,-25.648843,1247.2            28.336288,-25.648866,1247.2            28.336271,-25.648885,1247.4            28.336237,-25.648897,1247.4            28.336214,-25.648908,1247.4            28.336178,-25.648914,1247.4            28.336155,-25.648924,1247.4            28.336121,-25.648927,1247.4            28.336095,-25.648935,1247.4            28.33606,-25.648943,1247.4            28.336035,-25.648948,1247.2            28.336002,-25.648954,1247.2            28.335979,-25.648963,1247.2            28.335945,-25.648967,1247.2            28.335917,-25.648975,1247.2            28.335883,-25.648978,1247.2            28.335855,-25.648982,1247.2            28.33582,-25.648981,1247            28.335791,-25.648985,1247            28.335755,-25.648988,1246.8            28.335726,-25.649001,1246.8            28.335692,-25.64901,1246.6            28.335667,-25.649023,1246.6            28.335639,-25.649036,1246.4            28.335624,-25.649055,1246.4            28.335599,-25.649074,1246.2            28.335579,-25.649091,1246.2            28.33555,-25.649103,1246.2            28.335524,-25.649111,1246            28.33549,-25.649104,1246.2            28.335463,-25.649098,1246            28.335429,-25.649084,1246            28.335399,-25.649075,1246            28.335368,-25.649058,1245.8            28.335341,-25.649049,1245.6            28.335309,-25.649032,1245.6            28.335282,-25.649027,1245.4            28.335252,-25.649009,1245.4            28.335227,-25.649,1245.2            28.335204,-25.648975,1245.2            28.335192,-25.648944,1245            28.335182,-25.648912,1245            28.335168,-25.648889,1244.8            28.335147,-25.648862,1244.8            28.335122,-25.648854,1244.6            28.33509,-25.648841,1244.6            28.335064,-25.648837,1244.2            28.335032,-25.648825,1244            28.33501,-25.648823,1243.8            28.334975,-25.648818,1243.8            28.334952,-25.648824,1243.6            28.334916,-25.648835,1243.4            28.334889,-25.648853,1243.2            28.334877,-25.648877,1243.2            28.334882,-25.6489,1243            28.334893,-25.648926,1243            28.334913,-25.648938,1243            28.334938,-25.64896,1243            28.334958,-25.648971,1243            28.334982,-25.648993,1243.2            28.334997,-25.649012,1243.4            28.335013,-25.649043,1243.4            28.335019,-25.649065,1243.6            28.33501,-25.649095,1243.8            28.334998,-25.649118,1244            28.334968,-25.649139,1244            28.334951,-25.649159,1244            28.334923,-25.649181,1244            28.334905,-25.649198,1243.8            28.334882,-25.64922,1243.6            28.334872,-25.649241,1243.6            28.33487,-25.64927,1243.4            28.334873,-25.649291,1243.4            28.334877,-25.649321,1243.4            28.334871,-25.64934,1243.4            28.334857,-25.649367,1243.4            28.33485,-25.649391,1243.4            28.334842,-25.649421,1243.4            28.334844,-25.649442,1243.6            28.334846,-25.649472,1243.6            28.334847,-25.649493,1243.6            28.334851,-25.649524,1243.6            28.334861,-25.649541,1243.8            28.334873,-25.649565,1243.8            28.334882,-25.64958,1244            28.334897,-25.649599,1244.2            28.334916,-25.649615,1244.4            28.334943,-25.649622,1244.6            28.334969,-25.649627,1244.8            28.334986,-25.649618,1244.8            28.335007,-25.649604,1245            28.335013,-25.649585,1245            28.335025,-25.649559,1245            28.335024,-25.649537,1245            28.335034,-25.649509,1244.8            28.335051,-25.649496,1244.8            28.33508,-25.649483,1244.8            28.335106,-25.649473,1244.8            28.335133,-25.649467,1244.8            28.335159,-25.649463,1245            28.335185,-25.649453,1245            28.335211,-25.649443,1245.2            28.335235,-25.649432,1245.2            28.33526,-25.649425,1245.2            28.33528,-25.649415,1245.2            28.335304,-25.649405,1245.4            28.335322,-25.649391,1245.4            28.335348,-25.649377,1245.6            28.335363,-25.649363,1245.8            28.335388,-25.64935,1245.8            28.335406,-25.649339,1245.8            28.335434,-25.64933,1246            28.33545,-25.649321,1246            28.335478,-25.64931,1246            28.335501,-25.649304,1246            28.335532,-25.649305,1246            28.335555,-25.649306,1246            28.335582,-25.649314,1246            28.335606,-25.649318,1246            28.33563,-25.649322,1246.2            28.335654,-25.649327,1246.4            28.335675,-25.649327,1246.4            28.335699,-25.649329,1246.6            28.335722,-25.649327,1246.8            28.335746,-25.649322,1246.8            28.335759,-25.649313,1247            28.335782,-25.649296,1247            28.335799,-25.649282,1247.2            28.335825,-25.649265,1247.2            28.33585,-25.649253,1247.4            28.335876,-25.649237,1247.4            28.335898,-25.649219,1247.4            28.335917,-25.649201,1247.4            28.335937,-25.649184,1247.4            28.335951,-25.649163,1247.4            28.335969,-25.649142,1247.4            28.335984,-25.64912,1247.6            28.336007,-25.649104,1247.8            28.336027,-25.649085,1247.8            28.336053,-25.649077,1248            28.336081,-25.649069,1248            28.33611,-25.649065,1247.8            28.336138,-25.649061,1247.8            28.336165,-25.649061,1247.6            28.336193,-25.649057,1247.6            28.336222,-25.649061,1247.6            28.33625,-25.64906,1247.8            28.336286,-25.64907,1248.2            28.336318,-25.649072,1248.2            28.336348,-25.649075,1248.4            28.336372,-25.649071,1248.4            28.336402,-25.649074,1248.4            28.336427,-25.649069,1248.4            28.336457,-25.649068,1248.4            28.33648,-25.649063,1248.4            28.336513,-25.649064,1248.4            28.336538,-25.649056,1248.4            28.336566,-25.649047,1248.4            28.336584,-25.649028,1248.4            28.336606,-25.649008,1248.4            28.336618,-25.648989,1248.4            28.336639,-25.648971,1248.4            28.336653,-25.648954,1248.4            28.336679,-25.648935,1248.4            28.336696,-25.648919,1248.4            28.336723,-25.648906,1248.2            28.336737,-25.648891,1248.2            28.336763,-25.648872,1248.2            28.336776,-25.648855,1248.2            28.336793,-25.64883,1248.2            28.336799,-25.648813,1248.2            28.336809,-25.648786,1248            28.336803,-25.648764,1248            28.336801,-25.648735,1248            28.336792,-25.648717,1248            28.336788,-25.648689,1248            28.336779,-25.64867,1248            28.336774,-25.648645,1248            28.336764,-25.648626,1248            28.336749,-25.648603,1248            28.336735,-25.648586,1248            28.336721,-25.648558,1247.8            28.336703,-25.648536,1248            28.3367,-25.648509,1247.8            28.336697,-25.648482,1247.8            28.336702,-25.648451,1247.6            28.336706,-25.648425,1247.6            28.336702,-25.648397,1247.4            28.336695,-25.648377,1247.4            28.336681,-25.648347,1247.4            28.336669,-25.648326,1247.4            28.336651,-25.648301,1247.4            28.33664,-25.648281,1247.4            28.336635,-25.648254,1247.2            28.336639,-25.648228,1247.2            28.33665,-25.648199,1247.2            28.336656,-25.648175,1247.2            28.336667,-25.648144,1247            28.336668,-25.648124,1247            28.336673,-25.648092,1246.8            28.336669,-25.648066,1246.8            28.336666,-25.648031,1246.8            28.336659,-25.648007,1247            28.336641,-25.647975,1247            28.336618,-25.647955,1247            28.33659,-25.647926,1247            28.336567,-25.647908,1246.8            28.336546,-25.64788,1246.6            28.336528,-25.647857,1246.4            28.336513,-25.647826,1246            28.336496,-25.647802,1245.8            28.336485,-25.647769,1245.6            28.336469,-25.647742,1245.2            28.336461,-25.647706,1245.2            28.336455,-25.647675,1244.8            28.336472,-25.647645,1244.6            28.336477,-25.647612,1244.4            28.336487,-25.647577,1244.2            28.33648,-25.647548,1244            28.336471,-25.647511,1243.8            28.336453,-25.647488,1243.6            28.336429,-25.647463,1243.4            28.336401,-25.647448,1243.2            28.336365,-25.647432,1243            28.336332,-25.647424,1242.8            28.336294,-25.647415,1242.6            28.336265,-25.647411,1242.4            28.336227,-25.647401,1242.2            28.336197,-25.647402,1241.8            28.33616,-25.647407,1241.6            28.336133,-25.647426,1241.4            28.336102,-25.647439,1241.4            28.336076,-25.647458,1241.2            28.336046,-25.647471,1241.2            28.336014,-25.647487,1241.2            28.335982,-25.647484,1241.2            28.335947,-25.64748,1241            28.335913,-25.647476,1241            28.335883,-25.64748,1240.8            28.335851,-25.647485,1240.6            28.335826,-25.647502,1240.4            28.335803,-25.647517,1240.4            28.335781,-25.647534,1240.2            28.335754,-25.647545,1240.2            28.335726,-25.647553,1240.2            28.335694,-25.647554,1240.2            28.335661,-25.64756,1240.2            28.33563,-25.647563,1240.2            28.3356,-25.647569,1240.2            28.335569,-25.64757,1240.2            28.335541,-25.647576,1240.2            28.335509,-25.647576,1240.2            28.335476,-25.647578,1240            28.335446,-25.647577,1240            28.335403,-25.647581,1240            28.335374,-25.647585,1239.8            28.33533,-25.64759,1239.6            28.335297,-25.647596,1239.6            28.335252,-25.6476,1239.4            28.335218,-25.647605,1239.2            28.335177,-25.647601,1239            28.335141,-25.647601,1238.6            28.3351,-25.647588,1238.6            28.335064,-25.647578,1238.4            28.335025,-25.647559,1238.2            28.334994,-25.647545,1238            28.33496,-25.647522,1237.8            28.334935,-25.647506,1237.6            28.334906,-25.647484,1237.2            28.334874,-25.647467,1237            28.334851,-25.647444,1236.6            28.334828,-25.647418,1236.2            28.334825,-25.647385,1235.8            28.334822,-25.647351,1235.6            28.334825,-25.647316,1235.2            28.334819,-25.64728,1234.8            28.334811,-25.647252,1234.4            28.33479,-25.647217,1234.2            28.334774,-25.647193,1233.8            28.33476,-25.647159,1233.4            28.334754,-25.647132,1233.2            28.334749,-25.647098,1233            28.334751,-25.647062,1232.4            28.33475,-25.647029,1232            28.334753,-25.646999,1231.6            28.334751,-25.646969,1231.2            28.334756,-25.646938,1231            28.334752,-25.646907,1230.6            28.334758,-25.646871,1230.4            28.334753,-25.646841,1230.2            28.334758,-25.646806,1230            28.334756,-25.646771,1229.8            28.334764,-25.646736,1229.6            28.334768,-25.646705,1229.4            28.334768,-25.646675,1229.2            28.334763,-25.646639,1228.8            28.334764,-25.646609,1228.6            28.334758,-25.646572,1228.2            28.334753,-25.646542,1228            28.334747,-25.646508,1227.8            28.334746,-25.646477,1227.6            28.334744,-25.646443,1227.4            28.334742,-25.646411,1227.2            28.334737,-25.646377,1227            28.334733,-25.64634,1226.6            28.334727,-25.646306,1226.4            28.334721,-25.646272,1226.2            28.33471,-25.646237,1226            28.334697,-25.64621,1225.6            28.334679,-25.646173,1225.4            28.334659,-25.64615,1225.2            28.334636,-25.646121,1224.8            28.33462,-25.646096,1224.6            28.334595,-25.646069,1224.4            28.334572,-25.646048,1224.2            28.334544,-25.646026,1223.8            28.334524,-25.646014,1223.8            28.334499,-25.645988,1223.6            28.334479,-25.645971,1223.4            28.334455,-25.645947,1223.2            28.334433,-25.645928,1223.2            28.334408,-25.645907,1223.2            28.334387,-25.645897,1223.2            28.334359,-25.645899,1223.2            28.334345,-25.645909,1223            28.334335,-25.645933,1223.2            28.334323,-25.645953,1223.2            28.334321,-25.645974,1223.2            28.334318,-25.645999,1223.2            28.334323,-25.646015,1223.4            28.334323,-25.646043,1223.6            28.334329,-25.646058,1223.6            28.334336,-25.646085,1223.8            28.334333,-25.646108,1224            28.334335,-25.646128,1224            28.334327,-25.646156,1224.2            28.33433,-25.646172,1224.4            28.334327,-25.646202,1224.8            28.334333,-25.646218,1225            28.334337,-25.64624,1225.2            28.334338,-25.64626,1225.4            28.334345,-25.646274,1225.6            28.334346,-25.646285,1225.8            28.334347,-25.646293,1225.8            28.334351,-25.646301,1225.8            28.334355,-25.646308,1225.8            28.334359,-25.646314,1225.8            28.334359,-25.646325,1225.8            28.334358,-25.646328,1225.8            28.334359,-25.646331,1225.6            28.334361,-25.646336,1225.6            28.334361,-25.646341,1225.6            28.334362,-25.646345,1225.6            28.334363,-25.646354,1225.8            28.334363,-25.646359,1225.8            28.334362,-25.646362,1226            28.334362,-25.646365,1226          </coordinates></LineString></Placemark><Placemark><name>Finish</name><styleUrl>#icon-1899-FF5252-nodesc</styleUrl><Point><coordinates>            28.334362,-25.646365,1226          </coordinates></Point></Placemark><Placemark><name>Start</name><styleUrl>#icon-1899-0F9D58-nodesc</styleUrl><Point><coordinates>            28.333896,-25.64678,1228.8          </coordinates></Point></Placemark></Folder></Document></kml>