<?xml version="1.0" encoding="UTF-8"?><kml xmlns="http://www.opengis.net/kml/2.2"><Document><name>Brauhaus Afrika parkrun Regular Course (from Nov 2023)</name><description/><Style id="icon-1899-0F9D58-nodesc-normal"><IconStyle><color>ff589d0f</color><scale>1</scale><Icon><href>https://www.gstatic.com/mapspro/images/stock/503-wht-blank_maps.png</href></Icon><hotSpot x="32" xunits="pixels" y="64" yunits="insetPixels"/></IconStyle><LabelStyle><scale>0</scale></LabelStyle><BalloonStyle><text><![CDATA[<h3>$[name]</h3>]]></text></BalloonStyle></Style><Style id="icon-1899-0F9D58-nodesc-highlight"><IconStyle><color>ff589d0f</color><scale>1</scale><Icon><href>https://www.gstatic.com/mapspro/images/stock/503-wht-blank_maps.png</href></Icon><hotSpot x="32" xunits="pixels" y="64" yunits="insetPixels"/></IconStyle><LabelStyle><scale>1</scale></LabelStyle><BalloonStyle><text><![CDATA[<h3>$[name]</h3>]]></text></BalloonStyle></Style><StyleMap id="icon-1899-0F9D58-nodesc"><Pair><key>normal</key><styleUrl>#icon-1899-0F9D58-nodesc-normal</styleUrl></Pair><Pair><key>highlight</key><styleUrl>#icon-1899-0F9D58-nodesc-highlight</styleUrl></Pair></StyleMap><Style id="icon-1899-FF5252-nodesc-normal"><IconStyle><color>ff5252ff</color><scale>1</scale><Icon><href>https://www.gstatic.com/mapspro/images/stock/503-wht-blank_maps.png</href></Icon><hotSpot x="32" xunits="pixels" y="64" yunits="insetPixels"/></IconStyle><LabelStyle><scale>0</scale></LabelStyle><BalloonStyle><text><![CDATA[<h3>$[name]</h3>]]></text></BalloonStyle></Style><Style id="icon-1899-FF5252-nodesc-highlight"><IconStyle><color>ff5252ff</color><scale>1</scale><Icon><href>https://www.gstatic.com/mapspro/images/stock/503-wht-blank_maps.png</href></Icon><hotSpot x="32" xunits="pixels" y="64" yunits="insetPixels"/></IconStyle><LabelStyle><scale>1</scale></LabelStyle><BalloonStyle><text><![CDATA[<h3>$[name]</h3>]]></text></BalloonStyle></Style><StyleMap id="icon-1899-FF5252-nodesc"><Pair><key>normal</key><styleUrl>#icon-1899-FF5252-nodesc-normal</styleUrl></Pair><Pair><key>highlight</key><styleUrl>#icon-1899-FF5252-nodesc-highlight</styleUrl></Pair></StyleMap><Style id="line-0288D1-4000-nodesc-normal"><LineStyle><color>ffd18802</color><width>4</width></LineStyle><BalloonStyle><text><![CDATA[<h3>$[name]</h3>]]></text></BalloonStyle></Style><Style id="line-0288D1-4000-nodesc-highlight"><LineStyle><color>ffd18802</color><width>6</width></LineStyle><BalloonStyle><text><![CDATA[<h3>$[name]</h3>]]></text></BalloonStyle></Style><StyleMap id="line-0288D1-4000-nodesc"><Pair><key>normal</key><styleUrl>#line-0288D1-4000-nodesc-normal</styleUrl></Pair><Pair><key>highlight</key><styleUrl>#line-0288D1-4000-nodesc-highlight</styleUrl></Pair></StyleMap><Folder><name>Untitled layer</name><Placemark><name>Course</name><styleUrl>#line-0288D1-4000-nodesc</styleUrl><LineString><tessellate>1</tessellate><coordinates>            27.244729,-25.802674,0            27.244825,-25.802674,0            27.24497,-25.802683,0            27.245421,-25.802611,0            27.245474,-25.802572,0            27.245743,-25.802263,0            27.245592,-25.802123,0            27.243522,-25.801679,0            27.242594,-25.801447,0            27.240625,-25.800993,0            27.240625,-25.800945,0            27.240764,-25.800679,0            27.240813,-25.800645,0            27.241135,-25.800742,0            27.241837,-25.800916,0            27.24254,-25.80107,0            27.243468,-25.801292,0            27.243779,-25.801375,0            27.244326,-25.80151,0            27.244782,-25.801616,0            27.245372,-25.801737,0            27.245448,-25.801718,0            27.245566,-25.801447,0            27.245587,-25.801375,0            27.245507,-25.801312,0            27.24526,-25.801264,0            27.244418,-25.801066,0            27.24386,-25.80094,0            27.243109,-25.800742,0            27.242481,-25.800602,0            27.241499,-25.80038,0            27.240995,-25.80024,0            27.24099,-25.799902,0            27.241054,-25.799848,0            27.242626,-25.800235,0            27.24269,-25.800273,0            27.24276,-25.800264,0            27.243232,-25.80037,0            27.24364,-25.800491,0            27.244182,-25.800616,0            27.244643,-25.800718,0            27.244858,-25.800766,0            27.245249,-25.800858,0            27.245625,-25.800974,0            27.245721,-25.800974,0            27.245925,-25.801041,0            27.246016,-25.80109,0            27.246494,-25.801196,0            27.246569,-25.801162,0            27.246805,-25.800964,0            27.247148,-25.800491,0            27.247116,-25.800438,0            27.246043,-25.800201,0            27.245432,-25.800056,0            27.245485,-25.800018,0            27.245635,-25.800056,0            27.2457,-25.80008,0            27.245812,-25.80008,0            27.245862,-25.800096,0            27.245903,-25.800117,0            27.245981,-25.800134,0            27.246074,-25.800098,0            27.246103,-25.80008,0            27.246178,-25.800092,0            27.246261,-25.800096,0            27.246351,-25.80015,0            27.24643,-25.800148,0            27.246508,-25.800158,0            27.246597,-25.800256,0            27.246653,-25.800252,0            27.246689,-25.800217,0            27.246751,-25.800233,0            27.246794,-25.800278,0            27.246857,-25.800293,0            27.246901,-25.800278,0            27.246952,-25.800291,0            27.247032,-25.800298,0            27.247183,-25.800261,0            27.247246,-25.800209,0            27.247271,-25.800173,0            27.247334,-25.800057,0            27.247321,-25.80001,0            27.247317,-25.799967,0            27.247307,-25.799929,0            27.247274,-25.799853,0            27.247286,-25.799808,0            27.247263,-25.799767,0            27.247277,-25.799708,0            27.24735,-25.79972,0            27.24747,-25.799709,0            27.24756,-25.799706,0            27.247623,-25.799669,0            27.247623,-25.799708,0            27.24766,-25.799749,0            27.247711,-25.799708,0            27.247731,-25.799646,0            27.247703,-25.799611,0            27.247625,-25.799534,0            27.247639,-25.799472,0            27.247662,-25.799436,0            27.247691,-25.799387,0            27.247782,-25.799329,0            27.247848,-25.799321,0            27.247896,-25.79929,0            27.247966,-25.799277,0            27.248025,-25.799271,0            27.248104,-25.799274,0            27.248172,-25.799249,0            27.248188,-25.799195,0            27.248203,-25.79915,0            27.248273,-25.799111,0            27.248329,-25.799056,0            27.248352,-25.799006,0            27.248358,-25.798951,0            27.2484,-25.798928,0            27.248427,-25.798904,0            27.248372,-25.798861,0            27.248304,-25.79883,0            27.248252,-25.798832,0            27.248215,-25.798847,0            27.24815,-25.798848,0            27.248072,-25.798825,0            27.24804,-25.79883,0            27.247982,-25.79885,0            27.24791,-25.798836,0            27.247857,-25.798808,0            27.247814,-25.798802,0            27.247774,-25.798832,0            27.247789,-25.798892,0            27.247781,-25.79896,0            27.247809,-25.798994,0            27.247761,-25.799094,0            27.247678,-25.799117,0            27.247584,-25.799063,0            27.24751,-25.799011,0            27.247471,-25.79894,0            27.247444,-25.798856,0            27.247419,-25.79885,0            27.247407,-25.798873,0            27.247404,-25.798969,0            27.247396,-25.79902,0            27.247382,-25.799104,0            27.247366,-25.799167,0            27.247368,-25.799227,0            27.247348,-25.79926,0            27.247289,-25.799243,0            27.247224,-25.79918,0            27.247223,-25.799139,0            27.247193,-25.799143,0            27.247165,-25.799162,0            27.247142,-25.799214,0            27.247106,-25.799254,0            27.247058,-25.79926,0            27.246944,-25.799218,0            27.24688,-25.799188,0            27.246807,-25.799187,0            27.246747,-25.799168,0            27.246664,-25.799155,0            27.246625,-25.799152,0            27.246617,-25.799186,0            27.246574,-25.799263,0            27.24657,-25.799294,0            27.246658,-25.799344,0            27.246646,-25.799465,0            27.246642,-25.799538,0            27.246669,-25.799593,0            27.246618,-25.799679,0            27.246559,-25.799653,0            27.246512,-25.799606,0            27.246476,-25.799575,0            27.246393,-25.799547,0            27.246358,-25.799551,0            27.24629,-25.799603,0            27.246213,-25.79961,0            27.246131,-25.79963,0            27.24606,-25.799691,0            27.246005,-25.799704,0            27.24595,-25.799678,0            27.245909,-25.799703,0            27.245875,-25.799757,0            27.24585,-25.799787,0            27.245784,-25.79978,0            27.245644,-25.799843,0            27.2456,-25.799896,0            27.245591,-25.799948,0            27.245512,-25.799954,0            27.245476,-25.799971,0            27.245438,-25.800012,0            27.245375,-25.800007,0            27.245296,-25.799931,0            27.245241,-25.799897,0            27.245199,-25.799818,0            27.245188,-25.799756,0            27.245166,-25.799702,0            27.245057,-25.799666,0            27.245007,-25.799676,0            27.24492,-25.799733,0            27.244896,-25.799775,0            27.244859,-25.79978,0            27.244788,-25.799732,0            27.244794,-25.79969,0            27.244741,-25.799672,0            27.24468,-25.79971,0            27.244661,-25.799745,0            27.244584,-25.799734,0            27.244491,-25.799676,0            27.244484,-25.79964,0            27.244525,-25.799597,0            27.244482,-25.799559,0            27.244444,-25.799499,0            27.244396,-25.79946,0            27.244337,-25.79944,0            27.244255,-25.79943,0            27.244189,-25.799499,0            27.244208,-25.799568,0            27.244177,-25.799611,0            27.24412,-25.799602,0            27.244081,-25.799569,0            27.24403,-25.799595,0            27.243948,-25.79961,0            27.243909,-25.799621,0            27.243768,-25.799599,0            27.243733,-25.79952,0            27.243572,-25.799469,0            27.243484,-25.799397,0            27.243398,-25.799356,0            27.243291,-25.799419,0            27.24324,-25.799428,0            27.243186,-25.799344,0            27.243122,-25.799252,0            27.243025,-25.799242,0            27.242819,-25.799196,0            27.242706,-25.799138,0            27.242655,-25.799073,0            27.242714,-25.799015,0            27.242776,-25.798967,0            27.242854,-25.798878,0            27.242797,-25.798824,0            27.242725,-25.798783,0            27.242652,-25.798747,0            27.242591,-25.798648,0            27.242537,-25.798607,0            27.242513,-25.798537,0            27.242497,-25.798477,0            27.242481,-25.798392,0            27.242443,-25.798346,0            27.242339,-25.798317,0            27.242229,-25.798286,0            27.242138,-25.798252,0            27.242017,-25.798269,0            27.241966,-25.798339,0            27.241942,-25.798424,0            27.241934,-25.798498,0            27.241797,-25.798544,0            27.241762,-25.79861,0            27.241775,-25.798682,0            27.241679,-25.798733,0            27.241708,-25.798815,0            27.241724,-25.798897,0            27.2417,-25.798928,0            27.24155,-25.79895,0            27.241467,-25.798965,0            27.241373,-25.799013,0            27.241239,-25.799003,0            27.241118,-25.798969,0            27.241027,-25.79894,0            27.24082,-25.79887,0            27.240732,-25.798822,0            27.240662,-25.798796,0            27.240574,-25.798856,0            27.240622,-25.798911,0            27.240708,-25.798924,0            27.24077,-25.798984,0            27.240791,-25.799076,0            27.24078,-25.799134,0            27.240692,-25.799218,0            27.240641,-25.799269,0            27.240556,-25.799301,0            27.24054,-25.799272,0            27.240528,-25.799299,0            27.240524,-25.79933,0            27.240497,-25.79935,0            27.240461,-25.799379,0            27.240422,-25.799408,0            27.240382,-25.799412,0            27.240339,-25.799414,0            27.240298,-25.79942,0            27.24026,-25.799432,0            27.2402,-25.79946,0            27.240196,-25.799479,0            27.240131,-25.799503,0            27.240056,-25.799506,0            27.239984,-25.799522,0            27.239938,-25.79958,0            27.2399,-25.799648,0            27.239943,-25.799752,0            27.24011,-25.79973,0            27.240188,-25.799648,0            27.240265,-25.799619,0            27.240364,-25.799658,0            27.240389,-25.799684,0            27.240418,-25.79973,0            27.240442,-25.799875,0            27.240424,-25.800003,0            27.240386,-25.800131,0            27.240343,-25.80023,0            27.240303,-25.800356,0            27.240228,-25.800486,0            27.240284,-25.800585,0            27.240273,-25.800752,0            27.240236,-25.800848,0            27.240153,-25.800887,0            27.240166,-25.800957,0            27.240123,-25.801022,0            27.240072,-25.801058,0            27.240005,-25.801111,0            27.239949,-25.801172,0            27.239882,-25.801251,0            27.239898,-25.801276,0            27.239958,-25.801288,0            27.240013,-25.801277,0            27.240059,-25.801259,0            27.240074,-25.801304,0            27.24013,-25.801313,0            27.24015,-25.801337,0            27.240244,-25.801375,0            27.240421,-25.801411,0            27.24067,-25.801486,0            27.241065,-25.80157,0            27.241199,-25.801609,0            27.241413,-25.801655,0            27.241633,-25.801705,0            27.241724,-25.801744,0            27.241934,-25.801771,0            27.242312,-25.801865,0            27.242623,-25.801944,0            27.242768,-25.801976,0            27.243049,-25.802046,0            27.243251,-25.802082,0            27.24335,-25.802097,0            27.243428,-25.802097,0            27.243484,-25.802128,0            27.24346,-25.802159,0            27.243452,-25.8022,0            27.243426,-25.80225,0            27.243494,-25.80228,0          </coordinates></LineString></Placemark><Placemark><name>Finish</name><styleUrl>#icon-1899-FF5252-nodesc</styleUrl><Point><coordinates>            27.243494,-25.80228,0          </coordinates></Point></Placemark><Placemark><name>Start</name><styleUrl>#icon-1899-0F9D58-nodesc</styleUrl><Point><coordinates>            27.244729,-25.802674,0          </coordinates></Point></Placemark></Folder></Document></kml>