<?xml version="1.0" encoding="UTF-8"?><kml xmlns="http://www.opengis.net/kml/2.2"><Document><name>Ebotse parkrun</name><description>Ebotse parkrun</description><Style id="icon-157-normal"><IconStyle><scale>1.1</scale><Icon><href>https://www.gstatic.com/mapspro/images/stock/157-yellow-dot.png</href></Icon><hotSpot x="16" xunits="pixels" y="32" yunits="insetPixels"/></IconStyle><LabelStyle><scale>0</scale></LabelStyle></Style><Style id="icon-157-highlight"><IconStyle><scale>1.1</scale><Icon><href>https://www.gstatic.com/mapspro/images/stock/157-yellow-dot.png</href></Icon><hotSpot x="16" xunits="pixels" y="32" yunits="insetPixels"/></IconStyle><LabelStyle><scale>1.1</scale></LabelStyle></Style><StyleMap id="icon-157"><Pair><key>normal</key><styleUrl>#icon-157-normal</styleUrl></Pair><Pair><key>highlight</key><styleUrl>#icon-157-highlight</styleUrl></Pair></StyleMap><Style id="line-0000FF-5000-nodesc-normal"><LineStyle><color>ffff0000</color><width>5</width></LineStyle><BalloonStyle><text><![CDATA[<h3>$[name]</h3>]]></text></BalloonStyle></Style><Style id="line-0000FF-5000-nodesc-highlight"><LineStyle><color>ffff0000</color><width>7.5</width></LineStyle><BalloonStyle><text><![CDATA[<h3>$[name]</h3>]]></text></BalloonStyle></Style><StyleMap id="line-0000FF-5000-nodesc"><Pair><key>normal</key><styleUrl>#line-0000FF-5000-nodesc-normal</styleUrl></Pair><Pair><key>highlight</key><styleUrl>#line-0000FF-5000-nodesc-highlight</styleUrl></Pair></StyleMap><Folder><name>Untitled layer</name><Placemark><name>Ebotse parkrun (updated route, Aug 2012)</name><styleUrl>#line-0000FF-5000-nodesc</styleUrl><LineString><tessellate>1</tessellate><coordinates>            28.35201,-26.156335,0            28.354269,-26.157006,0            28.355862,-26.158538,0            28.3561,-26.158224,0            28.356143,-26.157916,0            28.356684,-26.157747,0            28.357953,-26.155439,0            28.357643,-26.155345,0            28.356815,-26.15525,0            28.355976,-26.154337,0            28.35532,-26.1472,0            28.35614,-26.146489,0            28.356628,-26.146261,0            28.356754,-26.144943,0            28.35657,-26.144195,0            28.356492,-26.143836,0            28.356314,-26.143493,0            28.356064,-26.142966,0          </coordinates></LineString></Placemark><Placemark><name>Start / Finish</name><description>Start / Finish</description><styleUrl>#icon-157</styleUrl><Point><coordinates>            28.351893,-26.156324,0          </coordinates></Point></Placemark></Folder></Document></kml>