<?xml version="1.0" encoding="UTF-8"?><kml xmlns="http://www.opengis.net/kml/2.2"><Document><name>Emerald Resort parkrun (from May 2025)</name><description/><Style id="icon-1899-0F9D58-nodesc-normal"><IconStyle><color>ff589d0f</color><scale>1</scale><Icon><href>https://www.gstatic.com/mapspro/images/stock/503-wht-blank_maps.png</href></Icon><hotSpot x="32" xunits="pixels" y="64" yunits="insetPixels"/></IconStyle><LabelStyle><scale>0</scale></LabelStyle><BalloonStyle><text><![CDATA[<h3>$[name]</h3>]]></text></BalloonStyle></Style><Style id="icon-1899-0F9D58-nodesc-highlight"><IconStyle><color>ff589d0f</color><scale>1</scale><Icon><href>https://www.gstatic.com/mapspro/images/stock/503-wht-blank_maps.png</href></Icon><hotSpot x="32" xunits="pixels" y="64" yunits="insetPixels"/></IconStyle><LabelStyle><scale>1</scale></LabelStyle><BalloonStyle><text><![CDATA[<h3>$[name]</h3>]]></text></BalloonStyle></Style><StyleMap id="icon-1899-0F9D58-nodesc"><Pair><key>normal</key><styleUrl>#icon-1899-0F9D58-nodesc-normal</styleUrl></Pair><Pair><key>highlight</key><styleUrl>#icon-1899-0F9D58-nodesc-highlight</styleUrl></Pair></StyleMap><Style id="icon-1899-FF5252-nodesc-normal"><IconStyle><color>ff5252ff</color><scale>1</scale><Icon><href>https://www.gstatic.com/mapspro/images/stock/503-wht-blank_maps.png</href></Icon><hotSpot x="32" xunits="pixels" y="64" yunits="insetPixels"/></IconStyle><LabelStyle><scale>0</scale></LabelStyle><BalloonStyle><text><![CDATA[<h3>$[name]</h3>]]></text></BalloonStyle></Style><Style id="icon-1899-FF5252-nodesc-highlight"><IconStyle><color>ff5252ff</color><scale>1</scale><Icon><href>https://www.gstatic.com/mapspro/images/stock/503-wht-blank_maps.png</href></Icon><hotSpot x="32" xunits="pixels" y="64" yunits="insetPixels"/></IconStyle><LabelStyle><scale>1</scale></LabelStyle><BalloonStyle><text><![CDATA[<h3>$[name]</h3>]]></text></BalloonStyle></Style><StyleMap id="icon-1899-FF5252-nodesc"><Pair><key>normal</key><styleUrl>#icon-1899-FF5252-nodesc-normal</styleUrl></Pair><Pair><key>highlight</key><styleUrl>#icon-1899-FF5252-nodesc-highlight</styleUrl></Pair></StyleMap><Style id="line-0288D1-5456-nodesc-normal"><LineStyle><color>ffd18802</color><width>5.456</width></LineStyle><BalloonStyle><text><![CDATA[<h3>$[name]</h3>]]></text></BalloonStyle></Style><Style id="line-0288D1-5456-nodesc-highlight"><LineStyle><color>ffd18802</color><width>8.184</width></LineStyle><BalloonStyle><text><![CDATA[<h3>$[name]</h3>]]></text></BalloonStyle></Style><StyleMap id="line-0288D1-5456-nodesc"><Pair><key>normal</key><styleUrl>#line-0288D1-5456-nodesc-normal</styleUrl></Pair><Pair><key>highlight</key><styleUrl>#line-0288D1-5456-nodesc-highlight</styleUrl></Pair></StyleMap><Folder><name>Untitled layer</name><Placemark><name>Course</name><styleUrl>#line-0288D1-5456-nodesc</styleUrl><LineString><tessellate>1</tessellate><coordinates>            27.873779,-26.735822,0            27.873378,-26.735889,0            27.873083,-26.73596,0            27.872909,-26.736084,0            27.872653,-26.736384,0            27.872134,-26.736754,0            27.8719161,-26.7368561,0            27.871564,-26.736939,0            27.8712799,-26.7369854,0            27.8711943,-26.7370797,0            27.8713366,-26.7372858,0            27.871605,-26.737535,0            27.8718566,-26.7377218,0            27.8720924,-26.7380644,0            27.872534,-26.738506,0            27.873309,-26.7396079,0            27.873894,-26.740221,0            27.8742783,-26.7402673,0            27.874394,-26.740553,0            27.8746294,-26.7416412,0            27.8751338,-26.7421852,0            27.875589,-26.74187,0            27.8757163,-26.7418814,0            27.87602,-26.742142,0            27.8762117,-26.7426552,0            27.8765814,-26.7429309,0            27.8768277,-26.7433024,0            27.876892,-26.743535,0            27.876827,-26.7436421,0            27.8751152,-26.744209,0            27.8752417,-26.744708,0            27.8752288,-26.7451256,0            27.8755402,-26.7454424,0            27.875739,-26.74574,0            27.8758221,-26.745819,0            27.8769498,-26.7458174,0            27.8773795,-26.7457878,0            27.877718,-26.745672,0            27.8780125,-26.74544,0            27.878605,-26.7451204,0            27.879125,-26.7449325,0            27.880146,-26.744507,0            27.88037,-26.7444195,0            27.880637,-26.744399,0            27.881054,-26.744467,0            27.8812603,-26.7444032,0            27.8814344,-26.7443107,0            27.882059,-26.743248,0            27.8822137,-26.7425982,0            27.8823872,-26.7414788,0            27.882375,-26.74014,0            27.8823286,-26.7395441,0            27.882411,-26.738905,0            27.882089,-26.737141,0            27.8819997,-26.7369068,0            27.881846,-26.736687,0            27.881648,-26.736515,0            27.881413,-26.736366,0            27.881213,-26.736286,0            27.881018,-26.736241,0            27.880791,-26.736227,0            27.880612,-26.736241,0            27.880432,-26.73634,0            27.87626,-26.7414,0            27.876103,-26.741425,0            27.8759602,-26.7413364,0            27.875891,-26.741062,0            27.875555,-26.740668,0            27.8752313,-26.7404079,0            27.8748605,-26.7402072,0            27.8747365,-26.740179,0            27.8742783,-26.7402673,0            27.873894,-26.740221,0            27.873309,-26.7396079,0            27.872534,-26.738506,0            27.8726353,-26.7383343,0            27.8737123,-26.7374833,0            27.8739026,-26.7372981,0            27.8740553,-26.7371968,0            27.8743462,-26.7371517,0            27.8745024,-26.7370357,0            27.874605,-26.736891,0            27.8746065,-26.7366434,0            27.874565,-26.736415,0            27.8744385,-26.7362687,0            27.8741242,-26.7360361,0            27.873779,-26.735822,0            27.8737414,-26.7356405,0            27.873779,-26.735822,0          </coordinates></LineString></Placemark><Placemark><name>Finish</name><styleUrl>#icon-1899-FF5252-nodesc</styleUrl><Point><coordinates>            27.8737414,-26.7356405,0          </coordinates></Point></Placemark><Placemark><name>Start</name><styleUrl>#icon-1899-0F9D58-nodesc</styleUrl><Point><coordinates>            27.8739472,-26.7359227,0          </coordinates></Point></Placemark></Folder></Document></kml>