<?xml version="1.0" encoding="UTF-8"?><kml xmlns="http://www.opengis.net/kml/2.2"><Document><name> Ennerdale Stadium parkrun (from March 2024)</name><description/><Style id="icon-1899-0F9D58-nodesc-normal"><IconStyle><color>ff589d0f</color><scale>1</scale><Icon><href>https://www.gstatic.com/mapspro/images/stock/503-wht-blank_maps.png</href></Icon><hotSpot x="32" xunits="pixels" y="64" yunits="insetPixels"/></IconStyle><LabelStyle><scale>0</scale></LabelStyle><BalloonStyle><text><![CDATA[<h3>$[name]</h3>]]></text></BalloonStyle></Style><Style id="icon-1899-0F9D58-nodesc-highlight"><IconStyle><color>ff589d0f</color><scale>1</scale><Icon><href>https://www.gstatic.com/mapspro/images/stock/503-wht-blank_maps.png</href></Icon><hotSpot x="32" xunits="pixels" y="64" yunits="insetPixels"/></IconStyle><LabelStyle><scale>1</scale></LabelStyle><BalloonStyle><text><![CDATA[<h3>$[name]</h3>]]></text></BalloonStyle></Style><StyleMap id="icon-1899-0F9D58-nodesc"><Pair><key>normal</key><styleUrl>#icon-1899-0F9D58-nodesc-normal</styleUrl></Pair><Pair><key>highlight</key><styleUrl>#icon-1899-0F9D58-nodesc-highlight</styleUrl></Pair></StyleMap><Style id="icon-1899-FF5252-nodesc-normal"><IconStyle><color>ff5252ff</color><scale>1</scale><Icon><href>https://www.gstatic.com/mapspro/images/stock/503-wht-blank_maps.png</href></Icon><hotSpot x="32" xunits="pixels" y="64" yunits="insetPixels"/></IconStyle><LabelStyle><scale>0</scale></LabelStyle><BalloonStyle><text><![CDATA[<h3>$[name]</h3>]]></text></BalloonStyle></Style><Style id="icon-1899-FF5252-nodesc-highlight"><IconStyle><color>ff5252ff</color><scale>1</scale><Icon><href>https://www.gstatic.com/mapspro/images/stock/503-wht-blank_maps.png</href></Icon><hotSpot x="32" xunits="pixels" y="64" yunits="insetPixels"/></IconStyle><LabelStyle><scale>1</scale></LabelStyle><BalloonStyle><text><![CDATA[<h3>$[name]</h3>]]></text></BalloonStyle></Style><StyleMap id="icon-1899-FF5252-nodesc"><Pair><key>normal</key><styleUrl>#icon-1899-FF5252-nodesc-normal</styleUrl></Pair><Pair><key>highlight</key><styleUrl>#icon-1899-FF5252-nodesc-highlight</styleUrl></Pair></StyleMap><Style id="line-0288D1-4000-nodesc-normal"><LineStyle><color>ffd18802</color><width>4</width></LineStyle><BalloonStyle><text><![CDATA[<h3>$[name]</h3>]]></text></BalloonStyle></Style><Style id="line-0288D1-4000-nodesc-highlight"><LineStyle><color>ffd18802</color><width>6</width></LineStyle><BalloonStyle><text><![CDATA[<h3>$[name]</h3>]]></text></BalloonStyle></Style><StyleMap id="line-0288D1-4000-nodesc"><Pair><key>normal</key><styleUrl>#line-0288D1-4000-nodesc-normal</styleUrl></Pair><Pair><key>highlight</key><styleUrl>#line-0288D1-4000-nodesc-highlight</styleUrl></Pair></StyleMap><Folder><name>Ennerdale Revised Route_28092023 (1).gpx</name><Placemark><name>Course</name><styleUrl>#line-0288D1-4000-nodesc</styleUrl><LineString><tessellate>1</tessellate><coordinates>            27.831799,-26.401656,0            27.831454,-26.401693,0            27.831251,-26.40175,0            27.831107,-26.40189,0            27.831019,-26.402079,0            27.830939,-26.402167,0            27.830742,-26.402127,0            27.830542,-26.402028,0            27.830351,-26.401959,0            27.83018,-26.401884,0            27.829991,-26.401814,0            27.829806,-26.401741,0            27.829595,-26.401646,0            27.829397,-26.401552,0            27.829196,-26.401462,0            27.828979,-26.401398,0            27.828925,-26.401219,0            27.828947,-26.401028,0            27.828967,-26.400979,0            27.828993,-26.400963,0            27.829197,-26.400948,0            27.829404,-26.400947,0            27.829632,-26.400962,0            27.829855,-26.400966,0            27.830078,-26.400973,0            27.830304,-26.40098,0            27.830516,-26.400981,0            27.830727,-26.400958,0            27.830768,-26.400968,0            27.83079,-26.401157,0            27.830814,-26.401363,0            27.830861,-26.401561,0            27.830905,-26.401593,0            27.831127,-26.401568,0            27.831349,-26.40154,0            27.831575,-26.401519,0            27.831693,-26.401484,0            27.831705,-26.4014,0            27.831674,-26.401219,0            27.831624,-26.400991,0            27.831593,-26.400802,0            27.831566,-26.400603,0            27.831523,-26.400563,0            27.831303,-26.40057,0            27.831095,-26.400604,0            27.830847,-26.400627,0            27.830635,-26.400662,0            27.830425,-26.400711,0            27.830298,-26.400723,0            27.830269,-26.400727,0            27.830202,-26.400717,0            27.830172,-26.400735,0            27.829967,-26.40076,0            27.829712,-26.400799,0            27.829617,-26.400795,0            27.829586,-26.400784,0            27.829376,-26.400699,0            27.82917,-26.400656,0            27.828958,-26.400649,0            27.828789,-26.400642,0            27.828751,-26.400455,0            27.828731,-26.400273,0            27.828763,-26.400091,0            27.828872,-26.39992,0            27.828977,-26.399747,0            27.829088,-26.39959,0            27.829225,-26.399529,0            27.829447,-26.39956,0            27.82964,-26.399646,0            27.829846,-26.399727,0            27.830084,-26.399834,0            27.830285,-26.39991,0            27.830503,-26.39997,0            27.830698,-26.40003,0            27.830897,-26.400069,0            27.831113,-26.400124,0            27.831317,-26.400166,0            27.831516,-26.400226,0            27.831723,-26.400275,0            27.831936,-26.400303,0            27.832141,-26.400317,0            27.83234,-26.400315,0            27.832556,-26.400307,0            27.832769,-26.400313,0            27.832973,-26.400307,0            27.833177,-26.400287,0            27.83338,-26.400261,0            27.833596,-26.400244,0            27.8338,-26.400209,0            27.834,-26.400227,0            27.83416,-26.400333,0            27.834207,-26.400519,0            27.834226,-26.400707,0            27.834243,-26.400894,0            27.834262,-26.401085,0            27.834218,-26.401117,0            27.834001,-26.401166,0            27.833783,-26.401195,0            27.833576,-26.40124,0            27.833373,-26.40128,0            27.83317,-26.40131,0            27.832971,-26.401348,0            27.832744,-26.401373,0            27.832529,-26.401418,0            27.83241,-26.401526,0            27.832448,-26.401606,0            27.832665,-26.401569,0            27.832867,-26.401549,0            27.833072,-26.401574,0            27.833088,-26.401595,0            27.833122,-26.401775,0            27.833151,-26.401981,0            27.833155,-26.402174,0            27.833176,-26.402356,0            27.833195,-26.402547,0            27.833175,-26.402566,0            27.832965,-26.402608,0            27.832742,-26.402604,0            27.832535,-26.402617,0            27.832509,-26.402613,0            27.832476,-26.402576,0            27.832426,-26.402378,0            27.832371,-26.402324,0            27.832152,-26.402372,0            27.831935,-26.402416,0            27.83191,-26.402414,0            27.831889,-26.402382,0            27.831893,-26.402199,0            27.831853,-26.40201,0            27.831858,-26.401815,0            27.831823,-26.401752,0            27.831613,-26.401712,0            27.831403,-26.401705,0            27.831174,-26.401715,0            27.830971,-26.401725,0          </coordinates></LineString></Placemark><Placemark><name>Start</name><styleUrl>#icon-1899-0F9D58-nodesc</styleUrl><Point><coordinates>            27.83181,-26.401651,0          </coordinates></Point></Placemark><Placemark><name>Finish</name><styleUrl>#icon-1899-FF5252-nodesc</styleUrl><Point><coordinates>            27.830974,-26.401729,0          </coordinates></Point></Placemark></Folder></Document></kml>