<?xml version="1.0" encoding="UTF-8"?><kml xmlns="http://www.opengis.net/kml/2.2"><Document><name>George parkrun (from Sep 2025)</name><description/><Style id="icon-1899-0F9D58-nodesc-normal"><IconStyle><color>ff589d0f</color><scale>1</scale><Icon><href>https://www.gstatic.com/mapspro/images/stock/503-wht-blank_maps.png</href></Icon><hotSpot x="32" xunits="pixels" y="64" yunits="insetPixels"/></IconStyle><LabelStyle><scale>0</scale></LabelStyle><BalloonStyle><text><![CDATA[<h3>$[name]</h3>]]></text></BalloonStyle></Style><Style id="icon-1899-0F9D58-nodesc-highlight"><IconStyle><color>ff589d0f</color><scale>1</scale><Icon><href>https://www.gstatic.com/mapspro/images/stock/503-wht-blank_maps.png</href></Icon><hotSpot x="32" xunits="pixels" y="64" yunits="insetPixels"/></IconStyle><LabelStyle><scale>1</scale></LabelStyle><BalloonStyle><text><![CDATA[<h3>$[name]</h3>]]></text></BalloonStyle></Style><StyleMap id="icon-1899-0F9D58-nodesc"><Pair><key>normal</key><styleUrl>#icon-1899-0F9D58-nodesc-normal</styleUrl></Pair><Pair><key>highlight</key><styleUrl>#icon-1899-0F9D58-nodesc-highlight</styleUrl></Pair></StyleMap><Style id="icon-1899-FF5252-nodesc-normal"><IconStyle><color>ff5252ff</color><scale>1</scale><Icon><href>https://www.gstatic.com/mapspro/images/stock/503-wht-blank_maps.png</href></Icon><hotSpot x="32" xunits="pixels" y="64" yunits="insetPixels"/></IconStyle><LabelStyle><scale>0</scale></LabelStyle><BalloonStyle><text><![CDATA[<h3>$[name]</h3>]]></text></BalloonStyle></Style><Style id="icon-1899-FF5252-nodesc-highlight"><IconStyle><color>ff5252ff</color><scale>1</scale><Icon><href>https://www.gstatic.com/mapspro/images/stock/503-wht-blank_maps.png</href></Icon><hotSpot x="32" xunits="pixels" y="64" yunits="insetPixels"/></IconStyle><LabelStyle><scale>1</scale></LabelStyle><BalloonStyle><text><![CDATA[<h3>$[name]</h3>]]></text></BalloonStyle></Style><StyleMap id="icon-1899-FF5252-nodesc"><Pair><key>normal</key><styleUrl>#icon-1899-FF5252-nodesc-normal</styleUrl></Pair><Pair><key>highlight</key><styleUrl>#icon-1899-FF5252-nodesc-highlight</styleUrl></Pair></StyleMap><Style id="line-0288D1-5844-nodesc-normal"><LineStyle><color>ffd18802</color><width>5.844</width></LineStyle><BalloonStyle><text><![CDATA[<h3>$[name]</h3>]]></text></BalloonStyle></Style><Style id="line-0288D1-5844-nodesc-highlight"><LineStyle><color>ffd18802</color><width>8.766</width></LineStyle><BalloonStyle><text><![CDATA[<h3>$[name]</h3>]]></text></BalloonStyle></Style><StyleMap id="line-0288D1-5844-nodesc"><Pair><key>normal</key><styleUrl>#line-0288D1-5844-nodesc-normal</styleUrl></Pair><Pair><key>highlight</key><styleUrl>#line-0288D1-5844-nodesc-highlight</styleUrl></Pair></StyleMap><Folder><name>Untitled layer</name><Placemark><name>Course</name><styleUrl>#line-0288D1-5844-nodesc</styleUrl><LineString><tessellate>1</tessellate><coordinates>            22.4639929,-33.9455283,0            22.4640554,-33.9457098,0            22.4641815,-33.9457568,0            22.4646141,-33.9456081,0            22.4646998,-33.9457282,0            22.46494,-33.945778,0            22.4650836,-33.9459479,0            22.4650919,-33.9461187,0            22.4648233,-33.9465985,0            22.4644772,-33.9472081,0            22.4644141,-33.9472736,0            22.4641849,-33.9473105,0            22.4639245,-33.9472366,0            22.4637883,-33.9471579,0            22.4637518,-33.9470809,0            22.4637822,-33.9465346,0            22.4633051,-33.9463404,0            22.4631248,-33.9461452,0            22.4632035,-33.9455082,0            22.4629572,-33.9452768,0            22.4627108,-33.9452055,0            22.4626365,-33.9450363,0            22.4628981,-33.9446468,0            22.463062,-33.9442744,0            22.4630177,-33.9438989,0            22.4627267,-33.9433466,0            22.4627746,-33.943162,0            22.4626429,-33.9428778,0            22.4625373,-33.9422954,0            22.4625139,-33.9418328,0            22.4624916,-33.9410788,0            22.4624623,-33.9407711,0            22.4624464,-33.9407051,0            22.4620367,-33.9405678,0            22.4609844,-33.940463,0            22.4608258,-33.940558,0            22.4606202,-33.9440724,0            22.4606079,-33.9442251,0            22.4605554,-33.9442799,0            22.4599723,-33.9442189,0            22.4596085,-33.9445364,0            22.4594781,-33.9447083,0            22.4592602,-33.9453266,0            22.4591301,-33.9453005,0            22.4591135,-33.9453009,0            22.459026,-33.9451258,0            22.4589534,-33.9450569,0            22.4587439,-33.9450014,0            22.4585536,-33.9448707,0            22.4584153,-33.9445006,0            22.4584586,-33.9443937,0            22.4585702,-33.9440991,0            22.4590428,-33.9441058,0            22.4594375,-33.9436711,0            22.4594999,-33.9432967,0            22.4594043,-33.9427138,0            22.4593297,-33.9425392,0            22.4585061,-33.9424045,0            22.4583695,-33.942274,0            22.4583735,-33.9419302,0            22.4583669,-33.9415447,0            22.4585175,-33.941225,0            22.4586919,-33.9408767,0            22.4587489,-33.9407294,0            22.4587075,-33.9405182,0            22.4586614,-33.9401915,0            22.4585401,-33.940089,0            22.4583108,-33.9400428,0            22.4572969,-33.9399488,0            22.457514,-33.9375772,0            22.4585208,-33.9376674,0            22.4583031,-33.9394915,0            22.4583108,-33.9400428,0            22.4585455,-33.9400699,0            22.4588768,-33.9401766,0            22.4591515,-33.94,0            22.4594442,-33.9399146,0            22.4595404,-33.939799,0            22.4596693,-33.9397619,0            22.4600183,-33.9394224,0            22.4599488,-33.9392581,0            22.4599799,-33.9390788,0            22.4603088,-33.9390149,0            22.4606544,-33.9390715,0            22.4608237,-33.9391359,0            22.4608994,-33.9392039,0            22.4608344,-33.940395,0            22.4609844,-33.940463,0            22.4620904,-33.9405737,0            22.4624464,-33.9407051,0            22.4624916,-33.9410788,0            22.4625237,-33.942049,0            22.4628045,-33.9425925,0            22.4631546,-33.9434726,0            22.4638656,-33.9442281,0            22.4639095,-33.9444708,0            22.4638647,-33.9446266,0            22.4637142,-33.9446436,0            22.4636395,-33.944569,0            22.4636881,-33.9444872,0            22.4637379,-33.9445265,0            22.4637365,-33.9445687,0            22.463795,-33.9445343,0            22.4637902,-33.9444633,0            22.4636836,-33.9444067,0            22.4635024,-33.9444806,0            22.463462,-33.9446282,0            22.4635795,-33.9446913,0            22.46344,-33.9447792,0            22.4628981,-33.9446468,0          </coordinates></LineString></Placemark><Placemark><name>Finish</name><styleUrl>#icon-1899-FF5252-nodesc</styleUrl><Point><coordinates>            22.4640188,-33.9455242,0          </coordinates></Point></Placemark><Placemark><name>Start</name><styleUrl>#icon-1899-0F9D58-nodesc</styleUrl><Point><coordinates>            22.4628923926502,-33.9448006264865,259.600006103516          </coordinates></Point></Placemark></Folder></Document></kml>