<?xml version="1.0" encoding="UTF-8"?><kml xmlns="http://www.opengis.net/kml/2.2"><Document><name>Huddle parkrun (from Aug 2025)</name><description/><Style id="icon-1899-0F9D58-nodesc-normal"><IconStyle><color>ff589d0f</color><scale>1</scale><Icon><href>https://www.gstatic.com/mapspro/images/stock/503-wht-blank_maps.png</href></Icon><hotSpot x="32" xunits="pixels" y="64" yunits="insetPixels"/></IconStyle><LabelStyle><scale>0</scale></LabelStyle><BalloonStyle><text><![CDATA[<h3>$[name]</h3>]]></text></BalloonStyle></Style><Style id="icon-1899-0F9D58-nodesc-highlight"><IconStyle><color>ff589d0f</color><scale>1</scale><Icon><href>https://www.gstatic.com/mapspro/images/stock/503-wht-blank_maps.png</href></Icon><hotSpot x="32" xunits="pixels" y="64" yunits="insetPixels"/></IconStyle><LabelStyle><scale>1</scale></LabelStyle><BalloonStyle><text><![CDATA[<h3>$[name]</h3>]]></text></BalloonStyle></Style><StyleMap id="icon-1899-0F9D58-nodesc"><Pair><key>normal</key><styleUrl>#icon-1899-0F9D58-nodesc-normal</styleUrl></Pair><Pair><key>highlight</key><styleUrl>#icon-1899-0F9D58-nodesc-highlight</styleUrl></Pair></StyleMap><Style id="icon-1899-FF5252-nodesc-normal"><IconStyle><color>ff5252ff</color><scale>1</scale><Icon><href>https://www.gstatic.com/mapspro/images/stock/503-wht-blank_maps.png</href></Icon><hotSpot x="32" xunits="pixels" y="64" yunits="insetPixels"/></IconStyle><LabelStyle><scale>0</scale></LabelStyle><BalloonStyle><text><![CDATA[<h3>$[name]</h3>]]></text></BalloonStyle></Style><Style id="icon-1899-FF5252-nodesc-highlight"><IconStyle><color>ff5252ff</color><scale>1</scale><Icon><href>https://www.gstatic.com/mapspro/images/stock/503-wht-blank_maps.png</href></Icon><hotSpot x="32" xunits="pixels" y="64" yunits="insetPixels"/></IconStyle><LabelStyle><scale>1</scale></LabelStyle><BalloonStyle><text><![CDATA[<h3>$[name]</h3>]]></text></BalloonStyle></Style><StyleMap id="icon-1899-FF5252-nodesc"><Pair><key>normal</key><styleUrl>#icon-1899-FF5252-nodesc-normal</styleUrl></Pair><Pair><key>highlight</key><styleUrl>#icon-1899-FF5252-nodesc-highlight</styleUrl></Pair></StyleMap><Style id="line-0288D1-5456-nodesc-normal"><LineStyle><color>ffd18802</color><width>5.456</width></LineStyle><BalloonStyle><text><![CDATA[<h3>$[name]</h3>]]></text></BalloonStyle></Style><Style id="line-0288D1-5456-nodesc-highlight"><LineStyle><color>ffd18802</color><width>8.184</width></LineStyle><BalloonStyle><text><![CDATA[<h3>$[name]</h3>]]></text></BalloonStyle></Style><StyleMap id="line-0288D1-5456-nodesc"><Pair><key>normal</key><styleUrl>#line-0288D1-5456-nodesc-normal</styleUrl></Pair><Pair><key>highlight</key><styleUrl>#line-0288D1-5456-nodesc-highlight</styleUrl></Pair></StyleMap><Folder><name>Untitled layer</name><Placemark><name>Course</name><styleUrl>#line-0288D1-5456-nodesc</styleUrl><LineString><tessellate>1</tessellate><coordinates>            28.111138,-26.159906,0            28.1109,-26.159903,0            28.110492,-26.159922,0            28.11043,-26.159939,0            28.110377,-26.159972,0            28.11027,-26.160084,0            28.110191,-26.160172,0            28.110128,-26.160262,0            28.110131,-26.160377,0            28.11015,-26.160488,0            28.110158,-26.160554,0            28.110139,-26.160596,0            28.110104,-26.160619,0            28.110046,-26.160652,0            28.109975,-26.160694,0            28.109947,-26.160712,0            28.109905,-26.160729,0            28.109887,-26.160736,0            28.109833,-26.160753,0            28.109791,-26.160773,0            28.109692,-26.160906,0            28.109682,-26.160978,0            28.109663,-26.161042,0            28.10965,-26.161073,0            28.109622,-26.161107,0            28.109588,-26.16116,0            28.109554,-26.161205,0            28.109538,-26.161278,0            28.109508,-26.161339,0            28.109442,-26.16144,0            28.10938,-26.161469,0            28.109267,-26.161557,0            28.109238,-26.161588,0            28.109209,-26.161615,0            28.109146,-26.16164,0            28.109098,-26.161635,0            28.109051,-26.16161,0            28.109033,-26.161574,0            28.108991,-26.161515,0            28.108933,-26.161447,0            28.108883,-26.161408,0            28.10881,-26.161383,0            28.108709,-26.161358,0            28.108646,-26.161335,0            28.10856,-26.161335,0            28.108454,-26.16133,0            28.108334,-26.161341,0            28.108249,-26.16135,0            28.108189,-26.161326,0            28.108126,-26.161272,0            28.108086,-26.161224,0            28.108057,-26.161196,0            28.107999,-26.161194,0            28.107967,-26.1612,0            28.107923,-26.161241,0            28.10791,-26.161286,0            28.107889,-26.161358,0            28.107894,-26.16141,0            28.107913,-26.161463,0            28.107929,-26.161501,0            28.107937,-26.161547,0            28.107898,-26.161587,0            28.107847,-26.161625,0            28.107717,-26.161638,0            28.107654,-26.161641,0            28.107596,-26.161662,0            28.107569,-26.161684,0            28.107554,-26.161709,0            28.107548,-26.16175,0            28.107537,-26.161783,0            28.107504,-26.161799,0            28.10747,-26.16179,0            28.107446,-26.16177,0            28.107374,-26.161737,0            28.107326,-26.161711,0            28.107295,-26.161664,0            28.107266,-26.161612,0            28.107234,-26.161576,0            28.107208,-26.161548,0            28.107182,-26.161515,0            28.107161,-26.161487,0            28.10715,-26.161472,0            28.107115,-26.161433,0            28.107134,-26.161394,0            28.107138,-26.161277,0            28.107181,-26.161056,0            28.107238,-26.160892,0            28.107268,-26.160803,0            28.107323,-26.16076,0            28.107447,-26.160716,0            28.107641,-26.160677,0            28.1078,-26.160606,0            28.107981,-26.160605,0            28.108151,-26.160589,0            28.108338,-26.160604,0            28.108395,-26.160619,0            28.108427,-26.160618,0            28.108535,-26.160632,0            28.108621,-26.160626,0            28.108692,-26.160614,0            28.108788,-26.160609,0            28.108865,-26.160606,0            28.108925,-26.160594,0            28.109133,-26.16058,0            28.109298,-26.160617,0            28.109407,-26.160611,0            28.109503,-26.160557,0            28.109552,-26.160516,0            28.109649,-26.160461,0            28.10977,-26.160354,0            28.109857,-26.160286,0            28.109924,-26.160253,0            28.109987,-26.160217,0            28.110088,-26.160113,0            28.11019,-26.15999,0            28.110268,-26.159896,0            28.110325,-26.159792,0            28.110293,-26.159704,0            28.110272,-26.159618,0            28.110299,-26.159574,0            28.110374,-26.159512,0            28.110408,-26.159462,0            28.110434,-26.159434,0            28.110457,-26.159387,0            28.110455,-26.159364,0            28.11044,-26.159346,0            28.110409,-26.159337,0            28.110339,-26.159265,0            28.110326,-26.159253,0            28.110306,-26.15924,0            28.110276,-26.159233,0            28.110238,-26.159229,0            28.110122,-26.159241,0            28.109927,-26.159298,0            28.109526,-26.159476,0            28.109469,-26.159498,0            28.109417,-26.159484,0            28.109378,-26.159458,0            28.109321,-26.159436,0            28.109222,-26.159411,0            28.109132,-26.159389,0            28.108929,-26.159355,0            28.10888,-26.159359,0            28.108704,-26.159353,0            28.108484,-26.159377,0            28.108346,-26.159398,0            28.108199,-26.159422,0            28.108116,-26.159436,0            28.108031,-26.159477,0            28.107945,-26.159513,0            28.10786,-26.159607,0            28.107818,-26.159675,0            28.107783,-26.159762,0            28.107743,-26.159839,0            28.107669,-26.159895,0            28.10758,-26.159942,0            28.107402,-26.159984,0            28.107338,-26.160016,0            28.107304,-26.160049,0            28.107294,-26.160089,0            28.107272,-26.160201,0            28.107251,-26.160265,0            28.107214,-26.16033,0            28.10714,-26.160388,0            28.107005,-26.160438,0            28.106961,-26.1605,0            28.106926,-26.160571,0            28.106901,-26.160635,0            28.106884,-26.160654,0            28.106877,-26.160669,0            28.106865,-26.160682,0            28.106853,-26.160692,0            28.106837,-26.160692,0            28.106814,-26.16069,0            28.106798,-26.160686,0            28.10678,-26.160684,0            28.106772,-26.16068,0            28.106762,-26.160673,0            28.106753,-26.160669,0            28.10674,-26.16066,0            28.10673,-26.160655,0            28.106725,-26.160648,0            28.106719,-26.160642,0            28.106711,-26.160637,0            28.106713,-26.160627,0            28.106714,-26.16062,0            28.106719,-26.160605,0            28.106738,-26.160586,0            28.106762,-26.160569,0            28.106782,-26.160536,0            28.106795,-26.160472,0            28.106814,-26.160418,0            28.106863,-26.160359,0            28.106917,-26.160305,0            28.107004,-26.160243,0            28.107094,-26.160163,0            28.107219,-26.160038,0            28.107343,-26.159899,0            28.107493,-26.159709,0            28.107688,-26.159541,0            28.107895,-26.159371,0            28.10804,-26.159242,0            28.108205,-26.159126,0            28.108484,-26.158984,0            28.10858,-26.158935,0            28.108769,-26.158877,0            28.108879,-26.158906,0            28.108919,-26.158928,0            28.108973,-26.15897,0            28.109139,-26.159038,0            28.109218,-26.15906,0            28.109276,-26.159108,0            28.109314,-26.15913,0            28.109375,-26.159102,0            28.109406,-26.159061,0            28.109447,-26.158976,0            28.109461,-26.158884,0            28.109475,-26.158854,0            28.109504,-26.158825,0            28.109694,-26.158744,0            28.109905,-26.158676,0            28.110123,-26.158621,0            28.110532,-26.158533,0            28.110997,-26.15846,0            28.111364,-26.158356,0            28.111728,-26.158263,0            28.111982,-26.158182,0            28.112044,-26.15819,0            28.112062,-26.158208,0            28.11208,-26.158239,0            28.112095,-26.15827,0            28.112105,-26.158302,0            28.1121,-26.158338,0            28.1121,-26.158368,0            28.112083,-26.158412,0            28.112057,-26.158491,0            28.112,-26.158555,0            28.111896,-26.158642,0            28.111775,-26.158736,0            28.111645,-26.158796,0            28.111558,-26.15887,0            28.111337,-26.159007,0            28.111097,-26.159164,0            28.111018,-26.15924,0            28.110973,-26.159293,0            28.110927,-26.159382,0            28.110922,-26.159422,0            28.110926,-26.159462,0            28.110914,-26.159519,0            28.110879,-26.159546,0            28.110831,-26.159576,0            28.110843,-26.159652,0            28.11087,-26.15974,0            28.110916,-26.159777,0            28.110967,-26.159792,0            28.11104,-26.159828,0            28.111123,-26.159853,0            28.11104,-26.159828,0            28.110967,-26.159792,0            28.110916,-26.159777,0            28.11087,-26.15974,0            28.110843,-26.159652,0            28.110831,-26.159576,0            28.110803,-26.159613,0            28.110725,-26.159728,0            28.110586,-26.159842,0            28.110436,-26.15993,0          </coordinates></LineString></Placemark><Placemark><name>Finish</name><styleUrl>#icon-1899-FF5252-nodesc</styleUrl><Point><coordinates>            28.111123,-26.159853,0          </coordinates></Point></Placemark><Placemark><name>Start</name><styleUrl>#icon-1899-0F9D58-nodesc</styleUrl><Point><coordinates>            28.111129,-26.159905,0          </coordinates></Point></Placemark></Folder></Document></kml>