<?xml version="1.0" encoding="UTF-8"?><kml xmlns="http://www.opengis.net/kml/2.2"><Document><name>Kei Mouth parkrun</name><description/><Style id="icon-1899-0F9D58-nodesc-normal"><IconStyle><color>ff589d0f</color><scale>1</scale><Icon><href>https://www.gstatic.com/mapspro/images/stock/503-wht-blank_maps.png</href></Icon><hotSpot x="32" xunits="pixels" y="64" yunits="insetPixels"/></IconStyle><LabelStyle><scale>0</scale></LabelStyle><BalloonStyle><text><![CDATA[<h3>$[name]</h3>]]></text></BalloonStyle></Style><Style id="icon-1899-0F9D58-nodesc-highlight"><IconStyle><color>ff589d0f</color><scale>1</scale><Icon><href>https://www.gstatic.com/mapspro/images/stock/503-wht-blank_maps.png</href></Icon><hotSpot x="32" xunits="pixels" y="64" yunits="insetPixels"/></IconStyle><LabelStyle><scale>1</scale></LabelStyle><BalloonStyle><text><![CDATA[<h3>$[name]</h3>]]></text></BalloonStyle></Style><StyleMap id="icon-1899-0F9D58-nodesc"><Pair><key>normal</key><styleUrl>#icon-1899-0F9D58-nodesc-normal</styleUrl></Pair><Pair><key>highlight</key><styleUrl>#icon-1899-0F9D58-nodesc-highlight</styleUrl></Pair></StyleMap><Style id="icon-1899-FF5252-nodesc-normal"><IconStyle><color>ff5252ff</color><scale>1</scale><Icon><href>https://www.gstatic.com/mapspro/images/stock/503-wht-blank_maps.png</href></Icon><hotSpot x="32" xunits="pixels" y="64" yunits="insetPixels"/></IconStyle><LabelStyle><scale>0</scale></LabelStyle><BalloonStyle><text><![CDATA[<h3>$[name]</h3>]]></text></BalloonStyle></Style><Style id="icon-1899-FF5252-nodesc-highlight"><IconStyle><color>ff5252ff</color><scale>1</scale><Icon><href>https://www.gstatic.com/mapspro/images/stock/503-wht-blank_maps.png</href></Icon><hotSpot x="32" xunits="pixels" y="64" yunits="insetPixels"/></IconStyle><LabelStyle><scale>1</scale></LabelStyle><BalloonStyle><text><![CDATA[<h3>$[name]</h3>]]></text></BalloonStyle></Style><StyleMap id="icon-1899-FF5252-nodesc"><Pair><key>normal</key><styleUrl>#icon-1899-FF5252-nodesc-normal</styleUrl></Pair><Pair><key>highlight</key><styleUrl>#icon-1899-FF5252-nodesc-highlight</styleUrl></Pair></StyleMap><Style id="line-0288D1-5456-nodesc-normal"><LineStyle><color>ffd18802</color><width>5.456</width></LineStyle><BalloonStyle><text><![CDATA[<h3>$[name]</h3>]]></text></BalloonStyle></Style><Style id="line-0288D1-5456-nodesc-highlight"><LineStyle><color>ffd18802</color><width>8.184</width></LineStyle><BalloonStyle><text><![CDATA[<h3>$[name]</h3>]]></text></BalloonStyle></Style><StyleMap id="line-0288D1-5456-nodesc"><Pair><key>normal</key><styleUrl>#line-0288D1-5456-nodesc-normal</styleUrl></Pair><Pair><key>highlight</key><styleUrl>#line-0288D1-5456-nodesc-highlight</styleUrl></Pair></StyleMap><Folder><name>Untitled layer</name><Placemark><name>Course</name><styleUrl>#line-0288D1-5456-nodesc</styleUrl><LineString><tessellate>1</tessellate><coordinates>            28.363712,-32.696478,0            28.363355,-32.696548,0            28.362874,-32.696612,0            28.362292,-32.696708,0            28.361956,-32.696801,0            28.361264,-32.696994,0            28.361218,-32.697051,0            28.361221,-32.697119,0            28.361258,-32.697163,0            28.361366,-32.697165,0            28.361572,-32.69718,0            28.361958,-32.697171,0            28.362325,-32.697176,0            28.36297,-32.697171,0            28.363348,-32.697153,0            28.363643,-32.697149,0            28.36393,-32.697148,0            28.364112,-32.697154,0            28.364271,-32.697164,0            28.364399,-32.69718,0            28.364519,-32.697219,0            28.364603,-32.697325,0            28.364697,-32.697429,0            28.364795,-32.697488,0            28.364889,-32.697514,0            28.364989,-32.697517,0            28.365078,-32.697496,0            28.365152,-32.697455,0            28.365149,-32.697407,0            28.365106,-32.697368,0            28.365102,-32.697297,0            28.365103,-32.697231,0            28.365079,-32.697114,0            28.365073,-32.697029,0            28.365152,-32.696938,0            28.365333,-32.69681,0            28.365468,-32.696735,0            28.365605,-32.696649,0            28.365624,-32.696576,0            28.365617,-32.69642,0            28.365613,-32.696231,0            28.365659,-32.696077,0            28.365774,-32.695927,0            28.365959,-32.695828,0            28.366361,-32.695634,0            28.366622,-32.695529,0            28.366823,-32.695476,0            28.367041,-32.69545,0            28.367302,-32.695402,0            28.367519,-32.695326,0            28.367732,-32.695269,0            28.367786,-32.69529,0            28.36781,-32.695385,0            28.367831,-32.695546,0            28.367833,-32.695661,0            28.367908,-32.695744,0            28.367987,-32.695831,0            28.368052,-32.695917,0            28.368106,-32.695995,0            28.368164,-32.696034,0            28.36823,-32.696061,0            28.368303,-32.696058,0            28.368381,-32.696041,0            28.368445,-32.696031,0            28.368512,-32.696039,0            28.368545,-32.696108,0            28.368604,-32.696271,0            28.368653,-32.696349,0            28.368761,-32.696459,0            28.36891,-32.696577,0            28.369021,-32.696674,0            28.369152,-32.696769,0            28.369276,-32.696833,0            28.369378,-32.696867,0            28.369454,-32.696865,0            28.36949,-32.696839,0            28.369461,-32.696794,0            28.369391,-32.696699,0            28.369337,-32.696613,0            28.369326,-32.696544,0            28.369365,-32.696476,0            28.369458,-32.696393,0            28.369732,-32.696261,0            28.369875,-32.696206,0            28.369976,-32.696155,0            28.370048,-32.696069,0            28.370103,-32.69599,0            28.370218,-32.695895,0            28.370534,-32.69572,0            28.370996,-32.695512,0            28.371456,-32.695267,0            28.372006,-32.69495,0            28.372134,-32.694849,0            28.372229,-32.694743,0            28.372336,-32.694661,0            28.372817,-32.694328,0            28.372982,-32.694216,0            28.37322,-32.694086,0            28.37328,-32.694071,0            28.373312,-32.694036,0            28.37334,-32.693992,0            28.37339,-32.693964,0            28.373445,-32.693956,0            28.373488,-32.693925,0            28.37352,-32.693874,0            28.37356,-32.693823,0            28.373594,-32.693791,0            28.373636,-32.69377,0            28.37366,-32.693786,0            28.373665,-32.693838,0            28.373658,-32.693947,0            28.373641,-32.694107,0            28.373652,-32.694288,0            28.373656,-32.694435,0            28.373609,-32.694643,0            28.373556,-32.694803,0            28.373479,-32.694999,0            28.373398,-32.695206,0            28.373351,-32.695346,0            28.373322,-32.695477,0            28.373347,-32.695585,0            28.37333,-32.695707,0            28.373268,-32.69584,0            28.373182,-32.695993,0            28.373088,-32.69612,0            28.37302,-32.696289,0            28.372945,-32.696553,0            28.372902,-32.696768,0            28.372866,-32.696995,0            28.372836,-32.697093,0            28.372791,-32.697479,0            28.372756,-32.697785,0            28.372752,-32.697945,0            28.372773,-32.698017,0            28.37276,-32.698123,0            28.372732,-32.698225,0            28.372753,-32.698324,0            28.372793,-32.698443,0            28.372838,-32.698731,0            28.372863,-32.698857,0            28.372872,-32.698898,0            28.372888,-32.698895,0            28.372884,-32.698836,0            28.372867,-32.698734,0            28.372844,-32.698603,0            28.372817,-32.698433,0            28.372779,-32.698316,0            28.37276,-32.69822,0            28.372785,-32.698121,0            28.3728,-32.698015,0            28.372774,-32.697946,0            28.372779,-32.697778,0            28.372813,-32.69748,0            28.372858,-32.697101,0            28.372886,-32.696998,0            28.372919,-32.69677,0            28.372968,-32.696556,0            28.373044,-32.696296,0            28.37311,-32.696128,0            28.373201,-32.696,0            28.373288,-32.69585,0            28.373352,-32.695713,0            28.37337,-32.695586,0            28.373344,-32.695476,0            28.373371,-32.695348,0            28.373417,-32.695207,0            28.373497,-32.695005,0            28.373578,-32.694806,0            28.373629,-32.694646,0            28.373681,-32.694435,0            28.373674,-32.694286,0            28.373661,-32.694113,0            28.373676,-32.693955,0            28.373685,-32.693838,0            28.37367,-32.693745,0            28.373646,-32.693592,0            28.373658,-32.693402,0            28.373672,-32.69316,0            28.373697,-32.692921,0            28.37372,-32.692743,0            28.373775,-32.692546,0            28.373829,-32.692337,0            28.373825,-32.692175,0            28.373786,-32.691996,0            28.373766,-32.691852,0            28.373709,-32.6917,0            28.373652,-32.691513,0            28.373601,-32.691386,0            28.373552,-32.691303,0            28.373471,-32.691215,0            28.373386,-32.691174,0            28.373276,-32.691174,0            28.373104,-32.6912,0            28.372872,-32.691241,0            28.372691,-32.691287,0            28.372514,-32.691347,0            28.372386,-32.691435,0            28.372278,-32.691499,0            28.372187,-32.691567,0            28.372081,-32.691656,0            28.371986,-32.691735,0            28.371896,-32.691795,0            28.371826,-32.691808,0            28.37172,-32.691802,0            28.371621,-32.691793,0            28.371522,-32.691801,0            28.371437,-32.691818,0            28.371328,-32.691811,0            28.371219,-32.691783,0            28.371153,-32.691734,0            28.371044,-32.691673,0            28.370937,-32.691614,0            28.37077,-32.691568,0            28.370669,-32.691569,0            28.370594,-32.69159,0            28.370453,-32.691648,0            28.370356,-32.691692,0            28.370256,-32.69174,0            28.370165,-32.691795,0            28.370088,-32.691881,0            28.370023,-32.691938,0            28.369925,-32.691993,0            28.369788,-32.692064,0            28.369654,-32.692138,0            28.369505,-32.692224,0            28.369337,-32.692314,0            28.369156,-32.692406,0            28.368802,-32.692599,0            28.368445,-32.69278,0            28.367713,-32.693171,0            28.367375,-32.693329,0            28.367221,-32.693397,0            28.367064,-32.693457,0            28.366477,-32.693619,0            28.366251,-32.693656,0            28.365954,-32.693702,0            28.365667,-32.693765,0            28.365207,-32.693965,0            28.365052,-32.69404,0            28.364904,-32.694124,0            28.364674,-32.694243,0            28.364016,-32.694547,0            28.363891,-32.694625,0            28.363792,-32.694787,0            28.363714,-32.694904,0            28.363558,-32.695023,0            28.363383,-32.695103,0            28.363057,-32.695252,0            28.362826,-32.695344,0            28.362802,-32.695415,0            28.362828,-32.695492,0            28.362872,-32.695567,0            28.362994,-32.695617,0            28.363119,-32.69561,0            28.363276,-32.695554,0            28.363416,-32.695529,0            28.363545,-32.695539,0            28.363666,-32.695588,0            28.363762,-32.695656,0            28.363835,-32.695767,0            28.363903,-32.695933,0            28.364025,-32.696176,0            28.36404,-32.696365,0            28.364053,-32.696517,0            28.364088,-32.696678,0            28.364154,-32.696863,0            28.364196,-32.69691,0            28.364273,-32.696947,0            28.36435,-32.696969,0            28.364432,-32.696969,0            28.364521,-32.696961,0            28.364608,-32.696946,0            28.364666,-32.69692,0            28.364712,-32.696888,0            28.364725,-32.696837,0            28.36471,-32.696775,0            28.364665,-32.696697,0            28.36461,-32.696602,0            28.364568,-32.696508,0            28.364554,-32.696427,0            28.364556,-32.69636,0            28.364549,-32.696313,0          </coordinates></LineString></Placemark><Placemark><name>Finish</name><styleUrl>#icon-1899-FF5252-nodesc</styleUrl><Point><coordinates>            28.364549,-32.696313,0          </coordinates></Point></Placemark><Placemark><name>Start</name><styleUrl>#icon-1899-0F9D58-nodesc</styleUrl><Point><coordinates>            28.363712,-32.696478,0          </coordinates></Point></Placemark></Folder></Document></kml>