<?xml version="1.0" encoding="UTF-8"?><kml xmlns="http://www.opengis.net/kml/2.2"><Document><name>Klipspringer Lodge parkrun</name><description/><Style id="icon-1899-FFEA00-nodesc-normal"><IconStyle><color>ff00eaff</color><scale>1</scale><Icon><href>https://www.gstatic.com/mapspro/images/stock/503-wht-blank_maps.png</href></Icon><hotSpot x="32" xunits="pixels" y="64" yunits="insetPixels"/></IconStyle><LabelStyle><scale>0</scale></LabelStyle><BalloonStyle><text><![CDATA[<h3>$[name]</h3>]]></text></BalloonStyle></Style><Style id="icon-1899-FFEA00-nodesc-highlight"><IconStyle><color>ff00eaff</color><scale>1</scale><Icon><href>https://www.gstatic.com/mapspro/images/stock/503-wht-blank_maps.png</href></Icon><hotSpot x="32" xunits="pixels" y="64" yunits="insetPixels"/></IconStyle><LabelStyle><scale>1</scale></LabelStyle><BalloonStyle><text><![CDATA[<h3>$[name]</h3>]]></text></BalloonStyle></Style><StyleMap id="icon-1899-FFEA00-nodesc"><Pair><key>normal</key><styleUrl>#icon-1899-FFEA00-nodesc-normal</styleUrl></Pair><Pair><key>highlight</key><styleUrl>#icon-1899-FFEA00-nodesc-highlight</styleUrl></Pair></StyleMap><Style id="line-0288D1-5000-nodesc-normal"><LineStyle><color>ffd18802</color><width>5</width></LineStyle><BalloonStyle><text><![CDATA[<h3>$[name]</h3>]]></text></BalloonStyle></Style><Style id="line-0288D1-5000-nodesc-highlight"><LineStyle><color>ffd18802</color><width>7.5</width></LineStyle><BalloonStyle><text><![CDATA[<h3>$[name]</h3>]]></text></BalloonStyle></Style><StyleMap id="line-0288D1-5000-nodesc"><Pair><key>normal</key><styleUrl>#line-0288D1-5000-nodesc-normal</styleUrl></Pair><Pair><key>highlight</key><styleUrl>#line-0288D1-5000-nodesc-highlight</styleUrl></Pair></StyleMap><Folder><name>Untitled layer</name><Placemark><name>Course</name><styleUrl>#line-0288D1-5000-nodesc</styleUrl><LineString><tessellate>1</tessellate><coordinates>            31.0627385415137,-25.5660399980843,1033.80004882812            31.0627485159785,-25.566052319482,1033.59997558594            31.0627928562462,-25.5661121662706,1033.59997558594            31.0628202650696,-25.566147454083,1033.59997558594            31.0629389528185,-25.5663064587861,1033.59997558594            31.0629697144032,-25.5663383100182,1033.59997558594            31.0630425531417,-25.5663667246699,1033.59997558594            31.0630949400365,-25.5663738492876,1033.40002441406            31.0632469877601,-25.5663941334933,1033.40002441406            31.0632972791791,-25.5664072092623,1033.40002441406            31.0633461456746,-25.5664272420108,1033.40002441406            31.0633943416178,-25.566448699683,1033.40002441406            31.0634845308959,-25.5664906930178,1033.40002441406            31.0635661706328,-25.5665293335915,1033.40002441406            31.0636508278549,-25.5665694829077,1033.40002441406            31.0636921506375,-25.5665927845985,1033.40002441406            31.0638421028852,-25.5666812136769,1033.40002441406            31.0639138519764,-25.5667231231928,1033.40002441406            31.0639475472271,-25.5667433235794,1033.40002441406            31.0640850104392,-25.566834602505,1033.40002441406            31.0641933884472,-25.5668977182359,1033.40002441406            31.0642699152231,-25.5669471714646,1033.40002441406            31.0644137486815,-25.5670228600502,1033.19995117188            31.0646216198802,-25.5671123787761,1033.19995117188            31.0646605957299,-25.5671177431941,1033.19995117188            31.0647911019623,-25.5670905020088,1033.19995117188            31.0649894177914,-25.5670247878879,1033.19995117188            31.0651007294655,-25.566977346316,1033.19995117188            31.0652540344745,-25.5668948683888,1033.19995117188            31.0652811080217,-25.5668740812689,1033.19995117188            31.0654480755329,-25.5667721573263,1033.40002441406            31.0654768254608,-25.5667485203594,1033.40002441406            31.0656426195055,-25.5666253902018,1033.59997558594            31.0657480638474,-25.5665494501591,1033.59997558594            31.0659360699356,-25.5664483644068,1033.80004882812            31.0659698490053,-25.566438389942,1033.80004882812            31.0660320427269,-25.5664165969938,1033.80004882812            31.0661668237299,-25.5663809739053,1034            31.0662011057138,-25.5663706641644,1035.80004882812            31.0662377346307,-25.5663582589477,1036.59997558594            31.0662699211389,-25.5663469433784,1037            31.0664518922567,-25.5662497971207,1037            31.0665248148143,-25.5660875234753,1035.80004882812            31.0665639583021,-25.5659720208496,1034.59997558594            31.0665984079242,-25.5659001879394,1034            31.0666222963482,-25.5658706836402,1033.59997558594            31.0667372960597,-25.5657761357725,1032.59997558594            31.0667978134006,-25.5657390039414,1032.59997558594            31.0669142380357,-25.5656478926539,1031.80004882812            31.0670931916684,-25.5655172187835,1032.19995117188            31.0671228636056,-25.5654951743782,1032.19995117188            31.0672942735255,-25.5653641652316,1031.80004882812            31.0673477500677,-25.5653147120029,1032            31.0674944333732,-25.5651646759361,1031.59997558594            31.0675472393632,-25.5650841258466,1031.40002441406            31.0676165577024,-25.564907938242,1030.59997558594            31.0676336567849,-25.5648730695248,1030.19995117188            31.0676512587816,-25.5648403801024,1030.19995117188            31.0677453875542,-25.5646639410406,1029.40002441406            31.0677867103368,-25.5646117217839,1029.40002441406            31.0679264366627,-25.5644673015922,1029.19995117188            31.0679515823722,-25.564445508644,1029            31.0681593697518,-25.5643605161458,1029.19995117188            31.0683903750032,-25.5643241386861,1029            31.0684672370553,-25.5643206182867,1029            31.0686899442226,-25.5643207021058,1028.80004882812            31.0687277466059,-25.5643202830106,1028.59997558594            31.0688355378807,-25.5643242225051,1028            31.0690535511822,-25.5643550679088,1027            31.0692780185491,-25.5643913615495,1026            31.0693497676402,-25.5643840692937,1026            31.0695137176663,-25.56432120502,1025.19995117188            31.0695422161371,-25.5642597656697,1024.80004882812            31.0695438925177,-25.5642188619822,1024.40002441406            31.0695298947394,-25.5641410779208,1023.40002441406            31.0695008933544,-25.56407016702,1022.40002441406            31.0694851353765,-25.5640356335789,1021.79998779297            31.0694464109838,-25.5639689136297,1021.20001220703            31.0693687107414,-25.5638538300991,1020            31.0692548844963,-25.5637199711055,1018.79998779297            31.0691837221384,-25.563639588654,1018.20001220703            31.0691337659955,-25.5635878723115,1017.59997558594            31.0690175928175,-25.563459796831,1017.20001220703            31.0689472686499,-25.5632922425866,1016.20001220703            31.0689555667341,-25.5632152128965,1015            31.0689906030893,-25.5631126184016,1013.79998779297            31.0690218675882,-25.5630873050541,1013.20001220703            31.0690561495721,-25.5630635842681,1012.40002441406            31.0691663715988,-25.5630336608738,1011.20001220703            31.0692386236042,-25.5630438029766,1010.59997558594            31.0693093668669,-25.5630612373352,1010            31.0693451575935,-25.5630522686988,1009.59997558594            31.0693956166506,-25.5630005523562,1008.59997558594            31.0694035794586,-25.5629669409245,1008.20001220703            31.069462923333,-25.562888989225,1007.59997558594            31.0694973729551,-25.5628774221987,1007.20001220703            31.0695295594633,-25.5628801044077,1006.59997558594            31.0695439763367,-25.5628952756524,1006            31.069547412917,-25.5629176553339,1005.59997558594            31.0695583932102,-25.5629816930741,1005.59997558594            31.0695898253471,-25.5630381032825,1005.59997558594            31.0696136299521,-25.5630483292043,1005.79998779297            31.0696387756616,-25.5630509275943,1006.20001220703            31.0696849599481,-25.5630308110267,1007.20001220703            31.0697015561163,-25.5630195792764,1007.79998779297            31.069734916091,-25.5629935953766,1008.79998779297            31.0697890631855,-25.5629459861666,1010.20001220703            31.0698091797531,-25.5629356764257,1010.40002441406            31.0698701161891,-25.5629210919142,1011.59997558594            31.0699178092182,-25.5629027355462,1012.20001220703            31.0699481517076,-25.5628733988851,1012.59997558594            31.0699852835387,-25.5628133844584,1013.40002441406            31.0699964314699,-25.562793854624,1013.79998779297            31.0700153745711,-25.5627550464123,1014.59997558594            31.0700276121497,-25.5627369415015,1015            31.0700779873878,-25.5626787710935,1016.20001220703            31.070142025128,-25.5626171641052,1017.40002441406            31.070200195536,-25.5625733267516,1018.40002441406            31.0702454578131,-25.5625227838755,1019.59997558594            31.0702743753791,-25.5624512862414,1020.40002441406            31.070295413956,-25.5624044314027,1020.59997558594            31.0703291092068,-25.562339304015,1021.40002441406            31.0703514888883,-25.5622937064618,1021.79998779297            31.0703781433403,-25.562222963199,1022.79998779297            31.0703995171934,-25.5621493700892,1023.40002441406            31.0704187955707,-25.5620782077312,1024            31.0704452823847,-25.5620028544217,1024.19995117188            31.0704868566245,-25.5619313567877,1024.59997558594            31.0705068893731,-25.5618456099182,1024.80004882812            31.0705280955881,-25.5617912113667,1025.19995117188            31.0705823265016,-25.5616721045226,1025.19995117188            31.0706010181457,-25.5615311209112,1025.40002441406            31.0705994255841,-25.5615048855543,1025.40002441406            31.0705524869263,-25.561408912763,1024.80004882812            31.0705159418285,-25.5613490659744,1023.79998779297            31.0704702604562,-25.5612645763904,1022.79998779297            31.0704272612929,-25.5612148717046,1022.59997558594            31.0704038757831,-25.5611984431744,1022.20001220703            31.070300610736,-25.5611650831997,1021.20001220703            31.0702254250646,-25.5611503310502,1020.59997558594            31.0701902210712,-25.5611365009099,1020            31.0700942482799,-25.5610711220652,1018.59997558594            31.0700566973537,-25.5610544420779,1018.40002441406            31.0699419490993,-25.5610377620906,1017.40002441406            31.0698582138866,-25.5610409472138,1016.40002441406            31.0697678569704,-25.5610000435263,1015            31.0697431303561,-25.5609083455056,1013.79998779297            31.0697511769831,-25.56087506935,1013.59997558594            31.0697804298252,-25.5608111154288,1012.79998779297            31.069774646312,-25.5607152264565,1012            31.0697573795915,-25.5606910865754,1011.79998779297            31.0696653462946,-25.5606439802796,1011            31.0696267895401,-25.5606357660145,1010.59997558594            31.0695521906018,-25.5606226064265,1009.59997558594            31.0694334190339,-25.5606231931597,1008.59997558594            31.0693302378058,-25.5606444831938,1006.79998779297            31.0692946985364,-25.5606545414776,1005.79998779297            31.0692617576569,-25.5606647673994,1005            31.0691507812589,-25.5606868118048,1003.59997558594            31.0690678842366,-25.5607048328966,1002.40002441406            31.0689425747842,-25.5607369355857,1001            31.0688676405698,-25.5607582256198,999.799987792969            31.068788934499,-25.5607676971704,998.799987792969            31.0687511321157,-25.560764092952,998.599975585938            31.0686729289591,-25.5607553757727,997.799987792969            31.0686388984323,-25.5607504304498,997.200012207031            31.0685282573104,-25.5607436411083,996            31.0684555023909,-25.5607459880412,994.400024414062            31.0683837532997,-25.5607573036104,993.400024414062            31.0682440269738,-25.5607941001654,991.799987792969            31.0681892931461,-25.5608330760151,990.799987792969            31.0681249201298,-25.5609460640699,989.799987792969            31.068051410839,-25.5610594712198,988.599975585938            31.0679556895047,-25.5611511692405,987.400024414062            31.0677562002093,-25.5612200684845,987.400024414062            31.0675637517124,-25.5612365808338,988.200012207031            31.0674737300724,-25.561083946377,988            31.0673257894814,-25.5609469860792,986.799987792969            31.067245574668,-25.560875153169,986.400024414062            31.0672073531896,-25.5608104448766,985.799987792969            31.0671822912991,-25.5607413779944,985.400024414062            31.0671575646847,-25.5606344249099,984.200012207031            31.0671458300203,-25.5605992209166,983.400024414062            31.0671200975776,-25.5605383682996,982.799987792969            31.0670459177345,-25.5604544654489,981.599975585938            31.0670024994761,-25.560404676944,981.200012207031            31.0669822152704,-25.5603807047009,981            31.0669088736176,-25.5602703150362,980.599975585938            31.0668921936303,-25.5602363683283,980.400024414062            31.0668508708477,-25.5600971449167,979.200012207031            31.0668393876404,-25.5600630305707,978.599975585938            31.0668284073472,-25.5600318498909,978            31.0668161697686,-25.5599386431277,977            31.0668012499809,-25.5598396528512,976            31.0667937900871,-25.559807466343,975.799987792969            31.066727573052,-25.5596643872559,975.200012207031            31.0667072050273,-25.559640917927,975.200012207031            31.0665994975716,-25.5595739465207,974.599975585938            31.0665276646614,-25.5595464538783,973.400024414062            31.0663089808077,-25.559482332319,972.599975585938            31.0662762913853,-25.5594671610743,972.599975585938            31.0662311967462,-25.5593921430409,972.599975585938            31.0662344656885,-25.5593569390476,972.599975585938            31.0662301070988,-25.5592548474669,972.200012207031            31.0662007704377,-25.5591721180826,971            31.0661007743329,-25.5591219943017,970            31.0660663247108,-25.5591155402362,969.799987792969            31.0658925678581,-25.5591143667698,969.200012207031            31.0657493211329,-25.5591331422329,969            31.0656829364598,-25.5591500736773,968.799987792969            31.0656493250281,-25.5591576173902,968.599975585938            31.0654336586595,-25.5592060647905,968.599975585938            31.0653436370194,-25.5592381674796,968.599975585938            31.0652506817132,-25.5593711044639,968.200012207031            31.0652657691389,-25.5595128424466,969.400024414062            31.0652807727456,-25.5595692526549,969.799987792969            31.065281778574,-25.5596948135644,971.200012207031            31.0652562975883,-25.5598846636713,972.599975585938            31.0652505140752,-25.559913078323,972.799987792969            31.0652449820191,-25.5599668901414,973.200012207031            31.0652438923717,-25.5600205343217,973.799987792969            31.065244730562,-25.5601010005921,974.400024414062            31.0652778390795,-25.5602119769901,974.799987792969            31.0652833711356,-25.5602349434048,975            31.0653210896999,-25.5603579897434,975.799987792969            31.0653384402394,-25.5604065209627,976.200012207031            31.0653604846448,-25.5605003982782,976.799987792969            31.0653628315777,-25.5605523660779,977.599975585938            31.0653629992157,-25.5605788528919,977.799987792969            31.0653654299676,-25.5606044176966,978            31.0653440561146,-25.5607736483216,979.200012207031            31.0653396137059,-25.5608491692692,979.599975585938            31.0652758274227,-25.5608612392098,979.599975585938            31.0652733128518,-25.5608649272472,979.599975585938            31.0652440600097,-25.5609671864659,979.400024414062            31.0652083531022,-25.5611493252218,980            31.0652074310929,-25.5611782427877,980            31.0652058385313,-25.561205483973,980.400024414062            31.0651983786374,-25.5613115988672,981.599975585938            31.0651967860758,-25.561364069581,981.799987792969            31.0651951935142,-25.5615548416972,982.599975585938            31.0651924274862,-25.5616063065827,982.799987792969            31.0652028210461,-25.5617058835924,984            31.0652194172144,-25.5617879424244,984.200012207031            31.0651767533273,-25.5618893634528,984.400024414062            31.065149595961,-25.5619011819363,984.599975585938            31.0649774316698,-25.5618934705853,984.799987792969            31.0648889187723,-25.5618720967323,985            31.0648145712912,-25.5618285946548,985.599975585938            31.0647758468986,-25.5617905408144,986            31.0647597536445,-25.56176841259,986.200012207031            31.0647377092391,-25.561712840572,986.400024414062            31.0647406429052,-25.5615483876318,986            31.0647921077907,-25.5613857787102,985.200012207031            31.0648171696812,-25.5612888839096,984.400024414062            31.0648320894688,-25.5612198170274,984            31.0648576542735,-25.5611172225326,983            31.0648952890188,-25.5610225908458,982.400024414062            31.0649078618735,-25.5609901528805,982.200012207031            31.0649175010622,-25.5609567090869,982.200012207031            31.0649279784411,-25.5609216727316,981.799987792969            31.0649526212364,-25.5608267895877,980.599975585938            31.0649387072772,-25.5607331637293,980            31.0649151541293,-25.5606793519109,979.400024414062            31.0648449975997,-25.5605802778155,978.400024414062            31.0648265574127,-25.5605565570295,978.200012207031            31.0647905152291,-25.5605084449053,977.799987792969            31.0647365357727,-25.5604322534055,977.200012207031            31.064718766138,-25.5604054313153,977            31.0646789520979,-25.5602528806776,976            31.0646577458829,-25.5601217038929,975            31.0646596737206,-25.5600910261273,974.799987792969            31.0647324286401,-25.55992632173,974            31.0647872462869,-25.5597991682589,972.599975585938            31.0648011602461,-25.5597020220011,971.599975585938            31.064795460552,-25.559669919312,971.599975585938            31.0647621005774,-25.5595591105521,970.599975585938            31.0647552274168,-25.5595317017287,970.400024414062            31.0647460073233,-25.5595037899911,970.400024414062            31.0647118929774,-25.5593170411885,969.599975585938            31.0647185146809,-25.5592519976199,969.200012207031            31.0647121444345,-25.5591550190002,968.400024414062            31.0646665468812,-25.559149403125,968.200012207031            31.0646067839116,-25.5591563601047,968.400024414062            31.0644005052745,-25.5591885466129,969.200012207031            31.0643411614001,-25.5592041369528,969.400024414062            31.0641540773213,-25.5592862796038,970            31.0641038697213,-25.5593030434102,970.599975585938            31.0639432724565,-25.5593529157341,971.599975585938            31.0637772269547,-25.5594633053988,972.400024414062            31.0637315455824,-25.5594971682876,972.799987792969            31.0635986085981,-25.5595824122429,973.599975585938            31.0635387618095,-25.5596400797367,973.799987792969            31.0634941700846,-25.559709649533,974            31.06340800412,-25.5598560813814,974.200012207031            31.0633054934442,-25.5600357893854,974.599975585938            31.0632910765707,-25.5600612703711,974.599975585938            31.0632632486522,-25.5601104721427,975            31.0631943494082,-25.5602097976953,976            31.063183452934,-25.560227483511,976.200012207031            31.0630892403424,-25.5603230372071,977.400024414062            31.0629760846496,-25.560412555933,978.200012207031            31.062956051901,-25.5604216922075,978.200012207031            31.0629335884005,-25.560431079939,978.200012207031            31.0628855600953,-25.5604475084692,978.400024414062            31.0627682972699,-25.5604631826282,979            31.062681293115,-25.5604825448245,979            31.0625827219337,-25.5605269689113,979            31.0625058598816,-25.5605808645487,979.599975585938            31.062440648675,-25.5606590677053,980.400024414062            31.0624157544225,-25.560705922544,980.599975585938            31.0623295884579,-25.5608039069921,981.400024414062            31.0622984915972,-25.5608415417373,981.799987792969            31.0622311010957,-25.56097548455,982.200012207031            31.0622233897448,-25.5610226746649,982.400024414062            31.0622199531645,-25.5610976088792,982.599975585938            31.0622197855264,-25.5611431226134,982.599975585938            31.0622167680413,-25.5611832719296,982.599975585938            31.0622132476419,-25.561202801764,982.799987792969            31.062205452472,-25.5612973496318,983.400024414062            31.0622020997107,-25.5613214895129,983.400024414062            31.0621782112867,-25.561411511153,984            31.0621594358236,-25.5614762194455,984.200012207031            31.0620668157935,-25.561623070389,984.799987792969            31.0619865171611,-25.56172080338,985            31.0619334597141,-25.5617761239409,985.400024414062            31.0617919731885,-25.5618876870722,986            31.0617703478783,-25.5618971586227,986            31.0616288613528,-25.5619548261166,986.599975585938            31.0614162124693,-25.5620056204498,987            31.0613913182169,-25.5620145890862,987.200012207031            31.0612375941128,-25.5621312651783,987.799987792969            31.0611756518483,-25.5621828138828,988.400024414062            31.0611222591251,-25.5622383859009,989.400024414062            31.0611075069755,-25.5622570775449,989.799987792969            31.0610699560493,-25.5623056925833,990.200012207031            31.0610462352633,-25.5623324308544,990.400024414062            31.0610226821154,-25.5623994860798,990.799987792969            31.0609815269709,-25.5625127255917,991.599975585938            31.0609636735171,-25.5625780206174,992.200012207031            31.0609516035765,-25.5626286473125,992.799987792969            31.0609111189842,-25.5627167411149,993.400024414062            31.060884129256,-25.5627808626741,994            31.0608221031725,-25.5628204252571,994.799987792969            31.0608003102243,-25.5628336686641,995            31.0606468375772,-25.562888989225,995.200012207031            31.0604278184474,-25.5628759134561,995.200012207031            31.0603121481836,-25.5628938507289,996            31.0602906066924,-25.5629121232778,995.799987792969            31.0602734237909,-25.5629349220544,996            31.0602424945682,-25.5630344990641,997.200012207031            31.0602379683405,-25.5631940905005,998.400024414062            31.0602306760848,-25.5632446333766,998.799987792969            31.0602109786123,-25.5632919911295,999.400024414062            31.0601392295212,-25.5633999500424,1000            31.0601187776774,-25.563446553424,1000.79998779297            31.0600918717682,-25.5635286122561,1002            31.060088686645,-25.5635504052043,1002            31.0600854177028,-25.5636317096651,1003.20001220703            31.0600961465389,-25.5637038778514,1004.59997558594            31.0600789636374,-25.5637572705746,1005.79998779297            31.0600816458464,-25.5637752078474,1006.59997558594            31.0600840765983,-25.5637862719595,1006.79998779297            31.0600937157869,-25.5638399999589,1008            31.0601041931659,-25.5638529919088,1008.20001220703            31.0601499583572,-25.5638529919088,1008            31.060181055218,-25.5638492200524,1008            31.0602156724781,-25.5638449452817,1008            31.0604350268841,-25.5638207215816,1007.59997558594            31.0604748409241,-25.5638142675161,1007.59997558594            31.0605449136347,-25.5637987609953,1007.79998779297            31.060677934438,-25.5637755431235,1008            31.0607423912734,-25.5637739505619,1008.40002441406            31.0608454886824,-25.5637778900564,1008.40002441406            31.0610154736787,-25.5637659039348,1008.40002441406            31.0612325649709,-25.5637313704938,1008            31.0612604767084,-25.563726760447,1008.20001220703            31.0614361613989,-25.5637364834547,1008.59997558594            31.0614822618663,-25.5637691728771,1009            31.0615669190884,-25.5638441070914,1009.59997558594            31.0615692660213,-25.5639237351716,1010.20001220703            31.0615737084299,-25.5639713443816,1010.59997558594            31.0615828447044,-25.5640189535916,1011.40002441406            31.0616158694029,-25.5641323607415,1012.79998779297            31.0617222357541,-25.5641269963235,1013.79998779297            31.0617586970329,-25.5641266610473,1013.59997558594            31.0618346370757,-25.5641267448664,1013.79998779297            31.0620242357254,-25.5641699954867,1013.59997558594            31.0622212104499,-25.5642442591488,1013.59997558594            31.0622549057007,-25.564255323261,1013.59997558594            31.062448695302,-25.5643536429852,1013            31.0624905209988,-25.5643943790346,1013            31.0625528823584,-25.564490351826,1013.40002441406            31.0626009944826,-25.5646745022386,1014.40002441406            31.0626113042235,-25.5646958760917,1014.59997558594            31.0626451671124,-25.5647236201912,1014.79998779297            31.0626885015518,-25.5647211056203,1014.79998779297            31.0627855639905,-25.5646866559982,1014.40002441406            31.0628534574062,-25.5646715685725,1013.59997558594            31.0628827940673,-25.5646610911936,1013.40002441406            31.0629576444626,-25.5646071117371,1012.40002441406            31.063000978902,-25.5645646993071,1011.59997558594            31.0630509350449,-25.5645192693919,1011.20001220703            31.063138525933,-25.5644214525819,1009.79998779297            31.063159480691,-25.5643969774246,1009.40002441406            31.0631997138262,-25.5643427465111,1008.40002441406            31.0632579680532,-25.5642489530146,1007.20001220703            31.0632982850075,-25.5641929619014,1006.59997558594            31.0633357521147,-25.5640943907201,1005.79998779297            31.0633686091751,-25.5640011001378,1004.59997558594            31.0633864626288,-25.5639710091054,1004            31.0634033940732,-25.5639415886253,1003.40002441406            31.0634496621788,-25.5638569314033,1002.20001220703            31.0635131131858,-25.5637364834547,1001.20001220703            31.0635313857347,-25.5637064762414,1001            31.063614198938,-25.5635566916317,999.599975585938            31.0636351536959,-25.5635266844183,999.200012207031            31.0636942461133,-25.5634434521198,998            31.0637387540191,-25.5634007882327,996.599975585938            31.063764821738,-25.5633747205138,996.200012207031            31.0638418514282,-25.5633035581559,995.599975585938            31.0639072302729,-25.5632252711803,994.200012207031            31.0639549233019,-25.5631412006915,993            31.06400270015,-25.563021088019,991.799987792969            31.064023906365,-25.5629588104784,991            31.0640604514629,-25.5629039928317,990.400024414062            31.0641105752438,-25.5628588981926,989.799987792969            31.0641764570028,-25.5628003086895,989.200012207031            31.0642824880779,-25.5626689642668,988.599975585938            31.0643029399216,-25.5626423936337,988.200012207031            31.0643632058054,-25.5626049265265,987.799987792969            31.06440176256,-25.5626066867262,987.599975585938            31.0644691530615,-25.5626408010721,986.799987792969            31.0645212884992,-25.5626946128905,986.200012207031            31.0645363759249,-25.5627206806093,986.200012207031            31.0646164231002,-25.5628105346113,986.400024414062            31.0647671297193,-25.5628949403763,986.799987792969            31.0649479273707,-25.5629588104784,987.400024414062            31.0651000589132,-25.5630154721439,988            31.0651262942702,-25.5630274582654,988            31.0652521066368,-25.5631450563669,989            31.0652663558722,-25.5631653405726,989.200012207031            31.0652858857065,-25.5632590502501,990.599975585938            31.0652894061059,-25.5633058212698,991            31.0652997996658,-25.563377905637,991.599975585938            31.0653408709913,-25.5634992755949,992.400024414062            31.0653562098742,-25.5635409336537,992.799987792969            31.0653863847256,-25.563636906445,994            31.0653948504478,-25.563655262813,994.200012207031            31.0654275398701,-25.563708152622,995            31.0654541943222,-25.5637810751796,996            31.0654802620411,-25.5638109147549,997.200012207031            31.0655124485493,-25.5638463702053,997.799987792969            31.0655232612044,-25.5638679116964,998.200012207031            31.0655644163489,-25.5639306921512,998.599975585938            31.0656080022454,-25.5639938078821,999.200012207031            31.0656194016337,-25.5640115775168,999.200012207031            31.0656646639109,-25.5640997551382,1000            31.065673045814,-25.5641176924109,1000.40002441406            31.0657038912177,-25.5641503818333,1001.20001220703            31.0657400172204,-25.5641819816083,1001.59997558594            31.0658150352538,-25.5642677284777,1002.59997558594            31.0658267699182,-25.5642844922841,1002.79998779297            31.0658731218427,-25.5643580853939,1004.20001220703            31.0658823419362,-25.5644029285759,1005.20001220703            31.0659045539796,-25.5644822213799,1006            31.06590279378,-25.5644913576543,1006.20001220703            31.0659177135676,-25.5645721592009,1007            31.065926598385,-25.5645940359682,1007.40002441406            31.0659364052117,-25.5646061897278,1007.79998779297            31.0659493971616,-25.564625384286,1008.20001220703            31.0659539233893,-25.5646600853652,1008.40002441406            31.0659573599696,-25.5646750051528,1008.59997558594            31.0659772250801,-25.5647201836109,1008.59997558594            31.0660660732538,-25.5648715607822,1009.40002441406            31.0660764668137,-25.5648926831782,1010            31.066119717434,-25.5650287214667,1011.20001220703            31.066124914214,-25.5650519393384,1011.20001220703            31.0661280155182,-25.5650738999248,1011.40002441406            31.0661312006414,-25.5650921724737,1011.59997558594            31.0661228187382,-25.5651158094406,1012.20001220703            31.0661183763295,-25.5651360098273,1013            31.0661164484918,-25.565143385902,1013.20001220703            31.066082585603,-25.5652020592242,1014            31.0660685040057,-25.5652479920536,1014.40002441406            31.0660538356751,-25.5653365049511,1015.20001220703            31.0660506505519,-25.5653530173004,1015.59997558594            31.0660595353693,-25.5653956811875,1016.79998779297            31.066064145416,-25.5654186476022,1017.20001220703            31.0660910513252,-25.5654608085752,1017.59997558594            31.0661069769412,-25.5654966831207,1018            31.0661161132157,-25.5655122734606,1018            31.0661417618394,-25.5656099226326,1019.20001220703            31.0661389119923,-25.5656311288476,1019.40002441406            31.0661363136023,-25.5656730383635,1020.20001220703            31.0661348048598,-25.5657250899822,1021.40002441406            31.0661384928972,-25.5657482240349,1022            31.0661436896771,-25.5657720286399,1022.59997558594            31.0661627165973,-25.5658319592476,1023.40002441406            31.0661690868437,-25.5658664926887,1023.59997558594            31.0661926399916,-25.5659484677017,1024            31.0662034526467,-25.5660129245371,1024.80004882812            31.066225329414,-25.5660987552255,1026            31.0662275087088,-25.5661209672689,1026.19995117188            31.0662372317165,-25.5661824066192,1027.19995117188            31.0662643052638,-25.5662839114666,1028.19995117188            31.0662717651576,-25.5663068778813,1028.40002441406            31.0662583541125,-25.5663523916155,1028.80004882812            31.066204123199,-25.5663781240582,1029.40002441406            31.0661337990314,-25.5663911998272,1029.59997558594            31.0659321304411,-25.566440820694,1029.80004882812            31.0657452140003,-25.5665207002312,1029.59997558594            31.0657160449773,-25.5665379669517,1029.80004882812            31.0655603092164,-25.5666511226445,1029.59997558594            31.0653810203075,-25.5667760968208,1029.40002441406            31.065326789394,-25.5668040085584,1029.19995117188            31.065218327567,-25.5668685492128,1028.19995117188            31.0651858896017,-25.5668846424669,1028.19995117188            31.0650055110455,-25.566964186728,1027            31.06490643695,-25.5670062638819,1025.59997558594            31.0647064447403,-25.5670640151948,1024.80004882812            31.0646704025567,-25.5670687090606,1024.80004882812            31.0646015871316,-25.5670722294599,1024.19995117188            31.064494214952,-25.5670709721744,1024.40002441406            31.0644641239196,-25.5670635122806,1024.59997558594            31.0643377248198,-25.5670218542218,1025.19995117188            31.064306627959,-25.5670086108148,1025.40002441406            31.0641319490969,-25.5669030826539,1025.80004882812            31.0640402510762,-25.5668499413878,1026            31.0639766324311,-25.5668151564896,1026.19995117188            31.063883844763,-25.5667651165277,1026.40002441406            31.0638557653874,-25.5667490232736,1026.59997558594            31.0637999419123,-25.5667166691273,1026.80004882812            31.0636225808412,-25.5666102189571,1026.80004882812            31.0635616444051,-25.5665764398873,1026.59997558594            31.063378835097,-25.5664742644876,1026.80004882812            31.063347319141,-25.5664561595768,1026.80004882812            31.0631592292339,-25.5663609411567,1026.59997558594            31.0631283838302,-25.5663532298058,1026.80004882812            31.0629267990589,-25.5663231387734,1026.19995117188            31.062847757712,-25.5662204604596,1026.59997558594            31.0627568140626,-25.5661097355187,1027.80004882812          </coordinates></LineString></Placemark><Placemark><name>Start/Finish</name><styleUrl>#icon-1899-FFEA00-nodesc</styleUrl><Point><coordinates>            31.0627385415137,-25.5660399980843,1033.80004882812          </coordinates></Point></Placemark></Folder></Document></kml>