<?xml version="1.0" encoding="UTF-8"?><kml xmlns="http://www.opengis.net/kml/2.2"><Document><name>Ladysmith parkrun (from Apr 2023)</name><description/><Style id="icon-1899-FFD600-nodesc-normal"><IconStyle><color>ff00d6ff</color><scale>1</scale><Icon><href>https://www.gstatic.com/mapspro/images/stock/503-wht-blank_maps.png</href></Icon><hotSpot x="32" xunits="pixels" y="64" yunits="insetPixels"/></IconStyle><LabelStyle><scale>0</scale></LabelStyle><BalloonStyle><text><![CDATA[<h3>$[name]</h3>]]></text></BalloonStyle></Style><Style id="icon-1899-FFD600-nodesc-highlight"><IconStyle><color>ff00d6ff</color><scale>1</scale><Icon><href>https://www.gstatic.com/mapspro/images/stock/503-wht-blank_maps.png</href></Icon><hotSpot x="32" xunits="pixels" y="64" yunits="insetPixels"/></IconStyle><LabelStyle><scale>1</scale></LabelStyle><BalloonStyle><text><![CDATA[<h3>$[name]</h3>]]></text></BalloonStyle></Style><StyleMap id="icon-1899-FFD600-nodesc"><Pair><key>normal</key><styleUrl>#icon-1899-FFD600-nodesc-normal</styleUrl></Pair><Pair><key>highlight</key><styleUrl>#icon-1899-FFD600-nodesc-highlight</styleUrl></Pair></StyleMap><Style id="line-0288D1-5000-nodesc-normal"><LineStyle><color>ffd18802</color><width>5</width></LineStyle><BalloonStyle><text><![CDATA[<h3>$[name]</h3>]]></text></BalloonStyle></Style><Style id="line-0288D1-5000-nodesc-highlight"><LineStyle><color>ffd18802</color><width>7.5</width></LineStyle><BalloonStyle><text><![CDATA[<h3>$[name]</h3>]]></text></BalloonStyle></Style><StyleMap id="line-0288D1-5000-nodesc"><Pair><key>normal</key><styleUrl>#line-0288D1-5000-nodesc-normal</styleUrl></Pair><Pair><key>highlight</key><styleUrl>#line-0288D1-5000-nodesc-highlight</styleUrl></Pair></StyleMap><Folder><name>Untitled layer</name><Placemark><name>Course</name><styleUrl>#line-0288D1-5000-nodesc</styleUrl><LineString><tessellate>1</tessellate><coordinates>            29.769688,-28.54622,0            29.770061,-28.54612,0            29.770508,-28.545897,0            29.770917,-28.545797,0            29.770722,-28.545277,0            29.770758,-28.545235,0            29.770819,-28.545218,0            29.77089,-28.545261,0            29.770981,-28.545262,0            29.771283,-28.545189,0            29.771361,-28.545214,0            29.771409,-28.545243,0            29.772,-28.544444,0            29.772227,-28.544304,0            29.772612,-28.544296,0            29.772735,-28.544143,0            29.772766,-28.544054,0            29.772825,-28.54399,0            29.772923,-28.543954,0            29.773018,-28.543947,0            29.77312,-28.543965,0            29.773217,-28.543907,0            29.773285,-28.54378,0            29.770814,-28.542569,0            29.770561,-28.54194,0            29.77047,-28.541826,0            29.770244,-28.541672,0            29.770065,-28.541676,0            29.769982,-28.54172,0            29.76983,-28.541891,0            29.769474,-28.541961,0            29.76905,-28.541697,0            29.768918,-28.541653,0            29.768825,-28.54131,0            29.768213,-28.540794,0            29.767827,-28.540762,0            29.767669,-28.540726,0            29.765256,-28.540693,0            29.76471,-28.541055,0            29.764313,-28.541047,0            29.763853,-28.541141,0            29.763673,-28.541155,0            29.763543,-28.541223,0            29.763393,-28.541387,0            29.763534,-28.542125,0            29.763574,-28.542171,0            29.763643,-28.542189,0            29.763781,-28.542167,0            29.764151,-28.542066,0            29.76495,-28.541752,0            29.765237,-28.541734,0            29.765945,-28.541758,0            29.766168,-28.541869,0            29.766267,-28.541953,0            29.766289,-28.541997,0            29.7667,-28.54218,0            29.766952,-28.542254,0            29.767248,-28.542235,0            29.767485,-28.542113,0            29.767667,-28.541804,0            29.767776,-28.541812,0            29.767909,-28.541806,0            29.768028,-28.541847,0            29.768146,-28.541907,0            29.769187,-28.54211,0            29.76925,-28.542092,0            29.770097,-28.542747,0            29.770705,-28.543185,0            29.770828,-28.543365,0            29.770921,-28.543674,0            29.770917,-28.543822,0            29.770872,-28.543966,0            29.770384,-28.544529,0            29.770008,-28.544394,0            29.769428,-28.543962,0            29.768925,-28.543737,0            29.768609,-28.54355,0            29.768084,-28.543404,0            29.767348,-28.542985,0            29.766381,-28.542634,0            29.766342,-28.542565,0            29.766246,-28.541955,0            29.765185,-28.541976,0            29.763755,-28.542282,0            29.763632,-28.542327,0            29.763541,-28.542392,0            29.763476,-28.542476,0            29.763432,-28.542572,0            29.763487,-28.542789,0            29.763774,-28.543005,0            29.763987,-28.543078,0            29.76548,-28.542634,0            29.765555,-28.542632,0            29.765664,-28.542664,0            29.766534,-28.543094,0            29.767179,-28.543317,0            29.766979,-28.543663,0            29.767842,-28.543766,0            29.769316,-28.544382,0            29.769264,-28.544679,0            29.769113,-28.544784,0            29.7683,-28.544601,0            29.767989,-28.544667,0            29.76701,-28.545144,0            29.766908,-28.545165,0            29.766763,-28.545264,0            29.766664,-28.54535,0            29.766586,-28.545506,0            29.766617,-28.545568,0            29.76717,-28.545498,0            29.767219,-28.545561,0            29.767306,-28.546132,0            29.76738,-28.546335,0            29.767435,-28.546389,0            29.768155,-28.546429,0            29.768606,-28.546406,0            29.768925,-28.546312,0            29.76967,-28.546223,0          </coordinates></LineString></Placemark><Placemark><name>Start/Finish</name><styleUrl>#icon-1899-FFD600-nodesc</styleUrl><Point><coordinates>            29.769678,-28.546222,0          </coordinates></Point></Placemark></Folder></Document></kml>