<?xml version="1.0" encoding="UTF-8"?><kml xmlns="http://www.opengis.net/kml/2.2"><Document><name>Langebaan parkrun (from Sept 2025)</name><description/><Style id="icon-123-nodesc-normal"><IconStyle><scale>1.1</scale><Icon><href>https://www.gstatic.com/mapspro/images/stock/123-red-dot.png</href></Icon><hotSpot x="16" xunits="pixels" y="32" yunits="insetPixels"/></IconStyle><LabelStyle><scale>0</scale></LabelStyle><BalloonStyle><text><![CDATA[<h3>$[name]</h3>]]></text></BalloonStyle></Style><Style id="icon-123-nodesc-highlight"><IconStyle><scale>1.1</scale><Icon><href>https://www.gstatic.com/mapspro/images/stock/123-red-dot.png</href></Icon><hotSpot x="16" xunits="pixels" y="32" yunits="insetPixels"/></IconStyle><LabelStyle><scale>1.1</scale></LabelStyle><BalloonStyle><text><![CDATA[<h3>$[name]</h3>]]></text></BalloonStyle></Style><StyleMap id="icon-123-nodesc"><Pair><key>normal</key><styleUrl>#icon-123-nodesc-normal</styleUrl></Pair><Pair><key>highlight</key><styleUrl>#icon-123-nodesc-highlight</styleUrl></Pair></StyleMap><Style id="icon-61-nodesc-normal"><IconStyle><scale>1.1</scale><Icon><href>https://www.gstatic.com/mapspro/images/stock/61-green-dot.png</href></Icon><hotSpot x="16" xunits="pixels" y="32" yunits="insetPixels"/></IconStyle><LabelStyle><scale>0</scale></LabelStyle><BalloonStyle><text><![CDATA[<h3>$[name]</h3>]]></text></BalloonStyle></Style><Style id="icon-61-nodesc-highlight"><IconStyle><scale>1.1</scale><Icon><href>https://www.gstatic.com/mapspro/images/stock/61-green-dot.png</href></Icon><hotSpot x="16" xunits="pixels" y="32" yunits="insetPixels"/></IconStyle><LabelStyle><scale>1.1</scale></LabelStyle><BalloonStyle><text><![CDATA[<h3>$[name]</h3>]]></text></BalloonStyle></Style><StyleMap id="icon-61-nodesc"><Pair><key>normal</key><styleUrl>#icon-61-nodesc-normal</styleUrl></Pair><Pair><key>highlight</key><styleUrl>#icon-61-nodesc-highlight</styleUrl></Pair></StyleMap><Style id="line-0288D1-5000-nodesc-normal"><LineStyle><color>ffd18802</color><width>5</width></LineStyle><BalloonStyle><text><![CDATA[<h3>$[name]</h3>]]></text></BalloonStyle></Style><Style id="line-0288D1-5000-nodesc-highlight"><LineStyle><color>ffd18802</color><width>7.5</width></LineStyle><BalloonStyle><text><![CDATA[<h3>$[name]</h3>]]></text></BalloonStyle></Style><StyleMap id="line-0288D1-5000-nodesc"><Pair><key>normal</key><styleUrl>#line-0288D1-5000-nodesc-normal</styleUrl></Pair><Pair><key>highlight</key><styleUrl>#line-0288D1-5000-nodesc-highlight</styleUrl></Pair></StyleMap><Folder><name>Untitled layer</name><Placemark><name>Course</name><styleUrl>#line-0288D1-5000-nodesc</styleUrl><LineString><tessellate>1</tessellate><coordinates>            18.0578280240297,-33.0754596367478,22.6000003814697            18.0578257609159,-33.0754834413528,22.6000003814697            18.0578198097646,-33.0755620636046,22.3999996185303            18.0578194744885,-33.0755959264934,22.3999996185303            18.0578214023262,-33.0756468046457,22.2000007629395            18.0578321311623,-33.0756816733629,22.2000007629395            18.057828778401,-33.0757333897054,22.2000007629395            18.057828778401,-33.0757787358016,22.2000007629395            18.0578280240297,-33.075822237879,22.2000007629395            18.0578268505633,-33.0758664943278,22.2000007629395            18.0578268505633,-33.0759000219405,22.2000007629395            18.0578143615276,-33.0759477987885,22.3999996185303            18.0578110925853,-33.075986104086,22.3999996185303            18.0577971786261,-33.0760268401355,22.3999996185303            18.0578004475683,-33.076054835692,22.3999996185303            18.0577947478741,-33.0760928895324,22.3999996185303            18.0577956698835,-33.0761316139251,22.2000007629395            18.0577820912004,-33.0761609505862,22.2000007629395            18.057765327394,-33.0762021057308,22            18.057757364586,-33.0762340407819,22            18.0577449593693,-33.07627142407,22            18.05773884058,-33.0763022694737,22            18.0577471386641,-33.0763390660286,22            18.0577639862895,-33.0763590149581,21.7999992370605            18.0577894672751,-33.0763854179531,21.7999992370605            18.0578302871436,-33.076395560056,21.6000003814697            18.0578835122287,-33.0763909500092,21.6000003814697            18.0579206440598,-33.0763765331358,21.7999992370605            18.0579625535756,-33.0763500463217,21.7999992370605            18.0579845141619,-33.0763230565935,22            18.0580125097185,-33.0762882716954,22.2000007629395            18.0580210592598,-33.0762619525194,22.3999996185303            18.0580384936184,-33.0762261617929,22.6000003814697            18.0580477975309,-33.0762016866356,22.7999992370605            18.0580710154027,-33.0761712603271,22.7999992370605            18.0580855999142,-33.0761463660747,23            18.058106303215,-33.0761134251952,23            18.0581140145659,-33.0760886985809,23.2000007629395            18.0581348016858,-33.0760570988059,23.2000007629395            18.0581423453987,-33.076031031087,23.3999996185303            18.0581628810614,-33.0760028678924,23.3999996185303            18.0581760406494,-33.0759724415839,23.6000003814697            18.0581912118942,-33.0759409256279,23.6000003814697            18.0581917986274,-33.0759127624333,23.7999992370605            18.0582114960998,-33.0758794862777,24            18.0582178663462,-33.075853921473,24.2000007629395            18.0582449398935,-33.0758232437074,24.2000007629395            18.0582518968731,-33.0757975112647,24.3999996185303            18.0582757852972,-33.0757632292807,24.6000003814697            18.0582881905138,-33.075737580657,24.7999992370605            18.0583143420517,-33.0757047235966,24.7999992370605            18.0583232268691,-33.0756810866296,25            18.0583478696644,-33.0756487324834,25            18.0583595205098,-33.0756262689829,25            18.0583884380758,-33.0755967646837,25.2000007629395            18.0584066268057,-33.0755767319351,25.2000007629395            18.0584467761219,-33.0755548551679,25.3999996185303            18.0584689881653,-33.0755376722664,25.6000003814697            18.0585114844143,-33.0755219142884,25.7999992370605            18.0585409887135,-33.075512945652,25.7999992370605            18.0585851613432,-33.0755124427378,26            18.0586138274521,-33.0755097605288,26            18.0586561560631,-33.0755185615271,26.2000007629395            18.0586858280003,-33.0755202379078,26.3999996185303            18.0587253905833,-33.0755302961916,26.3999996185303            18.0587576609105,-33.0755349900573,26.6000003814697            18.058798648417,-33.0755469761789,26.6000003814697            18.0588311702013,-33.0755559448153,26.6000003814697            18.0588678829372,-33.0755663383752,26.6000003814697            18.0588978063315,-33.0755784921348,26.7999992370605            18.05893342942,-33.0755905620754,26.7999992370605            18.0589656159282,-33.0756020452827,27            18.0589992273599,-33.0756140314043,27            18.0590314138681,-33.0756297893822,27            18.0590651929379,-33.0756390932947,27            18.0590980499983,-33.0756571143866,27.2000007629395            18.0591283924878,-33.0756664182991,27.2000007629395            18.0591625068337,-33.0756828468293,27.3999996185303            18.0591915082186,-33.0756864510477,27.3999996185303            18.059226796031,-33.0757022928447,27.3999996185303            18.0592565517873,-33.0757158715278,27.3999996185303            18.0592905823141,-33.0757353175431,27.3999996185303            18.0593189969659,-33.075742777437,27.6000003814697            18.0593569669873,-33.0757607985288,27.6000003814697            18.0593874771148,-33.0757668334991,27.7999992370605            18.0594232678413,-33.0757874529809,27.7999992370605            18.0594475753605,-33.0757967568934,28            18.05948571302,-33.0758162029088,28            18.0595147144049,-33.0758219026029,28            18.059554528445,-33.0758343078196,28.2000007629395            18.0595830269158,-33.0758341401815,28.2000007629395            18.059628624469,-33.0758328828961,28.2000007629395            18.0596592184156,-33.0758211482316,28.3999996185303            18.0596939194947,-33.0758069828153,28.3999996185303            18.0597168859094,-33.0757900513709,28.6000003814697            18.0597399361432,-33.0757633130997,28.6000003814697            18.0597562808543,-33.0757414363325,28.7999992370605            18.0597678478807,-33.0757146142423,28.7999992370605            18.0597814265639,-33.0756909772754,29            18.0597900599241,-33.0756653286517,29.2000007629395            18.0598126072437,-33.0756349861622,29.3999996185303            18.0598233360797,-33.0756117682904,29.3999996185303            18.0598406028003,-33.0755878798664,29.6000003814697            18.0598608031869,-33.0755661707371,29.6000003814697            18.059916542843,-33.0755639914423,29.7999992370605            18.0599397607148,-33.0755529273301,30            18.0599779821932,-33.0755430366844,30            18.0600068159401,-33.075536834076,30.2000007629395            18.0600401759148,-33.07552610524,30.2000007629395            18.0600737035275,-33.0755179747939,30.3999996185303            18.0601051356643,-33.0755090061575,30.3999996185303            18.0601398367435,-33.0755001213402,30.6000003814697            18.0601621326059,-33.0754887219518,30.6000003814697            18.0601996835321,-33.0754783283919,30.7999992370605            18.0602194648236,-33.075468018651,30.7999992370605            18.0602530762553,-33.0754603073001,30.7999992370605            18.0602790601552,-33.0754497461021,31            18.0603142641485,-33.0754370056093,31.2000007629395            18.0603426788002,-33.0754235945642,31.2000007629395            18.0603706743568,-33.0754115246236,31.3999996185303            18.0604021903127,-33.0753999575973,31.6000003814697            18.06042406708,-33.0753823556006,31.7999992370605            18.0604580137879,-33.0753693636507,31.7999992370605            18.0604762863368,-33.0753530189395,32            18.0605149269104,-33.0753387697041,32            18.060540407896,-33.0753265321255,32.2000007629395            18.0605790484697,-33.0753128696233,32.4000015258789            18.0606053676456,-33.0753047391772,32.5999984741211            18.0606402363628,-33.0752907413989,32.5999984741211            18.0606693215668,-33.0752838682383,32.7999992370605            18.0606990773231,-33.0752704571933,33            18.060727994889,-33.0752597283572,33            18.0607520509511,-33.0752422939986,33            18.0607880931348,-33.0752288829535,33.2000007629395            18.0608095508069,-33.0752156395465,33.2000007629395            18.0608471855521,-33.0752033181489,33.4000015258789            18.0608666315675,-33.0751925054938,33.4000015258789            18.060902338475,-33.0751813575625,33.5999984741211            18.0609294958413,-33.0751702934504,33.5999984741211            18.0609597545117,-33.0751652643085,33.5999984741211            18.060992276296,-33.0751556251198,33.7999992370605            18.0610206071287,-33.0751443933696,33.7999992370605            18.0610566493124,-33.0751380231231,34            18.0610822141171,-33.0751260370016,34            18.0611237045377,-33.0751158948988,34.2000007629395            18.0611439049244,-33.0751062557101,34.4000015258789            18.0611842218786,-33.0750977899879,34.4000015258789            18.0612060986459,-33.0750904139131,34.5999984741211            18.0612423922867,-33.0750842113048,34.5999984741211            18.0612682923675,-33.0750787630677,34.7999992370605            18.0613021552563,-33.0750728957355,34.7999992370605            18.0613364372402,-33.0750666931272,35            18.0613655224443,-33.0750570539385,35.2000007629395            18.0613983795047,-33.0750509351492,35.2000007629395            18.0614252015948,-33.0750386975706,35.4000015258789            18.0614582262933,-33.0750298965722,35.5999984741211            18.0614787619561,-33.0750226881355,35.5999984741211            18.0615165643394,-33.0750196706504,35.5999984741211            18.0615400336683,-33.0750099476427,35.7999992370605            18.06157624349,-33.0750064272434,35.7999992370605            18.0616031493992,-33.0749998893589,36            18.0616359226406,-33.0749909207225,36.2000007629395            18.061668695882,-33.0749868135899,36.2000007629395            18.0616991221905,-33.0749779287726,36.4000015258789            18.0617303866893,-33.0749692954123,36.4000015258789            18.061753353104,-33.0749589018524,36.4000015258789            18.0617888923734,-33.0749537888914,36.5999984741211            18.0618100147694,-33.0749432276934,36.5999984741211            18.061845973134,-33.0749377794564,36.7999992370605            18.0618707835674,-33.07492881082,37            18.061909172684,-33.0749219376594,37            18.0619343183935,-33.0749122984707,37.2000007629395            18.0619638226926,-33.0749068502337,37.4000015258789            18.061991315335,-33.0749019887298,37.4000015258789            18.0620209034532,-33.0748941097409,37.5999984741211            18.0620530899614,-33.0748909246176,37.7999992370605            18.0620824266225,-33.0748820398003,37.7999992370605            18.0621146969497,-33.0748776812106,38            18.0621380824596,-33.07487080805,38            18.0621758010238,-33.0748682934791,38            18.0621981807053,-33.0748614203185,38.2000007629395            18.0622381623834,-33.0748578999192,38.4000015258789            18.0622612126172,-33.0748532898724,38.5999984741211            18.0622994340956,-33.0748525355011,38.5999984741211            18.0623290222138,-33.0748494341969,38.7999992370605            18.062361208722,-33.0748502723873,39            18.0623921379447,-33.0748513620347,39            18.0624195467681,-33.0748488474637,39.2000007629395            18.0624565947801,-33.0748512782156,39.2000007629395            18.0624807346612,-33.0748474225402,39.4000015258789            18.0625166092068,-33.0748457461596,39.5999984741211            18.0625410843641,-33.0748418066651,39.7999992370605            18.0625796411186,-33.0748437345028,40            18.0626018531621,-33.0748396273702,40            18.0626377277076,-33.0748430639505,40.2000007629395            18.0626640468836,-33.0748428963125,40.2000007629395            18.0626956466585,-33.0748429801315,40.4000015258789            18.062728503719,-33.0748446565121,40.5999984741211            18.0627578403801,-33.0748395435512,40.7999992370605            18.0627918709069,-33.0748373642564,41            18.0628161784261,-33.0748319998384,41            18.0628544837236,-33.0748300720006,41.2000007629395            18.0628802999854,-33.0748247075826,41.4000015258789            18.0629174318165,-33.0748203489929,41.5999984741211            18.0629414040595,-33.0748172476888,41.7999992370605            18.0629797931761,-33.0748164933175,41.7999992370605            18.0630085431039,-33.0748141463846,42            18.0630395561457,-33.0748111288995,42.2000007629395            18.06307207793,-33.0748117994517,42.2000007629395            18.0631032586098,-33.0748048424721,42.4000015258789            18.0631340201944,-33.0747983884066,42.5999984741211            18.0631573218852,-33.074788665399,42.7999992370605            18.0631915200502,-33.0747825466096,43            18.0632097087801,-33.0747747514397,43.4000015258789            18.0632440745831,-33.074765028432,43.5999984741211            18.0632659513503,-33.0747582390904,44            18.0632938630879,-33.0747417267412,44.2000007629395            18.0633177515119,-33.0747317522764,44.5999984741211            18.0633355211467,-33.0747181735933,44.7999992370605            18.0633633490652,-33.0747020803392,45            18.0633784364909,-33.074688417837,45            18.0634133052081,-33.0746718216687,45.2000007629395            18.0634323321283,-33.0746609251946,45.2000007629395            18.0634644348174,-33.0746458377689,45.2000007629395            18.0634899996221,-33.0746342707425,45.4000015258789            18.0635164026171,-33.0746226198971,45.4000015258789            18.0635577253997,-33.0746279843152,45.4000015258789            18.0635843798518,-33.0746190994978,45.5999984741211            18.0636232718825,-33.0746131483465,45.5999984741211            18.0636439751834,-33.0746022518724,45.5999984741211            18.0636841244996,-33.0745963845402,45.7999992370605            18.0637101083994,-33.0745915230364,46            18.0637424625456,-33.0745867453516,46.2000007629395            18.0637727212161,-33.0745822191238,46.4000015258789            18.0637971125543,-33.0745757650584,46.5999984741211            18.0638310592622,-33.0745744239539,46.7999992370605            18.0638520978391,-33.074569394812,47.2000007629395            18.0638890620321,-33.0745622701943,47.5999984741211            18.0639109387994,-33.0745560675859,48            18.0639492440969,-33.0745565705001,48.4000015258789            18.0639795027673,-33.0745579116046,48.7999992370605            18.0640069954097,-33.0745570734143,49            18.0640427023172,-33.0745636112988,49            18.0640665069222,-33.0745659582317,49            18.0641084164381,-33.074571993202,49            18.0641364119947,-33.0745758488774,49            18.0641677603126,-33.0745786987245,48.7999992370605            18.0642013717443,-33.0745788663626,48.7999992370605            18.0642232485116,-33.0745729152113,49            18.0642611347139,-33.0745672155172,49            18.0642832629383,-33.0745603423566,49.2000007629395            18.0643156170845,-33.0745522957295,49.4000015258789            18.0643436126411,-33.0745445005596,49.4000015258789            18.0643631424755,-33.0745301675051,49.5999984741211            18.0643886234611,-33.0745119787753,49.5999984741211            18.0643995199353,-33.0744937062263,49.5999984741211            18.0644224025309,-33.0744660459459,49.5999984741211            18.0644365679473,-33.074450623244,49.7999992370605            18.0644478835166,-33.0744270700961,49.7999992370605            18.0644637253135,-33.0744049418718,50            18.0644674133509,-33.0743824783713,50.2000007629395            18.0644839257002,-33.0743542313576,50.4000015258789            18.0644934810698,-33.0743362102658,50.4000015258789            18.0645130109042,-33.0743088014424,50.5999984741211            18.0645263381302,-33.0742906127125,50.5999984741211            18.0645391624421,-33.0742678139359,50.7999992370605            18.0645531602204,-33.0742450151592,50.7999992370605            18.064559949562,-33.0742249824107,50.7999992370605            18.0645778030157,-33.0741948075593,51            18.0645857658237,-33.0741772893816,51            18.0646038707346,-33.0741489585489,51.2000007629395            18.0646151863039,-33.0741288419813,51.4000015258789            18.0646248254925,-33.0741052050144,51.4000015258789            18.0646390747279,-33.0740782152861,51.5999984741211            18.064641924575,-33.074056673795,51.7999992370605            18.0646585207433,-33.0740243196487,51.7999992370605            18.0646660644561,-33.0740047059953,51.7999992370605            18.064676458016,-33.0739736929536,52            18.0646887794137,-33.0739488825202,52            18.0646901205182,-33.0739239044487,52            18.064697496593,-33.0738944839686,52            18.0646957363933,-33.0738735292107,52.2000007629395            18.0647067166865,-33.0738407559693,52.2000007629395            18.0647143442184,-33.0738223157823,52.2000007629395            18.064721217379,-33.0737939011306,52.2000007629395            18.0647311918437,-33.0737700965255,52.2000007629395            18.0647420044988,-33.0737462081015,52.2000007629395            18.0647719278932,-33.0737172905356,52.2000007629395            18.0647734366357,-33.0736949108541,52.2000007629395            18.0647932179272,-33.0736645683646,52.2000007629395            18.0648099817336,-33.0736450385302,52.2000007629395            18.0648255720735,-33.0736183840781,52.2000007629395            18.0648490414023,-33.0735982675105,52.4000015258789            18.0648660566658,-33.0735778156668,52.4000015258789            18.0648953095078,-33.0735565256327,52.5999984741211            18.0649092234671,-33.0735395941883,52.5999984741211            18.0649367161095,-33.0735183879733,52.7999992370605            18.0649518873543,-33.0735041387379,53            18.0649799667299,-33.0734851118177,53            18.0650051962584,-33.0734710302204,53.2000007629395            18.0650264862925,-33.0734533444047,53.4000015258789            18.0650565773249,-33.0734359100461,53.4000015258789            18.0650720838457,-33.073417050764,53.5999984741211            18.0651002470404,-33.0733937490731,53.7999992370605            18.0651175137609,-33.0733784940094,53.7999992370605            18.0651517957449,-33.0733607243747,53.7999992370605            18.0651776120067,-33.0733468104154,54            18.0651987344027,-33.0733293760568,54            18.0652268137783,-33.0733116902411,54            18.0652430746704,-33.0732966866344,54.2000007629395            18.0652716569602,-33.0732738040388,54.2000007629395            18.0652878340334,-33.0732621531934,54.4000015258789            18.0653189308941,-33.0732412822545,54.5999984741211            18.0653399694711,-33.073229631409,54.7999992370605            18.0653666239232,-33.0732096824795,54.7999992370605            18.0653929430991,-33.0731942597777,55            18.0654160771519,-33.0731779988855,55.2000007629395            18.0654440727085,-33.0731611512601,55.2000007629395            18.0654573999345,-33.073147656396,55.4000015258789            18.0654881615192,-33.0731282103807,55.5999984741211            18.0655026622117,-33.0731161404401,55.7999992370605            18.0655344296247,-33.0730961076915,56            18.065556390211,-33.0730857979506,56.2000007629395            18.0655830446631,-33.0730719678104,56.2000007629395            18.0656101182103,-33.0730596464127,56.4000015258789            18.0656286422163,-33.0730459000915,56.4000015258789            18.065662169829,-33.0730327405035,56.5999984741211            18.0656796880066,-33.0730200838298,56.7999992370605            18.0657126288861,-33.0730039905757,57.2000007629395            18.0657354276627,-33.0729986261576,57.4000015258789            18.0657601542771,-33.072986388579,57.5999984741211            18.0657895747572,-33.0729789286852,57.7999992370605            18.0658076796681,-33.0729653500021,58            18.0658420454711,-33.0729536991566,58            18.0658681131899,-33.0729463230819,58            18.0658940132707,-33.0729342531413,58            18.0659278761595,-33.0729272961617,58            18.0659497529268,-33.0729132145643,58            18.0659857112914,-33.0728987976909,58            18.0660100188106,-33.0728890746832,58            18.0660422053188,-33.072872646153,57.7999992370605            18.0660689435899,-33.0728552956134,58            18.0660898983479,-33.0728346761316,58            18.0661188159138,-33.0728131346405,58            18.0661344062537,-33.0727951973677,58            18.0661701131612,-33.0727769248188,58            18.0661945883185,-33.0727600771934,58.2000007629395            18.0662192311138,-33.0727425590158,58.2000007629395            18.0662452150136,-33.0727323330939,58.2000007629395            18.0662605538964,-33.0727148149163,58.4000015258789            18.066291064024,-33.0726940277964,58.4000015258789            18.0663065705448,-33.0726795271039,58.5999984741211            18.0663342308253,-33.0726555548608,58.5999984741211            18.0663587059826,-33.0726397130638,58.5999984741211            18.0663779843599,-33.072621608153,58.7999992370605            18.0664060637355,-33.0725988093764,58.7999992370605            18.0664214864373,-33.0725803691894,58.7999992370605            18.0664515774697,-33.0725580733269,58.7999992370605            18.0664775613695,-33.0725441593677,58.7999992370605            18.0665023718029,-33.0725228693336,58.7999992370605            18.0665247514844,-33.0725012440234,58.7999992370605            18.0665412638336,-33.0724755115807,59            18.0665720254183,-33.0724539700896,59            18.0665861070156,-33.0724344402552,59            18.0666165333241,-33.0724115576595,59            18.0666367337108,-33.0723961349577,59            18.0666568502784,-33.0723756831139,59.2000007629395            18.0666819121689,-33.0723569076508,59.2000007629395            18.0666931439191,-33.0723393056542,59.2000007629395            18.0667253304273,-33.072317596525,59.2000007629395            18.0667413398623,-33.0723029281944,59.2000007629395            18.0667637195438,-33.0722841527313,59.2000007629395            18.066790541634,-33.0722679756582,59.4000015258789            18.0668157711625,-33.0722474399954,59.4000015258789            18.0668426770717,-33.0722296703607,59.4000015258789            18.066861955449,-33.0722141638398,59.4000015258789            18.0668967403471,-33.0721918679774,59.4000015258789            18.066920209676,-33.072177618742,59.4000015258789            18.0669501330703,-33.0721572507173,59.4000015258789            18.0669790506363,-33.0721423309296,59.4000015258789            18.0670017655939,-33.0721240583807,59.4000015258789            18.0670331139117,-33.0721049476415,59.4000015258789            18.0670507997274,-33.0720914527774,59.4000015258789            18.0670881830156,-33.0720839090645,59.5999984741211            18.0671144183725,-33.0720752757043,59.5999984741211            18.0671476945281,-33.0720669776201,59.5999984741211            18.0671783722937,-33.0720629543066,59.7999992370605            18.0672062002122,-33.072055997327,59.7999992370605            18.0672443378717,-33.0720503814518,59.7999992370605            18.0672687292099,-33.0720399878919,60            18.067308710888,-33.0720368865877,60            18.0673432443291,-33.0720346234739,60            18.0673764366657,-33.0720298457891,60.2000007629395            18.0674153286964,-33.0720245651901,60.2000007629395            18.0674405582249,-33.0720134172589,60.4000015258789            18.0674809589982,-33.0720065440983,60.4000015258789            18.0675058532506,-33.0719924625009,60.4000015258789            18.0675444100052,-33.071976788342,60.5999984741211            18.0675772670656,-33.0719671491534,60.5999984741211            18.0676052626222,-33.0719568394125,60.7999992370605            18.0676385387778,-33.0719460267574,60.7999992370605            18.0676569789648,-33.0719364713877,60.7999992370605            18.0676925182343,-33.0719200428575,61            18.0677113775164,-33.0719064641744,61            18.0677418876439,-33.0718899518251,61            18.0677697155625,-33.0718819051981,61.2000007629395            18.0677951127291,-33.0718677397817,61.2000007629395            18.0678206775337,-33.071852484718,61.2000007629395            18.0678461585194,-33.0718375649303,61.4000015258789            18.0678801052272,-33.0718202143908,61.4000015258789            18.0679071787745,-33.0718098208308,61.5999984741211            18.0679425504059,-33.0717930570245,61.5999984741211            18.0679711326957,-33.0717848427594,61.7999992370605            18.0679987929761,-33.0717705097049,61.7999992370605            18.0680329911411,-33.0717620439827,61.7999992370605            18.0680567957461,-33.071752237156,61.7999992370605            18.0680953525007,-33.0717464536428,61.7999992370605            18.068119911477,-33.0717409215868,61.7999992370605            18.0681579653174,-33.07173631154,61.7999992370605            18.0681892298162,-33.0717342998832,62            18.0682185664773,-33.0717265885323,62            18.0682530160993,-33.0717294383794,62            18.0682771559805,-33.0717266723514,62            18.0683137010783,-33.0717372335494,62.2000007629395            18.0683422833681,-33.0717462860048,62.2000007629395            18.068376313895,-33.0717533268034,62.4000015258789            18.0684078298509,-33.0717669054866,62.4000015258789            18.068437082693,-33.0717648938298,62.5999984741211            18.068471448496,-33.0717793945223,62.5999984741211            18.0684957560152,-33.0717852618545,62.5999984741211            18.068532384932,-33.0717984214425,62.7999992370605            18.0685594584793,-33.0718079768121,62.7999992370605            18.0685938242823,-33.071818286553,62.7999992370605            18.0686239153147,-33.0718299373984,63            18.0686540063471,-33.0718353856355,63            18.0686900485307,-33.0718476232141,63            18.0687157809734,-33.0718530714512,63.2000007629395            18.0687534157187,-33.0718680750579,63.2000007629395            18.0687793996185,-33.0718813184649,63.4000015258789            18.0688106641173,-33.0718939751387,63.4000015258789            18.0688406713307,-33.0719075538218,63.4000015258789            18.0688693374395,-33.0719135049731,63.4000015258789            18.0689041223377,-33.0719278380275,63.4000015258789            18.0689304415137,-33.0719323642552,63.5999984741211            18.0689640529454,-33.0719466973096,63.7999992370605            18.0689918808639,-33.0719570070505,63.7999992370605            18.0690197926015,-33.0719669815153,64            18.0690465308726,-33.0719852540642,64.1999969482422            18.0690710060298,-33.0719938036054,64.4000015258789            18.06909782812,-33.0720185302198,64.4000015258789            18.0691187828779,-33.0720320250839,64.5999984741211            18.0691439285874,-33.0720506329089,64.5999984741211            18.0691645480692,-33.0720721744001,64.8000030517578            18.0691830720752,-33.0720901954919,64.8000030517578            18.0692026857287,-33.0721174366772,64.8000030517578            18.0692243948579,-33.0721336975694,65            18.069245768711,-33.0721595976502,65.1999969482422            18.0692640412599,-33.0721763614565,65.1999969482422            18.0692920368165,-33.0722015909851,65.4000015258789            18.0693123210222,-33.0722239706665,65.5999984741211            18.0693325214088,-33.0722396448255,65.5999984741211            18.0693556554615,-33.0722655449063,65.5999984741211            18.0693733412772,-33.0722787883133,65.5999984741211            18.0694025941193,-33.0723004136235,65.5999984741211            18.0694302543998,-33.0723154172301,65.5999984741211            18.0694554001093,-33.0723274033517,65.5999984741211            18.0694860778749,-33.0723460949957,65.5999984741211            18.0695119779557,-33.0723566561937,65.5999984741211            18.0695401411504,-33.0723709054291,65.5999984741211            18.0695663765073,-33.0723859928548,65.5999984741211            18.0695912707597,-33.0724082048982,65.5999984741211            18.0696124769747,-33.0724315904081,65.5999984741211            18.0696337670088,-33.0724461749196,65.8000030517578            18.0696576554328,-33.0724729970098,65.8000030517578            18.0696750059724,-33.0724911019206,65.8000030517578            18.0696942843497,-33.0725164152682,66            18.0697075277567,-33.0725380405784,66            18.069724291563,-33.0725594144315,66            18.0697312485427,-33.0725882481784,66.1999969482422            18.0697444081306,-33.0726068560034,66.1999969482422            18.0697542149574,-33.0726373661309,66.4000015258789            18.0697655305266,-33.0726550519466,66.4000015258789            18.0697807855904,-33.07268246077,66.4000015258789            18.0697885807604,-33.072708779946,66.4000015258789            18.0698010697961,-33.0727324169129,66.4000015258789            18.0698101222515,-33.0727609153837,66.5999984741211            18.0698214378208,-33.0727767571807,66.5999984741211            18.0698335077614,-33.072806764394,66.8000030517578            18.0698480922729,-33.072832999751,66.8000030517578            18.0698644369841,-33.0728618334979,66.8000030517578            18.0698770936579,-33.0728896614164,67            18.06989335455,-33.072912376374,67            18.0698991380632,-33.0729422997683,67            18.0699085257947,-33.0729627516121,67.1999969482422            18.0699190031737,-33.0729962792248,67.1999969482422            18.0699317436665,-33.0730140488595,67.1999969482422            18.0699458252639,-33.0730433855206,67.4000015258789            18.0699589848518,-33.0730665195733,67.5999984741211            18.0699740722775,-33.0730915814638,67.8000030517578            18.0699812807143,-33.0731214210391,68            18.0699939373881,-33.0731401126832,68.1999969482422            18.0700073484331,-33.0731724668294,68.4000015258789            18.0700220167637,-33.0731920804828,68.4000015258789            18.0700441449881,-33.0732223391533,68.5999984741211            18.0700556281954,-33.0732469819486,68.8000030517578            18.070072978735,-33.0732675176114,68.8000030517578            18.0700914189219,-33.0732963513583,68.8000030517578            18.0701076798141,-33.073314120993,68.8000030517578            18.0701288860291,-33.0733415298164,69            18.0701449792832,-33.0733604729176,68.8000030517578            18.070168113336,-33.0733807571232,68.8000030517578            18.0701827816665,-33.0734056513757,68.8000030517578            18.0701983720064,-33.0734195653349,69            18.0702218413353,-33.0734478123486,69            18.0702397786081,-33.0734592117369,69            18.0702650919557,-33.0734818428755,69.1999969482422            18.0702831968665,-33.0735012888908,69.1999969482422            18.0703048221767,-33.0735181365162,69.4000015258789            18.0703235976398,-33.0735449586064,69.4000015258789            18.0703410319984,-33.0735579505563,69.5999984741211            18.0703623220325,-33.0735845211893,69.5999984741211            18.0703828576952,-33.0736017040908,69.8000030517578            18.0704063270241,-33.0736244190484,69.8000030517578            18.0704227555543,-33.0736473854631,70            18.0704419501126,-33.073663059622,70            18.0704617314041,-33.0736881215125,70.1999969482422            18.0704821832478,-33.0737038794905,70.1999969482422            18.0705028027296,-33.0737226549536,70.4000015258789            18.0705188121647,-33.0737433582544,70.4000015258789            18.0705378390849,-33.0737632233649,70.4000015258789            18.0705596320331,-33.0737835075706,70.5999984741211            18.0705737974495,-33.0737948231399,70.8000030517578            18.0705939978361,-33.0738274287432,70.8000030517578            18.0706123542041,-33.0738429352641,71            18.0706340633333,-33.073869086802,71.1999969482422            18.070646636188,-33.0738948192447,71.4000015258789            18.070662477985,-33.0739151872694,71.5999984741211            18.0706762243062,-33.0739477928728,71.8000030517578            18.0706926528364,-33.0739648919553,72            18.0707074888051,-33.0739968270063,72.1999969482422            18.0707146972418,-33.0740204639733,72.4000015258789            18.0707261804491,-33.0740474537015,72.4000015258789            18.0707309581339,-33.0740767903626,72.5999984741211            18.070744452998,-33.0740953143686,72.5999984741211            18.0707475543022,-33.0741290934384,72.5999984741211            18.070757528767,-33.074149210006,72.5999984741211            18.0707690119743,-33.074180809781,72.5999984741211            18.0707782320678,-33.0742029380053,72.8000030517578            18.070791810751,-33.0742254015058,72.8000030517578            18.0708034615964,-33.074257504195,72.8000030517578            18.0708188004792,-33.0742824822664,73            18.070834307,-33.0743091367185,73            18.0708491429687,-33.0743267387152,73            18.0708713550121,-33.0743515491486,73.1999969482422            18.0708944890648,-33.0743676424026,73.1999969482422            18.070918880403,-33.0743794608861,73.4000015258789            18.0709442775697,-33.0743926204741,73.4000015258789            18.0709671601653,-33.0743944644928,73.5999984741211            18.0710029508919,-33.0744050256908,73.8000030517578            18.071027258411,-33.0744120664895,74            18.0710611212999,-33.0744191072881,74            18.0710928887129,-33.0744298361242,74            18.0711174476892,-33.0744284950197,74            18.0711574293673,-33.0744370445609,74            18.0711824074388,-33.0744430795312,73.8000030517578            18.0712178628892,-33.0744565743953,74            18.07124636136,-33.0744724161923,74            18.0712716747075,-33.0744856595993,74.1999969482422            18.0712892767042,-33.0745093803853,74.1999969482422            18.071304531768,-33.0745309218764,74.4000015258789            18.0713048670441,-33.074564030394,74.4000015258789            18.0713075492531,-33.0745857395232,74.4000015258789            18.0713002569973,-33.0746152438223,74.5999984741211            18.0712820682675,-33.0746392160654,74.8000030517578            18.0712726805359,-33.0746656190604,75            18.0712446849793,-33.0746889207512,75.1999969482422            18.0712325312197,-33.0747087020427,75.4000015258789            18.0712092295289,-33.0747341830283,75.5999984741211            18.0711904540658,-33.0747542157769,75.5999984741211            18.0711772944778,-33.0747742485255,75.8000030517578            18.071151226759,-33.0748023279011,76            18.0711412522942,-33.0748253781348,76            18.0711164418608,-33.074849518016,76            18.0710962414742,-33.0748709756881,76            18.0710764601827,-33.0748906731606,76            18.0710532423109,-33.0749128013849,76            18.0710435193032,-33.0749322474003,76            18.0710182059556,-33.0749598238617,76            18.0710050463676,-33.07497642003,76.1999969482422            18.0709854327142,-33.0750008951873,76.4000015258789            18.0709655676037,-33.0750220175833,76.4000015258789            18.0709464568645,-33.0750423017889,76.5999984741211            18.0709166172892,-33.0750643461943,76.5999984741211            18.0709041282535,-33.0750876478851,76.5999984741211            18.0708831734955,-33.0751130450517,76.5999984741211            18.0708529986441,-33.0751364305615,76.4000015258789            18.070839587599,-33.0751564633101,76.1999969482422            18.0708062276244,-33.0751779209822,76.1999969482422            18.0707869492471,-33.0751959420741,76            18.0707577802241,-33.0752158910036,76            18.0707221571356,-33.0752266198397,76            18.0706955026835,-33.0752416234463,76            18.070651832968,-33.0752449762076,75.8000030517578            18.0706246756017,-33.0752450600266,76            18.0705851130188,-33.0752468202263,76            18.0705476459116,-33.0752383545041,75.8000030517578            18.0705121066421,-33.0752344150096,75.8000030517578            18.0704681854695,-33.0752224288881,75.8000030517578            18.070440525189,-33.0752147175372,75.5999984741211            18.0704040639102,-33.0752118676901,75.5999984741211            18.0703670158982,-33.075208934024,75.5999984741211            18.0703380145133,-33.0752112809569,75.5999984741211            18.0702931713313,-33.0752106104046,75.5999984741211            18.0702639184892,-33.0752057489008,75.5999984741211            18.0702282115817,-33.0752060003579,75.5999984741211            18.0701914150268,-33.0752061679959,75.5999984741211            18.0701639223844,-33.0752179026604,75.4000015258789            18.0701186601073,-33.0752206686884,75.4000015258789            18.0700891558081,-33.0752278771251,75.4000015258789            18.0700504314154,-33.0752343311906,75.4000015258789            18.0700130481273,-33.0752405337989,75.4000015258789            18.0699855554849,-33.075251178816,75.4000015258789            18.0699429754168,-33.0752496700734,75.4000015258789            18.0699133034796,-33.0752503406256,75.1999969482422            18.0698744114488,-33.0752484127879,75.1999969482422            18.0698356870562,-33.0752425454557,75.4000015258789            18.0698029976338,-33.0752432160079,75.4000015258789            18.0697588250041,-33.0752441380173,75.4000015258789            18.0697316676378,-33.0752442218363,75.4000015258789            18.0696916021407,-33.0752471555024,75.1999969482422            18.0696515366435,-33.0752521008253,75.1999969482422            18.0696201045066,-33.0752658471465,75            18.0695775244385,-33.0752834491432,75            18.0695501156151,-33.0752992071211,74.8000030517578            18.0695149116218,-33.0753167252988,74.5999984741211            18.0694876704365,-33.0753325670958,74.4000015258789            18.069462608546,-33.0753525160253,74.4000015258789            18.0694284103811,-33.0753694474697,74.1999969482422            18.0694100540131,-33.0753857083619,74.1999969482422            18.0693732574582,-33.0754074174911,74.1999969482422            18.0693478602916,-33.0754227563739,74.1999969482422            18.0693222954869,-33.0754432920367,74.1999969482422            18.0692875944078,-33.0754621513188,74.1999969482422            18.0692688189447,-33.0754846986383,74.1999969482422            18.0692310165614,-33.0755073297769,74            18.0692106485367,-33.0755221657455,74            18.0691827367991,-33.0755448807031,74            18.0691565852612,-33.0755668412894,74            18.0691411625594,-33.0755906458944,73.8000030517578            18.0691113229841,-33.0756174679846,73.8000030517578            18.0690956488252,-33.0756388418376,73.5999984741211            18.069076789543,-33.0756656639278,73.5999984741211            18.0690586008132,-33.0756930727512,73.5999984741211            18.069063462317,-33.07572693564,73.4000015258789            18.0690512247384,-33.075766665861,73.4000015258789            18.0690515600145,-33.0757910571992,73.1999969482422            18.0690463632345,-33.0758244171739,73.1999969482422            18.0690399929881,-33.0758550111204,73            18.0690367240459,-33.0758845154196,73            18.0690231453627,-33.075919803232,73            18.0690249055624,-33.0759450327605,73            18.0690203793347,-33.0759799014777,73            18.0690127518028,-33.0760073941201,73            18.0690125841647,-33.0760406702757,73            18.0689993407577,-33.0760792270303,73            18.0690035317093,-33.076110240072,72.8000030517578            18.0689964070916,-33.0761467851698,72.8000030517578            18.0689938087016,-33.0761744454503,72.8000030517578            18.068992048502,-33.0762068834156,72.8000030517578            18.0689777154475,-33.0762399919331,72.5999984741211            18.0689799785614,-33.0762659758329,72.5999984741211            18.0689720157534,-33.0763014312834,72.5999984741211            18.0689650587738,-33.0763254873455,72.4000015258789            18.068962963298,-33.0763563327491,72.4000015258789            18.0689479596913,-33.0763893574476,72.4000015258789            18.0689503904432,-33.0764176044613,72.1999969482422            18.068923400715,-33.0764529760927,72.1999969482422            18.0689078941941,-33.0764763616025,72            18.0688846763223,-33.0765059497207,71.8000030517578            18.0688560102135,-33.076527910307,71.8000030517578            18.0688359774649,-33.0765504576266,71.4000015258789            18.06879658252,-33.0765747651458,71.1999969482422            18.0687645636499,-33.0765958875418,71            18.0687200557441,-33.0766095500439,71            18.0686834268272,-33.0766188539565,70.8000030517578            18.068651072681,-33.0766354501247,70.5999984741211            18.0686078220606,-33.0766502860934,70.4000015258789            18.0685770604759,-33.0766640324146,70.1999969482422            18.0685386713594,-33.0766807962209,70            18.0685082450509,-33.0766983143985,69.8000030517578            18.0684845242649,-33.0767199397087,69.8000030517578            18.06844772771,-33.0767434090376,69.5999984741211            18.0684280302376,-33.0767702311277,69.4000015258789            18.0684034712613,-33.0767991486937,69.1999969482422            18.0683797504753,-33.0768233723939,69            18.0683634895831,-33.0768523737788,68.8000030517578            18.068328704685,-33.0768851470202,68.4000015258789            18.0683152936399,-33.0769076105207,68.1999969482422            18.0682878848165,-33.0769354384392,68            18.0682581290603,-33.076955806464,67.8000030517578            18.0682404432446,-33.0769801139832,67.5999984741211            18.0682075023651,-33.0770071875304,67.4000015258789            18.0681904032826,-33.0770249571651,67.4000015258789            18.0681636650115,-33.0770555511117,67.1999969482422            18.0681356694549,-33.0770793557167,67            18.0681198276579,-33.0771037470549,66.8000030517578            18.0680814385414,-33.0771326646209,66.8000030517578            18.0680612381548,-33.0771573912352,66.5999984741211            18.0680341646075,-33.0771866440773,66.4000015258789            18.0680074263364,-33.0772102810442,66.1999969482422            18.067990578711,-33.0772362649441,66            18.0679555423558,-33.0772615782917,65.8000030517578            18.0679311510175,-33.0772841256112,65.5999984741211            18.0679051671177,-33.077310025692,65.5999984741211            18.0678971204907,-33.0773397814482,65.4000015258789            18.0678827036172,-33.0773702077568,65.1999969482422            18.0678628385067,-33.077400047332,65            18.0678563006222,-33.0774267856032,64.8000030517578            18.067842554301,-33.0774701200426,64.5999984741211            18.0678404588252,-33.0774993728846,64.4000015258789            18.0678449850529,-33.0775377620012,64.4000015258789            18.0678482539952,-33.0775700323284,64.1999969482422            18.0678647663444,-33.0776026379317,64            18.0678788479418,-33.0776410270482,64            18.0678940191865,-33.0776629876345,64            18.0679154768586,-33.0777007900178,64            18.0679253675044,-33.0777293723077,64            18.0679374374449,-33.0777602177113,64            18.0679470766336,-33.0777924042195,64.1999969482422            18.0679607391357,-33.0778161250055,64.1999969482422            18.0679661873728,-33.0778552684933,64.4000015258789            18.0679770000279,-33.0778793245554,64.4000015258789            18.0679953563958,-33.0779110919684,64.5999984741211            18.0680082645267,-33.0779372435063,64.5999984741211            18.068030057475,-33.0779666639864,64.8000030517578            18.0680447258055,-33.077997090295,64.8000030517578            18.0680652614683,-33.0780228227377,65            18.0680827796459,-33.078057859093,65            18.0680966097862,-33.0780797358602,64.8000030517578            18.068114630878,-33.0781100783497,64.8000030517578            18.0681166425347,-33.0781490541995,64.5999984741211            18.0681244377047,-33.0781816598028,64            18.068130472675,-33.0782265029848,63.7999992370605            18.0681434646249,-33.0782553367317,63.2000007629395            18.0681519303471,-33.0782943964005,62.7999992370605            18.068167436868,-33.0783178657293,62.5999984741211            18.0681795068085,-33.0783526506275,62.4000015258789            18.0681831110269,-33.0783853400499,62.4000015258789            18.068194007501,-33.0784162692726,62.4000015258789            18.0681911576539,-33.078454323113,62.2000007629395            18.0682012159377,-33.0784870963544,62.2000007629395            18.0682030599564,-33.0785239767283,62.2000007629395            18.0682101845741,-33.0785518046468,62            18.0682138726115,-33.0785856675357,62            18.0682083405554,-33.0786290019751,62            18.0682106036693,-33.0786644574255,61.7999992370605            18.0681972764432,-33.0787074565887,61.5999984741211            18.0681947618723,-33.078737128526,61.4000015258789            18.0681824404746,-33.07876881212,61.4000015258789            18.0681660119444,-33.0788013339043,61.2000007629395            18.068162323907,-33.078829748556,61            18.0681415367872,-33.0788659583777,60.7999992370605            18.0681361723691,-33.0788925290108,60.7999992370605            18.068125275895,-33.0789299961179,60.5999984741211            18.0681101046503,-33.0789647810161,60.4000015258789            18.0680986214429,-33.0789954587817,60.2000007629395            18.0680738110095,-33.0790320038795,60            18.0680654291064,-33.079059580341,59.7999992370605            18.0680355895311,-33.0790905095637,59.5999984741211            18.0680125392973,-33.0791086144745,59.4000015258789            18.067982448265,-33.079136358574,59.4000015258789            18.0679492559284,-33.0791585706174,59.2000007629395            18.0679260380566,-33.0791806150228,59            18.0678998026997,-33.0792066827416,58.7999992370605            18.0678733158857,-33.0792307388037,58.7999992370605            18.0678207613528,-33.0792407132685,58.5999984741211            18.067786898464,-33.0792583152652,58.4000015258789            18.0677591543645,-33.0792804434896,58.4000015258789            18.0677205137908,-33.0793023202568,58.2000007629395            18.0676953680813,-33.079324029386,58.2000007629395            18.0676554702222,-33.0793449003249,58.2000007629395            18.0676304921508,-33.0793629214168,57.7999992370605            18.0676026642323,-33.0793884862214,57.5999984741211            18.0675660353154,-33.0794101115316,57.4000015258789            18.067543823272,-33.0794288031757,57.2000007629395            18.0674991477281,-33.0794583912939,56.7999992370605            18.0674688890576,-33.0794768314809,56.5999984741211            18.0674317572266,-33.079498456791,56.4000015258789            18.06739856489,-33.0795171484351,56            18.0673701502383,-33.0795418750495,56            18.0673317611217,-33.0795640870929,55.7999992370605            18.0673118121922,-33.0795851256698,55.7999992370605            18.0672708246857,-33.0796042364091,55.5999984741211            18.067245176062,-33.0796203296632,55.5999984741211            18.0672140792012,-33.0796396080405,55.4000015258789            18.067176528275,-33.0796562042087,55.2000007629395            18.06715272367,-33.0796804279089,55            18.067113161087,-33.079704483971,55            18.0670898593962,-33.0797236785293,54.7999992370605            18.0670502129942,-33.0797433760017,54.5999984741211            18.0670170206577,-33.0797616485506,54.4000015258789            18.0669867619872,-33.0797815136611,54.2000007629395            18.0669498816133,-33.0798028875142,53.7999992370605            18.0669267475605,-33.0798298772424,53.5999984741211            18.0668859276921,-33.0798568669707,53.5999984741211            18.0668604467064,-33.0798777379096,53.4000015258789            18.0668229795992,-33.0798988603055,53.4000015258789            18.0667923856527,-33.0799165461212,53.2000007629395            18.06676145643,-33.0799400154501,53.2000007629395            18.0667265038937,-33.0799592100084,53.2000007629395            18.06670345366,-33.0799813382328,53.2000007629395            18.0666642263532,-33.0800023768097,53.2000007629395            18.0666448641568,-33.0800250079483,53.2000007629395            18.0666091572493,-33.0800497345626,53.2000007629395            18.0665835924447,-33.0800607148558,53            18.06655542925,-33.0800778977573,53            18.0665232427418,-33.0800949968398,52.7999992370605            18.0665021203458,-33.0801161192358,52.7999992370605            18.0664645694196,-33.0801392532885,52.7999992370605            18.0664423573762,-33.0801571067423,52.7999992370605            18.0664044711739,-33.0801772233099,52.7999992370605            18.0663727875799,-33.0801973398775,52.5999984741211            18.0663410201669,-33.0802234075963,52.5999984741211            18.0663037206978,-33.0802470445633,52.2000007629395            18.066277820617,-33.0802733637393,51.7999992370605            18.0662353243679,-33.0802987609059,51.4000015258789            18.0662075802684,-33.0803165305406,51.2000007629395            18.0661679338664,-33.0803340487182,51            18.0661370884627,-33.080351902172,51            18.0661070812494,-33.0803711805493,51            18.066069111228,-33.0803911294788,50.7999992370605            18.066042708233,-33.0804110784084,50.7999992370605            18.0660033132881,-33.0804373975843,50.5999984741211            18.0659748986363,-33.0804507248104,50.4000015258789            18.0659458134323,-33.0804773792624,50.4000015258789            18.0659163091332,-33.0805024411529,50.4000015258789            18.0658832006156,-33.0805069673806,50.4000015258789            18.0658539477736,-33.0805275868624,50.5999984741211            18.0658437218517,-33.0805479548872,50.7999992370605            18.0658242758363,-33.0805718433112,51            18.0658093560487,-33.0805901158601,51            18.0657775886357,-33.0806070473045,51.2000007629395            18.065746743232,-33.0806271638721,51.4000015258789            18.065722854808,-33.080647950992,51.2000007629395            18.0656798556447,-33.0806702468544,51.2000007629395            18.0656558834016,-33.0806896928698,51            18.0656210146844,-33.0807142518461,50.7999992370605            18.0655860621482,-33.0807312671095,50.4000015258789            18.0655585695058,-33.0807555746287,50.2000007629395            18.0655209347606,-33.0807756073773,50            18.0655003990978,-33.0807963944972,50            18.0654593277723,-33.0808139964938,49.7999992370605            18.0654366128147,-33.0808294191957,49.7999992370605            18.065403001383,-33.0808501224965,49.7999992370605            18.0653730779886,-33.0808666348457,49.5999984741211            18.0653439089656,-33.0808869190514,49.5999984741211            18.0653094593436,-33.0809080414474,49.5999984741211            18.0652875825763,-33.0809242185205,49.5999984741211            18.0652474332601,-33.0809450894594,49.5999984741211            18.0652294121683,-33.0809660442173,49.7999992370605            18.0651939567179,-33.0809860769659,49.7999992370605            18.0651664640754,-33.0809996556491,49.7999992370605            18.0651322659105,-33.0810157489032,49.7999992370605            18.0651010852307,-33.0810320097953,50            18.0650775320828,-33.0810540542006,50            18.0650402326137,-33.0810723267496,50            18.0650169309229,-33.0810937844217,50.2000007629395            18.0649843253195,-33.0811114702374,50.2000007629395            18.0649601016194,-33.0811252165586,50.4000015258789            18.0649331957102,-33.0811429861933,50.4000015258789            18.0649020988494,-33.0811599176377,50.5999984741211            18.0648814793676,-33.0811776872724,50.5999984741211            18.0648473650217,-33.0811998154968,50.7999992370605            18.0648276675493,-33.0812200158834,50.7999992370605            18.0647948104888,-33.0812378693372,51            18.0647710058838,-33.0812526214868,51            18.0647414177656,-33.0812734924257,51.2000007629395            18.064713422209,-33.0812933575362,51.2000007629395            18.0646926350892,-33.0813123844564,51.2000007629395            18.0646555870771,-33.0813321657479,51.2000007629395            18.0646347161382,-33.0813503544778,51.2000007629395            18.0645958241075,-33.0813688784838,51.2000007629395            18.0645632185042,-33.0813749134541,51            18.0645222309977,-33.0813766736537,51            18.0644878651947,-33.0813595745713,51            18.0644571874291,-33.0813479237258,51            18.0644228216261,-33.0813283938915,51            18.0643973406404,-33.0813186708838,51.2000007629395            18.0643617175519,-33.0812933575362,51.2000007629395            18.0643375776708,-33.0812792759389,51.4000015258789            18.0643043015152,-33.081263853237,51.4000015258789            18.0642731208354,-33.0812489334494,51.4000015258789            18.0642406828701,-33.0812396295369,51.4000015258789            18.0642110109329,-33.0812201835215,51.5999984741211            18.0641846079379,-33.0812128074467,51.5999984741211            18.0641565285623,-33.0812009051442,51.5999984741211            18.0641282815486,-33.081187075004,51.5999984741211            18.0640914849937,-33.0811480991542,51.5999984741211            18.0640663392842,-33.0811268091202,51.5999984741211            18.0640370026231,-33.0811083689332,51.5999984741211            18.0640012957156,-33.0810878332704,51.5999984741211            18.0639729648829,-33.081078696996,51.5999984741211            18.0639386828989,-33.0810563173145,51.5999984741211            18.0639141239226,-33.0810480192304,51.5999984741211            18.0638800095767,-33.0810240469873,51.7999992370605            18.0638549476862,-33.0810035113245,51.7999992370605            18.0638248566538,-33.080989010632,51.7999992370605            18.0637873057276,-33.0809767730534,51.7999992370605            18.0637585557997,-33.0809758510441,51.7999992370605            18.0637128744274,-33.0809686426073,51.7999992370605            18.0636835377663,-33.0809647031128,51.7999992370605            18.063645735383,-33.0809631105512,51.5999984741211            18.0636078491807,-33.0809547286481,51.5999984741211            18.0635744892061,-33.0809521302581,51.4000015258789            18.0635277181864,-33.0809459276497,51.2000007629395            18.0635008960962,-33.0809463467449,51            18.0634507723153,-33.0809381324798,51            18.0634148977697,-33.0809337738901,50.7999992370605            18.0633719824255,-33.0809315107763,50.5999984741211            18.0633295699954,-33.0809262301773,50.2000007629395            18.0632932763547,-33.0809298343956,50.2000007629395            18.0632517021149,-33.0809150822461,50            18.0632225330919,-33.0809091310948,50            18.0631781090051,-33.0808916967362,49.7999992370605            18.0631475150585,-33.080880464986,49.7999992370605            18.0631042644382,-33.0808681435883,49.5999984741211            18.0630658753216,-33.080854229629,49.4000015258789            18.0630293302238,-33.0808467697352,49            18.0629845708609,-33.0808357894421,48.7999992370605            18.0629449244589,-33.0808281619102,48.5999984741211            18.0629000812769,-33.0808181036264,48.4000015258789            18.0628675594926,-33.0808059498668,48.2000007629395            18.0628213752061,-33.0807983223349,48            18.0627827346325,-33.0808027647436,47.7999992370605            18.0627466924489,-33.080822462216,47.5999984741211            18.062712745741,-33.0808471050113,47.4000015258789            18.0627011787146,-33.0808745976537,47.2000007629395            18.0626823194325,-33.0809080414474,47            18.0626815650612,-33.0809379648417,46.7999992370605            18.0626666452736,-33.0809721630067,46.7999992370605            18.0626506358385,-33.0809989850968,46.7999992370605            18.0626354645938,-33.081031255424,46.7999992370605            18.0626029428095,-33.0810612626374,46.5999984741211            18.0625876877457,-33.0810905154794,46.4000015258789            18.0625498015434,-33.0811211932451,46            18.0625249072909,-33.0811415612698,45.7999992370605            18.0624915473163,-33.0811664555222,45.5999984741211            18.0624604504555,-33.0811885837466,45.4000015258789            18.0624327901751,-33.0812144000083,45.4000015258789            18.0623992625624,-33.0812342651188,45.2000007629395            18.0623766314238,-33.0812575668097,45.2000007629395            18.0623393319547,-33.0812864005566,45.2000007629395            18.0623218975961,-33.0813105404377,45            18.0622947402298,-33.081343146041,44.7999992370605            18.0622747913003,-33.0813707225025,44.5999984741211            18.0622618831694,-33.0813967064023,44.4000015258789            18.0622447002679,-33.0814256239682,44.2000007629395            18.0622278526425,-33.0814533680677,44            18.0621917266399,-33.0814820341766,44            18.0621906369925,-33.0815165676177,43.7999992370605            18.0621616356075,-33.0815521907061,43.5999984741211            18.0621464643627,-33.0815780069679,43.4000015258789            18.0621211510152,-33.0816059187055,43.2000007629395            18.062094328925,-33.081631148234,43            18.0620670039207,-33.0816554557532,42.7999992370605            18.0620219092816,-33.0816717166454,42.7999992370605            18.0619901418686,-33.0816863849759,42.5999984741211            18.0619390122592,-33.0816869717091,42.4000015258789            18.0619031377137,-33.0816869717091,42            18.0618628207594,-33.0816742312163,41.7999992370605            18.0618277005851,-33.0816519353539,41.5999984741211            18.0617934186012,-33.0816251970828,41.5999984741211            18.0617678537965,-33.0815966147929,41.4000015258789            18.0617448035628,-33.0815784260631,41.4000015258789            18.0617174785584,-33.0815481673926,41.4000015258789            18.0616907402873,-33.0815342534333,41.2000007629395            18.0616623256356,-33.0815113708377,41.2000007629395            18.0616380181164,-33.0814853869379,41            18.0616091005504,-33.0814604926854,41            18.0615863855928,-33.0814334191382,41            18.0615651793778,-33.0814074352384,40.7999992370605            18.0615422129631,-33.0813743267208,40.7999992370605            18.0615195818245,-33.0813560541719,40.7999992370605            18.0614893231541,-33.0813278071582,40.7999992370605            18.0614682007581,-33.0813071038574,40.5999984741211            18.061436265707,-33.0812782701105,40.5999984741211            18.0614074319601,-33.08125580661,40.4000015258789            18.0613762512803,-33.0812361091375,40.2000007629395            18.0613460764289,-33.0812105443329,40            18.0613127164543,-33.0811939481646,39.7999992370605            18.0612779315561,-33.081173915416,39.7999992370605            18.0612456612289,-33.0811682995409,39.5999984741211            18.0612041708082,-33.0811424832791,39.4000015258789            18.0611719843,-33.0811320059001,39.4000015258789            18.0611340142787,-33.081115828827,39.2000007629395            18.0611017439514,-33.0810962989926,39            18.061066120863,-33.081083977595,39            18.0610299110413,-33.0810701474547,38.7999992370605            18.0609968863428,-33.081068135798,38.4000015258789            18.0609486065805,-33.0810616817325,38.2000007629395            18.0609176773578,-33.081063022837,38            18.0608694814146,-33.0810641963035,37.7999992370605            18.0608366243541,-33.0810639448464,37.4000015258789            18.0607958044857,-33.0810728296638,37.2000007629395            18.0607559066266,-33.0810833070427,37            18.0607202835381,-33.0810974724591,36.7999992370605            18.0606729257852,-33.08110518381,36.5999984741211            18.0606439244002,-33.0811199359596,36.5999984741211            18.0605966504663,-33.0811314191669,36.4000015258789            18.0605672299862,-33.0811464227736,36.2000007629395            18.0605155136436,-33.0811584927142,36            18.0604840815067,-33.0811672098935,35.7999992370605            18.0604391545057,-33.0811720713973,35.5999984741211            18.0604008492082,-33.0811798665673,35.4000015258789            18.0603581853211,-33.0811899248511,35.4000015258789            18.0603190418333,-33.0811934452504,35.2000007629395            18.0602907110006,-33.0811993125826,35            18.0602525733411,-33.0812021624297,34.7999992370605            18.060215190053,-33.0812036711723,34.7999992370605            18.0601575225592,-33.081195121631,34.5999984741211            18.0601234920323,-33.0811929423362,34.4000015258789            18.0600756313652,-33.0811874940991,34.4000015258789            18.0600359011441,-33.0811815429479,34.2000007629395            18.0599944945425,-33.0811812914908,34            18.0599555186927,-33.0811717361212,34            18.0599183030427,-33.0811683833599,33.7999992370605            18.0598753038794,-33.0811609234661,33.5999984741211            18.0598437041044,-33.0811599176377,33.5999984741211            18.0597995314747,-33.0811484344304,33.4000015258789            18.059768518433,-33.0811399687082,33.2000007629395            18.059726273641,-33.0811272282153,33.2000007629395            18.0596931651235,-33.0811152420938,33            18.0596564523876,-33.0811009928584,33            18.0596263613552,-33.0810797028244,33            18.0595952644944,-33.0810685548931,33            18.0595608148724,-33.0810433253646,33            18.0595327354968,-33.0810245499015,32.7999992370605            18.0595013871789,-33.0809921119362,32.5999984741211            18.0594785045832,-33.0809621885419,32.4000015258789            18.0594500899315,-33.0809356179088,32.2000007629395            18.0594211723655,-33.0809051077813,32            18.0593857169151,-33.0808940436691,31.7999992370605            18.0593391973525,-33.0808763578534,31.6000003814697            18.0593122914433,-33.0808667186648,31.3999996185303            18.059266358614,-33.0808476079255,31.2000007629395            18.0592365190387,-33.080838136375,31.2000007629395            18.0591915082186,-33.0808308441192,31.2000007629395            18.0591511912644,-33.0808297544718,30.7999992370605            18.0591107066721,-33.0808317661285,30.6000003814697            18.0590689647943,-33.0808270722628,30.6000003814697            18.0590382032096,-33.0808326881379,30.3999996185303            18.058991683647,-33.0808300897479,30.3999996185303            18.0589562281966,-33.080832939595,30.3999996185303            18.0589064396918,-33.0808283295482,30.3999996185303            18.0588757619262,-33.080825060606,30.3999996185303            18.0588331818581,-33.0808204505593,30.2000007629395            18.0587999057025,-33.08081433177,30.2000007629395            18.0587581638247,-33.0808090511709,30.2000007629395            18.0587191879749,-33.0808004178107,30.2000007629395            18.0586839839816,-33.0808026809245,30.2000007629395            18.0586422421038,-33.0807935446501,30.2000007629395            18.058611145243,-33.0807911977172,30.2000007629395            18.0585692357272,-33.0807770323008,30            18.0585341155529,-33.0807694047689,30            18.0584937147796,-33.0807582568377,30            18.0584627855569,-33.0807528924197,30            18.0584187805653,-33.0807452648878,30            18.0583842471242,-33.0807375535369,30            18.0583432596177,-33.080735290423,29.7999992370605            18.0583009310067,-33.0807277467102,29.7999992370605            18.0582662299275,-33.0807295907289,29.6000003814697            18.0582232307643,-33.0807197839022,29.6000003814697            18.0581871047616,-33.0807207059115,29.6000003814697            18.0581365618855,-33.0807109829038,29.6000003814697            18.0581055488437,-33.0807070434093,29.3999996185303            18.0580594483763,-33.0806953925639,29.3999996185303            18.0580241605639,-33.080684999004,29.2000007629395            18.0579856876284,-33.0806756112725,29.2000007629395            18.0579461250454,-33.0806666426361,29            18.0579048022628,-33.0806609429419,29            18.0578696820885,-33.0806484539062,28.7999992370605            18.0578355677426,-33.0806511361152,28.7999992370605            18.0577933229506,-33.0806451849639,28.7999992370605            18.0577611364424,-33.0806451849639,28.6000003814697            18.0577141977847,-33.080634791404,28.6000003814697            18.0576810892671,-33.0806263256818,28.6000003814697            18.0576364137232,-33.0806169379503,28.6000003814697            18.0576027184725,-33.0806022696197,28.6000003814697            18.0575626529753,-33.0805949773639,28.6000003814697            18.0575256887823,-33.0805852543563,28.6000003814697            18.0574987828732,-33.080581817776,28.3999996185303            18.0574578791857,-33.0805786326528,28.6000003814697            18.0574256926775,-33.0805825721473,28.6000003814697            18.057384621352,-33.080571256578,28.6000003814697            18.057355619967,-33.0805657245219,28.6000003814697            18.0573092680424,-33.0805542413145,28.6000003814697            18.0572796799242,-33.0805453564972,28.6000003814697            18.0572380218655,-33.0805376451463,28.6000003814697            18.0572022311389,-33.0805301852524,28.6000003814697            18.0571636743844,-33.0805284250528,28.6000003814697            18.0571263749152,-33.0805214680731,28.6000003814697            18.0570903327316,-33.0805199593306,28.6000003814697            18.0570510216057,-33.0805111583322,28.3999996185303            18.0570172425359,-33.0805124156177,28.3999996185303            18.0569718126208,-33.080505207181,28.3999996185303            18.056945996359,-33.0805038660765,28.3999996185303            18.056901153177,-33.0804891139269,28.3999996185303            18.056871900335,-33.0804832465947,28.3999996185303            18.0568259675056,-33.0804707575589,28.3999996185303            18.0567947030067,-33.0804622918367,28.3999996185303            18.0567539669573,-33.0804570950568,28.3999996185303            18.0567225348204,-33.0804458633065,28.2000007629395            18.056684313342,-33.0804399121553,28.2000007629395            18.0566478520632,-33.0804269202054,28.2000007629395            18.0566119775176,-33.0804214719683,28.2000007629395            18.0565709900111,-33.0804077256471,28.3999996185303            18.0565395578742,-33.080402109772,28.3999996185303            18.0564973130822,-33.0803869385272,28.3999996185303            18.0564679764211,-33.0803782213479,28.3999996185303            18.0564222950488,-33.0803633015603,28.3999996185303            18.0563923716545,-33.0803550872952,28.3999996185303            18.0563549045473,-33.0803435202688,28.6000003814697            18.0563224665821,-33.0803312826902,28.6000003814697            18.056285250932,-33.0803216435015,28.6000003814697            18.056248370558,-33.0803086515516,28.6000003814697            18.0562145076692,-33.0803034547716,28.7999992370605            18.056174358353,-33.0802890378982,28.7999992370605            18.0561472009867,-33.0802816618234,29            18.0561061296612,-33.08026464656,29            18.056079139933,-33.0802605394274,29            18.0560376495123,-33.0802457872778,29            18.056007726118,-33.0802348069847,29            18.0559710133821,-33.0802265927196,28.7999992370605            18.0559380725026,-33.0802109185606,28.7999992370605            18.0559058021754,-33.0801999382675,29            18.0558672454208,-33.0801873654127,29            18.0558388307691,-33.0801811628044,29            18.0557975079864,-33.0801709368825,29            18.0557731166482,-33.0801654048264,29            18.0557417683303,-33.0801559332758,29            18.0557085759938,-33.0801467131823,29            18.0556633975357,-33.0801256746054,29.2000007629395            18.055635234341,-33.0801165383309,29.2000007629395            18.0555976834148,-33.0801068991423,29.2000007629395            18.0555629823357,-33.0800948292017,29.3999996185303            18.0555312987417,-33.0800907220691,29.3999996185303            18.0554931610823,-33.0800748802722,29.3999996185303            18.0554609745741,-33.0800687614828,29.3999996185303            18.0554228369147,-33.0800528358668,29.3999996185303            18.0553952604532,-33.0800504051149,29.3999996185303            18.0553546920419,-33.0800357367843,29.3999996185303            18.0553209129721,-33.0800238344818,29.3999996185303            18.0552878882736,-33.0800115130842,29.3999996185303            18.055251929909,-33.0799975991249,29.3999996185303            18.0552261136472,-33.079992486164,29.3999996185303            18.0551852099597,-33.079979242757,29.3999996185303            18.0551545321941,-33.079974045977,29.3999996185303            18.0551138799638,-33.0799565277994,29.3999996185303            18.0550846271217,-33.0799488164485,29.3999996185303            18.055043052882,-33.0799357406795,29.3999996185303            18.0550125427544,-33.079926352948,29.3999996185303            18.0549764167517,-33.0799141153693,29.3999996185303            18.0549474991858,-33.0799006205052,29.3999996185303            18.0549132172018,-33.079894669354,29.3999996185303            18.0548770073801,-33.0798836890608,29.3999996185303            18.0548468325287,-33.0798800848425,29.3999996185303            18.054807940498,-33.0798660032451,29.3999996185303            18.0547760054469,-33.0798613093793,29.3999996185303            18.0547337606549,-33.0798452161252,29.3999996185303            18.05470475927,-33.0798370018601,29.3999996185303            18.0546655319631,-33.0798229202628,29.3999996185303            18.0546341836452,-33.0798103474081,29.3999996185303            18.054596632719,-33.0797997862101,29.3999996185303            18.0545613449067,-33.0797821842134,29.3999996185303            18.0545275658369,-33.0797639954835,29.2000007629395            18.0545050185174,-33.0797370057553,29.2000007629395            18.0544850695878,-33.0797133687884,29.2000007629395            18.0544716585428,-33.0796850379556,29            18.0544773582369,-33.0796573776752,28.7999992370605            18.0544939544052,-33.0796161387116,28.6000003814697            18.0545108858496,-33.0795832816511,28.3999996185303            18.0545191001147,-33.0795535258949,28.2000007629395            18.0545433238149,-33.0795176513493,28            18.0545510351658,-33.0794883985072,27.7999992370605            18.0545708164573,-33.0794529430568,27.7999992370605            18.0545879155397,-33.0794236902148,27.6000003814697            18.0546019971371,-33.0793922580779,27.3999996185303            18.0546224489808,-33.0793589819223,27.3999996185303            18.0546358600259,-33.0793293938041,27.2000007629395            18.0546528752893,-33.079297374934,27.2000007629395            18.0546633526683,-33.0792705528438,27            18.0546854808927,-33.0792299006134,26.7999992370605            18.0546952877194,-33.0792000610381,26.6000003814697            18.0547087825835,-33.0791675392538,26.3999996185303            18.0547274742275,-33.079136274755,26.3999996185303            18.0547356046736,-33.0791082791984,26.2000007629395            18.0547573138028,-33.0790734943002,26            18.0547635164112,-33.0790455825627,26            18.0547793582082,-33.0790114682168,25.7999992370605            18.0547966249287,-33.0789837241173,25.6000003814697            18.0548127181828,-33.0789544712752,25.3999996185303            18.0548280570656,-33.0789242964238,25.2000007629395            18.0548319127411,-33.0788963846862,25            18.0548620875925,-33.0788631085306,24.7999992370605            18.0548749119043,-33.0788356997073,24.6000003814697            18.0548920948058,-33.078797897324,24.6000003814697            18.0549092777073,-33.0787680577487,24.6000003814697            18.0549195874482,-33.0787362065166,24.3999996185303            18.0549439787865,-33.0787032656372,24.2000007629395            18.0549541208893,-33.0786756053567,24.2000007629395            18.0549676157534,-33.0786481965333,24            18.0549749918282,-33.07862078771,24            18.0549881514162,-33.078581392765,23.7999992370605            18.0549978744239,-33.0785512179136,23.6000003814697            18.0550070945174,-33.0785164330155,23.6000003814697            18.0550256185234,-33.0784839112312,23.3999996185303            18.0550336651504,-33.0784565862268,23.3999996185303            18.055061576888,-33.0784241482615,23.2000007629395            18.0550896562636,-33.0784031096846,23.2000007629395            18.0551199987531,-33.0783800594509,23            18.0551618244499,-33.0783892795444,22.7999992370605            18.05520163849,-33.0784139223397,22.6000003814697            18.0552178993821,-33.0784334521741,22.6000003814697            18.0552220903337,-33.0784720927477,22.6000003814697            18.0552133731544,-33.0785070452839,22.6000003814697            18.0552127026021,-33.0785419978201,22.7999992370605            18.0552055779845,-33.0785823147744,22.7999992370605            18.055204320699,-33.0786074604839,23            18.0551961064339,-33.078644592315,23.2000007629395            18.0551961064339,-33.0786709953099,23.2000007629395            18.0551999621093,-33.0787048581988,23.2000007629395            18.055204320699,-33.0787348654121,23.3999996185303            18.0552130378783,-33.0787625256926,23.3999996185303            18.0552178155631,-33.0787964724004,23.6000003814697            18.0552303884178,-33.0788213666528,23.7999992370605            18.0552401952446,-33.0788579955697,23.7999992370605            18.0552505049855,-33.0788804590702,23.7999992370605            18.0552603956312,-33.0789132323116,24            18.0552712082863,-33.078938126564,24.2000007629395            18.055286379531,-33.0789680499583,24.3999996185303            18.0552960187197,-33.0790012422949,24.6000003814697            18.0553142912686,-33.0790281482041,24.7999992370605            18.0553267803043,-33.0790620110929,24.7999992370605            18.0553385987878,-33.0790838878602,25            18.0553506687284,-33.079123031348,25.2000007629395            18.055363073945,-33.0791418906301,25.3999996185303            18.0553743056953,-33.0791761726141,25.6000003814697            18.0553846992552,-33.0792002286762,25.7999992370605            18.055397355929,-33.0792277213186,26            18.0554014630616,-33.0792582314461,26            18.0554103478789,-33.079279018566,26.3999996185303            18.0554163828492,-33.0793127138168,26.3999996185303            18.0554246809334,-33.0793355125934,26.3999996185303            18.0554384272546,-33.0793677829206,26.3999996185303            18.0554463062435,-33.079395275563,26.3999996185303            18.0554560292512,-33.0794241093099,26.2000007629395            18.055463405326,-33.0794520210475,26.2000007629395            18.0554744694382,-33.0794747360051,26.2000007629395            18.0554787442088,-33.0795126222074,26.2000007629395            18.0554883833975,-33.0795347504318,26            18.0555014591664,-33.0795685295016,26.2000007629395            18.0555114336312,-33.0795968603343,26.2000007629395            18.0555244255811,-33.0796268675476,26.3999996185303            18.055555941537,-33.0796424578875,26.3999996185303            18.0555808357894,-33.0796634964645,26.3999996185303            18.0555991921574,-33.0796888936311,26.3999996185303            18.0556210689247,-33.0797106865793,26.3999996185303            18.0556385871023,-33.0797409452498,26.3999996185303            18.0556513275951,-33.0797641631216,26.3999996185303            18.0556587874889,-33.0797997862101,26.6000003814697            18.0556662473828,-33.0798220820725,26.6000003814697            18.0556737910956,-33.0798523407429,26.7999992370605            18.0556701030582,-33.079881425947,27            18.0556702706963,-33.0799066554755,27.2000007629395            18.055661721155,-33.0799395125359,27.2000007629395            18.0556647386402,-33.0799689330161,27.3999996185303            18.0556599609554,-33.08000581339,27.3999996185303            18.0556626431644,-33.0800306238234,27.3999996185303            18.0556734558195,-33.08006121777,27.3999996185303            18.0556877050549,-33.0800856929272,27.3999996185303            18.0557094980031,-33.0801005288959,27.3999996185303            18.0557395890355,-33.0801197234541,27.6000003814697            18.0557656567544,-33.0801261775196,27.7999992370605            18.0558064766228,-33.0801439471543,27.7999992370605            18.0558378249407,-33.0801544245332,27.7999992370605            18.0558796506375,-33.0801625549793,27.7999992370605            18.0559115856886,-33.0801704339683,27.7999992370605            18.0559419281781,-33.0801761336625,27.6000003814697            18.055978640914,-33.0801891256124,27.6000003814697            18.0560055468231,-33.0801909696311,27.7999992370605            18.0560486298054,-33.0802064761519,27.7999992370605            18.0560795590281,-33.0802141875029,27.7999992370605            18.0561189539731,-33.080227682367,27.6000003814697            18.0561498831958,-33.0802369024605,27.6000003814697            18.056182321161,-33.0802394170314,27.6000003814697            18.0562181957066,-33.0802536662668,27.3999996185303            18.056250968948,-33.0802633892745,27.3999996185303            18.0562921240926,-33.0802785605192,27.3999996185303            18.0563199520111,-33.0802873615175,27.2000007629395            18.0563621968031,-33.0803015269339,27.2000007629395            18.0563957244158,-33.0803084000945,27.2000007629395            18.0564319342375,-33.0803172849119,27            18.0564686469734,-33.0803292710334,27            18.0564968939871,-33.0803322885185,27            18.056538971141,-33.0803477112204,27            18.0565709900111,-33.0803606193513,26.7999992370605            18.0566089600325,-33.0803770478815,26.7999992370605            18.0566424876451,-33.0803876090795,26.7999992370605            18.056681631133,-33.0803951527923,26.6000003814697            18.0567171704024,-33.0804017744958,26.6000003814697            18.0567464232445,-33.0804041214287,26.6000003814697            18.056787410751,-33.0804171971977,26.6000003814697            18.0568211060017,-33.0804234836251,26.6000003814697            18.056864105165,-33.080431278795,26.3999996185303            18.0568968784064,-33.0804329551756,26.3999996185303            18.0569401290268,-33.0804401636124,26.6000003814697            18.0569742433727,-33.0804467853159,26.6000003814697            18.0570086929947,-33.0804538261145,26.3999996185303            18.0570472497493,-33.0804663989693,26.6000003814697            18.0570836272091,-33.080468159169,26.6000003814697            18.0571297276765,-33.0804726853967,26.3999996185303            18.0571598187089,-33.0804673209786,26.3999996185303            18.0571956094354,-33.0804584361613,26.3999996185303            18.0572293885052,-33.0804489646107,26.3999996185303            18.0572596471757,-33.080410240218,26.3999996185303            18.0572808533907,-33.0803838372231,26.3999996185303            18.0572962760925,-33.0803539138287,26.3999996185303            18.0573140457273,-33.0803217273206,26.3999996185303            18.0573174823076,-33.0802921392024,26.6000003814697            18.0573232658207,-33.0802550911903,26.6000003814697            18.0573203321546,-33.0802267603576,26.6000003814697            18.0573179014027,-33.0801877845079,26.7999992370605            18.0573111958802,-33.0801592860371,26.7999992370605            18.0573043227196,-33.0801241658628,26.7999992370605            18.057302897796,-33.0800943262875,26.6000003814697            18.0572945997119,-33.0800695158541,26.6000003814697            18.0572881456465,-33.0800365749747,26.6000003814697            18.0572760757059,-33.0800146143883,26.3999996185303            18.0572718009353,-33.079976644367,26.6000003814697            18.057268364355,-33.0799509957433,26.6000003814697            18.0572662688792,-33.0799173843116,26.7999992370605            18.0572733096778,-33.0798839405179,26.7999992370605            18.057268364355,-33.0798547714949,26.7999992370605            18.0572723038495,-33.0798187293112,26.6000003814697            18.0572716332972,-33.0797928292304,26.6000003814697            18.0572808533907,-33.07975477539,26.3999996185303            18.0572820268571,-33.0797267798334,26.2000007629395            18.0572905763984,-33.0796898994595,26.2000007629395            18.0572961084545,-33.0796627420932,26            18.0573023110628,-33.0796258617193,26            18.0573172308505,-33.0795959383249,26.2000007629395            18.0573222599924,-33.0795661825687,26.2000007629395            18.0573452264071,-33.0795319844037,26.3999996185303            18.0573539435863,-33.0795085150748,26.3999996185303            18.0573698692024,-33.079477082938,26.2000007629395            18.0573883932084,-33.0794542003423,26            18.0574050731957,-33.0794223491102,25.7999992370605            18.0574333202094,-33.0793938506395,25.6000003814697            18.0574539396912,-33.0793622508645,25.3999996185303            18.057479839772,-33.0793325789273,25.3999996185303            18.0574919097126,-33.0793085228652,25.2000007629395            18.0575162172318,-33.0792755819857,25.2000007629395            18.0575308855623,-33.0792532861233,25.2000007629395            18.0575494933873,-33.0792205967009,25            18.0575649999082,-33.0791924335063,25            18.0575743038207,-33.0791624262929,25            18.0575872119516,-33.0791288986802,25            18.0575872957706,-33.0791000649333,25            18.0576007068157,-33.0790628492832,25            18.0576035566628,-33.0790353566408,25            18.0576167162508,-33.0789970513433,25            18.0576274450868,-33.0789684690535,25            18.057635910809,-33.0789313372225,25            18.0576447118074,-33.0789000727236,24.7999992370605            18.0576522555202,-33.0788641981781,24.7999992370605            18.0576613917947,-33.0788329336792,24.7999992370605            18.0576688516885,-33.0787970591336,24.7999992370605            18.0576831847429,-33.0787678062916,24.7999992370605            18.0576943326741,-33.0787382181734,24.7999992370605            18.0577165447176,-33.078708043322,24.7999992370605            18.0577214062214,-33.0786824785173,24.7999992370605            18.05774143897,-33.0786484479904,24.7999992370605            18.0577530898154,-33.0786228831857,24.7999992370605            18.0577639862895,-33.0785913672298,25            18.0577753856778,-33.0785617791116,25            18.0577872879803,-33.0785233061761,25            18.0577986873686,-33.0784932151437,25            18.0578033812344,-33.0784607771784,25            18.0578109249473,-33.0784276686609,25.2000007629395            18.0578089971095,-33.0783986672759,25.2000007629395            18.0578157026321,-33.0783627089113,25.2000007629395            18.0578090809286,-33.0783359706402,25.2000007629395            18.0578144453466,-33.0782990064472,25.2000007629395            18.0578120984137,-33.0782757047564,25.3999996185303            18.0578147806227,-33.0782358068973,25.3999996185303            18.0578116793185,-33.0782092362642,25.3999996185303            18.0578085780144,-33.0781709309667,25.3999996185303            18.0578062310815,-33.0781414266676,25.3999996185303            18.0578027106822,-33.0781089048833,25.2000007629395            18.0578063987195,-33.0780704319477,25.2000007629395            18.0578019563109,-33.0780415982008,25.2000007629395            18.0578081589192,-33.078005220741,25            18.0578037165105,-33.0779784824699,25            18.0578120145947,-33.0779400933534,25            18.0578095000237,-33.0779171269387,25            18.0578110087663,-33.0778787378222,24.7999992370605            18.057807488367,-33.0778502393514,24.7999992370605            18.0578002799302,-33.077812101692,24.7999992370605            18.0577929876745,-33.077780501917,24.7999992370605            18.0577753018588,-33.0777497403324,25            18.0577646568418,-33.0777142010629,25            18.0577470548451,-33.0776903126389,25            18.057733559981,-33.0776547733694,25            18.0577168799937,-33.077627113089,25            18.0576956737787,-33.077592747286,25            18.0576799996197,-33.0775691941381,24.7999992370605            18.0576587934047,-33.0775359179825,24.7999992370605            18.0576389282942,-33.077510939911,24.7999992370605            18.057612106204,-33.0774825252593,24.7999992370605            18.057590899989,-33.0774525180459,24.7999992370605            18.0575611442327,-33.0774257797748,24.7999992370605            18.0575342383236,-33.0773982871324,25            18.0575078353286,-33.0773772485554,24.7999992370605            18.0574794206768,-33.0773466546088,24.6000003814697            18.0574542749673,-33.0773249454796,24.6000003814697            18.0574207473546,-33.0772923398763,24.3999996185303            18.0573931708932,-33.077270546928,24.3999996185303            18.0573729705065,-33.0772349238396,24.3999996185303            18.0573540274054,-33.0772111192346,24.3999996185303            18.0573401972651,-33.07717516087,24.3999996185303            18.0573343299329,-33.0771469976753,24.3999996185303            18.0573280435056,-33.0771104525775,24.3999996185303            18.0573251936585,-33.0770781822503,24.3999996185303            18.0573174823076,-33.0770440679044,24.6000003814697            18.0573122017086,-33.0770128034055,24.7999992370605            18.0572961084545,-33.076982377097,24.7999992370605            18.0572968628258,-33.0769450776279,24.7999992370605            18.057289654389,-33.0769173335284,24.6000003814697            18.0572930071503,-33.0768751725554,24.3999996185303            18.0572829488665,-33.0768468417227,24.3999996185303            18.0572679452598,-33.0768050160259,24.2000007629395            18.0572486668825,-33.0767818819731,24.2000007629395            18.0572086013854,-33.0767527967691,24.3999996185303            18.0571769177914,-33.0767346918583,24.2000007629395            18.0571426358074,-33.0767150782049,24.2000007629395            18.0571065936238,-33.0767015833408,24            18.0570538714528,-33.0767046008259,24            18.0570090282708,-33.0767175089568,23.7999992370605            18.0569579824805,-33.0767386313528,23.6000003814697            18.056917078793,-33.0767610948533,23.6000003814697            18.0568717326969,-33.0767875816673,23.3999996185303            18.0568279791623,-33.0768019147217,23.3999996185303            18.0567897576839,-33.0768244620413,23.2000007629395            18.0567379575223,-33.0768362805247,23.2000007629395            18.0567030888051,-33.0768537987024,23.2000007629395            18.056663107127,-33.0768682993948,23.2000007629395          </coordinates></LineString></Placemark><Placemark><name>Finish</name><styleUrl>#icon-123-nodesc</styleUrl><Point><coordinates>            18.056663107127,-33.0768682993948,23.2000007629395          </coordinates></Point></Placemark><Placemark><name>Start</name><styleUrl>#icon-61-nodesc</styleUrl><Point><coordinates>            18.0578280240297,-33.0754596367478,22.6000003814697          </coordinates></Point></Placemark></Folder></Document></kml>