<?xml version="1.0" encoding="UTF-8"?><kml xmlns="http://www.opengis.net/kml/2.2"><Document><name>Letsatsi Lodge parkrun</name><description/><Style id="icon-1899-FFEA00-nodesc-normal"><IconStyle><color>ff00eaff</color><scale>1</scale><Icon><href>https://www.gstatic.com/mapspro/images/stock/503-wht-blank_maps.png</href></Icon><hotSpot x="32" xunits="pixels" y="64" yunits="insetPixels"/></IconStyle><LabelStyle><scale>0</scale></LabelStyle><BalloonStyle><text><![CDATA[<h3>$[name]</h3>]]></text></BalloonStyle></Style><Style id="icon-1899-FFEA00-nodesc-highlight"><IconStyle><color>ff00eaff</color><scale>1</scale><Icon><href>https://www.gstatic.com/mapspro/images/stock/503-wht-blank_maps.png</href></Icon><hotSpot x="32" xunits="pixels" y="64" yunits="insetPixels"/></IconStyle><LabelStyle><scale>1</scale></LabelStyle><BalloonStyle><text><![CDATA[<h3>$[name]</h3>]]></text></BalloonStyle></Style><StyleMap id="icon-1899-FFEA00-nodesc"><Pair><key>normal</key><styleUrl>#icon-1899-FFEA00-nodesc-normal</styleUrl></Pair><Pair><key>highlight</key><styleUrl>#icon-1899-FFEA00-nodesc-highlight</styleUrl></Pair></StyleMap><Style id="line-0288D1-5456-nodesc-normal"><LineStyle><color>ffd18802</color><width>5.456</width></LineStyle><BalloonStyle><text><![CDATA[<h3>$[name]</h3>]]></text></BalloonStyle></Style><Style id="line-0288D1-5456-nodesc-highlight"><LineStyle><color>ffd18802</color><width>8.184</width></LineStyle><BalloonStyle><text><![CDATA[<h3>$[name]</h3>]]></text></BalloonStyle></Style><StyleMap id="line-0288D1-5456-nodesc"><Pair><key>normal</key><styleUrl>#line-0288D1-5456-nodesc-normal</styleUrl></Pair><Pair><key>highlight</key><styleUrl>#line-0288D1-5456-nodesc-highlight</styleUrl></Pair></StyleMap><Folder><name>Untitled layer</name><Placemark><name>Course</name><styleUrl>#line-0288D1-5456-nodesc</styleUrl><LineString><tessellate>1</tessellate><coordinates>            18.727403,-31.607799,0            18.726293,-31.607981,0            18.726293,-31.607024,0            18.726125,-31.605983,0            18.725996,-31.605801,0            18.72582,-31.605651,0            18.725559,-31.605554,0            18.725396,-31.605525,0            18.725199,-31.60553,0            18.725072,-31.605536,0            18.724973,-31.605516,0            18.72478,-31.605378,0            18.724678,-31.605323,0            18.724485,-31.605131,0            18.724202,-31.605138,0            18.72401,-31.605235,0            18.723969,-31.605313,0            18.723996,-31.605396,0            18.72419,-31.605605,0            18.724508,-31.605721,0            18.724763,-31.605989,0            18.72482,-31.606558,0            18.722722,-31.606537,0            18.721851,-31.606578,0            18.721472,-31.608228,0            18.720226,-31.608067,0            18.720414,-31.606586,0            18.718938,-31.606066,0            18.717511,-31.606104,0            18.716645,-31.606522,0            18.71631,-31.605689,0            18.715529,-31.605974,0            18.715288,-31.606203,0            18.715232,-31.60631,0            18.715245,-31.606545,0            18.715682,-31.607468,0            18.715474,-31.608746,0            18.71508,-31.608226,0            18.714397,-31.60824,0            18.713678,-31.60853,0            18.713936,-31.607066,0            18.713986,-31.606008,0            18.713922,-31.60527,0            18.713678,-31.604566,0            18.713498,-31.604208,0            18.716223,-31.603956,0            18.716535,-31.603979,0            18.716712,-31.603933,0            18.717014,-31.603808,0            18.717979,-31.603776,0            18.718384,-31.603718,0            18.718542,-31.60367,0            18.718792,-31.603641,0            18.718913,-31.603638,0            18.719098,-31.603673,0            18.719418,-31.603665,0            18.719646,-31.603604,0            18.720206,-31.603563,0            18.720471,-31.603457,0            18.720759,-31.603428,0            18.721123,-31.603444,0            18.721313,-31.603401,0            18.721472,-31.603372,0            18.722319,-31.603387,0            18.72311,-31.603307,0            18.724052,-31.603236,0            18.725303,-31.603146,0            18.725221,-31.603278,0            18.725174,-31.603393,0            18.725154,-31.603526,0            18.725161,-31.603726,0            18.725172,-31.60385,0            18.724946,-31.603882,0            18.724815,-31.603971,0            18.724653,-31.604085,0            18.724596,-31.604152,0            18.72459,-31.604367,0            18.724527,-31.604538,0            18.724416,-31.604761,0            18.72438,-31.604965,0            18.72445,-31.605084,0          </coordinates></LineString></Placemark><Placemark><name>Start/Finish</name><styleUrl>#icon-1899-FFEA00-nodesc</styleUrl><Point><coordinates>            18.7273787,-31.6078558,0          </coordinates></Point></Placemark></Folder></Document></kml>