<?xml version="1.0" encoding="UTF-8"?><kml xmlns="http://www.opengis.net/kml/2.2"><Document><name>Lieberwalt Farm parkrun (from Apr 2026)</name><description/><Style id="icon-1899-0F9D58-nodesc-normal"><IconStyle><color>ff589d0f</color><scale>1</scale><Icon><href>https://www.gstatic.com/mapspro/images/stock/503-wht-blank_maps.png</href></Icon><hotSpot x="32" xunits="pixels" y="64" yunits="insetPixels"/></IconStyle><LabelStyle><scale>0</scale></LabelStyle><BalloonStyle><text><![CDATA[<h3>$[name]</h3>]]></text></BalloonStyle></Style><Style id="icon-1899-0F9D58-nodesc-highlight"><IconStyle><color>ff589d0f</color><scale>1</scale><Icon><href>https://www.gstatic.com/mapspro/images/stock/503-wht-blank_maps.png</href></Icon><hotSpot x="32" xunits="pixels" y="64" yunits="insetPixels"/></IconStyle><LabelStyle><scale>1</scale></LabelStyle><BalloonStyle><text><![CDATA[<h3>$[name]</h3>]]></text></BalloonStyle></Style><StyleMap id="icon-1899-0F9D58-nodesc"><Pair><key>normal</key><styleUrl>#icon-1899-0F9D58-nodesc-normal</styleUrl></Pair><Pair><key>highlight</key><styleUrl>#icon-1899-0F9D58-nodesc-highlight</styleUrl></Pair></StyleMap><Style id="icon-1899-FF5252-nodesc-normal"><IconStyle><color>ff5252ff</color><scale>1</scale><Icon><href>https://www.gstatic.com/mapspro/images/stock/503-wht-blank_maps.png</href></Icon><hotSpot x="32" xunits="pixels" y="64" yunits="insetPixels"/></IconStyle><LabelStyle><scale>0</scale></LabelStyle><BalloonStyle><text><![CDATA[<h3>$[name]</h3>]]></text></BalloonStyle></Style><Style id="icon-1899-FF5252-nodesc-highlight"><IconStyle><color>ff5252ff</color><scale>1</scale><Icon><href>https://www.gstatic.com/mapspro/images/stock/503-wht-blank_maps.png</href></Icon><hotSpot x="32" xunits="pixels" y="64" yunits="insetPixels"/></IconStyle><LabelStyle><scale>1</scale></LabelStyle><BalloonStyle><text><![CDATA[<h3>$[name]</h3>]]></text></BalloonStyle></Style><StyleMap id="icon-1899-FF5252-nodesc"><Pair><key>normal</key><styleUrl>#icon-1899-FF5252-nodesc-normal</styleUrl></Pair><Pair><key>highlight</key><styleUrl>#icon-1899-FF5252-nodesc-highlight</styleUrl></Pair></StyleMap><Style id="line-0288D1-5236-nodesc-normal"><LineStyle><color>ffd18802</color><width>5.236</width></LineStyle><BalloonStyle><text><![CDATA[<h3>$[name]</h3>]]></text></BalloonStyle></Style><Style id="line-0288D1-5236-nodesc-highlight"><LineStyle><color>ffd18802</color><width>7.854</width></LineStyle><BalloonStyle><text><![CDATA[<h3>$[name]</h3>]]></text></BalloonStyle></Style><StyleMap id="line-0288D1-5236-nodesc"><Pair><key>normal</key><styleUrl>#line-0288D1-5236-nodesc-normal</styleUrl></Pair><Pair><key>highlight</key><styleUrl>#line-0288D1-5236-nodesc-highlight</styleUrl></Pair></StyleMap><Folder><name>Untitled layer</name><Placemark><name>Course</name><styleUrl>#line-0288D1-5236-nodesc</styleUrl><LineString><tessellate>1</tessellate><coordinates>            24.695613,-29.983362,0            24.6962743,-29.9836883,0            24.6966686,-29.9839857,0            24.697141,-29.984396,0            24.697492,-29.9848848,0            24.697967,-29.985828,0            24.6981036,-29.9864297,0            24.698012,-29.987785,0            24.697852,-29.989477,0            24.6977468,-29.9904998,0            24.697453,-29.990897,0            24.6966069,-29.9920748,0            24.69614,-29.992279,0            24.695405,-29.99244,0            24.694647,-29.992371,0            24.694352,-29.992313,0            24.693459,-29.991821,0            24.6932819,-29.9916905,0            24.6931245,-29.9915994,0            24.6928428,-29.9916022,0            24.6924538,-29.9918256,0            24.691383,-29.99247,0            24.690967,-29.992853,0            24.6902661,-29.9932851,0            24.6896043,-29.9933381,0            24.6887405,-29.9932226,0            24.6879272,-29.99286,0            24.6876792,-29.9925348,0            24.6874373,-29.99205,0            24.6871709,-29.9913501,0            24.6866854,-29.9908134,0            24.686449,-29.990445,0            24.686378,-29.990028,0            24.6862697,-29.9894893,0            24.685891,-29.989043,0            24.685354,-29.98871,0            24.684177,-29.988315,0            24.6832334,-29.9880722,0            24.6829196,-29.9878979,0            24.682328,-29.987343,0            24.681686,-29.986655,0            24.681335,-29.98597,0            24.681064,-29.985145,0            24.68102,-29.984615,0            24.6810849,-29.9839578,0            24.6813344,-29.983284,0            24.681832,-29.982481,0            24.6826728,-29.9817693,0            24.683348,-29.981338,0            24.684348,-29.981087,0            24.685447,-29.98105,0            24.686115,-29.981099,0            24.686745,-29.981216,0            24.6874927,-29.9815741,0            24.688259,-29.982152,0            24.689063,-29.983275,0            24.689294,-29.983894,0            24.689315,-29.98508,0            24.689243,-29.985541,0            24.6895151,-29.9850381,0            24.69036,-29.9840112,0            24.691374,-29.983338,0            24.6920203,-29.9830718,0          </coordinates></LineString></Placemark><Placemark><name>Finish</name><styleUrl>#icon-1899-FF5252-nodesc</styleUrl><Point><coordinates>            24.6919457,-29.9831045,0          </coordinates></Point></Placemark><Placemark><name>Start</name><styleUrl>#icon-1899-0F9D58-nodesc</styleUrl><Point><coordinates>            24.6956863,-29.9834163,0          </coordinates></Point></Placemark></Folder></Document></kml>