<?xml version="1.0" encoding="UTF-8"?><kml xmlns="http://www.opengis.net/kml/2.2"><Document><name>Louis Trichardt parkrun</name><description/><Style id="icon-1899-0F9D58-nodesc-normal"><IconStyle><color>ff589d0f</color><scale>1</scale><Icon><href>https://www.gstatic.com/mapspro/images/stock/503-wht-blank_maps.png</href></Icon><hotSpot x="32" xunits="pixels" y="64" yunits="insetPixels"/></IconStyle><LabelStyle><scale>0</scale></LabelStyle><BalloonStyle><text><![CDATA[<h3>$[name]</h3>]]></text></BalloonStyle></Style><Style id="icon-1899-0F9D58-nodesc-highlight"><IconStyle><color>ff589d0f</color><scale>1</scale><Icon><href>https://www.gstatic.com/mapspro/images/stock/503-wht-blank_maps.png</href></Icon><hotSpot x="32" xunits="pixels" y="64" yunits="insetPixels"/></IconStyle><LabelStyle><scale>1</scale></LabelStyle><BalloonStyle><text><![CDATA[<h3>$[name]</h3>]]></text></BalloonStyle></Style><StyleMap id="icon-1899-0F9D58-nodesc"><Pair><key>normal</key><styleUrl>#icon-1899-0F9D58-nodesc-normal</styleUrl></Pair><Pair><key>highlight</key><styleUrl>#icon-1899-0F9D58-nodesc-highlight</styleUrl></Pair></StyleMap><Style id="icon-1899-FF5252-nodesc-normal"><IconStyle><color>ff5252ff</color><scale>1</scale><Icon><href>https://www.gstatic.com/mapspro/images/stock/503-wht-blank_maps.png</href></Icon><hotSpot x="32" xunits="pixels" y="64" yunits="insetPixels"/></IconStyle><LabelStyle><scale>0</scale></LabelStyle><BalloonStyle><text><![CDATA[<h3>$[name]</h3>]]></text></BalloonStyle></Style><Style id="icon-1899-FF5252-nodesc-highlight"><IconStyle><color>ff5252ff</color><scale>1</scale><Icon><href>https://www.gstatic.com/mapspro/images/stock/503-wht-blank_maps.png</href></Icon><hotSpot x="32" xunits="pixels" y="64" yunits="insetPixels"/></IconStyle><LabelStyle><scale>1</scale></LabelStyle><BalloonStyle><text><![CDATA[<h3>$[name]</h3>]]></text></BalloonStyle></Style><StyleMap id="icon-1899-FF5252-nodesc"><Pair><key>normal</key><styleUrl>#icon-1899-FF5252-nodesc-normal</styleUrl></Pair><Pair><key>highlight</key><styleUrl>#icon-1899-FF5252-nodesc-highlight</styleUrl></Pair></StyleMap><Style id="line-0288D1-5456-nodesc-normal"><LineStyle><color>ffd18802</color><width>5.456</width></LineStyle><BalloonStyle><text><![CDATA[<h3>$[name]</h3>]]></text></BalloonStyle></Style><Style id="line-0288D1-5456-nodesc-highlight"><LineStyle><color>ffd18802</color><width>8.184</width></LineStyle><BalloonStyle><text><![CDATA[<h3>$[name]</h3>]]></text></BalloonStyle></Style><StyleMap id="line-0288D1-5456-nodesc"><Pair><key>normal</key><styleUrl>#line-0288D1-5456-nodesc-normal</styleUrl></Pair><Pair><key>highlight</key><styleUrl>#line-0288D1-5456-nodesc-highlight</styleUrl></Pair></StyleMap><Folder><name>Untitled layer</name><Placemark><name>Course</name><styleUrl>#line-0288D1-5456-nodesc</styleUrl><LineString><tessellate>1</tessellate><coordinates>            29.916727,-23.042389,956.9            29.916753,-23.042202,957.2            29.916787,-23.042013,957.3            29.916871,-23.041845,956.6            29.916962,-23.041679,956.2            29.917033,-23.041501,956.8            29.917042,-23.041488,956.8            29.917142,-23.041328,957.7            29.917102,-23.041163,958.2            29.916931,-23.041059,958.1            29.916894,-23.040891,958.2            29.916969,-23.040713,958.8            29.917036,-23.040537,959            29.917118,-23.04036,959.8            29.91717,-23.040182,960.1            29.917195,-23.04,958.9            29.917196,-23.039816,957.9            29.917172,-23.039632,958            29.917208,-23.03944,960            29.917205,-23.039254,961.9            29.917099,-23.039087,961.2            29.917151,-23.038917,961.7            29.917191,-23.038744,963            29.91716,-23.038555,962.2            29.917194,-23.038368,961.8            29.917201,-23.038173,962            29.917233,-23.037982,962.1            29.917259,-23.037793,961            29.917276,-23.037609,960.2            29.917279,-23.037423,959.9            29.91734,-23.037238,960.3            29.917381,-23.037057,961.7            29.917397,-23.036867,962.8            29.917432,-23.036678,964.3            29.917392,-23.036493,965.4            29.917422,-23.036375,966.1            29.917485,-23.036195,966.1            29.917585,-23.036027,966.2            29.917667,-23.035852,968.5            29.917625,-23.035676,968.3            29.91757,-23.035496,968            29.917551,-23.035306,967            29.917555,-23.035117,967            29.917574,-23.034934,966.2            29.917596,-23.034754,966.7            29.917545,-23.034584,967            29.91743,-23.034433,967.4            29.917309,-23.034281,967.5            29.917171,-23.034153,968.2            29.917,-23.034043,968.6            29.916975,-23.03403,968.6            29.916795,-23.033943,967.9            29.916602,-23.033882,967.8            29.916538,-23.033883,968            29.916522,-23.0339,967.9            29.916632,-23.034049,968.2            29.916728,-23.034211,968.1            29.916856,-23.034363,967.7            29.916985,-23.034507,966.9            29.917098,-23.034656,965.8            29.917208,-23.034808,964.8            29.917323,-23.034958,964.8            29.917429,-23.035112,966.3            29.917537,-23.035269,966.9            29.917608,-23.035452,968.1            29.917584,-23.035634,968.2            29.917525,-23.035711,968.9            29.917499,-23.035719,968.9            29.917301,-23.035725,966.8            29.917096,-23.035695,965.1            29.9169,-23.035687,964.4            29.916698,-23.035671,964            29.916501,-23.035647,963.5            29.916296,-23.035638,962.4            29.916094,-23.035606,961.8            29.915892,-23.035573,963.5            29.915694,-23.035559,965.9            29.915895,-23.035555,963.5            29.916102,-23.035561,961.7            29.916312,-23.035569,962.7            29.91651,-23.035601,964            29.916708,-23.035631,964            29.916916,-23.035659,964.7            29.91712,-23.035676,965.2            29.917317,-23.035694,967.5            29.917495,-23.035697,968.7            29.917553,-23.03587,968.2            29.917473,-23.036039,966.2            29.917392,-23.036206,965.9            29.917251,-23.036349,965.2            29.917123,-23.036489,964.1            29.916975,-23.036621,962.2            29.916922,-23.036794,961.5            29.916847,-23.036882,960.9            29.91665,-23.03693,959.8            29.916503,-23.037066,960            29.916426,-23.037235,960.6            29.916324,-23.037397,961.4            29.916217,-23.037553,961.7            29.916077,-23.03769,960.6            29.9159,-23.037788,960.2            29.915753,-23.037907,959.6            29.915705,-23.038025,958.7            29.915674,-23.038214,957.4            29.915773,-23.038367,956.7            29.915947,-23.038459,957.7            29.916132,-23.038534,958            29.916289,-23.038652,957.3            29.916395,-23.038805,957            29.916402,-23.038819,957            29.916465,-23.038994,956.5            29.91657,-23.039156,956.1            29.916642,-23.039332,956.7            29.916664,-23.039511,956.9            29.916668,-23.039703,958.3            29.91669,-23.039893,959.1            29.916728,-23.040077,959.1            29.91676,-23.04026,959.5            29.916763,-23.040454,959.6            29.916743,-23.04064,958.2            29.916717,-23.040824,957            29.916709,-23.041012,957.5            29.916701,-23.041201,957.4            29.916689,-23.041395,957            29.91671,-23.041584,957.1            29.916723,-23.041767,956.8            29.916732,-23.04195,957.1            29.916775,-23.042122,957.5          </coordinates></LineString></Placemark><Placemark><name>Finish</name><styleUrl>#icon-1899-FF5252-nodesc</styleUrl><Point><coordinates>            29.916775,-23.042122,957.5          </coordinates></Point></Placemark><Placemark><name>Start</name><styleUrl>#icon-1899-0F9D58-nodesc</styleUrl><Point><coordinates>            29.916727,-23.042389,956.9          </coordinates></Point></Placemark></Folder></Document></kml>