<?xml version="1.0" encoding="UTF-8"?><kml xmlns="http://www.opengis.net/kml/2.2"><Document><name>Lynnfield parkrun (from Feb 2024)</name><description/><Style id="icon-1899-0F9D58-nodesc-normal"><IconStyle><color>ff589d0f</color><scale>1</scale><Icon><href>https://www.gstatic.com/mapspro/images/stock/503-wht-blank_maps.png</href></Icon><hotSpot x="32" xunits="pixels" y="64" yunits="insetPixels"/></IconStyle><LabelStyle><scale>0</scale></LabelStyle><BalloonStyle><text><![CDATA[<h3>$[name]</h3>]]></text></BalloonStyle></Style><Style id="icon-1899-0F9D58-nodesc-highlight"><IconStyle><color>ff589d0f</color><scale>1</scale><Icon><href>https://www.gstatic.com/mapspro/images/stock/503-wht-blank_maps.png</href></Icon><hotSpot x="32" xunits="pixels" y="64" yunits="insetPixels"/></IconStyle><LabelStyle><scale>1</scale></LabelStyle><BalloonStyle><text><![CDATA[<h3>$[name]</h3>]]></text></BalloonStyle></Style><StyleMap id="icon-1899-0F9D58-nodesc"><Pair><key>normal</key><styleUrl>#icon-1899-0F9D58-nodesc-normal</styleUrl></Pair><Pair><key>highlight</key><styleUrl>#icon-1899-0F9D58-nodesc-highlight</styleUrl></Pair></StyleMap><Style id="icon-1899-FF5252-nodesc-normal"><IconStyle><color>ff5252ff</color><scale>1</scale><Icon><href>https://www.gstatic.com/mapspro/images/stock/503-wht-blank_maps.png</href></Icon><hotSpot x="32" xunits="pixels" y="64" yunits="insetPixels"/></IconStyle><LabelStyle><scale>0</scale></LabelStyle><BalloonStyle><text><![CDATA[<h3>$[name]</h3>]]></text></BalloonStyle></Style><Style id="icon-1899-FF5252-nodesc-highlight"><IconStyle><color>ff5252ff</color><scale>1</scale><Icon><href>https://www.gstatic.com/mapspro/images/stock/503-wht-blank_maps.png</href></Icon><hotSpot x="32" xunits="pixels" y="64" yunits="insetPixels"/></IconStyle><LabelStyle><scale>1</scale></LabelStyle><BalloonStyle><text><![CDATA[<h3>$[name]</h3>]]></text></BalloonStyle></Style><StyleMap id="icon-1899-FF5252-nodesc"><Pair><key>normal</key><styleUrl>#icon-1899-FF5252-nodesc-normal</styleUrl></Pair><Pair><key>highlight</key><styleUrl>#icon-1899-FF5252-nodesc-highlight</styleUrl></Pair></StyleMap><Style id="line-0288D1-4100-nodesc-normal"><LineStyle><color>ffd18802</color><width>4.1</width></LineStyle><BalloonStyle><text><![CDATA[<h3>$[name]</h3>]]></text></BalloonStyle></Style><Style id="line-0288D1-4100-nodesc-highlight"><LineStyle><color>ffd18802</color><width>6.15</width></LineStyle><BalloonStyle><text><![CDATA[<h3>$[name]</h3>]]></text></BalloonStyle></Style><StyleMap id="line-0288D1-4100-nodesc"><Pair><key>normal</key><styleUrl>#line-0288D1-4100-nodesc-normal</styleUrl></Pair><Pair><key>highlight</key><styleUrl>#line-0288D1-4100-nodesc-highlight</styleUrl></Pair></StyleMap><Folder><name>Untitled layer</name><Placemark><name>Course</name><styleUrl>#line-0288D1-4100-nodesc</styleUrl><LineString><tessellate>1</tessellate><coordinates>            30.4723744466901,-29.6846239920706,0            30.4723204672337,-29.6845815796405,0            30.4722168669105,-29.6844462957233,0            30.4721054714173,-29.6843316312879,0            30.472014863044,-29.6842363290489,0            30.4719279427081,-29.6841419488192,0            30.4718241747469,-29.6840124484152,0            30.4717748053372,-29.6839535236359,0            30.4717568680644,-29.6839067526162,0            30.4718053992838,-29.6838635019958,0            30.4720473848283,-29.6837543696165,0            30.4720980115235,-29.683782197535,0            30.4722848441452,-29.6839391905814,0            30.4724715091288,-29.6840880531818,0            30.4725907836109,-29.684178410098,0            30.4727005027235,-29.6842464711517,0            30.4728084616363,-29.6843007020652,0            30.4729942884296,-29.6843224950135,0            30.4730777721852,-29.6843911428005,0            30.4732499364763,-29.6845358144492,0            30.4733765032142,-29.6846231538802,0            30.4734778404236,-29.6846881136298,0            30.47348161228,-29.6846880298108,0            30.4735352564603,-29.6846788935363,0            30.4735552053899,-29.6846498083323,0            30.4735571332276,-29.684646371752,0            30.4735641740263,-29.6846177894622,0            30.4735642578453,-29.6846152748913,0            30.4735347535461,-29.6845636423677,0            30.4734864737839,-29.6845321264118,0            30.4734251182526,-29.6844977606088,0            30.4733738210052,-29.6844382490963,0            30.4733951110393,-29.6844141092151,0            30.4734376072884,-29.6843805816025,0            30.4734376911074,-29.6843772288412,0            30.4735332448035,-29.6843047253788,0            30.4735855478793,-29.6842352394015,0            30.473587391898,-29.6842335630208,0            30.4735950194299,-29.684226019308,0            30.4736490827054,-29.6841358300298,0            30.4736669361591,-29.6840870473534,0            30.4736717138439,-29.6840422879905,0            30.4736245237291,-29.6839660964906,0            30.473587391898,-29.6839269530028,0            30.4735587257892,-29.6838909108192,0            30.4735537804663,-29.6838491689414,0            30.4735577199608,-29.6838466543704,0            30.4735745675862,-29.6838121209294,0            30.4736120346934,-29.6837976202369,0            30.4736169800162,-29.6837960276753,0            30.4736209195107,-29.683795273304,0            30.4737018886954,-29.683779347688,0            30.4737135395408,-29.6837780065834,0            30.473719323054,-29.6837764978409,0            30.4737999569625,-29.6837619133294,0            30.4738046508282,-29.6837620809674,0            30.4738180618733,-29.6837573871017,0            30.4739294573665,-29.6837350912392,0            30.4739313013852,-29.6837350912392,0            30.4740114323795,-29.6837320737541,0            30.4740188922733,-29.6837305650115,0            30.4741043038666,-29.6837376058102,0            30.4741088300943,-29.6837377734482,0            30.4741133563221,-29.6837378572673,0            30.4741838481277,-29.683782197535,0            30.4742339719087,-29.6838125400245,0            30.4742375761271,-29.6838126238436,0            30.4742645658553,-29.6838574670255,0            30.4742645658553,-29.6838583052158,0            30.4742699302733,-29.683882528916,0            30.4742303676903,-29.6839500032365,0            30.4741906374693,-29.6839959360659,0            30.4741283599287,-29.6840770728886,0            30.4740711953491,-29.6841593831778,0            30.4740397632122,-29.6842363290489,0            30.4739887174219,-29.6843324694782,0            30.4739366658032,-29.6844253409654,0            30.473901713267,-29.6844790689647,0            30.4738826025277,-29.6845514886081,0            30.4738721251488,-29.6846165321767,0            30.4738828539848,-29.6846668235958,0            30.4739079158753,-29.6847358066589,0            30.4739300440997,-29.6847823262215,0            30.4739434551448,-29.6848711743951,0            30.4739834368229,-29.6849311050028,0            30.4740387573838,-29.6849781274796,0            30.4740887973458,-29.6850150916725,0            30.4741100035608,-29.6850274130702,0            30.474150320515,-29.6850094757974,0            30.4741549305618,-29.6850061230361,0            30.4741795733571,-29.6849689073861,0            30.4741814173758,-29.6849657222629,0            30.4741840995848,-29.6849601063877,0            30.4742006119341,-29.6848963201046,0            30.4742016177624,-29.6848915424198,0            30.4742033779621,-29.684886764735,0            30.4742080718279,-29.6848158538342,0            30.4742098320276,-29.6848125848919,0            30.4742098320276,-29.6848062146455,0            30.474211089313,-29.684709822759,0            30.4742101673037,-29.6847057994455,0            30.4742037970573,-29.684649053961,0            30.4741644859314,-29.6846088208258,0            30.4741635639221,-29.6846055518836,0            30.4741305392236,-29.6845369040966,0            30.4741296172142,-29.6845320425928,0            30.4741232469678,-29.6844542585313,0            30.4741380829364,-29.6844090800732,0            30.4741943255067,-29.6843384206295,0            30.4742208961397,-29.6842969302088,0            30.4742237459868,-29.6842937450856,0            30.4742606263608,-29.6842351555824,0            30.4742984287441,-29.6841630712152,0            30.4743192158639,-29.6841003745794,0            30.4743690881878,-29.6840624883771,0            30.4743747040629,-29.684056956321,0            30.4744299408048,-29.6840394381434,0            30.4744930565357,-29.6840237639844,0            30.4745354689658,-29.6840167231858,0            30.474578468129,-29.684043629095,0            30.4746039491147,-29.6840849518776,0            30.4746455233544,-29.6841629035771,0            30.4746957309544,-29.6842705272138,0            30.4747452680022,-29.6843815874308,0            30.4747758619487,-29.6844501513988,0            30.4748018458486,-29.6845099143684,0            30.47482422553,-29.684561630711,0            30.47482682392,-29.6845601219684,0            30.4749046918005,-29.6845391672105,0            30.4749072901905,-29.6845390833914,0            30.4749718308449,-29.6845066454262,0            30.4749752674252,-29.6845066454262,0            30.4749812185764,-29.6845020353794,0            30.4750502016395,-29.6844531688839,0            30.475075095892,-29.6844079904258,0            30.475114993751,-29.6843425277621,0            30.4751513712108,-29.684273544699,0            30.4751313384622,-29.6842637378722,0            30.475127985701,-29.6842636540532,0            30.4751237947494,-29.6842636540532,0            30.4750581644475,-29.6842542663217,0            30.4750564880669,-29.6842542663217,0            30.4749921988696,-29.6842204034328,0            30.4749590903521,-29.6841780748218,0            30.4749508760869,-29.6841112710536,0            30.474961604923,-29.6840263623744,0            30.4749652929604,-29.6840109396726,0            30.4749691486359,-29.6839811000973,0            30.4749603476375,-29.6839666832238,0            30.4749505408108,-29.6839476563036,0            30.4749496188015,-29.6839461475611,0            30.4749209526926,-29.6839418727905,0            30.4748974833637,-29.6839451417327,0            30.4748475272208,-29.6839356701821,0            30.474813580513,-29.6839065849781,0            30.4747892729938,-29.683877332136,0            30.4747702460736,-29.6838485822082,0            30.4747476987541,-29.6838345844299,0            30.4747311864048,-29.6838080976158,0            30.474742334336,-29.6837800182402,0            30.4747480340302,-29.6837473288178,0            30.4747241456062,-29.6837088558823,0            30.4746996704489,-29.683692259714,0            30.4746805597097,-29.6836827043444,0            30.4746699985117,-29.6836819499731,0            30.4746380634606,-29.6836715564132,0            30.4745711758733,-29.6836770046502,0            30.4745058808476,-29.6837060898542,0            30.4744220618159,-29.6837091911584,0            30.4743374884129,-29.6837010607123,0            30.4743308667094,-29.6836970373988,0            30.4742381628603,-29.6836527809501,0            30.474234810099,-29.6836471650749,0            30.474226847291,-29.6835729852319,0            30.4742655716836,-29.6835373621434,0            30.4743339680135,-29.6835169102997,0            30.4743436910212,-29.68351255171,0            30.4743518214673,-29.6835110429674,0            30.4744301084429,-29.6835253760219,0            30.4744348861277,-29.6835239510983,0            30.4745109099895,-29.6835325844586,0            30.4745125025511,-29.6835312433541,0            30.4745475389063,-29.6835141442716,0            30.4745549149811,-29.6834794431925,0            30.4745285958052,-29.6834423113614,0            30.4744876921177,-29.6834010723978,0            30.4744179546833,-29.6833822131157,0            30.474356263876,-29.6833715680987,0            30.4742882866412,-29.6833874937147,0            30.4742540884763,-29.6834031678736,0            30.4741728678346,-29.6834050957114,0            30.4740864504129,-29.6834128070623,0            30.4740214068443,-29.6834105439484,0            30.4739591293037,-29.6833869908005,0            30.4738957621157,-29.6833447460085,0            30.4738828539848,-29.6832822170109,0            30.4738861229271,-29.6832737512887,0            30.4739126097411,-29.6832042653114,0            30.473989052698,-29.6831084601581,0            30.4740371648222,-29.6830471046269,0            30.4740633163601,-29.6830204501748,0            30.4740665014833,-29.6830176003277,0            30.4740644060075,-29.6829908620566,0            30.4740440379828,-29.6829640399665,0            30.4739817604423,-29.6829365473241,0            30.4739103466272,-29.6829295065254,0            30.4737950954586,-29.6829436719418,0            30.473706331104,-29.6829497907311,0            30.4735825303942,-29.6829643752426,0            30.4734707158059,-29.6829802170396,0            30.4733889084309,-29.6829956397414,0            30.4733386170119,-29.6830112300813,0            30.4732818715274,-29.6829897724092,0            30.4733166564256,-29.6829202864319,0            30.4733234457672,-29.6829142514616,0            30.473418077454,-29.6828634571284,0            30.4734299797565,-29.6828572545201,0            30.4735011421144,-29.6828213799745,0            30.4735180735588,-29.6828207932413,0            30.4736191593111,-29.6828027721494,0            30.4737422894686,-29.6827817335725,0            30.4737438820303,-29.6827803086489,0            30.4738442134112,-29.6827589347959,0            30.4738506674767,-29.6827515587211,0            30.4739075805992,-29.6827200427651,0            30.4739264398813,-29.6826769597828,0            30.4739306308329,-29.6826299373061,0            30.4738746397197,-29.6826028637588,0            30.4738207440823,-29.68261401169,0            30.4736961051822,-29.6826609503478,0            30.4736133757979,-29.6826699189842,0            30.4735217615962,-29.6826715115458,0            30.4734112881124,-29.6826613694429,0            30.4733511898667,-29.6826310269535,0            30.4732714779675,-29.6825543325394,0            30.4732178337872,-29.6825409214944,0            30.4730605892837,-29.6823991835117,0            30.4730890039355,-29.6823462937027,0            30.4731885809451,-29.6822627261281,0            30.4733102861792,-29.6821829304099,0            30.4733982123435,-29.6821255981922,0            30.4733982123435,-29.6821270231158,0            30.4734081868082,-29.6820900589228,0            30.4734416306019,-29.6820504125208,0            30.4734414629638,-29.6820095088333,0            30.4734008107334,-29.6819388493896,0            30.4733211826533,-29.6818929165602,0            30.4732568096369,-29.6818444691598,0            30.473161758855,-29.6818452235311,0            30.4730522073805,-29.6818663459271,0            30.4729152470827,-29.6818631608039,0            30.4727766942233,-29.6818383503705,0            30.4727749340236,-29.6818397752941,0            30.4726882651448,-29.6818202454597,0            30.4726073797792,-29.6817960217595,0            30.4725164361298,-29.6818116120994,0            30.4724079743028,-29.6818535216153,0            30.4724013525993,-29.6818536892533,0            30.4723948147148,-29.681855365634,0            30.4723783861846,-29.6818588860333,0            30.4722667392343,-29.681910853833,0            30.4722247458994,-29.6819302160293,0            30.4721685871482,-29.6819378435612,0            30.4721009451896,-29.6819047350436,0            30.472099268809,-29.6819048188627,0            30.4719872865826,-29.6818375121802,0            30.4719074908644,-29.6817672718316,0            30.4719122685492,-29.6816738974303,0            30.471975216642,-29.6816031541675,0            30.4720478877425,-29.681546324864,0            30.4721124283969,-29.6814766712487,0            30.4721107520163,-29.6814766712487,0            30.4720947425812,-29.6814468316734,0            30.472041266039,-29.6814050059766,0            30.4719704389572,-29.6813813690096,0            30.4719203989953,-29.6813785191625,0            30.4718237556517,-29.6814079396427,0            30.4717295430601,-29.6814175788313,0            30.4716170579195,-29.6814441494644,0            30.4715484939516,-29.6814921777695,0            30.4715262819082,-29.6815676987171,0            30.4715216718614,-29.6816278807819,0            30.4715008009225,-29.6816682815552,0            30.471454616636,-29.6816906612366,0            30.4714024811983,-29.6816697064787,0            30.4714006371796,-29.6816635876894,0            30.4713297262788,-29.681596448645,0            30.471327714622,-29.6815856359899,0            30.4712710529566,-29.6815135516226,0            30.4712586477399,-29.6814501006156,0            30.4712514393032,-29.6814501006156,0            30.4712886549532,-29.6813741605729,0            30.4713723901659,-29.6812679618597,0            30.4714335780591,-29.6811713185161,0            30.4715044889599,-29.6811426524073,0            30.4716493282467,-29.681131253019,0            30.4717758111656,-29.6811635233462,0            30.4718918167055,-29.6811641938984,0            30.4718952532858,-29.6811642777175,0            30.4719733726233,-29.6811275649816,0            30.4720937367529,-29.6810350287706,0            30.4721643961966,-29.6809502039105,0            30.4721956606954,-29.6808865852654,0            30.4722061380744,-29.6807908639312,0            30.4721793998033,-29.6807202883065,0            30.4721472971141,-29.6806498803198,0            30.4720986820757,-29.6805929671973,0            30.4720526654273,-29.6805607806891,0            30.4720459599048,-29.680555080995,0            30.4720375780016,-29.6805479563773,0            30.4719652421773,-29.6804715972394,0            30.4719587042928,-29.6804703399539,0            30.4718941636383,-29.6804079785943,0            30.4718011245131,-29.6803654823452,0            30.4717026371509,-29.6803362295032,0            30.4716940876097,-29.6803289372474,0            30.4715871345252,-29.6802589483559,0            30.471501974389,-29.6801941562444,0            30.4714292194694,-29.6801711898297,0            30.4714275430888,-29.6801696810871,0            30.4713767487556,-29.6801326330751,0            30.4713010601699,-29.680071529001,0            30.471229897812,-29.6799963433295,0            30.4711720626801,-29.6798919886351,0            30.4710981342942,-29.6797769051045,0            30.4710381198674,-29.6796598937362,0            30.4709885828197,-29.6795398648828,0            30.4709306638688,-29.6794588118792,0            30.470867715776,-29.6794140525162,0            30.470783142373,-29.6793794352561,0            30.470777861774,-29.6793824527413,0            30.4706810507923,-29.6793847996742,0            30.4705627821386,-29.6794166509062,0            30.4704750236124,-29.6794552076608,0            30.4703782126307,-29.6795422956347,0            30.4702544119209,-29.6797087602317,0            30.4702239856124,-29.6797918248922,0            30.4702351335436,-29.6798572875559,0            30.4702891968191,-29.6798789128661,0            30.4702947288752,-29.6798788290471,0            30.470363125205,-29.6798784099519,0            30.4704150091857,-29.6798936650157,0            30.4704523924738,-29.6799417771399,0            30.4704615287483,-29.6799432020634,0            30.4705075453967,-29.6799599658698,0            30.4705710802227,-29.6799205709249,0            30.4706508759409,-29.6798782423139,0            30.4707271512598,-29.6798687707633,0            30.4708020854741,-29.6798887196928,0            30.4708294104785,-29.6799360774457,0            30.4708661232144,-29.680029284209,0            30.4709119722247,-29.6801210660487,0            30.4709776863456,-29.6802200563252,0            30.4710556380451,-29.6803186275065,0            30.471087070182,-29.6804042905569,0            30.471092518419,-29.6804088167846,0            30.471102911979,-29.6805090643466,0            30.4710827115923,-29.6805827412754,0            30.4710265528411,-29.6806565858424,0            30.470973411575,-29.6807229705155,0            30.4709415603429,-29.6807682327926,0            30.4708874132484,-29.6807909477502,0            30.4708327632397,-29.6808028500527,0            30.4707826394588,-29.6808181889355,0            30.4706943780184,-29.6808449272066,0            30.4706189408898,-29.6808423288167,0            30.4705476108938,-29.6807887684554,0            30.4704795498401,-29.6807054523379,0            30.470479298383,-29.6806959807873,0            30.4704065434635,-29.6805788017809,0            30.4703358002007,-29.680486517027,0            30.470333872363,-29.6804801467806,0            30.4702048748732,-29.6803969144821,0            30.4702029470354,-29.6803890354931,0            30.470066992566,-29.6802576072514,0            30.4699754621834,-29.6801618020982,0            30.4699680022895,-29.6801555156708,0            30.469868844375,-29.6800437010825,0            30.4697853606194,-29.6799343172461,0            30.4697053972632,-29.6797883044928,0            30.4696406889707,-29.6796754840761,0            30.4695255216211,-29.6794868912548,0            30.4695179779083,-29.6794883161783,0            30.4694808460772,-29.6793942712247,0            30.4694315604866,-29.679305087775,0            30.4694258607924,-29.6792955324054,0            30.4694183170795,-29.6792827919126,0            30.469408929348,-29.6792716439813,0            30.4693727195263,-29.6791998110712,0            30.4693209193647,-29.6790876612067,0            30.4692956060171,-29.6790138166398,0            30.4693225119263,-29.6789672970772,0            30.4693680256605,-29.6789302490652,0            30.469472296536,-29.6789095457643,0            30.4696268588305,-29.6789146587253,0            30.4696432035416,-29.6789146587253,0            30.4697977658361,-29.6789134014398,0            30.4698048904538,-29.6789134014398,0            30.4699631407857,-29.6789058577269,0            30.4699754621834,-29.6789058577269,0            30.47009347938,-29.6788918599486,0            30.4700969997793,-29.6788918599486,0            30.4701161943376,-29.6788903512061,0            30.470236223191,-29.6788704022765,0            30.4703303519636,-29.6788579970598,0            30.4703371413052,-29.6788517944515,0            30.4703441821039,-29.6788502018899,0            30.4703881870955,-29.678818685934,0            30.4704056214541,-29.6787701547146,0            30.4703949764371,-29.6787045244128,0            30.4703561682254,-29.6786261536181,0            30.4702734388411,-29.6784641314298,0            30.4702715110034,-29.6784533187747,0            30.470262542367,-29.6784363873303,0            30.4701863508672,-29.6782663185149,0            30.4701336286962,-29.6781778894365,0            30.4700753744692,-29.6780923102051,0            30.4700752068311,-29.6780844312161,0            30.4699457064271,-29.6779563557357,0            30.469821235165,-29.677862059325,0            30.4697175510228,-29.6777683496475,0            30.4696412757039,-29.6777091734111,0            30.4695370048285,-29.6776179783046,0            30.4694113600999,-29.6775045711547,0            30.4692921694368,-29.6774237696081,0            30.4692919179797,-29.6774172317237,0            30.469163088128,-29.6773115359247,0            30.4690474178642,-29.6772022359073,0            30.4688926879317,-29.6771302353591,0            30.4687939491123,-29.6770434826613,0            30.4687232896686,-29.6769858151674,0            30.4687232058495,-29.6769807860255,0            30.4686387162656,-29.6768192667514,0            30.4685463476926,-29.6766735054553,0            30.4684440884739,-29.6764442604035,0            30.4684209544212,-29.6762934699655,0            30.4683348722756,-29.676117785275,0            30.4682178609073,-29.6759654022753,0            30.4682139214128,-29.6759620495141,0            30.4680962394923,-29.6758101694286,0            30.4679524898529,-29.6756743825972,0            30.4677091632038,-29.6754556149244,0            30.4676344804466,-29.6753810998052,0            30.4675080813468,-29.6752133779228,0            30.4673892259598,-29.6750680357218,0            30.4672987852246,-29.6749528683722,0            30.4671107791364,-29.6750001423061,0            30.4668026603758,-29.6751447301358,0            30.4664784483612,-29.6753153856844,0            30.4662403184921,-29.6754785813391,0            30.4663134086877,-29.6756449621171,0            30.4663530550897,-29.6757710259408,0            30.4665843956173,-29.6759520750493,0            30.4667373653501,-29.6760885324329,0            30.4667996428907,-29.6761570964009,0            30.4668034985662,-29.6761570125818,0            30.4668857250363,-29.6762409154326,0            30.4669874813408,-29.6763547416776,0            30.4670927580446,-29.6764629520476,0            30.4671669378877,-29.6765994932503,0            30.4672225937247,-29.6766921132803,0            30.4673710372299,-29.6767852362245,0            30.4673789162189,-29.6767901815474,0            30.4675786569715,-29.6769010741264,0            30.4676587879658,-29.6770019922405,0            30.4677578620613,-29.6771778445691,0            30.4677656572312,-29.6771811135113,0            30.4678395856172,-29.6773107815534,0            30.4679081495851,-29.6773867215961,0            30.4679672420025,-29.6774660982192,0            30.4680645558983,-29.6776520088315,0            30.4680701717734,-29.677854096517,0            30.4680613707751,-29.6780118439347,0            30.4680182039738,-29.6781281847507,0            30.4679429344833,-29.6782964095473,0            30.4679429344833,-29.678298085928,0            30.4678742866963,-29.6784751117229,0            30.4678007774055,-29.6786158438772,0            30.4676625598222,-29.6787005010992,0            30.4675708618015,-29.6787697356194,0            30.4676245898008,-29.6788324322551,0            30.4677496477962,-29.6789290755987,0            30.4677591193467,-29.6789355296642,0            30.4677724465728,-29.6789467614144,0            30.4679030366242,-29.6790139004588,0            30.4681497998536,-29.6791608352214,0            30.4683000035584,-29.6792402956635,0            30.4684269055724,-29.679289329797,0            30.4685419052839,-29.6793819498271,0            30.4686304181814,-29.6794018987566,0            30.4687287379056,-29.6794367674738,0            30.4688542149961,-29.6795332431793,0            30.4688561428338,-29.6795365121216,0            30.4688656143844,-29.6795395296067,0            30.4688732419163,-29.6795458998531,0            30.4689327534288,-29.679630221799,0            30.4689365252852,-29.6796334069222,0            30.4689459968358,-29.6796398609877,0            30.4689257126302,-29.6797786653042,0            30.4690129682422,-29.6798766497523,0            30.4691135510802,-29.6800367441028,0            30.4692339990288,-29.6801828406751,0            30.4692642576993,-29.6802970021963,0            30.4693015571684,-29.6803646441549,0            30.4693792574108,-29.6804236527532,0            30.4695062432438,-29.6804220601916,0            30.469731381163,-29.6804645564407,0            30.4697331413627,-29.6804660651833,0            30.4698879551142,-29.6804677415639,0            30.4700389131904,-29.6805492136627,0            30.4701374843717,-29.6806949749589,0            30.4701984208077,-29.6808321867138,0            30.4702717624605,-29.6809752658009,0            30.4702788870782,-29.6809751819819,0            30.4704058729112,-29.6810853201896,0            30.4704822320491,-29.6811783593148,0            30.4706675559282,-29.6813376992941,0            30.4706820566207,-29.6813661977649,0            30.4706570785493,-29.6814503520727,0            30.4705668892711,-29.6815659385174,0            30.4704749397933,-29.6817224286497,0            30.4704942181706,-29.6818604785949,0            30.4705086350441,-29.6818711236119,0            30.4706278257072,-29.6820974349976,0            30.4706331901252,-29.6821019612253,0            30.4707064479589,-29.6822760533541,0            30.4707933682948,-29.6825009398162,0            30.4708629380912,-29.6826955676079,0            30.4708698950708,-29.6826953999698,0            30.4709599167109,-29.6829518023878,0            30.47103703022,-29.6832302492112,0            30.4710759222507,-29.6833473443985,0            30.4711760021746,-29.6835009008646,0            30.4713106993586,-29.6836568880826,0            30.471401726827,-29.6837816946208,0            30.4714823607355,-29.6838026493788,0            30.4716245178133,-29.6837826166302,0            30.4717719554901,-29.683747831732,0            30.4720583651215,-29.6837298944592,0            30.4726523905992,-29.6842115186155,0            30.4727368801832,-29.6843192260712,0            30.4727511294186,-29.6843937411904,0            30.472712488845,-29.6844686754048,0            30.4725520592183,-29.6845853514969,0            30.4724552482367,-29.6846343018115,0            30.4724095668644,-29.6846927236766,0            30.4723039548844,-29.6847042907029,0            30.4722242429852,-29.6846529934555,0            30.4719984345138,-29.6844433620572,0            30.4718624800444,-29.6843324694782,0            30.4716883040965,-29.6841984428465,0            30.4714981187135,-29.6840044017881,0          </coordinates></LineString></Placemark><Placemark><name>Start</name><styleUrl>#icon-1899-0F9D58-nodesc</styleUrl><Point><coordinates>            30.4723744,-29.684624,0          </coordinates></Point></Placemark><Placemark><name>Finish</name><styleUrl>#icon-1899-FF5252-nodesc</styleUrl><Point><coordinates>            30.4714954,-29.6839974,0          </coordinates></Point></Placemark></Folder></Document></kml>