<?xml version="1.0" encoding="UTF-8"?><kml xmlns="http://www.opengis.net/kml/2.2"><Document><name>Modimolle parkrun</name><description/><Style id="icon-1899-0F9D58-nodesc-normal"><IconStyle><color>ff589d0f</color><scale>1</scale><Icon><href>https://www.gstatic.com/mapspro/images/stock/503-wht-blank_maps.png</href></Icon><hotSpot x="32" xunits="pixels" y="64" yunits="insetPixels"/></IconStyle><LabelStyle><scale>0</scale></LabelStyle><BalloonStyle><text><![CDATA[<h3>$[name]</h3>]]></text></BalloonStyle></Style><Style id="icon-1899-0F9D58-nodesc-highlight"><IconStyle><color>ff589d0f</color><scale>1</scale><Icon><href>https://www.gstatic.com/mapspro/images/stock/503-wht-blank_maps.png</href></Icon><hotSpot x="32" xunits="pixels" y="64" yunits="insetPixels"/></IconStyle><LabelStyle><scale>1</scale></LabelStyle><BalloonStyle><text><![CDATA[<h3>$[name]</h3>]]></text></BalloonStyle></Style><StyleMap id="icon-1899-0F9D58-nodesc"><Pair><key>normal</key><styleUrl>#icon-1899-0F9D58-nodesc-normal</styleUrl></Pair><Pair><key>highlight</key><styleUrl>#icon-1899-0F9D58-nodesc-highlight</styleUrl></Pair></StyleMap><Style id="icon-1899-FF5252-nodesc-normal"><IconStyle><color>ff5252ff</color><scale>1</scale><Icon><href>https://www.gstatic.com/mapspro/images/stock/503-wht-blank_maps.png</href></Icon><hotSpot x="32" xunits="pixels" y="64" yunits="insetPixels"/></IconStyle><LabelStyle><scale>0</scale></LabelStyle><BalloonStyle><text><![CDATA[<h3>$[name]</h3>]]></text></BalloonStyle></Style><Style id="icon-1899-FF5252-nodesc-highlight"><IconStyle><color>ff5252ff</color><scale>1</scale><Icon><href>https://www.gstatic.com/mapspro/images/stock/503-wht-blank_maps.png</href></Icon><hotSpot x="32" xunits="pixels" y="64" yunits="insetPixels"/></IconStyle><LabelStyle><scale>1</scale></LabelStyle><BalloonStyle><text><![CDATA[<h3>$[name]</h3>]]></text></BalloonStyle></Style><StyleMap id="icon-1899-FF5252-nodesc"><Pair><key>normal</key><styleUrl>#icon-1899-FF5252-nodesc-normal</styleUrl></Pair><Pair><key>highlight</key><styleUrl>#icon-1899-FF5252-nodesc-highlight</styleUrl></Pair></StyleMap><Style id="line-0288D1-5456-nodesc-normal"><LineStyle><color>ffd18802</color><width>5.456</width></LineStyle><BalloonStyle><text><![CDATA[<h3>$[name]</h3>]]></text></BalloonStyle></Style><Style id="line-0288D1-5456-nodesc-highlight"><LineStyle><color>ffd18802</color><width>8.184</width></LineStyle><BalloonStyle><text><![CDATA[<h3>$[name]</h3>]]></text></BalloonStyle></Style><StyleMap id="line-0288D1-5456-nodesc"><Pair><key>normal</key><styleUrl>#line-0288D1-5456-nodesc-normal</styleUrl></Pair><Pair><key>highlight</key><styleUrl>#line-0288D1-5456-nodesc-highlight</styleUrl></Pair></StyleMap><Folder><name>Untitled layer</name><Placemark><name>Course</name><styleUrl>#line-0288D1-5456-nodesc</styleUrl><LineString><tessellate>1</tessellate><coordinates>            28.385214,-24.694697,0            28.385104,-24.694707,0            28.385013,-24.694726,0            28.384868,-24.694756,0            28.384742,-24.69476,0            28.384689,-24.694751,0            28.384638,-24.694775,0            28.384557,-24.694814,0            28.384472,-24.694846,0            28.384421,-24.694865,0            28.384093,-24.694912,0            28.383887,-24.694878,0            28.383594,-24.694853,0            28.383466,-24.694848,0            28.383326,-24.694865,0            28.383187,-24.694897,0            28.38305,-24.694941,0            28.382897,-24.694994,0            28.382742,-24.695014,0            28.382578,-24.694985,0            28.38246,-24.69498,0            28.382344,-24.694946,0            28.382184,-24.694856,0            28.382031,-24.694907,0            28.381964,-24.694916,0            28.381921,-24.694902,0            28.381859,-24.694846,0            28.381803,-24.694778,0            28.381706,-24.694712,0            28.381588,-24.694644,0            28.381524,-24.694566,0            28.381473,-24.694532,0            28.381406,-24.694505,0            28.381331,-24.694451,0            28.38125,-24.694392,0            28.381207,-24.694358,0            28.381143,-24.694307,0            28.381087,-24.694263,0            28.381041,-24.69421,0            28.381003,-24.694137,0            28.381001,-24.694071,0            28.38102,-24.694005,0            28.381041,-24.693947,0            28.381065,-24.693878,0            28.381097,-24.693844,0            28.381126,-24.693787,0            28.381151,-24.693771,0            28.381175,-24.693758,0            28.381186,-24.693739,0            28.381203,-24.693727,0            28.381231,-24.693712,0            28.381258,-24.693698,0            28.381288,-24.693678,0            28.381341,-24.69364,0            28.381406,-24.693613,0            28.381484,-24.693591,0            28.381559,-24.693574,0            28.381663,-24.693547,0            28.38176,-24.693523,0            28.381824,-24.693493,0            28.381803,-24.693213,0            28.381728,-24.693118,0            28.381652,-24.693077,0            28.38158,-24.693057,0            28.381502,-24.69306,0            28.381406,-24.693055,0            28.381301,-24.69303,0            28.381175,-24.692989,0            28.38106,-24.69295,0            28.380912,-24.692911,0            28.38077,-24.69287,0            28.380674,-24.69285,0            28.380569,-24.692833,0            28.380446,-24.692833,0            28.38033,-24.692816,0            28.380223,-24.692796,0            28.380129,-24.692774,0            28.380022,-24.692743,0            28.379931,-24.692704,0            28.379823,-24.692679,0            28.3797,-24.692689,0            28.379609,-24.692689,0            28.379523,-24.692655,0            28.379432,-24.692592,0            28.379338,-24.692523,0            28.379273,-24.692475,0            28.379198,-24.692416,0            28.379131,-24.692382,0            28.379051,-24.692355,0            28.378965,-24.692316,0            28.37889,-24.692297,0            28.378801,-24.692268,0            28.378729,-24.692246,0            28.378608,-24.692207,0            28.378471,-24.692146,0            28.378335,-24.692073,0            28.378211,-24.692009,0            28.378104,-24.691951,0            28.377991,-24.691885,0            28.377903,-24.691836,0            28.377822,-24.691792,0            28.377763,-24.691744,0            28.37772,-24.691697,0            28.377651,-24.691639,0            28.37757,-24.6916,0            28.37749,-24.691558,0            28.377382,-24.69148,0            28.377318,-24.691415,0            28.377227,-24.691346,0            28.377179,-24.69129,0            28.377112,-24.691251,0            28.376991,-24.691208,0            28.376833,-24.691144,0            28.376669,-24.691086,0            28.376487,-24.691017,0            28.376318,-24.690949,0            28.376192,-24.690891,0            28.376052,-24.690818,0            28.375899,-24.690747,0            28.375741,-24.690676,0            28.375591,-24.69063,0            28.375465,-24.690601,0            28.375325,-24.690569,0            28.375191,-24.690532,0            28.3751,-24.69051,0            28.374976,-24.690501,0            28.374858,-24.690467,0            28.37474,-24.690432,0            28.374593,-24.690379,0            28.374456,-24.69034,0            28.374306,-24.690286,0            28.374145,-24.69023,0            28.373949,-24.690152,0            28.373786,-24.690084,0            28.373635,-24.690033,0            28.373456,-24.689967,0            28.373316,-24.689916,0            28.373174,-24.68987,0            28.373013,-24.689816,0            28.372852,-24.68976,0            28.372713,-24.689714,0            28.372576,-24.68966,0            28.372461,-24.689623,0            28.372308,-24.689567,0            28.372155,-24.689519,0            28.371983,-24.689458,0            28.371838,-24.689411,0            28.371728,-24.689372,0            28.371642,-24.689341,0            28.371594,-24.689428,0            28.371533,-24.689536,0            28.370953,-24.690659,0            28.370706,-24.691095,0            28.370945,-24.691602,0            28.371213,-24.692114,0            28.37138,-24.692411,0            28.372611,-24.694731,0            28.374606,-24.69363,0            28.374633,-24.694244,0            28.374714,-24.694361,0            28.374826,-24.694507,0            28.374971,-24.694653,0            28.375159,-24.694692,0            28.375352,-24.694722,0            28.375524,-24.694712,0            28.375685,-24.694644,0            28.375803,-24.694561,0            28.375942,-24.694497,0            28.376103,-24.69441,0            28.376242,-24.694302,0            28.376393,-24.694205,0            28.3765,-24.694093,0            28.376677,-24.693942,0            28.37672,-24.693903,0            28.376795,-24.694034,0            28.37687,-24.694176,0            28.376951,-24.694273,0            28.377063,-24.694351,0            28.377187,-24.694424,0            28.37731,-24.694497,0            28.377407,-24.694527,0            28.37753,-24.694595,0            28.377686,-24.694624,0            28.377873,-24.694639,0            28.378024,-24.694653,0            28.378179,-24.694624,0            28.378281,-24.6946,0            28.378388,-24.694575,0            28.378458,-24.694541,0            28.378598,-24.6946,0            28.378726,-24.694658,0            28.378839,-24.694712,0            28.378925,-24.69477,0            28.379032,-24.694838,0            28.379112,-24.694931,0            28.37922,-24.695014,0            28.379295,-24.695085,0            28.379268,-24.695163,0            28.379193,-24.695233,0            28.379139,-24.695272,0            28.379112,-24.695323,0            28.379086,-24.695362,0            28.379032,-24.69544,0            28.378989,-24.695494,0            28.378909,-24.695536,0            28.378828,-24.695582,0            28.37875,-24.695621,0            28.378673,-24.695665,0            28.378598,-24.695699,0            28.378533,-24.695752,0            28.37849,-24.695818,0            28.378471,-24.695877,0            28.378394,-24.695906,0            28.378297,-24.695923,0            28.378246,-24.695928,0            28.378163,-24.695938,0            28.378088,-24.695964,0            28.378045,-24.696006,0            28.378021,-24.696074,0            28.377991,-24.696152,0            28.377967,-24.696218,0            28.377906,-24.696279,0            28.377846,-24.696313,0            28.377782,-24.696362,0            28.377734,-24.696415,0            28.37767,-24.696474,0            28.377602,-24.696527,0            28.377541,-24.696571,0            28.377487,-24.696605,0            28.37742,-24.696637,0            28.377353,-24.696683,0            28.377294,-24.696727,0            28.37723,-24.696781,0            28.377176,-24.696829,0            28.377077,-24.696937,0            28.377004,-24.697,0            28.376945,-24.697037,0            28.376902,-24.697083,0            28.376865,-24.697144,0            28.376819,-24.697195,0            28.376755,-24.697258,0            28.376688,-24.697312,0            28.376645,-24.697348,0            28.376597,-24.697414,0            28.376572,-24.697456,0            28.376505,-24.697526,0            28.376446,-24.697575,0            28.376382,-24.697624,0            28.376347,-24.697692,0            28.376312,-24.697777,0            28.37628,-24.697863,0            28.376259,-24.697946,0            28.376242,-24.698011,0            28.376296,-24.698087,0            28.37636,-24.698165,0            28.376484,-24.698248,0            28.376591,-24.698236,0            28.376709,-24.698209,0            28.376784,-24.698206,0            28.376876,-24.698187,0            28.37694,-24.69815,0            28.376999,-24.698099,0            28.377069,-24.698028,0            28.377149,-24.697975,0            28.377205,-24.697941,0            28.37727,-24.697941,0            28.377366,-24.697953,0            28.377466,-24.69795,0            28.377551,-24.697933,0            28.377626,-24.697911,0            28.377659,-24.697848,0            28.377702,-24.697785,0            28.377753,-24.697731,0            28.377809,-24.697702,0            28.377881,-24.69769,0            28.37797,-24.69769,0            28.378042,-24.697682,0            28.378109,-24.697648,0            28.378227,-24.697595,0            28.3783,-24.697565,0            28.378372,-24.697573,0            28.378469,-24.697602,0            28.378565,-24.697624,0            28.378651,-24.697614,0            28.378726,-24.697595,0            28.378834,-24.697573,0            28.378903,-24.697563,0            28.378984,-24.697556,0            28.379083,-24.697534,0            28.379137,-24.697497,0            28.379201,-24.697458,0            28.379276,-24.697426,0            28.379397,-24.697395,0            28.379512,-24.697361,0            28.379598,-24.697336,0            28.379673,-24.697329,0            28.379759,-24.697336,0            28.379823,-24.697339,0            28.379898,-24.697329,0            28.379955,-24.697302,0            28.379998,-24.697263,0            28.380057,-24.697219,0            28.380102,-24.697163,0            28.380156,-24.697107,0            28.380188,-24.697054,0            28.38025,-24.696946,0            28.380255,-24.696864,0            28.380263,-24.696793,0            28.38025,-24.696705,0            28.380252,-24.696639,0            28.380242,-24.696578,0            28.380218,-24.696486,0            28.380199,-24.696398,0            28.380177,-24.69631,0            28.380177,-24.696223,0            28.380169,-24.696137,0            28.380188,-24.696025,0            28.380207,-24.695933,0            28.380223,-24.695845,0            28.380266,-24.695774,0            28.380352,-24.695728,0            28.380424,-24.695699,0            28.380502,-24.695657,0            28.380561,-24.695611,0            28.380582,-24.69554,0            28.380582,-24.69546,0            28.380556,-24.695392,0            28.38055,-24.695336,0            28.380574,-24.695272,0            28.380625,-24.695233,0            28.380671,-24.695206,0            28.3807,-24.69516,0            28.380703,-24.695102,0            28.380706,-24.69505,0            28.380722,-24.695004,0            28.380767,-24.694965,0            28.38081,-24.694924,0            28.380861,-24.694904,0            28.380947,-24.694885,0            28.381001,-24.694858,0            28.381057,-24.694829,0            28.381111,-24.694785,0            28.381151,-24.694729,0            28.381172,-24.694678,0            28.38121,-24.694631,0            28.38128,-24.694602,0            28.381352,-24.694568,0            28.381387,-24.694541,0            28.381408,-24.694527,0            28.381449,-24.694534,0            28.381484,-24.694558,0            28.38151,-24.694578,0            28.381545,-24.694612,0            28.381567,-24.694641,0            28.381599,-24.69467,0            28.381634,-24.69469,0            28.381682,-24.694719,0            28.381728,-24.694741,0            28.381779,-24.69478,0            28.381816,-24.694812,0            28.381838,-24.694841,0            28.381867,-24.69488,0            28.381899,-24.694904,0            28.38195,-24.694929,0            28.382004,-24.694929,0            28.382063,-24.694919,0            28.382117,-24.694899,0            28.38216,-24.69488,0            28.382181,-24.694875,0            28.382213,-24.694885,0            28.382261,-24.694916,0            28.382299,-24.694946,0            28.382353,-24.694958,0            28.382385,-24.694972,0            28.382446,-24.694987,0            28.382653,-24.695014,0            28.382739,-24.695024,0            28.382811,-24.695016,0            28.382884,-24.695007,0            28.382929,-24.694992,0            28.382991,-24.694977,0            28.38305,-24.694958,0            28.383104,-24.694934,0            28.383195,-24.694919,0            28.383264,-24.694899,0            28.383348,-24.69488,0            28.383415,-24.69486,0            28.383474,-24.69486,0            28.383527,-24.69486,0            28.383602,-24.694868,0            28.383683,-24.694868,0            28.383777,-24.694875,0            28.383841,-24.694895,0            28.38393,-24.694904,0            28.383991,-24.694904,0            28.384058,-24.694919,0            28.384134,-24.694924,0            28.384217,-24.694914,0            28.384273,-24.694899,0            28.384364,-24.694878,0            28.384429,-24.694875,0            28.384496,-24.694865,0            28.384547,-24.694831,0            28.384611,-24.694812,0            28.384678,-24.694773,0            28.384724,-24.694768,0            28.384783,-24.694778,0            28.384836,-24.694778,0            28.384938,-24.694758,0            28.385011,-24.694734,0            28.385075,-24.694724,0            28.385148,-24.694714,0            28.385212,-24.694714,0            28.385303,-24.694714,0            28.385354,-24.694702,0            28.385421,-24.694682,0            28.385496,-24.694663,0            28.385536,-24.694651,0            28.385579,-24.694636,0            28.385622,-24.694636,0            28.385654,-24.694651,0            28.385697,-24.694673,0            28.385721,-24.69468,0          </coordinates></LineString></Placemark><Placemark><name>Finish</name><styleUrl>#icon-1899-FF5252-nodesc</styleUrl><Point><coordinates>            28.385718,-24.694684,0          </coordinates></Point></Placemark><Placemark><name>Start</name><styleUrl>#icon-1899-0F9D58-nodesc</styleUrl><Point><coordinates>            28.385241,-24.694698,0          </coordinates></Point></Placemark></Folder></Document></kml>