<?xml version="1.0" encoding="UTF-8"?><kml xmlns="http://www.opengis.net/kml/2.2"><Document><name>Mofolo parkrun (from Nov 2025)</name><description/><Style id="icon-1899-0F9D58-nodesc-normal"><IconStyle><color>ff589d0f</color><scale>1</scale><Icon><href>https://www.gstatic.com/mapspro/images/stock/503-wht-blank_maps.png</href></Icon><hotSpot x="32" xunits="pixels" y="64" yunits="insetPixels"/></IconStyle><LabelStyle><scale>0</scale></LabelStyle><BalloonStyle><text><![CDATA[<h3>$[name]</h3>]]></text></BalloonStyle></Style><Style id="icon-1899-0F9D58-nodesc-highlight"><IconStyle><color>ff589d0f</color><scale>1</scale><Icon><href>https://www.gstatic.com/mapspro/images/stock/503-wht-blank_maps.png</href></Icon><hotSpot x="32" xunits="pixels" y="64" yunits="insetPixels"/></IconStyle><LabelStyle><scale>1</scale></LabelStyle><BalloonStyle><text><![CDATA[<h3>$[name]</h3>]]></text></BalloonStyle></Style><StyleMap id="icon-1899-0F9D58-nodesc"><Pair><key>normal</key><styleUrl>#icon-1899-0F9D58-nodesc-normal</styleUrl></Pair><Pair><key>highlight</key><styleUrl>#icon-1899-0F9D58-nodesc-highlight</styleUrl></Pair></StyleMap><Style id="icon-1899-FF5252-nodesc-normal"><IconStyle><color>ff5252ff</color><scale>1</scale><Icon><href>https://www.gstatic.com/mapspro/images/stock/503-wht-blank_maps.png</href></Icon><hotSpot x="32" xunits="pixels" y="64" yunits="insetPixels"/></IconStyle><LabelStyle><scale>0</scale></LabelStyle><BalloonStyle><text><![CDATA[<h3>$[name]</h3>]]></text></BalloonStyle></Style><Style id="icon-1899-FF5252-nodesc-highlight"><IconStyle><color>ff5252ff</color><scale>1</scale><Icon><href>https://www.gstatic.com/mapspro/images/stock/503-wht-blank_maps.png</href></Icon><hotSpot x="32" xunits="pixels" y="64" yunits="insetPixels"/></IconStyle><LabelStyle><scale>1</scale></LabelStyle><BalloonStyle><text><![CDATA[<h3>$[name]</h3>]]></text></BalloonStyle></Style><StyleMap id="icon-1899-FF5252-nodesc"><Pair><key>normal</key><styleUrl>#icon-1899-FF5252-nodesc-normal</styleUrl></Pair><Pair><key>highlight</key><styleUrl>#icon-1899-FF5252-nodesc-highlight</styleUrl></Pair></StyleMap><Style id="line-0288D1-5650-nodesc-normal"><LineStyle><color>ffd18802</color><width>5.65</width></LineStyle><BalloonStyle><text><![CDATA[<h3>$[name]</h3>]]></text></BalloonStyle></Style><Style id="line-0288D1-5650-nodesc-highlight"><LineStyle><color>ffd18802</color><width>8.475</width></LineStyle><BalloonStyle><text><![CDATA[<h3>$[name]</h3>]]></text></BalloonStyle></Style><StyleMap id="line-0288D1-5650-nodesc"><Pair><key>normal</key><styleUrl>#line-0288D1-5650-nodesc-normal</styleUrl></Pair><Pair><key>highlight</key><styleUrl>#line-0288D1-5650-nodesc-highlight</styleUrl></Pair></StyleMap><Folder><name>Untitled layer</name><Placemark><name>Course</name><styleUrl>#line-0288D1-5650-nodesc</styleUrl><LineString><tessellate>1</tessellate><coordinates>            27.88807,-26.24323,0            27.888296,-26.243143,0            27.8885154,-26.2430142,0            27.888537,-26.242941,0            27.8885315,-26.2427784,0            27.8884349,-26.2426677,0            27.88828,-26.242633,0            27.888017,-26.242595,0            27.888051,-26.241845,0            27.8879009,-26.2411449,0            27.8878728,-26.2407769,0            27.888077,-26.240354,0            27.888587,-26.241883,0            27.888665,-26.242085,0            27.888789,-26.2423598,0            27.8889499,-26.2429564,0            27.888971,-26.243307,0            27.8892638,-26.2439488,0            27.889278,-26.244627,0            27.889328,-26.245035,0            27.889297,-26.245146,0            27.889315,-26.24522,0            27.889269,-26.2453,0            27.888535,-26.244944,0            27.8883737,-26.2447779,0            27.88825,-26.244583,0            27.888144,-26.244252,0            27.888223,-26.243966,0            27.8881828,-26.2436926,0            27.888167,-26.243545,0            27.88803,-26.243267,0            27.8878878,-26.2432114,0            27.8877483,-26.2430815,0            27.887582,-26.2428073,0            27.887496,-26.242622,0            27.8873996,-26.2424753,0            27.887126,-26.2422203,0            27.886871,-26.242104,0            27.8866647,-26.242023,0            27.88641,-26.242008,0            27.8864447,-26.241768,0            27.8865574,-26.2417006,0            27.886941,-26.2415466,0            27.887086,-26.241556,0            27.887311,-26.241638,0            27.8876276,-26.2413927,0            27.887672,-26.24125,0            27.8876196,-26.2409741,0            27.88746,-26.240356,0            27.8875695,-26.2403411,0            27.887997,-26.240276,0            27.888058,-26.240301,0            27.888077,-26.240354,0          </coordinates></LineString></Placemark><Placemark><name>Finish</name><styleUrl>#icon-1899-FF5252-nodesc</styleUrl><Point><coordinates>            27.88807,-26.24323,0          </coordinates></Point></Placemark><Placemark><name>Start</name><styleUrl>#icon-1899-0F9D58-nodesc</styleUrl><Point><coordinates>            27.8889765,-26.2431773,0          </coordinates></Point></Placemark></Folder></Document></kml>