<?xml version="1.0" encoding="UTF-8"?><kml xmlns="http://www.opengis.net/kml/2.2"><Document><name>Moorreesburg Golf Club parkrun</name><description/><Style id="icon-1899-0F9D58-nodesc-normal"><IconStyle><color>ff589d0f</color><scale>1</scale><Icon><href>https://www.gstatic.com/mapspro/images/stock/503-wht-blank_maps.png</href></Icon><hotSpot x="32" xunits="pixels" y="64" yunits="insetPixels"/></IconStyle><LabelStyle><scale>0</scale></LabelStyle><BalloonStyle><text><![CDATA[<h3>$[name]</h3>]]></text></BalloonStyle></Style><Style id="icon-1899-0F9D58-nodesc-highlight"><IconStyle><color>ff589d0f</color><scale>1</scale><Icon><href>https://www.gstatic.com/mapspro/images/stock/503-wht-blank_maps.png</href></Icon><hotSpot x="32" xunits="pixels" y="64" yunits="insetPixels"/></IconStyle><LabelStyle><scale>1</scale></LabelStyle><BalloonStyle><text><![CDATA[<h3>$[name]</h3>]]></text></BalloonStyle></Style><StyleMap id="icon-1899-0F9D58-nodesc"><Pair><key>normal</key><styleUrl>#icon-1899-0F9D58-nodesc-normal</styleUrl></Pair><Pair><key>highlight</key><styleUrl>#icon-1899-0F9D58-nodesc-highlight</styleUrl></Pair></StyleMap><Style id="icon-1899-FF5252-nodesc-normal"><IconStyle><color>ff5252ff</color><scale>1</scale><Icon><href>https://www.gstatic.com/mapspro/images/stock/503-wht-blank_maps.png</href></Icon><hotSpot x="32" xunits="pixels" y="64" yunits="insetPixels"/></IconStyle><LabelStyle><scale>0</scale></LabelStyle><BalloonStyle><text><![CDATA[<h3>$[name]</h3>]]></text></BalloonStyle></Style><Style id="icon-1899-FF5252-nodesc-highlight"><IconStyle><color>ff5252ff</color><scale>1</scale><Icon><href>https://www.gstatic.com/mapspro/images/stock/503-wht-blank_maps.png</href></Icon><hotSpot x="32" xunits="pixels" y="64" yunits="insetPixels"/></IconStyle><LabelStyle><scale>1</scale></LabelStyle><BalloonStyle><text><![CDATA[<h3>$[name]</h3>]]></text></BalloonStyle></Style><StyleMap id="icon-1899-FF5252-nodesc"><Pair><key>normal</key><styleUrl>#icon-1899-FF5252-nodesc-normal</styleUrl></Pair><Pair><key>highlight</key><styleUrl>#icon-1899-FF5252-nodesc-highlight</styleUrl></Pair></StyleMap><Style id="line-0288D1-5844-nodesc-normal"><LineStyle><color>ffd18802</color><width>5.844</width></LineStyle><BalloonStyle><text><![CDATA[<h3>$[name]</h3>]]></text></BalloonStyle></Style><Style id="line-0288D1-5844-nodesc-highlight"><LineStyle><color>ffd18802</color><width>8.766</width></LineStyle><BalloonStyle><text><![CDATA[<h3>$[name]</h3>]]></text></BalloonStyle></Style><StyleMap id="line-0288D1-5844-nodesc"><Pair><key>normal</key><styleUrl>#line-0288D1-5844-nodesc-normal</styleUrl></Pair><Pair><key>highlight</key><styleUrl>#line-0288D1-5844-nodesc-highlight</styleUrl></Pair></StyleMap><Folder><name>Untitled layer</name><Placemark><name>Course</name><styleUrl>#line-0288D1-5844-nodesc</styleUrl><LineString><tessellate>1</tessellate><coordinates>            18.66627,-33.160503,0            18.6662513,-33.1601484,0            18.666475,-33.160013,0            18.666321,-33.159206,0            18.6663511,-33.159033,0            18.666467,-33.15886,0            18.6666595,-33.1587049,0            18.6669379,-33.1586755,0            18.668254,-33.158615,0            18.667099,-33.157708,0            18.666777,-33.1571935,0            18.666359,-33.157046,0            18.666165,-33.157763,0            18.6661869,-33.1582264,0            18.6662996,-33.158433,0            18.6663264,-33.1586126,0            18.666342,-33.158871,0            18.6660796,-33.1591919,0            18.666062,-33.159664,0            18.665923,-33.159631,0            18.6652749,-33.1581994,0            18.6657577,-33.1563851,0            18.666101,-33.156552,0            18.666535,-33.156525,0            18.666778,-33.156521,0            18.6684614,-33.1580827,0            18.669329,-33.158519,0            18.6684457,-33.1587242,0            18.668254,-33.158615,0            18.6684457,-33.1587242,0            18.669329,-33.158519,0            18.6705512,-33.1586091,0            18.670482,-33.159407,0            18.6704966,-33.159896,0            18.670318,-33.160659,0            18.6700454,-33.1607977,0            18.669401,-33.160781,0            18.669113,-33.160842,0            18.6683424,-33.1611291,0            18.667443,-33.161304,0            18.666668,-33.1611966,0            18.666237,-33.161112,0            18.6663639,-33.1608827,0            18.666237,-33.161112,0            18.6660864,-33.161225,0            18.666043,-33.161374,0            18.666416,-33.161723,0            18.6668075,-33.1616859,0            18.666959,-33.161734,0            18.667128,-33.161863,0            18.668111,-33.161797,0            18.6671454,-33.1618694,0            18.666959,-33.161734,0            18.6668075,-33.1616859,0            18.666416,-33.161723,0            18.666973,-33.162339,0            18.6671861,-33.1625752,0            18.6674429,-33.1625653,0            18.6676755,-33.1625195,0            18.6678123,-33.1624096,0            18.6678605,-33.1621692,0            18.6680724,-33.1618099,0            18.667865,-33.162147,0            18.6678123,-33.1624096,0            18.668988,-33.161705,0            18.668111,-33.161797,0            18.6685356,-33.1617541,0            18.668988,-33.161705,0            18.669999,-33.161038,0            18.670539,-33.160723,0            18.6706177,-33.1605666,0            18.670802,-33.160451,0            18.670911,-33.16028,0            18.670815,-33.158681,0            18.670715,-33.158613,0            18.6705512,-33.1586091,0          </coordinates></LineString></Placemark><Placemark><name>Finish</name><styleUrl>#icon-1899-FF5252-nodesc</styleUrl><Point><coordinates>            18.66627,-33.160503,160.7          </coordinates></Point></Placemark><Placemark><name>Start </name><styleUrl>#icon-1899-0F9D58-nodesc</styleUrl><Point><coordinates>            18.666366,-33.160934,161.8          </coordinates></Point></Placemark></Folder></Document></kml>