<?xml version="1.0" encoding="UTF-8"?><kml xmlns="http://www.opengis.net/kml/2.2"><Document><name>Noordwyk parkrun</name><description/><Style id="icon-1899-FFEA00-nodesc-normal"><IconStyle><color>ff00eaff</color><scale>1</scale><Icon><href>https://www.gstatic.com/mapspro/images/stock/503-wht-blank_maps.png</href></Icon><hotSpot x="32" xunits="pixels" y="64" yunits="insetPixels"/></IconStyle><LabelStyle><scale>0</scale></LabelStyle><BalloonStyle><text><![CDATA[<h3>$[name]</h3>]]></text></BalloonStyle></Style><Style id="icon-1899-FFEA00-nodesc-highlight"><IconStyle><color>ff00eaff</color><scale>1</scale><Icon><href>https://www.gstatic.com/mapspro/images/stock/503-wht-blank_maps.png</href></Icon><hotSpot x="32" xunits="pixels" y="64" yunits="insetPixels"/></IconStyle><LabelStyle><scale>1</scale></LabelStyle><BalloonStyle><text><![CDATA[<h3>$[name]</h3>]]></text></BalloonStyle></Style><StyleMap id="icon-1899-FFEA00-nodesc"><Pair><key>normal</key><styleUrl>#icon-1899-FFEA00-nodesc-normal</styleUrl></Pair><Pair><key>highlight</key><styleUrl>#icon-1899-FFEA00-nodesc-highlight</styleUrl></Pair></StyleMap><Style id="line-0288D1-5000-nodesc-normal"><LineStyle><color>ffd18802</color><width>5</width></LineStyle><BalloonStyle><text><![CDATA[<h3>$[name]</h3>]]></text></BalloonStyle></Style><Style id="line-0288D1-5000-nodesc-highlight"><LineStyle><color>ffd18802</color><width>7.5</width></LineStyle><BalloonStyle><text><![CDATA[<h3>$[name]</h3>]]></text></BalloonStyle></Style><StyleMap id="line-0288D1-5000-nodesc"><Pair><key>normal</key><styleUrl>#line-0288D1-5000-nodesc-normal</styleUrl></Pair><Pair><key>highlight</key><styleUrl>#line-0288D1-5000-nodesc-highlight</styleUrl></Pair></StyleMap><Folder><name>Untitled layer</name><Placemark><name>Course</name><styleUrl>#line-0288D1-5000-nodesc</styleUrl><LineString><tessellate>1</tessellate><coordinates>            28.117014,-25.95605,0            28.117176,-25.955723,0            28.117445,-25.955292,0            28.117712,-25.954983,0            28.117903,-25.954636,0            28.118139,-25.954189,0            28.118677,-25.953128,0            28.118722,-25.95298,0            28.118791,-25.952943,0            28.118805,-25.95302,0            28.1188,-25.953156,0            28.118772,-25.953277,0            28.118737,-25.95345,0            28.118711,-25.953555,0            28.118693,-25.953651,0            28.118646,-25.953851,0            28.118621,-25.953975,0            28.11859,-25.954087,0            28.118549,-25.954205,0            28.118503,-25.954324,0            28.118459,-25.954528,0            28.118442,-25.954641,0            28.118417,-25.954751,0            28.118377,-25.954864,0            28.118343,-25.954976,0            28.118275,-25.955274,0            28.118254,-25.955311,0            28.118135,-25.955634,0            28.11806,-25.955812,0            28.118036,-25.955918,0            28.118032,-25.955979,0            28.118032,-25.956001,0            28.118086,-25.956123,0            28.118216,-25.956259,0            28.118464,-25.956394,0            28.118455,-25.956518,0            28.118453,-25.956576,0            28.118452,-25.956651,0            28.118457,-25.956679,0            28.118465,-25.956712,0            28.118464,-25.95675,0            28.118483,-25.956822,0            28.118499,-25.956912,0            28.118528,-25.957027,0            28.118543,-25.957112,0            28.118657,-25.957332,0            28.118716,-25.957435,0            28.118823,-25.957616,0            28.118875,-25.957727,0            28.118931,-25.95787,0            28.119115,-25.958082,0            28.11924,-25.958232,0            28.119339,-25.95835,0            28.119465,-25.958527,0            28.119587,-25.958691,0            28.119672,-25.958775,0            28.119817,-25.958924,0            28.119971,-25.959106,0            28.12012,-25.959288,0            28.120237,-25.959374,0            28.120319,-25.959351,0            28.12047,-25.959238,0            28.120632,-25.959132,0            28.1208,-25.959009,0            28.121033,-25.95886,0            28.121124,-25.958799,0            28.121149,-25.958825,0            28.121059,-25.958887,0            28.121003,-25.95893,0            28.120926,-25.958986,0            28.12078,-25.959078,0            28.120602,-25.959206,0            28.120451,-25.959306,0            28.120384,-25.959372,0            28.120272,-25.959434,0            28.120211,-25.959479,0            28.120154,-25.959439,0            28.120076,-25.959369,0            28.119941,-25.959197,0            28.11987,-25.959095,0            28.11979,-25.959005,0            28.119716,-25.958915,0            28.119632,-25.958829,0            28.11955,-25.958735,0            28.119476,-25.958648,0            28.119363,-25.958504,0            28.119236,-25.958346,0            28.119079,-25.958152,0            28.118938,-25.957965,0            28.118808,-25.957801,0            28.118712,-25.957711,0            28.118629,-25.957618,0            28.11847,-25.957443,0            28.118396,-25.957357,0            28.118312,-25.957278,0            28.118218,-25.957204,0            28.118158,-25.957102,0            28.118179,-25.956926,0            28.118196,-25.956831,0            28.11818,-25.956806,0            28.117998,-25.956762,0            28.117858,-25.956733,0            28.117774,-25.956709,0            28.117654,-25.956685,0            28.117545,-25.956666,0            28.117449,-25.95665,0            28.117244,-25.956603,0            28.11708,-25.956622,0            28.116969,-25.956719,0            28.116901,-25.956803,0            28.116833,-25.956908,0            28.116792,-25.956971,0            28.116748,-25.957027,0            28.116665,-25.957102,0            28.116513,-25.957214,0            28.1164,-25.957265,0            28.116304,-25.957324,0            28.116226,-25.957396,0            28.116136,-25.957463,0            28.11602,-25.957556,0            28.115927,-25.957607,0            28.115741,-25.957726,0            28.115627,-25.9578,0            28.115497,-25.957906,0            28.115436,-25.957984,0            28.115335,-25.958071,0            28.115322,-25.958092,0            28.1152,-25.958003,0            28.115244,-25.957968,0            28.115435,-25.957849,0            28.115626,-25.957715,0            28.115728,-25.957645,0            28.115804,-25.957582,0            28.115916,-25.957508,0            28.116004,-25.957439,0            28.116111,-25.95738,0            28.116197,-25.957322,0            28.116431,-25.957128,0            28.116486,-25.957012,0            28.116532,-25.956909,0            28.116581,-25.956784,0            28.116603,-25.956691,0            28.116641,-25.95658,0            28.116663,-25.956477,0            28.116696,-25.956395,0            28.116743,-25.956315,0            28.116833,-25.956155,0            28.117336,-25.955015,0            28.117723,-25.954948,0            28.117818,-25.954799,0            28.117877,-25.954648,0            28.117923,-25.954562,0            28.118016,-25.954391,0            28.118108,-25.954208,0            28.118205,-25.954037,0            28.118295,-25.953866,0            28.118343,-25.953761,0            28.1184,-25.953651,0            28.118459,-25.953544,0            28.118554,-25.953365,0            28.118663,-25.953128,0            28.118722,-25.95298,0            28.118791,-25.952943,0            28.118805,-25.95302,0            28.118801,-25.953166,0            28.118772,-25.953277,0            28.118764,-25.953395,0            28.118722,-25.953564,0            28.118659,-25.953868,0            28.118503,-25.954324,0            28.118452,-25.954565,0            28.118388,-25.954804,0            28.118321,-25.955083,0            28.118254,-25.955311,0            28.118135,-25.955634,0            28.11806,-25.955812,0            28.118032,-25.956001,0            28.118095,-25.956129,0            28.118216,-25.956259,0            28.118464,-25.956394,0            28.118462,-25.95648,0            28.118453,-25.9566,0            28.118457,-25.956679,0            28.118465,-25.956712,0            28.118464,-25.95675,0            28.118499,-25.956912,0            28.11855,-25.957147,0            28.118782,-25.957525,0            28.118931,-25.95787,0            28.11915,-25.958127,0            28.119439,-25.958485,0            28.119683,-25.958796,0            28.120095,-25.959265,0            28.120223,-25.959372,0            28.120319,-25.959351,0            28.120518,-25.959205,0            28.120811,-25.959012,0            28.121124,-25.958799,0            28.121149,-25.958825,0            28.121059,-25.958887,0            28.121003,-25.95893,0            28.120838,-25.95904,0            28.120682,-25.959144,0            28.12052,-25.959256,0            28.120374,-25.959373,0            28.120211,-25.959479,0            28.120154,-25.959439,0            28.120002,-25.959284,0            28.11989,-25.959135,0            28.119831,-25.959052,0            28.119746,-25.958962,0            28.119675,-25.958871,0            28.119589,-25.958782,0            28.119416,-25.958576,0            28.119296,-25.958426,0            28.119151,-25.958243,0            28.118998,-25.958052,0            28.118874,-25.957881,0            28.11877,-25.957751,0            28.118673,-25.957667,0            28.118561,-25.957529,0            28.118426,-25.957401,0            28.118359,-25.957322,0            28.11826,-25.957244,0            28.118158,-25.957102,0            28.118163,-25.957021,0            28.118191,-25.95688,0            28.118198,-25.956824,0            28.118135,-25.956795,0            28.117915,-25.956744,0            28.117643,-25.956679,0            28.117407,-25.956644,0            28.117292,-25.956617,0            28.117232,-25.956602,0            28.117149,-25.956614,0            28.117069,-25.956627,0            28.116969,-25.956719,0            28.116912,-25.956796,0            28.116833,-25.956908,0            28.1168,-25.956961,0            28.116748,-25.957027,0            28.116688,-25.957096,0            28.116608,-25.957144,0            28.116537,-25.957196,0            28.11645,-25.957237,0            28.116366,-25.957289,0            28.116271,-25.957359,0            28.11618,-25.957434,0            28.116071,-25.957513,0            28.115976,-25.957584,0            28.115828,-25.957666,0            28.115685,-25.957767,0            28.115562,-25.957852,0            28.115469,-25.957939,0            28.115382,-25.958032,0            28.115322,-25.958092,0            28.115218,-25.958015,0            28.1152,-25.958003,0            28.115264,-25.957957,0            28.115409,-25.957869,0            28.11568,-25.957677,0            28.115869,-25.957539,0            28.116063,-25.957407,0            28.116154,-25.957352,0            28.116309,-25.957234,0            28.116437,-25.957108,0            28.116558,-25.95684,0            28.11666,-25.956532,0            28.116719,-25.956353,0            28.11677,-25.956296,0            28.116947,-25.956178,0            28.117309,-25.955887,0          </coordinates></LineString></Placemark><Placemark><name>Start/Finish</name><styleUrl>#icon-1899-FFEA00-nodesc</styleUrl><Point><coordinates>            28.117014,-25.95605,0          </coordinates></Point></Placemark></Folder></Document></kml>