<?xml version="1.0" encoding="UTF-8"?><kml xmlns="http://www.opengis.net/kml/2.2"><Document><name>Polokwane parkrun</name><description/><Style id="icon-503-F4EB37-nodesc-normal"><IconStyle><color>ff37ebf4</color><scale>1.1</scale><Icon><href>https://www.gstatic.com/mapspro/images/stock/503-wht-blank_maps.png</href></Icon><hotSpot x="16" xunits="pixels" y="32" yunits="insetPixels"/></IconStyle><LabelStyle><scale>0</scale></LabelStyle><BalloonStyle><text><![CDATA[<h3>$[name]</h3>]]></text></BalloonStyle></Style><Style id="icon-503-F4EB37-nodesc-highlight"><IconStyle><color>ff37ebf4</color><scale>1.1</scale><Icon><href>https://www.gstatic.com/mapspro/images/stock/503-wht-blank_maps.png</href></Icon><hotSpot x="16" xunits="pixels" y="32" yunits="insetPixels"/></IconStyle><LabelStyle><scale>1.1</scale></LabelStyle><BalloonStyle><text><![CDATA[<h3>$[name]</h3>]]></text></BalloonStyle></Style><StyleMap id="icon-503-F4EB37-nodesc"><Pair><key>normal</key><styleUrl>#icon-503-F4EB37-nodesc-normal</styleUrl></Pair><Pair><key>highlight</key><styleUrl>#icon-503-F4EB37-nodesc-highlight</styleUrl></Pair></StyleMap><Style id="line-4186F0-4000-nodesc-normal"><LineStyle><color>fff08641</color><width>4</width></LineStyle><BalloonStyle><text><![CDATA[<h3>$[name]</h3>]]></text></BalloonStyle></Style><Style id="line-4186F0-4000-nodesc-highlight"><LineStyle><color>fff08641</color><width>6</width></LineStyle><BalloonStyle><text><![CDATA[<h3>$[name]</h3>]]></text></BalloonStyle></Style><StyleMap id="line-4186F0-4000-nodesc"><Pair><key>normal</key><styleUrl>#line-4186F0-4000-nodesc-normal</styleUrl></Pair><Pair><key>highlight</key><styleUrl>#line-4186F0-4000-nodesc-highlight</styleUrl></Pair></StyleMap><Folder><name>Untitled layer</name><Placemark><name>Start / Finish</name><styleUrl>#icon-503-F4EB37-nodesc</styleUrl><Point><coordinates>            29.457446,-23.885085,0          </coordinates></Point></Placemark><Placemark><name>Course</name><styleUrl>#line-4186F0-4000-nodesc</styleUrl><LineString><tessellate>1</tessellate><coordinates>            29.457449,-23.885085,0            29.45713,-23.885597,0            29.456899,-23.885675,0            29.45676,-23.885943,0            29.4561847,-23.8869215,0            29.4555129,-23.8878165,0            29.456567,-23.887702,0            29.457087,-23.887721,0            29.458122,-23.887849,0            29.45849,-23.887883,0            29.4586549,-23.8878902,0            29.458927,-23.887819,0            29.4592675,-23.8878386,0            29.4598202,-23.8880646,0            29.4601074,-23.8881238,0            29.4603995,-23.8883101,0            29.460593,-23.8885258,0            29.4610583,-23.8891339,0            29.461207,-23.889487,0            29.461266,-23.889818,0            29.461432,-23.889727,0            29.461464,-23.889345,0            29.461352,-23.888732,0            29.461277,-23.888518,0            29.459324,-23.886255,0            29.458911,-23.886583,0            29.458176,-23.887074,0            29.457908,-23.887331,0            29.457816,-23.887491,0            29.457398,-23.887623,0            29.4572482,-23.887628,0            29.4569985,-23.8875546,0            29.456666,-23.8872803,0            29.456454,-23.887044,0            29.4563921,-23.8869388,0            29.4564,-23.886809,0            29.457007,-23.885816,0            29.457162,-23.885789,0            29.45845,-23.886049,0            29.458809,-23.886034,0            29.4574653,-23.885654,0            29.45713,-23.885597,0          </coordinates></LineString></Placemark></Folder></Document></kml>