<?xml version="1.0" encoding="UTF-8"?><kml xmlns="http://www.opengis.net/kml/2.2"><Document><name>Rainhill Farm parkrun</name><description/><Style id="icon-1899-0F9D58-nodesc-normal"><IconStyle><color>ff589d0f</color><scale>1</scale><Icon><href>https://www.gstatic.com/mapspro/images/stock/503-wht-blank_maps.png</href></Icon><hotSpot x="32" xunits="pixels" y="64" yunits="insetPixels"/></IconStyle><LabelStyle><scale>0</scale></LabelStyle><BalloonStyle><text><![CDATA[<h3>$[name]</h3>]]></text></BalloonStyle></Style><Style id="icon-1899-0F9D58-nodesc-highlight"><IconStyle><color>ff589d0f</color><scale>1</scale><Icon><href>https://www.gstatic.com/mapspro/images/stock/503-wht-blank_maps.png</href></Icon><hotSpot x="32" xunits="pixels" y="64" yunits="insetPixels"/></IconStyle><LabelStyle><scale>1</scale></LabelStyle><BalloonStyle><text><![CDATA[<h3>$[name]</h3>]]></text></BalloonStyle></Style><StyleMap id="icon-1899-0F9D58-nodesc"><Pair><key>normal</key><styleUrl>#icon-1899-0F9D58-nodesc-normal</styleUrl></Pair><Pair><key>highlight</key><styleUrl>#icon-1899-0F9D58-nodesc-highlight</styleUrl></Pair></StyleMap><Style id="icon-1899-FF5252-nodesc-normal"><IconStyle><color>ff5252ff</color><scale>1</scale><Icon><href>https://www.gstatic.com/mapspro/images/stock/503-wht-blank_maps.png</href></Icon><hotSpot x="32" xunits="pixels" y="64" yunits="insetPixels"/></IconStyle><LabelStyle><scale>0</scale></LabelStyle><BalloonStyle><text><![CDATA[<h3>$[name]</h3>]]></text></BalloonStyle></Style><Style id="icon-1899-FF5252-nodesc-highlight"><IconStyle><color>ff5252ff</color><scale>1</scale><Icon><href>https://www.gstatic.com/mapspro/images/stock/503-wht-blank_maps.png</href></Icon><hotSpot x="32" xunits="pixels" y="64" yunits="insetPixels"/></IconStyle><LabelStyle><scale>1</scale></LabelStyle><BalloonStyle><text><![CDATA[<h3>$[name]</h3>]]></text></BalloonStyle></Style><StyleMap id="icon-1899-FF5252-nodesc"><Pair><key>normal</key><styleUrl>#icon-1899-FF5252-nodesc-normal</styleUrl></Pair><Pair><key>highlight</key><styleUrl>#icon-1899-FF5252-nodesc-highlight</styleUrl></Pair></StyleMap><Style id="line-0288D1-5456-nodesc-normal"><LineStyle><color>ffd18802</color><width>5.456</width></LineStyle><BalloonStyle><text><![CDATA[<h3>$[name]</h3>]]></text></BalloonStyle></Style><Style id="line-0288D1-5456-nodesc-highlight"><LineStyle><color>ffd18802</color><width>8.184</width></LineStyle><BalloonStyle><text><![CDATA[<h3>$[name]</h3>]]></text></BalloonStyle></Style><StyleMap id="line-0288D1-5456-nodesc"><Pair><key>normal</key><styleUrl>#line-0288D1-5456-nodesc-normal</styleUrl></Pair><Pair><key>highlight</key><styleUrl>#line-0288D1-5456-nodesc-highlight</styleUrl></Pair></StyleMap><Folder><name>Untitled layer</name><Placemark><name>Course</name><styleUrl>#line-0288D1-5456-nodesc</styleUrl><LineString><tessellate>1</tessellate><coordinates>            27.181904,-25.672574,0            27.182324,-25.67245,0            27.1825841,-25.6712823,0            27.182211,-25.671229,0            27.181904,-25.672574,0            27.181601,-25.672315,0            27.1817524,-25.6724417,0            27.181904,-25.672574,0            27.181829,-25.672672,0            27.180999,-25.672024,0            27.180519,-25.67178,0            27.180358,-25.671808,0            27.180129,-25.671915,0            27.180343,-25.672103,0            27.180294,-25.672214,0            27.180137,-25.672274,0            27.180174,-25.67246,0            27.180059,-25.672543,0            27.1794191,-25.6725442,0            27.179531,-25.672658,0            27.18033,-25.672714,0            27.181195,-25.673698,0            27.1824446,-25.6749616,0            27.182709,-25.674596,0            27.182568,-25.6744974,0            27.182749,-25.674168,0            27.182933,-25.674111,0            27.182989,-25.674149,0            27.182986,-25.674445,0            27.183031,-25.674705,0            27.183301,-25.675106,0            27.183551,-25.67593,0            27.1837321,-25.6760349,0            27.184349,-25.6759769,0            27.184495,-25.675646,0            27.184305,-25.675594,0            27.184239,-25.675555,0            27.184129,-25.6754789,0            27.1843704,-25.6748794,0            27.184851,-25.675353,0            27.185041,-25.675541,0            27.184994,-25.675792,0            27.1854487,-25.6761074,0            27.1860227,-25.6756143,0            27.185501,-25.675055,0            27.185362,-25.675047,0            27.184079,-25.673671,0            27.184466,-25.673428,0            27.1862855,-25.6753629,0            27.186531,-25.675066,0            27.185313,-25.672946,0            27.185239,-25.672686,0            27.184952,-25.672221,0            27.18487,-25.672219,0            27.1833995,-25.6739994,0            27.183201,-25.6738206,0            27.184533,-25.672204,0            27.184413,-25.67213,0            27.183306,-25.673096,0            27.182741,-25.673287,0            27.1826538,-25.6731824,0            27.183328,-25.672726,0            27.1837321,-25.6726022,0            27.1844,-25.671748,0            27.183876,-25.67219,0            27.184059,-25.671908,0            27.184053,-25.671863,0            27.183891,-25.671634,0            27.183571,-25.6713446,0            27.183251,-25.671355,0            27.1828663,-25.6712775,0            27.1825841,-25.6712823,0            27.182465,-25.671719,0            27.183392,-25.672317,0            27.183044,-25.672577,0            27.182473,-25.672202,0            27.182385,-25.672447,0          </coordinates></LineString></Placemark><Placemark><name>Finish</name><styleUrl>#icon-1899-FF5252-nodesc</styleUrl><Point><coordinates>            27.182032,-25.672549,1296.7          </coordinates></Point></Placemark><Placemark><name>Start</name><styleUrl>#icon-1899-0F9D58-nodesc</styleUrl><Point><coordinates>            27.181567,-25.672334,1309.9          </coordinates></Point></Placemark></Folder></Document></kml>