<?xml version="1.0" encoding="UTF-8"?><kml xmlns="http://www.opengis.net/kml/2.2"><Document><name>Roodepoort parkrun</name><description>Roodepoort parkrun</description><Style id="icon-141-nodesc-normal"><IconStyle><scale>1.1</scale><Icon><href>https://www.gstatic.com/mapspro/images/stock/141-toilets.png</href></Icon></IconStyle><LabelStyle><scale>0</scale></LabelStyle><BalloonStyle><text><![CDATA[<h3>$[name]</h3>]]></text></BalloonStyle></Style><Style id="icon-141-nodesc-highlight"><IconStyle><scale>1.1</scale><Icon><href>https://www.gstatic.com/mapspro/images/stock/141-toilets.png</href></Icon></IconStyle><LabelStyle><scale>1.1</scale></LabelStyle><BalloonStyle><text><![CDATA[<h3>$[name]</h3>]]></text></BalloonStyle></Style><StyleMap id="icon-141-nodesc"><Pair><key>normal</key><styleUrl>#icon-141-nodesc-normal</styleUrl></Pair><Pair><key>highlight</key><styleUrl>#icon-141-nodesc-highlight</styleUrl></Pair></StyleMap><Style id="icon-157-normal"><IconStyle><scale>1.1</scale><Icon><href>https://www.gstatic.com/mapspro/images/stock/157-yellow-dot.png</href></Icon><hotSpot x="16" xunits="pixels" y="32" yunits="insetPixels"/></IconStyle><LabelStyle><scale>0</scale></LabelStyle></Style><Style id="icon-157-highlight"><IconStyle><scale>1.1</scale><Icon><href>https://www.gstatic.com/mapspro/images/stock/157-yellow-dot.png</href></Icon><hotSpot x="16" xunits="pixels" y="32" yunits="insetPixels"/></IconStyle><LabelStyle><scale>1.1</scale></LabelStyle></Style><StyleMap id="icon-157"><Pair><key>normal</key><styleUrl>#icon-157-normal</styleUrl></Pair><Pair><key>highlight</key><styleUrl>#icon-157-highlight</styleUrl></Pair></StyleMap><Style id="icon-27-nodesc-normal"><IconStyle><scale>1.1</scale><Icon><href>https://www.gstatic.com/mapspro/images/stock/27-cabs.png</href></Icon></IconStyle><LabelStyle><scale>0</scale></LabelStyle><BalloonStyle><text><![CDATA[<h3>$[name]</h3>]]></text></BalloonStyle></Style><Style id="icon-27-nodesc-highlight"><IconStyle><scale>1.1</scale><Icon><href>https://www.gstatic.com/mapspro/images/stock/27-cabs.png</href></Icon></IconStyle><LabelStyle><scale>1.1</scale></LabelStyle><BalloonStyle><text><![CDATA[<h3>$[name]</h3>]]></text></BalloonStyle></Style><StyleMap id="icon-27-nodesc"><Pair><key>normal</key><styleUrl>#icon-27-nodesc-normal</styleUrl></Pair><Pair><key>highlight</key><styleUrl>#icon-27-nodesc-highlight</styleUrl></Pair></StyleMap><Style id="line-0000FF-5000-normal"><LineStyle><color>ffff0000</color><width>5</width></LineStyle></Style><Style id="line-0000FF-5000-highlight"><LineStyle><color>ffff0000</color><width>7.5</width></LineStyle></Style><StyleMap id="line-0000FF-5000"><Pair><key>normal</key><styleUrl>#line-0000FF-5000-normal</styleUrl></Pair><Pair><key>highlight</key><styleUrl>#line-0000FF-5000-highlight</styleUrl></Pair></StyleMap><Folder><name>Untitled layer</name><Placemark><name>Roodepoort parkrun Start/Finish</name><description>Roodepoort parkrun Start/Finish - by the lapa/toilet facilities</description><styleUrl>#icon-157</styleUrl><Point><coordinates>            27.907226,-26.163127,0          </coordinates></Point></Placemark><Placemark><name>Roodepoort parkrun Route</name><description>Roodepoort parkrun Route - do two laps anticlockwise</description><styleUrl>#line-0000FF-5000</styleUrl><LineString><tessellate>1</tessellate><coordinates>            27.907258,-26.163113,0            27.907376,-26.163103,0            27.9075,-26.16315,0            27.90758,-26.16294,0            27.90832,-26.16239,0            27.91032,-26.16109,0            27.910831,-26.160186,0            27.910788,-26.16007,0            27.90889,-26.15983,0            27.90648,-26.1598,0            27.90574,-26.1601,0            27.90512,-26.16045,0            27.90519,-26.16075,0            27.90539,-26.16086,0            27.90555,-26.16103,0            27.90573,-26.16139,0            27.90604,-26.16166,0            27.90624,-26.16198,0            27.90627,-26.16213,0            27.90515,-26.16454,0            27.904319,-26.165309,0            27.9046,-26.16606,0            27.9048,-26.16639,0            27.90494,-26.16647,0            27.90517,-26.16654,0            27.90644,-26.16622,0            27.90647,-26.16516,0            27.906427,-26.163773,0            27.906743,-26.163566,0            27.907269,-26.163123,0          </coordinates></LineString></Placemark><Placemark><name>Toilets</name><styleUrl>#icon-141-nodesc</styleUrl><Point><coordinates>            27.907537,-26.163566,0          </coordinates></Point></Placemark><Placemark><name>Park Entrance</name><styleUrl>#icon-27-nodesc</styleUrl><Point><coordinates>            27.907655,-26.164519,0          </coordinates></Point></Placemark></Folder></Document></kml>