<?xml version="1.0" encoding="UTF-8"?><kml xmlns="http://www.opengis.net/kml/2.2"><Document><name>Rooi Point Farm parkrun</name><description/><Style id="icon-1899-FFEA00-nodesc-normal"><IconStyle><color>ff00eaff</color><scale>1</scale><Icon><href>https://www.gstatic.com/mapspro/images/stock/503-wht-blank_maps.png</href></Icon><hotSpot x="32" xunits="pixels" y="64" yunits="insetPixels"/></IconStyle><LabelStyle><scale>0</scale></LabelStyle><BalloonStyle><text><![CDATA[<h3>$[name]</h3>]]></text></BalloonStyle></Style><Style id="icon-1899-FFEA00-nodesc-highlight"><IconStyle><color>ff00eaff</color><scale>1</scale><Icon><href>https://www.gstatic.com/mapspro/images/stock/503-wht-blank_maps.png</href></Icon><hotSpot x="32" xunits="pixels" y="64" yunits="insetPixels"/></IconStyle><LabelStyle><scale>1</scale></LabelStyle><BalloonStyle><text><![CDATA[<h3>$[name]</h3>]]></text></BalloonStyle></Style><StyleMap id="icon-1899-FFEA00-nodesc"><Pair><key>normal</key><styleUrl>#icon-1899-FFEA00-nodesc-normal</styleUrl></Pair><Pair><key>highlight</key><styleUrl>#icon-1899-FFEA00-nodesc-highlight</styleUrl></Pair></StyleMap><Style id="line-0288D1-5263-nodesc-normal"><LineStyle><color>ffd18802</color><width>5.263</width></LineStyle><BalloonStyle><text><![CDATA[<h3>$[name]</h3>]]></text></BalloonStyle></Style><Style id="line-0288D1-5263-nodesc-highlight"><LineStyle><color>ffd18802</color><width>7.8945</width></LineStyle><BalloonStyle><text><![CDATA[<h3>$[name]</h3>]]></text></BalloonStyle></Style><StyleMap id="line-0288D1-5263-nodesc"><Pair><key>normal</key><styleUrl>#line-0288D1-5263-nodesc-normal</styleUrl></Pair><Pair><key>highlight</key><styleUrl>#line-0288D1-5263-nodesc-highlight</styleUrl></Pair></StyleMap><Folder><name>Untitled layer</name><Placemark><name>Course</name><styleUrl>#line-0288D1-5263-nodesc</styleUrl><LineString><tessellate>1</tessellate><coordinates>            29.964795,-27.791119,0            29.964969,-27.791632,0            29.964663,-27.792473,0            29.964583,-27.793257,0            29.964686,-27.793468,0            29.96537,-27.793617,0            29.96582,-27.793804,0            29.966109,-27.793657,0            29.966292,-27.793732,0            29.966668,-27.793996,0            29.966824,-27.794366,0            29.96694,-27.7945,0            29.967726,-27.794775,0            29.967779,-27.79471,0            29.967726,-27.794471,0            29.967799,-27.794197,0            29.968385,-27.794101,0            29.969144,-27.793704,0            29.969777,-27.792927,0            29.969795,-27.792831,0            29.969704,-27.792746,0            29.970869,-27.792761,0            29.971104,-27.792882,0            29.971252,-27.793243,0            29.973307,-27.794123,0            29.97428,-27.794374,0            29.976604,-27.794689,0            29.978608,-27.794943,0            29.98002,-27.795272,0            29.980188,-27.795206,0            29.979689,-27.793349,0            29.9792519,-27.7924385,0            29.978686,-27.791623,0            29.977912,-27.790813,0            29.977755,-27.790807,0            29.973905,-27.790923,0            29.969357,-27.791035,0            29.96828,-27.791063,0            29.968318,-27.792068,0            29.969996,-27.792338,0            29.970247,-27.792393,0            29.970382,-27.792792,0          </coordinates></LineString></Placemark><Placemark><name>Start/Finish</name><styleUrl>#icon-1899-FFEA00-nodesc</styleUrl><Point><coordinates>            29.964795,-27.791119,1241.1          </coordinates></Point></Placemark></Folder></Document></kml>