<?xml version="1.0" encoding="UTF-8"?><kml xmlns="http://www.opengis.net/kml/2.2"><Document><name>Secunda parkrun</name><description/><Style id="icon-1899-0F9D58-nodesc-normal"><IconStyle><color>ff589d0f</color><scale>1</scale><Icon><href>https://www.gstatic.com/mapspro/images/stock/503-wht-blank_maps.png</href></Icon><hotSpot x="32" xunits="pixels" y="64" yunits="insetPixels"/></IconStyle><LabelStyle><scale>0</scale></LabelStyle><BalloonStyle><text><![CDATA[<h3>$[name]</h3>]]></text></BalloonStyle></Style><Style id="icon-1899-0F9D58-nodesc-highlight"><IconStyle><color>ff589d0f</color><scale>1</scale><Icon><href>https://www.gstatic.com/mapspro/images/stock/503-wht-blank_maps.png</href></Icon><hotSpot x="32" xunits="pixels" y="64" yunits="insetPixels"/></IconStyle><LabelStyle><scale>1</scale></LabelStyle><BalloonStyle><text><![CDATA[<h3>$[name]</h3>]]></text></BalloonStyle></Style><StyleMap id="icon-1899-0F9D58-nodesc"><Pair><key>normal</key><styleUrl>#icon-1899-0F9D58-nodesc-normal</styleUrl></Pair><Pair><key>highlight</key><styleUrl>#icon-1899-0F9D58-nodesc-highlight</styleUrl></Pair></StyleMap><Style id="icon-1899-FF5252-nodesc-normal"><IconStyle><color>ff5252ff</color><scale>1</scale><Icon><href>https://www.gstatic.com/mapspro/images/stock/503-wht-blank_maps.png</href></Icon><hotSpot x="32" xunits="pixels" y="64" yunits="insetPixels"/></IconStyle><LabelStyle><scale>0</scale></LabelStyle><BalloonStyle><text><![CDATA[<h3>$[name]</h3>]]></text></BalloonStyle></Style><Style id="icon-1899-FF5252-nodesc-highlight"><IconStyle><color>ff5252ff</color><scale>1</scale><Icon><href>https://www.gstatic.com/mapspro/images/stock/503-wht-blank_maps.png</href></Icon><hotSpot x="32" xunits="pixels" y="64" yunits="insetPixels"/></IconStyle><LabelStyle><scale>1</scale></LabelStyle><BalloonStyle><text><![CDATA[<h3>$[name]</h3>]]></text></BalloonStyle></Style><StyleMap id="icon-1899-FF5252-nodesc"><Pair><key>normal</key><styleUrl>#icon-1899-FF5252-nodesc-normal</styleUrl></Pair><Pair><key>highlight</key><styleUrl>#icon-1899-FF5252-nodesc-highlight</styleUrl></Pair></StyleMap><Style id="line-0288D1-5000-nodesc-normal"><LineStyle><color>ffd18802</color><width>5</width></LineStyle><BalloonStyle><text><![CDATA[<h3>$[name]</h3>]]></text></BalloonStyle></Style><Style id="line-0288D1-5000-nodesc-highlight"><LineStyle><color>ffd18802</color><width>7.5</width></LineStyle><BalloonStyle><text><![CDATA[<h3>$[name]</h3>]]></text></BalloonStyle></Style><StyleMap id="line-0288D1-5000-nodesc"><Pair><key>normal</key><styleUrl>#line-0288D1-5000-nodesc-normal</styleUrl></Pair><Pair><key>highlight</key><styleUrl>#line-0288D1-5000-nodesc-highlight</styleUrl></Pair></StyleMap><Folder><name>Untitled layer</name><Placemark><name>Course</name><styleUrl>#line-0288D1-5000-nodesc</styleUrl><LineString><tessellate>1</tessellate><coordinates>            29.184152,-26.51839,1598.5            29.184165,-26.518395,1598.8            29.184183,-26.518402,1598.8            29.184213,-26.518407,1598.6            29.18425,-26.518413,1598.5            29.184285,-26.518418,1598.5            29.184325,-26.518425,1598.5            29.184363,-26.518433,1598.9            29.1844,-26.518442,1598.9            29.184437,-26.518453,1598.9            29.184475,-26.518465,1598.9            29.184512,-26.518477,1599.3            29.18455,-26.518488,1599.3            29.184587,-26.5185,1599.2            29.184627,-26.518512,1599.5            29.184667,-26.51852,1599.5            29.184707,-26.518528,1599.5            29.184745,-26.518533,1599.5            29.18478,-26.518537,1599.4            29.184813,-26.518542,1599.2            29.184847,-26.518548,1599.1            29.18488,-26.518557,1599.1            29.184917,-26.518565,1598.9            29.184948,-26.518577,1598.7            29.18498,-26.518587,1598.6            29.185015,-26.518598,1598.6            29.185048,-26.51861,1598.6            29.185078,-26.51862,1598.7            29.18511,-26.518632,1598.5            29.18514,-26.51864,1598.6            29.18517,-26.51865,1598.6            29.1852,-26.518658,1598.7            29.18523,-26.518667,1598.7            29.185263,-26.518675,1598.7            29.185295,-26.518685,1598.8            29.185325,-26.518693,1598.8            29.185355,-26.518703,1598.8            29.185387,-26.518713,1598.8            29.185418,-26.51872,1598.7            29.185448,-26.518727,1598.7            29.185478,-26.518733,1598.7            29.185512,-26.518738,1598.9            29.185542,-26.518745,1598.9            29.185575,-26.518748,1598.9            29.185608,-26.518755,1598.9            29.18564,-26.518758,1598.8            29.185673,-26.518763,1598.5            29.185708,-26.518768,1598.2            29.185742,-26.518773,1597.9            29.185773,-26.518782,1598.1            29.185803,-26.518792,1597.7            29.185832,-26.518802,1597.3            29.185862,-26.518815,1597.1            29.185888,-26.518827,1596.5            29.185917,-26.518838,1595.9            29.185943,-26.518852,1595.9            29.18597,-26.518862,1594.9            29.185997,-26.518872,1594.5            29.186023,-26.518883,1594.5            29.18605,-26.518895,1593.9            29.186078,-26.518908,1593.9            29.186107,-26.51892,1593.8            29.186133,-26.518928,1593.7            29.18616,-26.518938,1593.6            29.186185,-26.518947,1593.6            29.186207,-26.518953,1593.6            29.186227,-26.51896,1593.6            29.186247,-26.518962,1593.6            29.186263,-26.518965,1593.7            29.186278,-26.518972,1593.6            29.186297,-26.518985,1593.7            29.186315,-26.518998,1593.7            29.186337,-26.519012,1593.7            29.186358,-26.519022,1593.9            29.186383,-26.51903,1594.2            29.186405,-26.519038,1594.2            29.186428,-26.519045,1594.6            29.186453,-26.519053,1594.6            29.186478,-26.519062,1595            29.186503,-26.519068,1595            29.18653,-26.519077,1595.5            29.186555,-26.519085,1596.3            29.186578,-26.519093,1596.3            29.186603,-26.5191,1596.9            29.186628,-26.519108,1596.9            29.186653,-26.519117,1597.4            29.186677,-26.519125,1597.8            29.186702,-26.519133,1598.3            29.186727,-26.51914,1598.6            29.186752,-26.519148,1598.6            29.186777,-26.51916,1599.4            29.186802,-26.51917,1599.4            29.186827,-26.51918,1599.6            29.186853,-26.519188,1599.6            29.18688,-26.519198,1600            29.186903,-26.519207,1600            29.18693,-26.519217,1600            29.186955,-26.519227,1599.9            29.186978,-26.519233,1599.9            29.187007,-26.519242,1599.9            29.187035,-26.51925,1599.6            29.187062,-26.519255,1599.6            29.18709,-26.519258,1599.3            29.187117,-26.51926,1599.1            29.187142,-26.519263,1599.1            29.187168,-26.51927,1599            29.187195,-26.519273,1599            29.187222,-26.519277,1599.2            29.187248,-26.51928,1599.3            29.187273,-26.519283,1599.3            29.1873,-26.519287,1599.4            29.187327,-26.51929,1599.5            29.187353,-26.519295,1599.5            29.18738,-26.5193,1599.5            29.187407,-26.519303,1599.5            29.187433,-26.51931,1599.5            29.187458,-26.519315,1599.7            29.187485,-26.519318,1599.7            29.187512,-26.519325,1599.7            29.187538,-26.51933,1599.7            29.187563,-26.519337,1599.8            29.18759,-26.519343,1599.8            29.187617,-26.51935,1599.8            29.187643,-26.519357,1599.9            29.187668,-26.519367,1599.9            29.187695,-26.519375,1599.7            29.18772,-26.519383,1599.5            29.187745,-26.519393,1599.5            29.187772,-26.519403,1599.3            29.1878,-26.519412,1599.2            29.187827,-26.51942,1599.2            29.187852,-26.519428,1599.1            29.187878,-26.519438,1599.4            29.187903,-26.519448,1599.5            29.187928,-26.519457,1599.7            29.187955,-26.519468,1600.2            29.18798,-26.51948,1600.4            29.188007,-26.51949,1600.4            29.188033,-26.5195,1600.4            29.18806,-26.519507,1600.7            29.188087,-26.519513,1600.7            29.188115,-26.51952,1600.4            29.188142,-26.519527,1600.1            29.188168,-26.51953,1600.1            29.188198,-26.519533,1599.9            29.188227,-26.519535,1599.9            29.188255,-26.519535,1599.8            29.188285,-26.519537,1599.8            29.188313,-26.519537,1599.8            29.18834,-26.519538,1599.9            29.18837,-26.51954,1599.9            29.188398,-26.519542,1599.9            29.188427,-26.519545,1600.7            29.188452,-26.519548,1600.7            29.18848,-26.519552,1600.7            29.188508,-26.519553,1600.6            29.188537,-26.519555,1600.6            29.188565,-26.519557,1600.6            29.188592,-26.519557,1600.6            29.188622,-26.519555,1600.5            29.188653,-26.519555,1600.5            29.188683,-26.519557,1600.4            29.188712,-26.519557,1600.4            29.188742,-26.519557,1600.4            29.18877,-26.519558,1600.2            29.188795,-26.51956,1600.1            29.18882,-26.519562,1600.1            29.188848,-26.519565,1600.1            29.188877,-26.519563,1600.2            29.188903,-26.51956,1600.2            29.18893,-26.519558,1600.5            29.188958,-26.519555,1600.9            29.188983,-26.519553,1600.9            29.18901,-26.51955,1601.3            29.189037,-26.51955,1601.3            29.189062,-26.51955,1601.7            29.18909,-26.519552,1602.2            29.189118,-26.519553,1602.2            29.189147,-26.519555,1602.6            29.189175,-26.519555,1603            29.189205,-26.519558,1603            29.189233,-26.519557,1603.5            29.18926,-26.519557,1604            29.18929,-26.519555,1604            29.189318,-26.519555,1604.5            29.189347,-26.519553,1605.2            29.189375,-26.519553,1605.2            29.189405,-26.519555,1605.9            29.189435,-26.519555,1606.8            29.189467,-26.519553,1606.8            29.1895,-26.519553,1607.6            29.18953,-26.51955,1608.4            29.18956,-26.519547,1609            29.189592,-26.519538,1608.9            29.189622,-26.519528,1609.3            29.189648,-26.519515,1609.6            29.189677,-26.519502,1609.5            29.189705,-26.519487,1609.6            29.189732,-26.519472,1609.7            29.189757,-26.519455,1609.5            29.189785,-26.519438,1609.5            29.189813,-26.51942,1609.3            29.189838,-26.519403,1609.3            29.189863,-26.519383,1609            29.18989,-26.519365,1609            29.189915,-26.519348,1608.4            29.189942,-26.519332,1608.4            29.189967,-26.519315,1608.2            29.189992,-26.5193,1607.7            29.190017,-26.519283,1607.7            29.19004,-26.519265,1607.3            29.190063,-26.51925,1607.3            29.190088,-26.519235,1606.8            29.190113,-26.519218,1606.8            29.190138,-26.519202,1606.5            29.190162,-26.519187,1605.9            29.190188,-26.51917,1605.9            29.190212,-26.519153,1605.4            29.190237,-26.519137,1605.4            29.19026,-26.51912,1605.1            29.190285,-26.519102,1605.1            29.190308,-26.519083,1605.1            29.190332,-26.519063,1604.8            29.190353,-26.519043,1604.3            29.190373,-26.519022,1604.3            29.19039,-26.519002,1603.8            29.190408,-26.518978,1603.8            29.190428,-26.518955,1603.4            29.190445,-26.518935,1603.4            29.19046,-26.518913,1603.1            29.190475,-26.51889,1602.8            29.19049,-26.518865,1602.8            29.190508,-26.518845,1602.9            29.190528,-26.518825,1602.9            29.19055,-26.518803,1603.4            29.190568,-26.518782,1603.4            29.190588,-26.518762,1603.9            29.190605,-26.518742,1603.9            29.190623,-26.51872,1603.8            29.19064,-26.5187,1604.1            29.190658,-26.518678,1603.9            29.190675,-26.518658,1604            29.190693,-26.518638,1604            29.190712,-26.518618,1603.6            29.190732,-26.518595,1603.8            29.190752,-26.518577,1603.4            29.190772,-26.518557,1603.6            29.190792,-26.518538,1603.1            29.190808,-26.51852,1603.3            29.190827,-26.518503,1602.8            29.190847,-26.518485,1603            29.190868,-26.518467,1602.5            29.190892,-26.51845,1602.8            29.190915,-26.518433,1602.8            29.190938,-26.518417,1602.7            29.190962,-26.518402,1602.7            29.190987,-26.518388,1602.7            29.191008,-26.518375,1602.7            29.191033,-26.518363,1603.3            29.191057,-26.51835,1602.7            29.191082,-26.51834,1603.3            29.191107,-26.51833,1603.8            29.19113,-26.518322,1603.8            29.191157,-26.518313,1603.6            29.19118,-26.518303,1603.6            29.191205,-26.518295,1603.8            29.191232,-26.518285,1604            29.19126,-26.518277,1604            29.191287,-26.518268,1603.3            29.191315,-26.518258,1603.3            29.191343,-26.518248,1603.3            29.191372,-26.518238,1603.3            29.191397,-26.518228,1602.7            29.191425,-26.518218,1602.8            29.191452,-26.518208,1603.1            29.191477,-26.518202,1603.1            29.191503,-26.518193,1603.1            29.19153,-26.518187,1603.1            29.191557,-26.51818,1603.5            29.191585,-26.518173,1604            29.191615,-26.518167,1604            29.191643,-26.518162,1604.4            29.191672,-26.518157,1604.5            29.191702,-26.51815,1604.5            29.19173,-26.518143,1604.8            29.191758,-26.518135,1604.9            29.191788,-26.518128,1604.9            29.191818,-26.518122,1604.5            29.191848,-26.518115,1604.2            29.191878,-26.51811,1603.9            29.191907,-26.518105,1603.9            29.191933,-26.518098,1603.6            29.191962,-26.518093,1603.5            29.191992,-26.518087,1603.5            29.19202,-26.51808,1603.5            29.192048,-26.518073,1603.6            29.192077,-26.518067,1603.6            29.192105,-26.51806,1603.7            29.192132,-26.518053,1603.7            29.192162,-26.518045,1603.7            29.19219,-26.518038,1603.4            29.192218,-26.51803,1603.4            29.192248,-26.51802,1603.2            29.192275,-26.518008,1603            29.192302,-26.517997,1602.8            29.19233,-26.517985,1602.8            29.19236,-26.517975,1602.8            29.192388,-26.517965,1602.7            29.192418,-26.517957,1602.7            29.192447,-26.517947,1602.7            29.192473,-26.517935,1602.7            29.192502,-26.517922,1602.3            29.192532,-26.517908,1602.1            29.192558,-26.517893,1602.1            29.192585,-26.517878,1601.8            29.192612,-26.51786,1601.7            29.192638,-26.51784,1601.8            29.192663,-26.517822,1601.8            29.192688,-26.517802,1601.8            29.192712,-26.517782,1601.8            29.192735,-26.517762,1601.9            29.192757,-26.517742,1601.9            29.192782,-26.51772,1601.8            29.192803,-26.517698,1601.8            29.192827,-26.517678,1601.7            29.19285,-26.517655,1601.7            29.192872,-26.517633,1601.6            29.192893,-26.51761,1601.7            29.192913,-26.517585,1601.7            29.192933,-26.517563,1601.9            29.192953,-26.517538,1602.5            29.192972,-26.517512,1602.5            29.192988,-26.517485,1602.8            29.193005,-26.51746,1603.6            29.19302,-26.517433,1603.6            29.193033,-26.517407,1603.8            29.193048,-26.517382,1604.2            29.19306,-26.517355,1604.2            29.19307,-26.517327,1604.3            29.19308,-26.517303,1604.3            29.19309,-26.517283,1604.4            29.193105,-26.51727,1604.4            29.193122,-26.517263,1604.4            29.193145,-26.517265,1604.4            29.193173,-26.517272,1604.4            29.193202,-26.517282,1604.4            29.19323,-26.517292,1604.4            29.193262,-26.517302,1604.4            29.193293,-26.51731,1604.5            29.193323,-26.51732,1604.5            29.193353,-26.517328,1604.5            29.193388,-26.517337,1604.4            29.193422,-26.517343,1604.4            29.193453,-26.51735,1604.4            29.193482,-26.517357,1604.4            29.193507,-26.517362,1604.3            29.19353,-26.517367,1604.3            29.193558,-26.517368,1604.3            29.193587,-26.517373,1604.3            29.193618,-26.517378,1604.2            29.193653,-26.51738,1604.2            29.193688,-26.517382,1604.1            29.193722,-26.517382,1604.1            29.193755,-26.517378,1604            29.193787,-26.517375,1604            29.193817,-26.517373,1603.9            29.193848,-26.517372,1603.9            29.193878,-26.517368,1603.8            29.19391,-26.517367,1604            29.193943,-26.517367,1604.1            29.19398,-26.517368,1604.3            29.194013,-26.517372,1604.3            29.194048,-26.51738,1604.6            29.194082,-26.517393,1604.7            29.194112,-26.517412,1604.7            29.194137,-26.517432,1604.8            29.194162,-26.517455,1604.9            29.194185,-26.517475,1605            29.194205,-26.517493,1605            29.194227,-26.517513,1605.1            29.194247,-26.517533,1605.2            29.194267,-26.517553,1605.2            29.194285,-26.517573,1605.3            29.194303,-26.517595,1605.4            29.194322,-26.517613,1605.4            29.19434,-26.517633,1605.5            29.19436,-26.517655,1605.6            29.194377,-26.517677,1605.6            29.194392,-26.517697,1605.7            29.194408,-26.517718,1605.8            29.194428,-26.517738,1605.8            29.194445,-26.517757,1605.7            29.194463,-26.517778,1605.6            29.194482,-26.517797,1605.5            29.1945,-26.517817,1605.4            29.194518,-26.517835,1605.3            29.19454,-26.517857,1605.2            29.194563,-26.517875,1605.1            29.194583,-26.517893,1605            29.194607,-26.517908,1604.9            29.19463,-26.517923,1604.9            29.194655,-26.517938,1604.8            29.194682,-26.517953,1604.7            29.19471,-26.517965,1604.6            29.194738,-26.517972,1604.6            29.19477,-26.51798,1604.5            29.1948,-26.517983,1604.5            29.194832,-26.517983,1604.4            29.194863,-26.517982,1604.4            29.194895,-26.517978,1604.4            29.194925,-26.517973,1604.4            29.194955,-26.51797,1604.4            29.194987,-26.517967,1604.4            29.195018,-26.517962,1604.4            29.195048,-26.517957,1604.5            29.19508,-26.517952,1604.5            29.19511,-26.517947,1604.5            29.19514,-26.517942,1604.5            29.195172,-26.517935,1604.6            29.1952,-26.517927,1604.6            29.195228,-26.517917,1604.5            29.195257,-26.517902,1604.5            29.195282,-26.517883,1604.5            29.195308,-26.517865,1604.5            29.195335,-26.517847,1604.4            29.195362,-26.517827,1604.4            29.195387,-26.517807,1604.4            29.195412,-26.517787,1604.4            29.195438,-26.517767,1604.4            29.195463,-26.517747,1604.3            29.195488,-26.517727,1604.3            29.195513,-26.517707,1604.3            29.195538,-26.517687,1604.3            29.195562,-26.517668,1604.2            29.195587,-26.517648,1604.2            29.19561,-26.51763,1604.2            29.195635,-26.51761,1604.2            29.195662,-26.51759,1604.2            29.195687,-26.51757,1604.1            29.19571,-26.517552,1604.1            29.195733,-26.517533,1604.1            29.19576,-26.517515,1604.1            29.195785,-26.517498,1604            29.19581,-26.51748,1604            29.195833,-26.517463,1604            29.195858,-26.517443,1604            29.19588,-26.517425,1603.9            29.195902,-26.517407,1603.9            29.195925,-26.51739,1603.9            29.195947,-26.517373,1603.9            29.195968,-26.517355,1603.9            29.195987,-26.51733,1603.9            29.196002,-26.517305,1603.9            29.19601,-26.517278,1603.9            29.196012,-26.51725,1604.1            29.196007,-26.517223,1604.2            29.196002,-26.517195,1604.2            29.196002,-26.517165,1604.3            29.196008,-26.517138,1604.3            29.196017,-26.517113,1604.3            29.196027,-26.517087,1604.4            29.19604,-26.517062,1604.4            29.196052,-26.517037,1604.4            29.196065,-26.517012,1604.5            29.19608,-26.516985,1604.5            29.19609,-26.516958,1604.5            29.196102,-26.516932,1604.6            29.196113,-26.516903,1604.6            29.196123,-26.516877,1604.6            29.196135,-26.51685,1604.7            29.196148,-26.516823,1604.7            29.196162,-26.516798,1604.7            29.196177,-26.516773,1604.8            29.19619,-26.516748,1604.8            29.196203,-26.516722,1604.9            29.196215,-26.516698,1604.9            29.19623,-26.51667,1605            29.196242,-26.516643,1605            29.196257,-26.51662,1605.1            29.196273,-26.516593,1605.2            29.196288,-26.516568,1605.2            29.196302,-26.516543,1605.3            29.196317,-26.516518,1605.3            29.19633,-26.516493,1605.4            29.196343,-26.516468,1605.4            29.19636,-26.516443,1605.5            29.196373,-26.51642,1605.5            29.196387,-26.516397,1605.6            29.196402,-26.516372,1605.7            29.196415,-26.516347,1605.8            29.19643,-26.516323,1605.8            29.196445,-26.5163,1605.9            29.196463,-26.516275,1606            29.196477,-26.51625,1606.1            29.19649,-26.516225,1606.2            29.196503,-26.5162,1606.4            29.196515,-26.516175,1606.6            29.196528,-26.516152,1606.8            29.19654,-26.51613,1606.9            29.196552,-26.516107,1607.1            29.196563,-26.516083,1607.2            29.196578,-26.516062,1607.4            29.196595,-26.516037,1607.6            29.196612,-26.516008,1607.9            29.196627,-26.515983,1608.1            29.196645,-26.515962,1608.2            29.196662,-26.51594,1608.3            29.196678,-26.515922,1608.4            29.196697,-26.515903,1608.6            29.196717,-26.515883,1608.7            29.196735,-26.515865,1608.8            29.196753,-26.515843,1608.9            29.196772,-26.515825,1609.1            29.196793,-26.515808,1609.2            29.196818,-26.515795,1609.4            29.196847,-26.515785,1609.4            29.196875,-26.515778,1609.6            29.196903,-26.515773,1609.2            29.196937,-26.515768,1609.3            29.196968,-26.515762,1608.8            29.197,-26.515757,1608.4            29.19703,-26.51575,1607.9            29.19706,-26.51574,1608.9            29.197088,-26.515732,1608.4            29.19712,-26.515723,1607.9            29.19715,-26.515713,1608            29.197178,-26.515705,1607.7            29.197208,-26.515695,1607.3            29.197238,-26.515688,1607            29.197268,-26.515685,1606.7            29.197298,-26.515685,1606.4            29.19733,-26.515685,1606            29.19736,-26.515687,1605.8            29.19739,-26.51569,1605.7            29.197422,-26.515695,1605.5            29.197453,-26.515698,1605.4            29.197483,-26.515703,1605.2            29.197515,-26.51571,1605.1            29.197545,-26.515713,1604.9            29.197575,-26.515718,1604.8            29.197605,-26.515722,1605.2            29.197635,-26.515728,1605.5            29.197665,-26.515735,1605.8            29.197695,-26.515742,1606.1            29.197727,-26.515747,1606.5            29.197753,-26.515752,1606.7            29.197783,-26.515758,1607.1            29.197817,-26.515763,1607.4            29.197847,-26.515767,1608.3            29.197877,-26.51577,1608.4            29.197907,-26.515772,1608.5            29.197937,-26.515775,1608.6            29.197967,-26.51578,1608.9            29.197997,-26.515785,1609.1            29.198023,-26.515795,1609.3            29.198048,-26.515808,1609.5            29.198073,-26.515827,1609.7            29.198097,-26.515843,1609.9            29.19812,-26.515858,1610.1            29.198143,-26.515873,1610.2            29.198168,-26.515892,1610.4            29.198192,-26.515908,1610.6            29.198217,-26.515925,1610.8            29.198238,-26.515945,1610.9            29.198258,-26.515965,1611            29.19828,-26.515987,1611.2            29.198302,-26.516007,1611.3            29.19832,-26.516028,1611.4            29.19834,-26.516048,1611.5            29.198362,-26.516072,1611.7            29.198378,-26.516092,1611.9            29.19839,-26.516113,1612            29.198395,-26.516135,1612.1            29.198393,-26.516158,1612.3            29.19839,-26.516185,1612.4            29.198387,-26.516215,1612.6            29.198387,-26.516243,1612.9            29.198385,-26.51627,1612.9            29.198383,-26.516298,1612.8            29.19838,-26.516325,1612.8            29.198377,-26.516353,1612.7            29.198373,-26.516383,1612.7            29.198375,-26.516413,1612.6            29.198375,-26.51644,1612.6            29.198375,-26.516467,1612.5            29.198373,-26.516495,1612.4            29.19837,-26.516522,1612.4            29.198363,-26.516548,1612.3            29.198355,-26.516577,1612.2            29.198352,-26.516603,1612.2            29.198347,-26.516633,1612.1            29.198345,-26.516662,1611.9            29.198342,-26.516692,1611.7            29.198337,-26.51672,1611.6            29.198333,-26.51675,1611.4            29.19833,-26.516777,1611.3            29.198327,-26.516805,1611.2            29.198322,-26.516833,1611            29.198318,-26.51686,1610.9            29.198315,-26.516887,1610.8            29.198312,-26.516915,1610.6            29.19831,-26.516942,1610.5            29.19831,-26.516968,1610.3            29.19831,-26.516997,1610.1            29.198307,-26.517025,1609.9            29.198303,-26.517053,1609.7            29.198298,-26.517083,1609.5            29.198295,-26.517113,1609.4            29.19829,-26.517142,1609.2            29.198287,-26.51717,1609            29.198283,-26.517198,1608.8            29.198278,-26.517228,1608.7            29.198275,-26.517257,1608.5            29.198273,-26.517283,1608.3            29.198272,-26.517308,1608.2            29.198268,-26.517333,1608            29.198265,-26.517362,1607.8            29.198262,-26.517388,1607.5            29.198258,-26.517417,1607.1            29.198257,-26.517447,1606.8            29.198255,-26.517475,1606.5            29.198253,-26.517507,1606.1            29.198253,-26.517537,1605.8            29.198252,-26.517563,1605.5            29.198253,-26.517592,1605.8            29.198255,-26.517622,1605.9            29.198257,-26.51765,1606.1            29.198255,-26.517677,1606.2            29.198257,-26.517703,1606.4            29.198257,-26.51773,1606.5            29.198252,-26.517757,1606.7            29.198252,-26.517785,1606.8            29.198252,-26.517815,1607            29.198248,-26.517843,1607.2            29.198247,-26.517872,1607.4            29.198247,-26.5179,1607.5            29.198245,-26.517925,1607.7            29.198245,-26.517953,1607.9            29.198243,-26.517982,1608.1            29.198242,-26.51801,1608.3            29.19824,-26.518038,1608.5            29.198237,-26.518067,1608.7            29.198235,-26.518093,1608.9            29.198233,-26.51812,1609.1            29.198233,-26.518148,1609.3            29.198232,-26.518178,1609.5            29.19823,-26.518207,1609.8            29.198228,-26.518238,1610.2            29.198232,-26.518272,1610.4            29.198238,-26.518303,1610.6            29.198255,-26.518337,1610.7            29.198277,-26.518363,1610.9            29.198307,-26.51838,1611.1            29.19834,-26.51839,1611.3            29.198375,-26.518397,1611.5            29.19841,-26.518403,1611.6            29.198445,-26.518407,1611.7            29.198478,-26.518408,1611.7            29.198512,-26.518412,1611.8            29.198547,-26.518413,1611.8            29.198582,-26.518413,1611.8            29.198613,-26.518415,1611.9            29.198647,-26.518415,1611.9            29.198678,-26.518417,1611.9            29.198708,-26.518417,1611.9            29.198742,-26.518418,1612            29.198773,-26.518418,1612            29.198805,-26.51842,1612            29.19884,-26.518422,1612.1            29.198872,-26.518425,1612.2            29.198905,-26.51843,1612.3            29.198937,-26.518432,1612.3            29.19897,-26.518433,1612.4            29.199,-26.518437,1612.6            29.199033,-26.518437,1612.7            29.199065,-26.518435,1612.9            29.199095,-26.518435,1613            29.199125,-26.518435,1613.1            29.199155,-26.518435,1613.3            29.199187,-26.518435,1613.4            29.199217,-26.51844,1613.5            29.199248,-26.518445,1613.6            29.199278,-26.518452,1613.6            29.199308,-26.518458,1613.7            29.199342,-26.518462,1613.8            29.199372,-26.51846,1613.9            29.199402,-26.518455,1613.9            29.199432,-26.518445,1613.7            29.199462,-26.518433,1613.7            29.199492,-26.518422,1613.6            29.199522,-26.51841,1613.5            29.199552,-26.518398,1613.4            29.199582,-26.518387,1613.4            29.19961,-26.518373,1613.3            29.19964,-26.518358,1613.2            29.199668,-26.518343,1613.2            29.199697,-26.518327,1613.1            29.199725,-26.518308,1613            29.199752,-26.518293,1612.9            29.19978,-26.518277,1612.8            29.199807,-26.51826,1612.7            29.199833,-26.518242,1612.6            29.199862,-26.518225,1612.5            29.19989,-26.518208,1612.4            29.199915,-26.51819,1612.4            29.199943,-26.518173,1612.3            29.199972,-26.518155,1612.2            29.2,-26.518138,1612.1            29.200027,-26.518122,1612            29.200055,-26.518105,1611.9            29.200083,-26.518088,1611.9            29.20011,-26.518072,1611.9            29.200135,-26.518053,1611.8            29.20016,-26.518037,1611.8            29.200185,-26.51802,1611.8            29.200207,-26.518003,1611.7            29.200232,-26.517987,1611.7            29.200255,-26.517972,1611.6            29.200278,-26.51796,1611.6            29.2003,-26.517948,1611.6            29.200325,-26.517938,1611.5            29.20035,-26.517925,1611.5            29.200373,-26.51791,1611.5            29.200392,-26.517893,1611.4            29.200412,-26.517877,1611.4            29.20043,-26.517862,1611.4            29.200448,-26.517848,1611.4            29.20047,-26.517838,1611.3            29.200498,-26.517828,1611.3            29.200528,-26.51782,1611.3            29.200562,-26.517812,1611.3            29.200595,-26.517803,1611.2            29.200628,-26.517793,1611.2            29.200662,-26.517783,1611.2            29.200698,-26.517772,1611.2            29.20073,-26.51776,1611.2            29.200762,-26.517747,1611.2            29.200797,-26.517733,1611.2            29.200828,-26.51772,1611.3            29.200862,-26.517707,1611.3            29.200893,-26.517698,1611.3            29.200925,-26.51769,1611.3            29.200957,-26.517682,1611.3            29.200988,-26.517675,1611.3            29.20102,-26.517665,1611.3            29.201052,-26.517658,1611.3            29.201085,-26.517653,1611.3            29.20112,-26.517648,1611.3            29.201153,-26.517645,1611.3            29.20119,-26.51764,1611.3            29.201222,-26.517638,1611.3            29.201257,-26.51764,1611.3            29.201295,-26.517643,1611.3            29.201332,-26.517643,1611.3            29.201368,-26.517647,1611.3            29.201405,-26.517648,1611.3            29.20144,-26.51765,1611.3            29.201475,-26.517652,1611.3            29.20151,-26.517657,1611.3            29.201545,-26.517658,1611.4            29.20158,-26.517662,1611.4            29.201615,-26.51766,1611.4            29.201652,-26.51766,1611.4            29.201685,-26.517658,1611.5            29.201722,-26.517658,1611.5            29.201758,-26.517655,1611.5            29.201792,-26.517652,1611.5            29.201823,-26.517648,1611.6            29.201857,-26.517647,1611.6            29.20189,-26.517648,1611.6            29.201925,-26.517648,1611.7            29.20196,-26.517648,1611.7            29.201993,-26.517648,1611.7            29.202028,-26.517648,1611.8            29.202065,-26.517648,1611.8            29.2021,-26.51765,1611.9            29.202137,-26.517652,1611.9            29.202172,-26.517652,1612            29.202203,-26.517652,1612            29.202237,-26.517653,1612            29.202272,-26.517653,1612.1            29.202307,-26.517653,1612.1            29.202342,-26.517657,1612.2            29.20238,-26.517657,1612.2            29.202415,-26.517658,1612.2            29.202448,-26.51766,1612.3            29.202483,-26.517662,1612.3            29.202517,-26.517663,1612.3            29.20255,-26.517667,1612.4            29.202583,-26.517668,1612.4            29.202615,-26.517672,1612.4            29.202648,-26.517673,1612.4            29.202683,-26.517677,1612.5            29.202718,-26.517678,1612.5            29.202752,-26.517682,1612.5            29.202783,-26.517685,1612.5            29.202817,-26.517685,1612.4            29.202852,-26.517683,1612.4            29.202885,-26.517682,1612.4            29.202918,-26.517682,1612.4            29.20295,-26.51768,1612.3            29.202983,-26.517678,1612.3            29.203018,-26.517677,1612.2            29.203053,-26.517677,1612.2            29.203088,-26.517675,1612.1            29.203122,-26.517673,1612.1            29.203157,-26.517672,1612            29.20319,-26.517668,1612            29.203223,-26.517663,1611.9            29.203255,-26.517653,1611.9            29.203285,-26.517637,1611.9            29.203312,-26.517612,1611.8            29.203333,-26.517582,1611.8            29.203353,-26.51755,1611.7            29.203372,-26.517518,1611.7            29.203388,-26.517488,1611.6            29.203407,-26.517458,1611.5            29.203425,-26.517427,1611.4            29.203442,-26.517397,1611.3            29.203455,-26.517365,1611.2            29.203468,-26.517333,1611            29.203482,-26.5173,1610.8            29.203493,-26.517267,1610.7            29.203502,-26.517232,1610.5            29.203512,-26.517198,1610.3            29.203515,-26.517163,1610.1            29.20351,-26.517128,1609.8            29.2035,-26.517097,1609.6            29.203483,-26.517068,1609.3            29.203465,-26.517042,1609            29.203443,-26.517015,1608.6            29.203422,-26.516988,1608.4            29.203402,-26.516962,1608.3            29.203383,-26.516935,1608.2            29.203368,-26.51691,1608            29.203353,-26.516882,1607.9            29.20334,-26.516852,1607.8            29.203325,-26.516825,1607.7            29.20331,-26.516797,1607.6            29.203293,-26.516768,1607.5            29.203278,-26.51674,1607.4            29.203263,-26.516713,1607.4            29.203245,-26.516685,1607.3            29.203228,-26.516657,1607.2            29.203213,-26.51663,1607.1            29.203198,-26.516602,1607            29.203183,-26.516575,1606.8            29.20317,-26.51655,1606.8            29.203153,-26.51652,1606.8            29.203137,-26.516492,1606.8            29.203117,-26.516465,1606.8            29.20309,-26.516442,1606.9            29.20306,-26.516423,1607.1            29.203028,-26.516407,1607.4            29.202995,-26.516395,1607.4            29.20296,-26.516383,1607.4            29.202922,-26.516375,1607.4            29.202882,-26.516368,1607.4            29.202845,-26.516362,1607.4            29.202808,-26.516355,1607.4            29.202772,-26.516352,1607.4            29.202737,-26.516348,1607.4            29.2027,-26.516345,1607.4            29.202663,-26.51634,1607.4            29.20263,-26.516337,1607.4            29.202595,-26.516333,1607.4            29.202558,-26.51633,1607.4            29.202525,-26.516327,1607.4            29.20249,-26.51632,1607.4            29.202455,-26.516313,1607.4            29.20242,-26.516305,1607.4            29.202387,-26.516297,1607.4            29.202353,-26.516287,1607.4            29.202323,-26.516277,1607.4            29.20229,-26.516267,1607.4            29.202258,-26.516253,1607.4            29.202227,-26.51624,1607.4            29.202198,-26.516227,1607.4            29.202168,-26.516213,1607.5            29.20214,-26.516198,1607.5            29.202112,-26.516182,1607.6            29.202085,-26.516165,1607.7            29.202062,-26.516143,1607.7            29.202042,-26.516122,1607.8            29.202023,-26.516095,1607.9            29.202012,-26.51607,1608            29.202,-26.516042,1608            29.201988,-26.516013,1608.1            29.201975,-26.515987,1608.1            29.201957,-26.51596,1608.2            29.201935,-26.515937,1608.2            29.201908,-26.515918,1608.2            29.20188,-26.515905,1608.2            29.201847,-26.515897,1608.2            29.201813,-26.515892,1608.2            29.201777,-26.515888,1608.3            29.201742,-26.515887,1608.3            29.201708,-26.515885,1608.3            29.201673,-26.515883,1608.3            29.201642,-26.51588,1608.3            29.201612,-26.515875,1608.3            29.201578,-26.515867,1608.3            29.201543,-26.515858,1608.3            29.201507,-26.51585,1608.4            29.201472,-26.515843,1608.4            29.201435,-26.515843,1608.5            29.201398,-26.515845,1608.6            29.201365,-26.515847,1608.6            29.201333,-26.515852,1608.7            29.201303,-26.515855,1608.7            29.201272,-26.515857,1608.8            29.201237,-26.51586,1608.9            29.201203,-26.515865,1609            29.201172,-26.51587,1609            29.201137,-26.515875,1609.1            29.201103,-26.51588,1609.2            29.20107,-26.515883,1609.3            29.201037,-26.515887,1609.4            29.201005,-26.515888,1609.5            29.200972,-26.51589,1609.6            29.200938,-26.515892,1609.7            29.200907,-26.515892,1609.8            29.200875,-26.515893,1609.9            29.200845,-26.515893,1610            29.200813,-26.515892,1610.2            29.20078,-26.515892,1610.4            29.200747,-26.51589,1610.5            29.200713,-26.515887,1610.6            29.200678,-26.515882,1610.7            29.200645,-26.515877,1610.8            29.200612,-26.515872,1610.9            29.200578,-26.515865,1611            29.200543,-26.51586,1611.1            29.200512,-26.515853,1611.2            29.200478,-26.515847,1611.1            29.200443,-26.515843,1610.9            29.200408,-26.51584,1610.7            29.200377,-26.515838,1610.6            29.20034,-26.515833,1610.4            29.200305,-26.515832,1610.4            29.200272,-26.515827,1610.3            29.200238,-26.51582,1610.3            29.200208,-26.515815,1610.3            29.200175,-26.515808,1610.3            29.200138,-26.5158,1610.3            29.200103,-26.515792,1610.3            29.200067,-26.515783,1610.3            29.200032,-26.515777,1610.3            29.199998,-26.515772,1610.3            29.199963,-26.515765,1610.2            29.199925,-26.515758,1610.2            29.19989,-26.515752,1610.2            29.199855,-26.515743,1610.2            29.19982,-26.515733,1610.2            29.199787,-26.515725,1610.2            29.199752,-26.515718,1610.2            29.199717,-26.515713,1610.2            29.199683,-26.515705,1610.2            29.199648,-26.515697,1610.2            29.199612,-26.515688,1610.1            29.199577,-26.515678,1610.1            29.199542,-26.51567,1610.1            29.199505,-26.515658,1610.1            29.199472,-26.515645,1610.1            29.199437,-26.515635,1610.1            29.199398,-26.515627,1610.1            29.199363,-26.515618,1610            29.199325,-26.515612,1610            29.19929,-26.515607,1610            29.199257,-26.515603,1610            29.19922,-26.5156,1610            29.199183,-26.515597,1609.9            29.199148,-26.515593,1609.9            29.199112,-26.515592,1609.9            29.199075,-26.515593,1609.9            29.199037,-26.515593,1609.9            29.198998,-26.515593,1609.9            29.198958,-26.515595,1609.9            29.19892,-26.515597,1609.9            29.198882,-26.5156,1610            29.198847,-26.515602,1610            29.19881,-26.515602,1610            29.198773,-26.515602,1610.1            29.198737,-26.5156,1610.1            29.1987,-26.515602,1610.2            29.198663,-26.515602,1610.3            29.198628,-26.515603,1610.4            29.198593,-26.515607,1610.5            29.198555,-26.51561,1610.6            29.198522,-26.515613,1610.7            29.198487,-26.515613,1610.9            29.19845,-26.515617,1611.1            29.198413,-26.515623,1611.1            29.198378,-26.51563,1611.1            29.198342,-26.515638,1611            29.198305,-26.515647,1610.8            29.19827,-26.515655,1610.6            29.198233,-26.515663,1610.4            29.198197,-26.515672,1610.2            29.19816,-26.515678,1610            29.198123,-26.515683,1609.7            29.19809,-26.515687,1609.6            29.198055,-26.515688,1609.4            29.19802,-26.51569,1609.2            29.197987,-26.515692,1609            29.19795,-26.515692,1608.8            29.197913,-26.51569,1608.2            29.197878,-26.51569,1607.9            29.197842,-26.515688,1607.5            29.197805,-26.515685,1607.1            29.19777,-26.515683,1606.7            29.197735,-26.51568,1606.4            29.197702,-26.515678,1606            29.197667,-26.515675,1605.7            29.19763,-26.515673,1605.3            29.197593,-26.515668,1604.8            29.197557,-26.515665,1604.9            29.197523,-26.515662,1605.1            29.197487,-26.515658,1605.2            29.197453,-26.515655,1605.3            29.19742,-26.515652,1605.5            29.197388,-26.515647,1605.6            29.197353,-26.515645,1605.7            29.19732,-26.515643,1605.9            29.197288,-26.515647,1606            29.197255,-26.515648,1606.8            29.197218,-26.515652,1607.1            29.197182,-26.515658,1607.5            29.197143,-26.515668,1607.8            29.197107,-26.51568,1608.2            29.197072,-26.515693,1608.5            29.197033,-26.515707,1608.2            29.197,-26.515718,1608.6            29.196963,-26.51573,1609.1            29.196928,-26.51574,1609.4            29.196895,-26.515748,1609.1            29.196862,-26.515753,1609            29.196827,-26.515758,1609.3            29.196793,-26.515763,1609.5            29.196763,-26.515775,1609.5            29.196735,-26.51579,1609.2            29.19671,-26.51581,1609            29.196688,-26.515832,1608.9            29.196667,-26.515855,1608.7            29.196643,-26.51588,1608.6            29.19662,-26.515905,1608.4            29.196597,-26.515933,1608.2            29.196575,-26.51596,1608.1            29.196553,-26.515987,1607.9            29.196532,-26.516017,1607.6            29.19651,-26.516047,1607.3            29.19649,-26.516078,1607.1            29.19647,-26.516113,1606.8            29.19645,-26.516148,1606.6            29.19643,-26.516183,1606.3            29.196412,-26.516217,1606.1            29.196392,-26.516248,1606            29.196372,-26.516282,1605.9            29.196352,-26.516315,1605.8            29.196332,-26.516347,1605.7            29.196313,-26.51638,1605.6            29.196295,-26.51641,1605.5            29.196277,-26.516442,1605.4            29.196258,-26.516475,1605.4            29.19624,-26.516505,1605.3            29.196223,-26.516537,1605.2            29.196205,-26.516568,1605.2            29.196188,-26.516598,1605.1            29.196168,-26.51663,1605            29.19615,-26.516663,1604.9            29.196132,-26.516693,1604.9            29.196115,-26.516725,1604.8            29.196097,-26.516757,1604.8            29.196082,-26.516787,1604.7            29.196065,-26.516818,1604.7            29.196048,-26.51685,1604.6            29.196033,-26.516882,1604.6            29.196018,-26.516913,1604.6            29.196005,-26.516945,1604.5            29.19599,-26.516975,1604.5            29.195975,-26.517007,1604.4            29.19596,-26.517037,1604.4            29.195947,-26.517065,1604.4            29.195933,-26.517093,1604.3            29.19592,-26.517125,1604.3            29.195907,-26.517157,1604.3            29.195898,-26.517188,1604.2            29.195895,-26.517222,1604.1            29.1959,-26.517253,1604.1            29.195905,-26.517285,1604            29.195905,-26.517317,1603.9            29.1959,-26.517345,1603.9            29.195888,-26.517367,1603.9            29.19587,-26.517388,1603.9            29.195845,-26.517407,1604            29.195818,-26.517427,1604            29.195793,-26.517448,1604            29.195765,-26.51747,1604            29.195737,-26.517493,1604.1            29.195708,-26.517513,1604.1            29.195678,-26.517533,1604.1            29.195647,-26.517553,1604.2            29.195615,-26.517575,1604.2            29.195585,-26.517595,1604.2            29.195555,-26.517615,1604.2            29.195525,-26.517637,1604.3            29.195498,-26.517657,1604.3            29.19547,-26.517675,1604.3            29.195442,-26.517693,1604.3            29.195413,-26.517713,1604.4            29.19538,-26.517733,1604.4            29.195348,-26.517753,1604.4            29.195315,-26.517775,1604.4            29.195285,-26.517795,1604.5            29.195255,-26.517813,1604.5            29.195225,-26.517832,1604.5            29.195193,-26.51785,1604.5            29.195162,-26.517865,1604.5            29.195128,-26.517877,1604.5            29.195095,-26.517885,1604.5            29.195062,-26.517892,1604.4            29.195025,-26.517898,1604.4            29.194992,-26.517905,1604.4            29.194957,-26.517912,1604.4            29.19492,-26.517917,1604.4            29.194883,-26.517918,1604.4            29.194847,-26.517922,1604.5            29.194808,-26.517923,1604.5            29.19477,-26.51792,1604.6            29.194732,-26.517915,1604.6            29.194692,-26.517908,1604.7            29.194655,-26.517898,1604.8            29.194622,-26.517887,1604.9            29.19459,-26.51787,1605            29.19456,-26.517852,1605.1            29.194528,-26.51783,1605.2            29.194502,-26.517807,1605.4            29.194478,-26.517785,1605.5            29.194455,-26.517762,1605.6            29.19443,-26.51774,1605.7            29.194408,-26.517717,1605.8            29.194383,-26.517692,1605.7            29.19436,-26.51767,1605.6            29.19434,-26.517648,1605.5            29.194317,-26.517625,1605.4            29.194297,-26.5176,1605.3            29.194275,-26.517575,1605.3            29.194248,-26.517552,1605.2            29.19422,-26.517532,1605.1            29.194192,-26.517512,1605            29.19416,-26.517493,1604.9            29.19413,-26.517475,1604.8            29.194098,-26.51746,1604.7            29.194067,-26.517443,1604.6            29.194032,-26.517428,1604.5            29.194,-26.517413,1604.3            29.193967,-26.517398,1604.2            29.193933,-26.517382,1604.1            29.193902,-26.517363,1604            29.19387,-26.517343,1603.8            29.19384,-26.517322,1603.9            29.19381,-26.517305,1603.9            29.193773,-26.517297,1604            29.193737,-26.517298,1604.1            29.1937,-26.517302,1604.1            29.193665,-26.517303,1604.2            29.193632,-26.517305,1604.2            29.193597,-26.517308,1604.3            29.193562,-26.51731,1604.3            29.193527,-26.51731,1604.3            29.193493,-26.51731,1604.4            29.193457,-26.517312,1604.4            29.19342,-26.517313,1604.4            29.193383,-26.517312,1604.4            29.193347,-26.517312,1604.5            29.193315,-26.517312,1604.5            29.19328,-26.517308,1604.4            29.193247,-26.517302,1604.4            29.193212,-26.517293,1604.4            29.193173,-26.517283,1604.4            29.193137,-26.517272,1604.4            29.193102,-26.51726,1604.4            29.193072,-26.517243,1604.3            29.193045,-26.517222,1604.1            29.193022,-26.517197,1604.1            29.193007,-26.517165,1604            29.192995,-26.517133,1604            29.192982,-26.517102,1603.9            29.192972,-26.51707,1603.8            29.192962,-26.51704,1604            29.192947,-26.51701,1604            29.192932,-26.516982,1604.3            29.192917,-26.516953,1604.5            29.1929,-26.516927,1604.8            29.192882,-26.5169,1604.8            29.192865,-26.516875,1605            29.192848,-26.51685,1605.1            29.192828,-26.516825,1605            29.192803,-26.516802,1605.2            29.192773,-26.516782,1605.1            29.19274,-26.516765,1605.5            29.192702,-26.516757,1605.4            29.19266,-26.516753,1605.4            29.192622,-26.51675,1605.3            29.192582,-26.516747,1605.3            29.19254,-26.516745,1605.2            29.192498,-26.516738,1605.1            29.192457,-26.516733,1605            29.192415,-26.516727,1605            29.192375,-26.51672,1604.9            29.192335,-26.516715,1604.8            29.192297,-26.51671,1604.8            29.192258,-26.516707,1604.7            29.192217,-26.5167,1604.7            29.19218,-26.516695,1604.6            29.192142,-26.51669,1604.6            29.192103,-26.516688,1604.5            29.192065,-26.516683,1604.5            29.192027,-26.516682,1604.5            29.19199,-26.516677,1604.4            29.191955,-26.516673,1604.4            29.191918,-26.516672,1604.4            29.191882,-26.516668,1604.4            29.191847,-26.516667,1604.3            29.191807,-26.516665,1604.3            29.191768,-26.516663,1604.3            29.191727,-26.516662,1604.3            29.191688,-26.51666,1604.2            29.191652,-26.51666,1604.2            29.191613,-26.51666,1604.2            29.191575,-26.51666,1604.1            29.191535,-26.516662,1604.1            29.191497,-26.516662,1604            29.191457,-26.516662,1604            29.191417,-26.516663,1603.9            29.191375,-26.516667,1603.8            29.191335,-26.516668,1603.8            29.191295,-26.516672,1603.7            29.191253,-26.516677,1603.6            29.191213,-26.516682,1603.5            29.191173,-26.516687,1603.4            29.191133,-26.516692,1603.3            29.191093,-26.516698,1603.2            29.191052,-26.516705,1603.1            29.191012,-26.51671,1603.1            29.19097,-26.516715,1603            29.190928,-26.516722,1602.9            29.190888,-26.51673,1602.8            29.190848,-26.516738,1602.7            29.190808,-26.516745,1602.6            29.190772,-26.51675,1602.5            29.190732,-26.516753,1602.4            29.19069,-26.516758,1602.3            29.19065,-26.516762,1602.2            29.190612,-26.516763,1602.1            29.190573,-26.516763,1602.1            29.190538,-26.516765,1602            29.190502,-26.516765,1601.9            29.190465,-26.516763,1601.8            29.190428,-26.516763,1601.7            29.19039,-26.516763,1601.6            29.190352,-26.516762,1601.5            29.190313,-26.51676,1601.4            29.190277,-26.516758,1601.2            29.19024,-26.516757,1601.1            29.190205,-26.516753,1600.9            29.190168,-26.516753,1600.8            29.190133,-26.516752,1600.7            29.190097,-26.516753,1600.6            29.19006,-26.516755,1600.6            29.190027,-26.516755,1600.5            29.189992,-26.516757,1600.5            29.189955,-26.516758,1600.5            29.189918,-26.516758,1600.5            29.18988,-26.516758,1600.5            29.189842,-26.516753,1600.5            29.189805,-26.516745,1600.4            29.18977,-26.516733,1600.5            29.189738,-26.516722,1600.5            29.189705,-26.516708,1600.5            29.189673,-26.516693,1600.6            29.189642,-26.516682,1600.6            29.189612,-26.516667,1600.6            29.189582,-26.516653,1600.7            29.18955,-26.51664,1600.7            29.189518,-26.516625,1600.8            29.189488,-26.51661,1600.8            29.189458,-26.516597,1600.9            29.189427,-26.51658,1600.9            29.189397,-26.516565,1601            29.189365,-26.516553,1601            29.189332,-26.51654,1601.1            29.189298,-26.516527,1601.2            29.189265,-26.516515,1601.2            29.18923,-26.516502,1601.3            29.189197,-26.51649,1601.4            29.18916,-26.51648,1601.4            29.189127,-26.51647,1601.5            29.189092,-26.516463,1601.6            29.189057,-26.516453,1601.6            29.189018,-26.516443,1601.7            29.188983,-26.516435,1601.7            29.188943,-26.516428,1601.8            29.188907,-26.516422,1601.9            29.18887,-26.516417,1602            29.188832,-26.51641,1602            29.188793,-26.516407,1602.1            29.188755,-26.516405,1602.2            29.188717,-26.516408,1602.3            29.188677,-26.516412,1602.3            29.188637,-26.516418,1602.3            29.188598,-26.516428,1602.3            29.18856,-26.516438,1602.2            29.188522,-26.516452,1602.2            29.188483,-26.51647,1602.2            29.18845,-26.516487,1602.3            29.188413,-26.516502,1602.2            29.188378,-26.516517,1602.3            29.188347,-26.516535,1602.2            29.188315,-26.516557,1602.2            29.188285,-26.516578,1602            29.18826,-26.516603,1601.6            29.188238,-26.51663,1601.4            29.188218,-26.51666,1601            29.1882,-26.516692,1600.8            29.188182,-26.516728,1600.1            29.188163,-26.516765,1599.9            29.188145,-26.5168,1599.7            29.188128,-26.516835,1599.1            29.188112,-26.516868,1598.9            29.188095,-26.516903,1598.5            29.188078,-26.516937,1598.4            29.188062,-26.51697,1598.4            29.188047,-26.517007,1598.3            29.18803,-26.51704,1598.3            29.188013,-26.517075,1598.2            29.187998,-26.51711,1597.9            29.187983,-26.517145,1597.6            29.187968,-26.51718,1597.3            29.187955,-26.517215,1597.1            29.187943,-26.517248,1596.9            29.18793,-26.517285,1596.8            29.187917,-26.51732,1596.5            29.187902,-26.517353,1596.5            29.187888,-26.51739,1596.4            29.187877,-26.517427,1596.2            29.187865,-26.517465,1596.2            29.187857,-26.517503,1596.2            29.187853,-26.51754,1596.3            29.187852,-26.517578,1596.4            29.18785,-26.517613,1596.4            29.187848,-26.517647,1596.3            29.187848,-26.517682,1596.2            29.187848,-26.517717,1596            29.187848,-26.517755,1595.8            29.187853,-26.517792,1595.5            29.18786,-26.517827,1595.3            29.187865,-26.517862,1595            29.18787,-26.517895,1594.8            29.18787,-26.517928,1594.8            29.18787,-26.517965,1594.5            29.187868,-26.518,1594.2            29.187865,-26.518035,1593.9            29.187865,-26.518072,1593.6            29.187865,-26.518107,1593.4            29.187862,-26.51814,1593.2            29.187857,-26.518173,1593.1            29.187852,-26.518205,1593.2            29.187845,-26.518237,1593.2            29.187842,-26.51827,1593.3            29.18784,-26.518302,1593            29.187838,-26.518335,1593.3            29.187837,-26.518365,1593.7            29.187833,-26.518397,1593.9            29.18783,-26.518428,1593.9            29.187825,-26.51846,1594.1            29.187822,-26.518493,1594.1            29.187817,-26.518528,1594            29.187812,-26.518563,1593.9            29.187807,-26.518598,1594            29.187802,-26.518632,1594.3            29.187798,-26.518667,1594.3            29.187797,-26.518702,1594.7            29.187795,-26.518735,1594.7            29.187795,-26.51877,1594.9            29.187793,-26.518803,1594.9            29.187792,-26.518837,1594.8            29.187792,-26.518868,1594.7            29.187788,-26.518902,1594.8            29.187787,-26.518935,1595            29.187783,-26.518968,1595.4            29.187782,-26.519002,1595.4            29.187782,-26.519033,1595.9            29.187778,-26.519065,1596.4            29.187775,-26.519098,1596.7            29.187772,-26.51913,1597.1            29.18777,-26.519163,1597.4            29.187768,-26.519195,1597.4            29.187767,-26.519228,1597.7            29.187763,-26.51926,1598            29.187757,-26.519292,1598.3            29.187748,-26.519322,1598.8            29.187737,-26.519347,1598.8            29.187722,-26.51937,1598.9            29.187707,-26.519383,1599.2            29.187688,-26.519393,1599.2            29.187663,-26.519395,1599.3            29.187632,-26.519388,1599.3            29.187598,-26.519377,1599.3            29.187563,-26.519363,1599.3            29.187528,-26.51935,1599.2            29.187493,-26.519337,1599.1            29.187458,-26.519325,1599.1            29.187418,-26.519315,1599.1            29.187378,-26.519302,1598.9            29.187337,-26.519292,1598.9            29.187295,-26.51928,1598.8            29.187253,-26.51927,1598.5            29.187213,-26.519262,1598.4            29.187173,-26.519255,1598.4            29.187138,-26.519245,1598.5            29.1871,-26.519235,1598.6            29.187063,-26.519225,1598.9            29.187025,-26.519215,1599.2            29.186987,-26.519207,1599.2            29.186948,-26.519198,1599.4            29.186912,-26.519188,1599.3            29.186873,-26.519178,1599.2            29.18684,-26.519168,1599            29.186805,-26.519157,1598.4            29.186768,-26.519147,1598.1            29.186735,-26.519135,1598.1            29.186698,-26.519125,1597.7            29.186663,-26.519112,1596.8            29.18663,-26.5191,1596.3            29.186593,-26.519088,1595.8            29.186558,-26.519077,1595.4            29.186523,-26.519063,1594.9            29.186488,-26.51905,1594.5            29.186452,-26.519037,1593.9            29.186413,-26.519023,1593.6            29.186375,-26.519012,1593.4            29.186337,-26.519,1593.2            29.1863,-26.518987,1593.2            29.186265,-26.518973,1593.1            29.18623,-26.518962,1593            29.186202,-26.518952,1593            29.186178,-26.518937,1593            29.186157,-26.518922,1593.2            29.18613,-26.518907,1593.2            29.1861,-26.518893,1593.2            29.18607,-26.518878,1593.6            29.186035,-26.518865,1593.9            29.186,-26.51885,1594.4            29.185967,-26.518837,1594.9            29.185932,-26.518823,1595.4            29.1859,-26.51881,1596.3            29.185867,-26.518797,1596.7            29.185833,-26.518782,1596.7            29.185802,-26.518765,1597.1            29.185765,-26.518748,1597.4            29.185728,-26.518733,1597.6            29.185693,-26.518722,1597.9            29.185657,-26.518715,1597.9            29.185618,-26.518708,1598.1            29.185583,-26.518702,1598.2            29.185547,-26.518697,1598.2            29.185512,-26.51869,1598.2            29.185475,-26.518683,1598.1            29.185435,-26.518677,1598.1            29.1854,-26.51867,1598.1            29.185362,-26.518662,1598.2            29.185323,-26.518653,1598.2            29.185287,-26.518642,1598.3            29.18525,-26.518632,1598.2            29.185213,-26.51862,1598.2            29.185177,-26.518608,1598.2            29.185138,-26.518593,1598.2            29.1851,-26.518578,1598.3            29.185062,-26.518565,1598.3            29.185023,-26.518553,1598.2            29.184987,-26.518547,1598.2            29.184947,-26.518537,1598.3            29.18491,-26.518528,1598.3            29.184875,-26.518518,1598.5            29.184838,-26.518507,1598.5            29.184803,-26.518493,1598.5            29.184768,-26.518477,1598.6            29.184732,-26.51846,1598.3            29.1847,-26.518443,1598.3            29.184667,-26.518427,1597.9            29.18463,-26.518408,1597.9            29.184595,-26.518388,1597.3            29.184562,-26.518367,1597.3            29.18453,-26.518345,1596.9            29.1845,-26.518323,1596.9            29.18447,-26.518302,1596.9            29.184438,-26.518282,1597.2            29.18441,-26.518262,1597            29.184378,-26.518243,1597.2            29.184347,-26.518223,1597            29.184317,-26.518207,1596.9            29.184288,-26.518193,1596.6            29.184262,-26.518177,1596.6            29.184235,-26.518165,1596.6          </coordinates></LineString></Placemark><Placemark><name>Finish</name><styleUrl>#icon-1899-FF5252-nodesc</styleUrl><Point><coordinates>            29.184235,-26.518165,1596.6          </coordinates></Point></Placemark><Placemark><name>Start</name><styleUrl>#icon-1899-0F9D58-nodesc</styleUrl><Point><coordinates>            29.184152,-26.51839,1598.5          </coordinates></Point></Placemark></Folder></Document></kml>