<?xml version="1.0" encoding="UTF-8"?><kml xmlns="http://www.opengis.net/kml/2.2"><Document><name>Senekal parkrun</name><description/><Style id="icon-1899-FFEA00-nodesc-normal"><IconStyle><color>ff00eaff</color><scale>1</scale><Icon><href>https://www.gstatic.com/mapspro/images/stock/503-wht-blank_maps.png</href></Icon><hotSpot x="32" xunits="pixels" y="64" yunits="insetPixels"/></IconStyle><LabelStyle><scale>0</scale></LabelStyle><BalloonStyle><text><![CDATA[<h3>$[name]</h3>]]></text></BalloonStyle></Style><Style id="icon-1899-FFEA00-nodesc-highlight"><IconStyle><color>ff00eaff</color><scale>1</scale><Icon><href>https://www.gstatic.com/mapspro/images/stock/503-wht-blank_maps.png</href></Icon><hotSpot x="32" xunits="pixels" y="64" yunits="insetPixels"/></IconStyle><LabelStyle><scale>1</scale></LabelStyle><BalloonStyle><text><![CDATA[<h3>$[name]</h3>]]></text></BalloonStyle></Style><StyleMap id="icon-1899-FFEA00-nodesc"><Pair><key>normal</key><styleUrl>#icon-1899-FFEA00-nodesc-normal</styleUrl></Pair><Pair><key>highlight</key><styleUrl>#icon-1899-FFEA00-nodesc-highlight</styleUrl></Pair></StyleMap><Style id="line-0288D1-5069-nodesc-normal"><LineStyle><color>ffd18802</color><width>5.069</width></LineStyle><BalloonStyle><text><![CDATA[<h3>$[name]</h3>]]></text></BalloonStyle></Style><Style id="line-0288D1-5069-nodesc-highlight"><LineStyle><color>ffd18802</color><width>7.6035</width></LineStyle><BalloonStyle><text><![CDATA[<h3>$[name]</h3>]]></text></BalloonStyle></Style><StyleMap id="line-0288D1-5069-nodesc"><Pair><key>normal</key><styleUrl>#line-0288D1-5069-nodesc-normal</styleUrl></Pair><Pair><key>highlight</key><styleUrl>#line-0288D1-5069-nodesc-highlight</styleUrl></Pair></StyleMap><Folder><name>Untitled layer</name><Placemark><name>Course</name><styleUrl>#line-0288D1-5069-nodesc</styleUrl><LineString><tessellate>1</tessellate><coordinates>            27.617926,-28.318526,0            27.61744,-28.318363,0            27.616952,-28.318596,0            27.616778,-28.318598,0            27.616491,-28.318479,0            27.616032,-28.318385,0            27.615293,-28.318046,0            27.614697,-28.317972,0            27.61277,-28.317071,0            27.611628,-28.317081,0            27.611059,-28.316811,0            27.609988,-28.316352,0            27.608853,-28.316063,0            27.607535,-28.315796,0            27.607106,-28.315881,0            27.606532,-28.316443,0            27.605646,-28.316429,0            27.603372,-28.318412,0            27.603318,-28.318696,0            27.603785,-28.318984,0            27.603981,-28.318599,0            27.604241,-28.318252,0            27.604499,-28.318016,0            27.605706,-28.317473,0            27.606156,-28.317296,0            27.606156,-28.317203,0            27.606199,-28.316934,0            27.607208,-28.316568,0            27.607953,-28.316198,0            27.608216,-28.316193,0            27.608436,-28.316429,0            27.608624,-28.31667,0            27.60662,-28.317513,0            27.604509,-28.318205,0            27.604772,-28.31863,0            27.608752,-28.31717,0            27.609246,-28.317024,0            27.610067,-28.317137,0            27.610716,-28.317298,0            27.611853,-28.317666,0            27.613033,-28.317756,0            27.614138,-28.317914,0            27.614384,-28.318009,0            27.615241,-28.318072,0            27.615646,-28.318337,0            27.615534,-28.318478,0            27.615434,-28.318596,0            27.615127,-28.318573,0            27.614423,-28.318186,0            27.612127,-28.318068,0            27.612135,-28.318273,0            27.612148,-28.31888,0            27.612218,-28.319017,0            27.614042,-28.318804,0            27.61438,-28.318904,0            27.614965,-28.319253,0            27.615163,-28.319305,0            27.615656,-28.319295,0            27.616397,-28.318771,0            27.617003,-28.318606,0            27.61742,-28.318403,0            27.617908,-28.318599,0          </coordinates></LineString></Placemark><Placemark><name>Start/Finish</name><styleUrl>#icon-1899-FFEA00-nodesc</styleUrl><Point><coordinates>            27.617926,-28.318526,0          </coordinates></Point></Placemark></Folder></Document></kml>