<?xml version="1.0" encoding="UTF-8"?><kml xmlns="http://www.opengis.net/kml/2.2"><Document><name>Shongweni parkrun (from October 2024)</name><description/><Style id="icon-1899-0F9D58-nodesc-normal"><IconStyle><color>ff589d0f</color><scale>1</scale><Icon><href>https://www.gstatic.com/mapspro/images/stock/503-wht-blank_maps.png</href></Icon><hotSpot x="32" xunits="pixels" y="64" yunits="insetPixels"/></IconStyle><LabelStyle><scale>0</scale></LabelStyle><BalloonStyle><text><![CDATA[<h3>$[name]</h3>]]></text></BalloonStyle></Style><Style id="icon-1899-0F9D58-nodesc-highlight"><IconStyle><color>ff589d0f</color><scale>1</scale><Icon><href>https://www.gstatic.com/mapspro/images/stock/503-wht-blank_maps.png</href></Icon><hotSpot x="32" xunits="pixels" y="64" yunits="insetPixels"/></IconStyle><LabelStyle><scale>1</scale></LabelStyle><BalloonStyle><text><![CDATA[<h3>$[name]</h3>]]></text></BalloonStyle></Style><StyleMap id="icon-1899-0F9D58-nodesc"><Pair><key>normal</key><styleUrl>#icon-1899-0F9D58-nodesc-normal</styleUrl></Pair><Pair><key>highlight</key><styleUrl>#icon-1899-0F9D58-nodesc-highlight</styleUrl></Pair></StyleMap><Style id="icon-1899-FF5252-nodesc-normal"><IconStyle><color>ff5252ff</color><scale>1</scale><Icon><href>https://www.gstatic.com/mapspro/images/stock/503-wht-blank_maps.png</href></Icon><hotSpot x="32" xunits="pixels" y="64" yunits="insetPixels"/></IconStyle><LabelStyle><scale>0</scale></LabelStyle><BalloonStyle><text><![CDATA[<h3>$[name]</h3>]]></text></BalloonStyle></Style><Style id="icon-1899-FF5252-nodesc-highlight"><IconStyle><color>ff5252ff</color><scale>1</scale><Icon><href>https://www.gstatic.com/mapspro/images/stock/503-wht-blank_maps.png</href></Icon><hotSpot x="32" xunits="pixels" y="64" yunits="insetPixels"/></IconStyle><LabelStyle><scale>1</scale></LabelStyle><BalloonStyle><text><![CDATA[<h3>$[name]</h3>]]></text></BalloonStyle></Style><StyleMap id="icon-1899-FF5252-nodesc"><Pair><key>normal</key><styleUrl>#icon-1899-FF5252-nodesc-normal</styleUrl></Pair><Pair><key>highlight</key><styleUrl>#icon-1899-FF5252-nodesc-highlight</styleUrl></Pair></StyleMap><Style id="line-0288D1-5000-nodesc-normal"><LineStyle><color>ffd18802</color><width>5</width></LineStyle><BalloonStyle><text><![CDATA[<h3>$[name]</h3>]]></text></BalloonStyle></Style><Style id="line-0288D1-5000-nodesc-highlight"><LineStyle><color>ffd18802</color><width>7.5</width></LineStyle><BalloonStyle><text><![CDATA[<h3>$[name]</h3>]]></text></BalloonStyle></Style><StyleMap id="line-0288D1-5000-nodesc"><Pair><key>normal</key><styleUrl>#line-0288D1-5000-nodesc-normal</styleUrl></Pair><Pair><key>highlight</key><styleUrl>#line-0288D1-5000-nodesc-highlight</styleUrl></Pair></StyleMap><Folder><name>Untitled layer</name><Placemark><name>Course</name><styleUrl>#line-0288D1-5000-nodesc</styleUrl><LineString><tessellate>1</tessellate><coordinates>            30.741334,-29.797098,628            30.741366,-29.797019,627.8            30.741436,-29.796895,627.5            30.741477,-29.796827,627.2            30.741528,-29.796749,626.9            30.741583,-29.796682,626.5            30.741643,-29.796628,626.3            30.741745,-29.796561,626            30.741815,-29.796532,626.3            30.741847,-29.796529,626.4            30.741875,-29.796539,626.5            30.741899,-29.796559,626.6            30.741917,-29.796586,626.7            30.741937,-29.79665,627            30.741957,-29.79671,627.2            30.741979,-29.796771,627.4            30.742003,-29.796835,627.6            30.742009,-29.796951,627.9            30.741992,-29.796978,627.9            30.741904,-29.797034,628            30.741719,-29.797151,627.9            30.741679,-29.79717,627.9            30.741548,-29.797284,627.7            30.741399,-29.797454,627.4            30.741219,-29.797573,627.2            30.741054,-29.797685,627.1            30.741002,-29.797723,627            30.740954,-29.797753,627            30.740909,-29.797729,627            30.740899,-29.797701,626.9            30.740909,-29.797637,626.9            30.740989,-29.797441,626.8            30.741005,-29.797408,626.8            30.741146,-29.797251,626.9            30.741176,-29.797221,627            30.741331,-29.797071,627.1            30.741402,-29.796967,627.3            30.741506,-29.796804,627.5            30.741542,-29.796747,627.6            30.741702,-29.796605,627.8            30.741727,-29.796582,627.9            30.741877,-29.796526,628            30.74192,-29.796567,628            30.741943,-29.796625,628            30.742014,-29.796797,627.6            30.74204,-29.796848,627.4            30.742099,-29.796922,627            30.742075,-29.796856,626.7            30.742017,-29.796672,626            30.741988,-29.796599,625.7            30.741923,-29.796411,625            30.74189,-29.796291,624.7            30.741837,-29.796091,624            30.741803,-29.796055,623.8            30.741647,-29.795898,622.7            30.741634,-29.795843,622.5            30.741659,-29.795675,622.1            30.741654,-29.795601,622.1            30.741541,-29.795502,622            30.741382,-29.795375,621.9            30.741338,-29.795335,621.8            30.741196,-29.795177,621.4            30.741118,-29.79512,621            30.74096,-29.794991,620.3            30.740904,-29.794945,620.3            30.740762,-29.794792,620.7            30.740625,-29.794691,621.3            30.740474,-29.794582,622.2            30.74031,-29.794527,622.4            30.740233,-29.794435,622.3            30.740148,-29.794343,622.4            30.740119,-29.794331,622.4            30.739929,-29.794244,622.5            30.739809,-29.794189,622.5            30.739641,-29.794093,622.7            30.739445,-29.794001,623.2            30.739415,-29.793997,623.3            30.739213,-29.794054,623.8            30.739053,-29.794204,624.6            30.738951,-29.794328,625.1            30.738871,-29.794443,625.7            30.738731,-29.794603,626.8            30.738655,-29.794689,627.4            30.738517,-29.794857,628.4            30.738498,-29.794878,628.5            30.738388,-29.795061,629.3            30.738378,-29.795243,629.4            30.738385,-29.795274,629.3            30.73844,-29.79545,628.9            30.738449,-29.795482,628.8            30.738509,-29.795682,628.5            30.738526,-29.795752,628.4            30.738537,-29.795952,628.4            30.738451,-29.79613,628.7            30.738332,-29.796285,629.2            30.738297,-29.796344,629.5            30.738226,-29.796528,629.9            30.738164,-29.796663,629.4            30.738083,-29.796837,628.7            30.738031,-29.796924,628.6            30.737942,-29.797087,628.8            30.737947,-29.797115,627.7            30.737961,-29.797316,625.1            30.737962,-29.797343,624.7            30.737965,-29.797531,623.3            30.737959,-29.797587,622.8            30.737949,-29.797708,621.8            30.737947,-29.797774,621.1            30.737973,-29.797825,620.6            30.738061,-29.798011,617.5            30.738086,-29.79807,615.6            30.738082,-29.798225,613.1            30.738142,-29.798401,611.5            30.738245,-29.798545,609.8            30.738309,-29.798728,611.3            30.738322,-29.798751,611.1            30.738408,-29.798909,610            30.738466,-29.799085,607            30.738524,-29.799215,605.8            30.738556,-29.799411,606.1            30.738568,-29.799555,606.9            30.73862,-29.799762,606.7            30.73863,-29.799794,606.5            30.73867,-29.799975,608            30.73868,-29.800023,609.3            30.738764,-29.800163,611.8            30.738826,-29.80025,613            30.738854,-29.800242,612.9            30.738954,-29.800155,613.9            30.73911,-29.80003,615.4            30.739173,-29.79998,616            30.739344,-29.79985,617.7            30.73943,-29.79978,618.6            30.739596,-29.799652,620.4            30.739619,-29.799638,620.7            30.739642,-29.799602,621            30.739626,-29.799564,621            30.739505,-29.799455,619.5            30.739394,-29.799302,617.6            30.739377,-29.799276,617.3            30.739315,-29.799082,615.3            30.73926,-29.798905,613.5            30.739256,-29.798841,613.2            30.739287,-29.798636,612.6            30.739266,-29.798448,612.3            30.739253,-29.798417,612.3            30.739145,-29.79824,611.4            30.739099,-29.798186,611.3            30.738997,-29.798089,610.7            30.738864,-29.797983,609.6            30.738699,-29.797856,611.1            30.73858,-29.797786,613.9            30.73849,-29.797667,615.9            30.738515,-29.797617,615.7            30.738546,-29.797603,615.4            30.738615,-29.797604,615            30.738682,-29.797637,614.1            30.738895,-29.797688,612.1            30.739114,-29.797678,612.3            30.73922,-29.797692,612.6            30.739426,-29.797757,614.1            30.73953,-29.797802,614.6            30.7397,-29.797916,615.3            30.739744,-29.797968,615.6            30.739752,-29.798102,616.4            30.73966,-29.79824,617.2            30.739542,-29.798416,617.5            30.739491,-29.798501,618.4            30.739498,-29.798651,620            30.739638,-29.79869,624            30.739763,-29.798649,626.7            30.739885,-29.798511,625.3            30.740034,-29.798366,622.2            30.740191,-29.79823,620.9            30.740238,-29.798194,621.1            30.740371,-29.798047,622.7            30.740413,-29.798007,623.5            30.740534,-29.797886,625.2            30.740678,-29.79775,624.7            30.740733,-29.797751,625.4            30.740786,-29.797773,627.3            30.74088,-29.797815,629.2            30.740887,-29.797803,629.2            30.740879,-29.797667,627.3            30.74094,-29.797515,626.7            30.741042,-29.797347,627.4            30.741117,-29.797274,626.4            30.741285,-29.79713,625.8            30.741331,-29.797078,625.3            30.741436,-29.796913,625.5            30.741452,-29.796885,625.2            30.741569,-29.79673,624.9            30.741598,-29.79671,625.1            30.741757,-29.796583,624.5            30.741838,-29.796533,625            30.741868,-29.796532,625.3            30.741909,-29.796564,626.2            30.741954,-29.796703,626.3            30.742042,-29.796881,626.4            30.742073,-29.796918,626.4            30.742087,-29.796926,626.4            30.742099,-29.796908,626.4            30.742061,-29.796816,626.5            30.741991,-29.796621,626.6            30.741966,-29.796555,626.2            30.741897,-29.796353,625.3            30.741864,-29.796258,624.9            30.74181,-29.796078,624.3            30.741792,-29.79606,624.2            30.741644,-29.795895,623            30.741635,-29.795745,622.2            30.741665,-29.795616,622.1            30.741559,-29.795515,622            30.741396,-29.795388,621.8            30.741349,-29.795347,621.8            30.741201,-29.795192,621.4            30.741157,-29.795148,621.2            30.740994,-29.795017,620.4            30.74093,-29.794961,620.3            30.740769,-29.794807,620.6            30.740719,-29.794766,620.8            30.740657,-29.794723,621.1            30.740532,-29.794613,621.9            30.740391,-29.79452,622.5            30.740271,-29.794494,622.3            30.740193,-29.794373,622.4            30.740036,-29.7943,622.4            30.739847,-29.794205,622.5            30.739766,-29.794161,622.5            30.73958,-29.79406,622.7            30.739556,-29.794049,622.7            30.739359,-29.793997,623.3            30.739193,-29.79406,623.9            30.739048,-29.79421,624.7            30.739002,-29.794253,624.8            30.738875,-29.794425,625.6            30.738747,-29.794588,626.7            30.738615,-29.794744,627.7            30.73856,-29.794812,628.1            30.738446,-29.794976,629            30.738428,-29.795001,629.1            30.738365,-29.795177,629.4            30.738403,-29.795355,629.2            30.738424,-29.795413,629            30.738485,-29.795594,628.6            30.738512,-29.795695,628.5            30.738544,-29.795884,628.3            30.738525,-29.796008,628.4            30.738406,-29.796188,628.9            30.738293,-29.796366,629.6            30.738278,-29.796394,629.7            30.738253,-29.796485,629.9            30.738186,-29.79662,629.6            30.738097,-29.796794,628.8            30.738052,-29.796886,628.7            30.737941,-29.797028,628.8            30.737938,-29.797054,628.8            30.737957,-29.797139,626.8            30.737959,-29.797321,624.7            30.737968,-29.797376,624.3            30.73795,-29.797563,622.9            30.73795,-29.797587,622.4            30.737936,-29.797772,621.4            30.738022,-29.797944,618.8            30.738032,-29.797966,617.9            30.738086,-29.798078,615.4            30.73808,-29.798229,613            30.738151,-29.798411,611.3            30.738253,-29.798523,609.3            30.738311,-29.798706,610.7            30.738321,-29.798737,611            30.73837,-29.798883,610.9            30.738428,-29.799067,607.6            30.738447,-29.799099,607.1            30.738486,-29.79928,605.9            30.738539,-29.799457,606.4            30.738579,-29.799649,606.7            30.738628,-29.799844,606.8            30.738629,-29.799874,606.9            30.738693,-29.800076,609.8            30.738705,-29.8001,610.2            30.738795,-29.800271,612.5            30.738823,-29.800286,612.7            30.738872,-29.800298,612.8            30.738906,-29.800289,612.8            30.738922,-29.800272,613            30.73901,-29.800199,613.8            30.739156,-29.800049,615.4            30.739175,-29.80003,615.6            30.739326,-29.7999,617.2            30.739363,-29.799865,617.7            30.739399,-29.799834,618.1            30.739532,-29.799731,619.5            30.739659,-29.799596,621.2            30.739581,-29.799515,620.1            30.739442,-29.79938,618.2            30.739376,-29.799277,617            30.739312,-29.799092,615.1            30.73929,-29.799036,614.5            30.73929,-29.799012,614.2            30.739285,-29.798958,613.8            30.739289,-29.798751,612.8            30.739298,-29.798689,612.6            30.73929,-29.7985,612.3            30.739283,-29.79847,612.3            30.739183,-29.798304,611.5            30.739163,-29.798277,611.5            30.73903,-29.798119,610.8            30.738973,-29.79807,610            30.73882,-29.797939,609.7            30.738754,-29.797891,610.5            30.738564,-29.797773,613.8            30.738514,-29.797722,614.8            30.738487,-29.797639,616.1            30.73851,-29.797612,615.7            30.738612,-29.797603,614.9            30.738647,-29.797614,614.6            30.738836,-29.79769,612            30.739013,-29.797663,612.3            30.739178,-29.797698,612.3            30.739371,-29.797773,613.7            30.739411,-29.797785,614.1            30.739609,-29.797883,614.8            30.739638,-29.797901,615.2            30.739747,-29.798013,615.9            30.739736,-29.798127,616.2            30.739618,-29.798277,617.6            30.739598,-29.798305,617.1            30.739497,-29.798477,617.7            30.73947,-29.798538,617.7            30.739467,-29.798642,618.4            30.739488,-29.798655,618.7            30.739563,-29.798678,621.3            30.739722,-29.798693,626            30.739745,-29.798682,625.5            30.739827,-29.798604,626.5            30.739851,-29.798556,626.2            30.73997,-29.798434,623.8            30.740097,-29.798313,622            30.740257,-29.798173,621.3            30.740299,-29.798135,621.7            30.740372,-29.798046,622.9            30.740416,-29.798009,623.7            30.74053,-29.797894,625.4            30.740655,-29.797758,625.6            30.740756,-29.797759,626.8            30.740893,-29.79781,629.3            30.740894,-29.797791,629.3            30.740891,-29.79765,627.4            30.740974,-29.797456,627.4            30.741092,-29.797307,627.4            30.741143,-29.79726,626.1            30.741302,-29.797137,626.5            30.741324,-29.797115,626            30.741424,-29.796957,625.9            30.741439,-29.796929,625.6            30.741564,-29.796749,625.5            30.74172,-29.796616,624.4            30.74177,-29.796579,625            30.74186,-29.796537,625.3            30.741909,-29.796563,626.2            30.741965,-29.7967,627            30.742013,-29.796897,627.9            30.742015,-29.796959,628            30.741925,-29.797026,628            30.741731,-29.797131,627.7            30.741663,-29.797176,627.5            30.74151,-29.797298,627.2            30.741489,-29.797323,627.2            30.741446,-29.797374,627.1            30.741284,-29.79753,626.9            30.741255,-29.79755,626.8            30.741124,-29.797618,626.8          </coordinates></LineString></Placemark><Placemark><name>Finish</name><styleUrl>#icon-1899-FF5252-nodesc</styleUrl><Point><coordinates>            30.741124,-29.797618,626.8          </coordinates></Point></Placemark><Placemark><name>Start</name><styleUrl>#icon-1899-0F9D58-nodesc</styleUrl><Point><coordinates>            30.741334,-29.797098,628          </coordinates></Point></Placemark></Folder></Document></kml>