<?xml version="1.0" encoding="UTF-8"?><kml xmlns="http://www.opengis.net/kml/2.2"><Document><name><![CDATA[St George's parkrun]]></name><description/><Style id="icon-1899-FFEA00-nodesc-normal"><IconStyle><color>ff00eaff</color><scale>1</scale><Icon><href>https://www.gstatic.com/mapspro/images/stock/503-wht-blank_maps.png</href></Icon><hotSpot x="32" xunits="pixels" y="64" yunits="insetPixels"/></IconStyle><LabelStyle><scale>0</scale></LabelStyle><BalloonStyle><text><![CDATA[<h3>$[name]</h3>]]></text></BalloonStyle></Style><Style id="icon-1899-FFEA00-nodesc-highlight"><IconStyle><color>ff00eaff</color><scale>1</scale><Icon><href>https://www.gstatic.com/mapspro/images/stock/503-wht-blank_maps.png</href></Icon><hotSpot x="32" xunits="pixels" y="64" yunits="insetPixels"/></IconStyle><LabelStyle><scale>1</scale></LabelStyle><BalloonStyle><text><![CDATA[<h3>$[name]</h3>]]></text></BalloonStyle></Style><StyleMap id="icon-1899-FFEA00-nodesc"><Pair><key>normal</key><styleUrl>#icon-1899-FFEA00-nodesc-normal</styleUrl></Pair><Pair><key>highlight</key><styleUrl>#icon-1899-FFEA00-nodesc-highlight</styleUrl></Pair></StyleMap><Style id="line-0288D1-5000-nodesc-normal"><LineStyle><color>ffd18802</color><width>5</width></LineStyle><BalloonStyle><text><![CDATA[<h3>$[name]</h3>]]></text></BalloonStyle></Style><Style id="line-0288D1-5000-nodesc-highlight"><LineStyle><color>ffd18802</color><width>7.5</width></LineStyle><BalloonStyle><text><![CDATA[<h3>$[name]</h3>]]></text></BalloonStyle></Style><StyleMap id="line-0288D1-5000-nodesc"><Pair><key>normal</key><styleUrl>#line-0288D1-5000-nodesc-normal</styleUrl></Pair><Pair><key>highlight</key><styleUrl>#line-0288D1-5000-nodesc-highlight</styleUrl></Pair></StyleMap><Folder><name>Untitled layer</name><Placemark><name>Course</name><styleUrl>#line-0288D1-5000-nodesc</styleUrl><LineString><tessellate>1</tessellate><coordinates>            25.60424,-33.96691,0            25.60478,-33.96638,0            25.60532,-33.96585,0            25.60586,-33.96532,0            25.60652,-33.96468,0            25.60665,-33.96457,0            25.60596,-33.96419,0            25.60532,-33.96398,0            25.60497,-33.96384,0            25.60502,-33.96376,0            25.60513,-33.96373,0            25.60535,-33.96377,0            25.60548,-33.96377,0            25.6056,-33.96375,0            25.60582,-33.96365,0            25.60605,-33.96358,0            25.60628,-33.96355,0            25.60639,-33.96355,0            25.6065,-33.9636,0            25.60669,-33.96386,0            25.60673,-33.96396,0            25.60668,-33.96417,0            25.60669,-33.96428,0            25.60685,-33.96441,0            25.60743,-33.96392,0            25.60764,-33.9638,0            25.60761,-33.96386,0            25.60779,-33.96432,0            25.60783,-33.96515,0            25.60792,-33.96522,0            25.60794,-33.96524,0            25.60789,-33.96543,0            25.60789,-33.96544,0            25.60879,-33.96553,0            25.60969,-33.96562,0            25.61008,-33.96552,0            25.61034,-33.96551,0            25.61105,-33.96536,0            25.61034,-33.96551,0            25.61008,-33.96552,0            25.60969,-33.96562,0            25.60915,-33.96556,0            25.60913,-33.96562,0            25.6089,-33.96568,0            25.60828,-33.96564,0            25.60823,-33.96569,0            25.60772,-33.96604,0            25.6076,-33.9665,0            25.60741,-33.96669,0            25.60734,-33.9667,0            25.60732,-33.96674,0            25.60732,-33.96676,0            25.60732,-33.96677,0            25.60723,-33.96678,0            25.60679,-33.96694,0            25.60649,-33.96676,0            25.60616,-33.96703,0            25.60565,-33.96753,0            25.60494,-33.96702,0            25.60539,-33.96665,0            25.60547,-33.96669,0            25.60558,-33.96663,0            25.60561,-33.96654,0            25.60556,-33.96646,0            25.60582,-33.96621,0            25.60614,-33.96593,0            25.60695,-33.96546,0            25.60723,-33.96478,0            25.60691,-33.96457,0            25.60665,-33.96457,0            25.60596,-33.96419,0            25.60532,-33.96398,0            25.6049,-33.96381,0            25.60496,-33.96371,0            25.60508,-33.96369,0            25.60531,-33.96373,0            25.60543,-33.96373,0            25.60602,-33.96356,0            25.60626,-33.96352,0            25.60638,-33.96353,0            25.60647,-33.96358,0            25.60666,-33.96383,0            25.6067,-33.96394,0            25.60667,-33.96415,0            25.60668,-33.96436,0            25.60679,-33.96445,0            25.60743,-33.96392,0            25.60764,-33.9638,0            25.60761,-33.96386,0            25.60779,-33.96432,0            25.60783,-33.96515,0            25.60792,-33.96522,0            25.60794,-33.96524,0            25.60789,-33.96543,0            25.60789,-33.96544,0            25.60879,-33.96553,0            25.60969,-33.96562,0            25.61008,-33.96552,0            25.61034,-33.96551,0            25.61107,-33.96536,0            25.61034,-33.96551,0            25.61008,-33.96552,0            25.60969,-33.96562,0            25.60915,-33.96556,0            25.60913,-33.96562,0            25.6089,-33.96568,0            25.60828,-33.96564,0            25.60823,-33.96569,0            25.60772,-33.96604,0            25.6076,-33.9665,0            25.60741,-33.96669,0            25.60734,-33.9667,0            25.60732,-33.96674,0            25.60732,-33.96676,0            25.60732,-33.96677,0            25.60723,-33.96678,0            25.60679,-33.96694,0            25.60649,-33.96676,0            25.60616,-33.96703,0            25.60565,-33.96753,0            25.60494,-33.96702,0            25.60539,-33.96665,0            25.60534,-33.96663,0            25.60532,-33.96656,0            25.60535,-33.96649,0            25.60545,-33.96645,0            25.60556,-33.96646,0            25.60582,-33.96621,0            25.60614,-33.96593,0            25.60695,-33.96546,0            25.60723,-33.96478,0            25.60691,-33.96457,0            25.60666,-33.96457,0            25.60665,-33.96457,0            25.60652,-33.96468,0            25.60586,-33.96532,0            25.605327,-33.965843,0            25.604793,-33.966367,0            25.60426,-33.96689,0          </coordinates></LineString></Placemark><Placemark><name>Start/Finish</name><styleUrl>#icon-1899-FFEA00-nodesc</styleUrl><Point><coordinates>            25.60424,-33.96691,79.94          </coordinates></Point></Placemark></Folder></Document></kml>