<?xml version="1.0" encoding="UTF-8"?><kml xmlns="http://www.opengis.net/kml/2.2"><Document><name>Sunrise-on-sea parkrun</name><description/><Style id="icon-1899-FFEA00-nodesc-normal"><IconStyle><color>ff00eaff</color><scale>1</scale><Icon><href>https://www.gstatic.com/mapspro/images/stock/503-wht-blank_maps.png</href></Icon><hotSpot x="32" xunits="pixels" y="64" yunits="insetPixels"/></IconStyle><LabelStyle><scale>0</scale></LabelStyle><BalloonStyle><text><![CDATA[<h3>$[name]</h3>]]></text></BalloonStyle></Style><Style id="icon-1899-FFEA00-nodesc-highlight"><IconStyle><color>ff00eaff</color><scale>1</scale><Icon><href>https://www.gstatic.com/mapspro/images/stock/503-wht-blank_maps.png</href></Icon><hotSpot x="32" xunits="pixels" y="64" yunits="insetPixels"/></IconStyle><LabelStyle><scale>1</scale></LabelStyle><BalloonStyle><text><![CDATA[<h3>$[name]</h3>]]></text></BalloonStyle></Style><StyleMap id="icon-1899-FFEA00-nodesc"><Pair><key>normal</key><styleUrl>#icon-1899-FFEA00-nodesc-normal</styleUrl></Pair><Pair><key>highlight</key><styleUrl>#icon-1899-FFEA00-nodesc-highlight</styleUrl></Pair></StyleMap><Style id="line-4186F0-5456-nodesc-normal"><LineStyle><color>fff08641</color><width>5.456</width></LineStyle><BalloonStyle><text><![CDATA[<h3>$[name]</h3>]]></text></BalloonStyle></Style><Style id="line-4186F0-5456-nodesc-highlight"><LineStyle><color>fff08641</color><width>8.184</width></LineStyle><BalloonStyle><text><![CDATA[<h3>$[name]</h3>]]></text></BalloonStyle></Style><StyleMap id="line-4186F0-5456-nodesc"><Pair><key>normal</key><styleUrl>#line-4186F0-5456-nodesc-normal</styleUrl></Pair><Pair><key>highlight</key><styleUrl>#line-4186F0-5456-nodesc-highlight</styleUrl></Pair></StyleMap><Folder><name>Untitled layer</name><Placemark><name>Course</name><styleUrl>#line-4186F0-5456-nodesc</styleUrl><LineString><tessellate>1</tessellate><coordinates>            28.039436,-32.914801,69.67            28.040107,-32.915063,68.68            28.040289,-32.91514,68.02            28.040364,-32.915215,67.67            28.040382,-32.915294,67.4            28.040411,-32.915343,67.24            28.041062,-32.915572,65.9            28.041663,-32.915747,65.59            28.041712,-32.91577,65.59            28.041756,-32.9158,65.59            28.041769,-32.915836,65.57            28.041488,-32.916493,64.69            28.041362,-32.916782,63.61            28.04134,-32.916848,63.29            28.04133,-32.916913,62.98            28.041342,-32.916989,62.57            28.041382,-32.917065,62.28            28.041476,-32.917157,61.89            28.041607,-32.917264,61.24            28.041754,-32.91739,60.38            28.041928,-32.917552,59.18            28.042021,-32.917657,58.35            28.042283,-32.917941,55.65            28.042531,-32.918226,52.74            28.042757,-32.91848,50.66            28.042876,-32.91861,49.68            28.043228,-32.918968,46.98            28.04355,-32.919281,44.41            28.044142,-32.919867,41.17            28.044312,-32.920043,40.07            28.044479,-32.920203,39.14            28.044591,-32.92031,38.63            28.044673,-32.920401,38.15            28.044776,-32.920493,37.78            28.044867,-32.920572,37.31            28.044959,-32.920635,36.62            28.044991,-32.920674,36.32            28.044999,-32.920719,36.02            28.04498,-32.920806,35.51            28.044967,-32.920872,35.06            28.044961,-32.92093,34.74            28.044989,-32.920984,34.34            28.045142,-32.921139,33.06            28.045685,-32.921746,27.7            28.046244,-32.922381,23.25            28.04631,-32.922444,22.9            28.046389,-32.922487,22.56            28.046476,-32.9225,22.5            28.046552,-32.922494,22.56            28.046628,-32.92251,22.5            28.046705,-32.922551,22.28            28.046792,-32.922618,21.69            28.046946,-32.922811,19.23            28.047013,-32.922879,18.4            28.047096,-32.922959,17.49            28.047267,-32.923175,15.86            28.047613,-32.923622,15.76            28.047643,-32.923719,15.99            28.047639,-32.923788,16.14            28.047589,-32.923827,16.26            28.047297,-32.923992,16.54            28.046995,-32.924154,16.04            28.046843,-32.924271,15.81            28.046743,-32.924372,16.13            28.046599,-32.924442,16.93            28.046401,-32.924544,17.92            28.046251,-32.924598,18.88            28.046117,-32.924613,19.52            28.046054,-32.924599,19.68            28.045951,-32.924604,19.86            28.045697,-32.924676,20.19            28.045601,-32.924696,20.39            28.045507,-32.924723,20.53            28.045246,-32.92485,21.03            28.044898,-32.925012,21.75            28.044709,-32.925133,22.16            28.044501,-32.925267,22.68            28.044167,-32.925561,23.24            28.044065,-32.925664,23.54            28.043973,-32.925758,23.92            28.04384,-32.925802,24.38            28.043608,-32.925817,24.73            28.043336,-32.925814,25.36            28.043164,-32.925791,26.52            28.043008,-32.925739,27.78            28.042814,-32.925547,28.85            28.042477,-32.925131,31.44            28.042419,-32.925081,32.12            28.042361,-32.925052,32.76            28.042292,-32.925044,33.48            28.04218,-32.925021,34.36            28.042119,-32.925,34.95            28.042014,-32.924898,36.27            28.041821,-32.924635,38.88            28.041709,-32.924451,39.74            28.041579,-32.924269,40.52            28.041354,-32.924002,42.18            28.041236,-32.923879,42.79            28.041144,-32.923772,42.87            28.041097,-32.923737,43.02            28.041056,-32.923735,43.23            28.041,-32.923743,43.49            28.040873,-32.923787,44.16            28.040764,-32.923817,44.73            28.040675,-32.923842,45.22            28.040586,-32.923892,45.73            28.040405,-32.924016,46.59            28.040267,-32.924122,47.21            28.040065,-32.924235,48.24            28.039823,-32.924364,49.22            28.039592,-32.924476,50.05            28.039437,-32.924561,50.48            28.039055,-32.924794,51.3            28.038753,-32.924964,52.25            28.038511,-32.925103,52.56            28.038157,-32.925325,51.72            28.038116,-32.925344,51.49            28.038069,-32.92534,51.26            28.038017,-32.925312,51.06            28.037871,-32.925142,50.41            28.037821,-32.925058,50.23            28.037766,-32.925012,49.9            28.037665,-32.924931,48.96            28.037503,-32.924711,48.06            28.037366,-32.924518,47.85            28.037243,-32.924354,47.47            28.037182,-32.924268,47.37            28.037156,-32.924198,47.45            28.037123,-32.923918,48.23            28.037102,-32.923684,49.18            28.037104,-32.923631,49.47            28.037124,-32.923597,49.73            28.037178,-32.923548,50.19            28.037368,-32.923446,51.29            28.037512,-32.923362,51.92            28.037611,-32.923292,52.36            28.037711,-32.923214,52.72            28.037768,-32.92318,52.93            28.037783,-32.923159,52.99            28.037759,-32.923102,53.11            28.037634,-32.922932,53.25            28.037469,-32.922718,54.04            28.037418,-32.922636,54.34            28.037393,-32.922554,54.61            28.037408,-32.922447,55.06            28.037446,-32.922345,55.23            28.037458,-32.922265,55.36            28.037453,-32.922019,56.36            28.03746,-32.921894,56.59            28.037466,-32.921862,56.54            28.037509,-32.921793,56.33            28.037593,-32.92171,56.11            28.037647,-32.921651,55.86            28.037676,-32.921601,55.79            28.03769,-32.921552,55.65            28.037694,-32.921514,55.64            28.037721,-32.921493,55.55            28.037781,-32.921478,55.32            28.037977,-32.921401,54.45            28.038272,-32.921247,52.97            28.03845,-32.921138,51.43            28.03857,-32.921054,50.23            28.038662,-32.920992,49.12            28.038756,-32.920944,47.91            28.038856,-32.920929,47.32            28.038926,-32.920934,47            28.038981,-32.920956,46.91            28.039245,-32.92118,47.21            28.039392,-32.92132,47.41            28.039521,-32.921469,47.6            28.039836,-32.921879,48.89            28.040319,-32.922495,46.93            28.040601,-32.922824,45.11            28.040779,-32.923061,43.53            28.041038,-32.923373,42.17            28.04111,-32.923459,42.04            28.041168,-32.923503,41.85            28.041242,-32.923512,41.68            28.041341,-32.923475,40.98            28.041749,-32.923296,38.11            28.042063,-32.923168,35.66            28.042167,-32.923135,34.67            28.042293,-32.923077,33.51            28.042456,-32.92301,32.09            28.042575,-32.922963,30.85            28.042691,-32.922944,30.09            28.042854,-32.92293,29.48            28.043033,-32.922929,28.83            28.0432,-32.922943,28.23            28.043347,-32.922987,28.09            28.043419,-32.923013,27.99            28.043513,-32.923011,27.72            28.043586,-32.922973,27.44            28.043678,-32.922846,26.82            28.043772,-32.922649,26.51            28.043872,-32.922352,27.38            28.043966,-32.922108,28.15            28.044017,-32.921986,28.5            28.044034,-32.921936,28.66            28.04403,-32.921838,29.33            28.044001,-32.921753,30.08            28.044002,-32.921666,30.78            28.044049,-32.921599,31.17            28.044147,-32.921551,31.42            28.044295,-32.921477,32.09            28.044463,-32.921369,32.94            28.044664,-32.921211,34.1            28.044813,-32.92106,34.49            28.044917,-32.920946,34.76            28.044943,-32.920869,35.14            28.044953,-32.920798,35.59            28.044974,-32.920714,36.1            28.044968,-32.920677,36.34            28.04493,-32.920639,36.67            28.044847,-32.92058,37.3            28.044748,-32.920504,37.86            28.044636,-32.920384,38.43            28.044377,-32.920127,39.63            28.044173,-32.91992,40.93            28.044038,-32.919782,41.75            28.043485,-32.919242,44.86            28.043193,-32.918952,47.1            28.04281,-32.918566,50.09            28.042509,-32.918236,52.78            28.042217,-32.917894,56.15            28.041965,-32.917617,58.6            28.041872,-32.91752,59.63            28.04171,-32.917369,60.54            28.041568,-32.917256,61.28            28.041432,-32.917144,61.98            28.041355,-32.917063,62.28            28.041311,-32.916975,62.69            28.041311,-32.916899,63.05            28.04133,-32.916806,63.5            28.0415,-32.916405,64.98            28.041631,-32.916093,65.12            28.041738,-32.915848,65.54            28.041735,-32.915813,65.57            28.041678,-32.915773,65.59            28.041585,-32.915741,65.58            28.041064,-32.915595,65.81            28.040399,-32.915355,67.21            28.040351,-32.915287,67.46            28.040339,-32.915223,67.68            28.040268,-32.915168,67.96            28.039194,-32.91475,70.04            28.039142,-32.914746,70.11            28.03911,-32.914783,70.02            28.038985,-32.914966,69.65          </coordinates></LineString></Placemark><Placemark><name>Start/Finish</name><styleUrl>#icon-1899-FFEA00-nodesc</styleUrl><Point><coordinates>            28.0390498,-32.9149946,0          </coordinates></Point></Placemark></Folder></Document></kml>