<?xml version="1.0" encoding="UTF-8"?><kml xmlns="http://www.opengis.net/kml/2.2"><Document><name>Uvongo parkrun (from March 2024)</name><description/><Style id="icon-1899-0F9D58-nodesc-normal"><IconStyle><color>ff589d0f</color><scale>1</scale><Icon><href>https://www.gstatic.com/mapspro/images/stock/503-wht-blank_maps.png</href></Icon><hotSpot x="32" xunits="pixels" y="64" yunits="insetPixels"/></IconStyle><LabelStyle><scale>0</scale></LabelStyle><BalloonStyle><text><![CDATA[<h3>$[name]</h3>]]></text></BalloonStyle></Style><Style id="icon-1899-0F9D58-nodesc-highlight"><IconStyle><color>ff589d0f</color><scale>1</scale><Icon><href>https://www.gstatic.com/mapspro/images/stock/503-wht-blank_maps.png</href></Icon><hotSpot x="32" xunits="pixels" y="64" yunits="insetPixels"/></IconStyle><LabelStyle><scale>1</scale></LabelStyle><BalloonStyle><text><![CDATA[<h3>$[name]</h3>]]></text></BalloonStyle></Style><StyleMap id="icon-1899-0F9D58-nodesc"><Pair><key>normal</key><styleUrl>#icon-1899-0F9D58-nodesc-normal</styleUrl></Pair><Pair><key>highlight</key><styleUrl>#icon-1899-0F9D58-nodesc-highlight</styleUrl></Pair></StyleMap><Style id="icon-1899-FF5252-nodesc-normal"><IconStyle><color>ff5252ff</color><scale>1</scale><Icon><href>https://www.gstatic.com/mapspro/images/stock/503-wht-blank_maps.png</href></Icon><hotSpot x="32" xunits="pixels" y="64" yunits="insetPixels"/></IconStyle><LabelStyle><scale>0</scale></LabelStyle><BalloonStyle><text><![CDATA[<h3>$[name]</h3>]]></text></BalloonStyle></Style><Style id="icon-1899-FF5252-nodesc-highlight"><IconStyle><color>ff5252ff</color><scale>1</scale><Icon><href>https://www.gstatic.com/mapspro/images/stock/503-wht-blank_maps.png</href></Icon><hotSpot x="32" xunits="pixels" y="64" yunits="insetPixels"/></IconStyle><LabelStyle><scale>1</scale></LabelStyle><BalloonStyle><text><![CDATA[<h3>$[name]</h3>]]></text></BalloonStyle></Style><StyleMap id="icon-1899-FF5252-nodesc"><Pair><key>normal</key><styleUrl>#icon-1899-FF5252-nodesc-normal</styleUrl></Pair><Pair><key>highlight</key><styleUrl>#icon-1899-FF5252-nodesc-highlight</styleUrl></Pair></StyleMap><Style id="line-0288D1-3713-nodesc-normal"><LineStyle><color>ffd18802</color><width>3.713</width></LineStyle><BalloonStyle><text><![CDATA[<h3>$[name]</h3>]]></text></BalloonStyle></Style><Style id="line-0288D1-3713-nodesc-highlight"><LineStyle><color>ffd18802</color><width>5.5695</width></LineStyle><BalloonStyle><text><![CDATA[<h3>$[name]</h3>]]></text></BalloonStyle></Style><StyleMap id="line-0288D1-3713-nodesc"><Pair><key>normal</key><styleUrl>#line-0288D1-3713-nodesc-normal</styleUrl></Pair><Pair><key>highlight</key><styleUrl>#line-0288D1-3713-nodesc-highlight</styleUrl></Pair></StyleMap><Folder><name>Tracks</name><Placemark><name>Course</name><styleUrl>#line-0288D1-3713-nodesc</styleUrl><LineString><tessellate>1</tessellate><coordinates>            30.405071,-30.82085,0            30.404942,-30.820804,0            30.404791,-30.820798,0            30.404635,-30.820803,0            30.404471,-30.820833,0            30.404353,-30.82086,0            30.404225,-30.820934,0            30.404139,-30.820989,0            30.403989,-30.821077,0            30.403962,-30.821227,0            30.403964,-30.821337,0            30.403935,-30.821446,0            30.403799,-30.821729,0            30.404041,-30.821815,0            30.40409,-30.821765,0            30.404154,-30.821713,0            30.404215,-30.821679,0            30.404281,-30.821632,0            30.404206,-30.821549,0            30.404147,-30.821473,0            30.40408,-30.821411,0            30.40404,-30.821344,0            30.404026,-30.821261,0            30.404069,-30.821181,0            30.404107,-30.821121,0            30.40419,-30.821061,0            30.404262,-30.820996,0            30.404353,-30.820946,0            30.404447,-30.820913,0            30.404541,-30.820877,0            30.404689,-30.82086,0            30.404799,-30.820844,0            30.405094,-30.820784,0            30.405233,-30.820775,0            30.405367,-30.820784,0            30.405496,-30.820865,0            30.405582,-30.82092,0            30.405694,-30.821038,0            30.405753,-30.821146,0            30.405791,-30.821227,0            30.405796,-30.821319,0            30.405743,-30.82142,0            30.405638,-30.821498,0            30.405584,-30.821561,0            30.405547,-30.821653,0            30.405587,-30.821733,0            30.405557,-30.821843,0            30.405519,-30.821947,0            30.405479,-30.822062,0            30.40549,-30.822145,0            30.405441,-30.822218,0            30.40538,-30.822315,0            30.405334,-30.822405,0            30.405283,-30.822559,0            30.405258,-30.822678,0            30.405229,-30.822788,0            30.405193,-30.822923,0            30.405171,-30.823036,0            30.405161,-30.823128,0            30.405123,-30.823266,0            30.405083,-30.823362,0            30.405029,-30.823457,0            30.404973,-30.823542,0            30.404898,-30.823639,0            30.404873,-30.823727,0            30.40481,-30.823876,0            30.404745,-30.823989,0            30.404679,-30.824099,0            30.404607,-30.824223,0            30.404564,-30.824325,0            30.404532,-30.824428,0            30.404502,-30.824537,0            30.404454,-30.824679,0            30.404432,-30.824936,0            30.404376,-30.82504,0            30.40431,-30.825135,0            30.404238,-30.825213,0            30.404267,-30.825308,0            30.404289,-30.825423,0            30.404306,-30.825526,0            30.404308,-30.825612,0            30.404313,-30.825738,0            30.404297,-30.825881,0            30.404289,-30.826,0            30.40427,-30.82612,0            30.404247,-30.82626,0            30.40421,-30.826382,0            30.404148,-30.82661,0            30.404074,-30.826764,0            30.404031,-30.826828,0            30.404007,-30.826918,0            30.403972,-30.826989,0            30.403967,-30.827079,0            30.403929,-30.827134,0            30.403865,-30.827174,0            30.403862,-30.827229,0            30.40387,-30.827293,0            30.403879,-30.827384,0            30.403876,-30.82746,0            30.403855,-30.827555,0            30.403809,-30.827631,0            30.403783,-30.82771,0            30.403764,-30.827777,0            30.403729,-30.827843,0            30.403676,-30.827896,0            30.403641,-30.827938,0            30.403614,-30.827972,0            30.403552,-30.827986,0            30.403481,-30.828029,0            30.403406,-30.828077,0            30.403355,-30.82813,0            30.403288,-30.828195,0            30.403221,-30.828243,0            30.403162,-30.828296,0            30.4031,-30.828354,0            30.403041,-30.828423,0            30.403017,-30.828483,0            30.403036,-30.828556,0            30.403036,-30.828631,0            30.403026,-30.828684,0            30.402956,-30.828728,0            30.402892,-30.828775,0            30.402833,-30.82883,0            30.402768,-30.828901,0            30.40268,-30.828965,0            30.402562,-30.82899,0            30.402455,-30.829024,0            30.402375,-30.829054,0            30.402293,-30.829096,0            30.402245,-30.829156,0            30.402175,-30.829211,0            30.402102,-30.829264,0            30.402035,-30.829328,0            30.401965,-30.829382,0            30.401882,-30.829428,0            30.40185,-30.829497,0            30.401864,-30.82958,0            30.401847,-30.829671,0            30.401829,-30.829745,0            30.401805,-30.829842,0            30.401767,-30.829902,0            30.401708,-30.829957,0            30.401644,-30.830036,0            30.401555,-30.830116,0            30.401475,-30.830172,0            30.401378,-30.830192,0            30.401295,-30.830183,0            30.40119,-30.830202,0            30.401118,-30.83022,0            30.401056,-30.830264,0            30.40104,-30.830308,0            30.400973,-30.830338,0            30.40093,-30.830377,0            30.400882,-30.830397,0            30.400785,-30.830391,0            30.400681,-30.830417,0            30.400587,-30.830454,0            30.400503,-30.830477,0            30.400383,-30.830477,0            30.400337,-30.83048,0            30.400294,-30.830519,0            30.400199,-30.830594,0            30.40011,-30.830672,0            30.400006,-30.83075,0            30.399939,-30.830794,0            30.399901,-30.830833,0            30.399877,-30.830912,0            30.399841,-30.830992,0            30.399782,-30.831066,0            30.399744,-30.831135,0            30.399787,-30.831181,0            30.399763,-30.831259,0            30.399728,-30.831342,0            30.399675,-30.831423,0            30.399629,-30.831506,0            30.399567,-30.831582,0            30.399518,-30.831644,0            30.39946,-30.831713,0            30.399441,-30.831777,0            30.39943,-30.831844,0            30.39947,-30.831897,0            30.399473,-30.831978,0            30.399409,-30.832042,0            30.399336,-30.832111,0            30.399299,-30.832162,0            30.399258,-30.832217,0            30.399216,-30.832286,0            30.399162,-30.832341,0            30.399105,-30.832423,0            30.399067,-30.832499,0            30.398957,-30.832566,0            30.398866,-30.832623,0            30.398788,-30.832688,0            30.39866,-30.832762,0            30.39856,-30.832831,0            30.398458,-30.832902,0            30.398357,-30.83298,0            30.398287,-30.833023,0            30.398193,-30.833076,0            30.398104,-30.833124,0            30.397974,-30.833193,0            30.397845,-30.83326,0            30.397722,-30.833341,0            30.397617,-30.833396,0            30.397529,-30.833449,0            30.397405,-30.833513,0            30.397279,-30.833584,0            30.397142,-30.833669,0            30.397016,-30.83374,0            30.396917,-30.8338,0            30.396793,-30.833865,0            30.396691,-30.833927,0            30.396597,-30.833985,0            30.396516,-30.834029,0            30.396446,-30.834091,0            30.396393,-30.834178,0            30.396355,-30.834261,0            30.396358,-30.834328,0            30.396352,-30.83439,0            30.396293,-30.834466,0            30.396234,-30.83454,0            30.396146,-30.834621,0            30.396084,-30.834676,0            30.395969,-30.834706,0            30.395899,-30.834747,0            30.395746,-30.834759,0            30.395618,-30.834749,0            30.39551,-30.834754,0            30.395406,-30.834761,0            30.395328,-30.834821,0            30.395277,-30.834865,0            30.395183,-30.834915,0            30.395078,-30.834964,0            30.394979,-30.835005,0            30.394867,-30.834989,0            30.394754,-30.834952,0            30.394649,-30.834936,0            30.394547,-30.834934,0            30.394557,-30.835047,0            30.394539,-30.835169,0            30.394496,-30.835305,0            30.394464,-30.835391,0            30.394391,-30.83554,0            30.394321,-30.835655,0            30.394222,-30.835806,0            30.394189,-30.835805,0            30.394171,-30.835767,0            30.394276,-30.835604,0            30.394328,-30.835518,0            30.394434,-30.835348,0            30.394464,-30.835205,0            30.394465,-30.83515,0            30.3945,-30.835023,0            30.394547,-30.834934,0            30.394649,-30.834936,0            30.394754,-30.834952,0            30.394867,-30.834989,0            30.394979,-30.835005,0            30.395078,-30.834964,0            30.395183,-30.834915,0            30.395277,-30.834865,0            30.395328,-30.834821,0            30.395406,-30.834761,0            30.39551,-30.834754,0            30.395618,-30.834749,0            30.395746,-30.834759,0            30.395899,-30.834747,0            30.395969,-30.834706,0            30.396084,-30.834676,0            30.396146,-30.834621,0            30.396234,-30.83454,0            30.396293,-30.834466,0            30.396352,-30.83439,0            30.396358,-30.834328,0            30.396355,-30.834261,0            30.396393,-30.834178,0            30.396446,-30.834091,0            30.396516,-30.834029,0            30.396597,-30.833985,0            30.396691,-30.833927,0            30.396793,-30.833865,0            30.396917,-30.8338,0            30.397016,-30.83374,0            30.397142,-30.833669,0            30.397279,-30.833584,0            30.397405,-30.833513,0            30.397529,-30.833449,0            30.397617,-30.833396,0            30.397722,-30.833341,0            30.397845,-30.83326,0            30.397974,-30.833193,0            30.398104,-30.833124,0            30.398193,-30.833076,0            30.398287,-30.833023,0            30.398357,-30.83298,0            30.398458,-30.832902,0            30.39856,-30.832831,0            30.39866,-30.832762,0            30.398788,-30.832688,0            30.398866,-30.832623,0            30.398957,-30.832566,0            30.399067,-30.832499,0            30.399105,-30.832423,0            30.399162,-30.832341,0            30.399216,-30.832286,0            30.399258,-30.832217,0            30.399299,-30.832162,0            30.399336,-30.832111,0            30.399409,-30.832042,0            30.399473,-30.831978,0            30.39947,-30.831897,0            30.39943,-30.831844,0            30.399441,-30.831777,0            30.39946,-30.831713,0            30.399518,-30.831644,0            30.399567,-30.831582,0            30.399629,-30.831506,0            30.399675,-30.831423,0            30.399728,-30.831342,0            30.399763,-30.831259,0            30.399787,-30.831181,0            30.399744,-30.831135,0            30.399782,-30.831066,0            30.399841,-30.830992,0            30.399877,-30.830912,0            30.399901,-30.830833,0            30.399939,-30.830794,0            30.400006,-30.83075,0            30.40011,-30.830672,0            30.400199,-30.830594,0            30.400294,-30.830519,0            30.400337,-30.83048,0            30.400383,-30.830477,0            30.400503,-30.830477,0            30.400587,-30.830454,0            30.400681,-30.830417,0            30.400785,-30.830391,0            30.400882,-30.830397,0            30.40093,-30.830377,0            30.400973,-30.830338,0            30.40104,-30.830308,0            30.401056,-30.830264,0            30.401118,-30.83022,0            30.40119,-30.830202,0            30.401295,-30.830183,0            30.401378,-30.830192,0            30.401475,-30.830172,0            30.401555,-30.830116,0            30.401644,-30.830036,0            30.401708,-30.829957,0            30.401767,-30.829902,0            30.401805,-30.829842,0            30.401829,-30.829745,0            30.401847,-30.829671,0            30.401864,-30.82958,0            30.40185,-30.829497,0            30.401882,-30.829428,0            30.401965,-30.829382,0            30.402035,-30.829328,0            30.402102,-30.829264,0            30.402175,-30.829211,0            30.402245,-30.829156,0            30.402293,-30.829096,0            30.402375,-30.829054,0            30.402455,-30.829024,0            30.402562,-30.82899,0            30.40268,-30.828965,0            30.402768,-30.828901,0            30.402833,-30.82883,0            30.402892,-30.828775,0            30.402956,-30.828728,0            30.403026,-30.828684,0            30.403036,-30.828631,0            30.403036,-30.828556,0            30.403017,-30.828483,0            30.403041,-30.828423,0            30.4031,-30.828354,0            30.403162,-30.828296,0            30.403221,-30.828243,0            30.403288,-30.828195,0            30.403355,-30.82813,0            30.403406,-30.828077,0            30.403481,-30.828029,0            30.403552,-30.827986,0            30.403614,-30.827972,0            30.403641,-30.827938,0            30.403676,-30.827896,0            30.403729,-30.827843,0            30.403764,-30.827777,0            30.403783,-30.82771,0            30.403809,-30.827631,0            30.403855,-30.827555,0            30.403876,-30.82746,0            30.403879,-30.827384,0            30.40387,-30.827293,0            30.403862,-30.827229,0            30.403865,-30.827174,0            30.403929,-30.827134,0            30.403967,-30.827079,0            30.403972,-30.826989,0            30.404007,-30.826918,0            30.404031,-30.826828,0            30.404074,-30.826764,0            30.404148,-30.82661,0            30.40421,-30.826382,0            30.404247,-30.82626,0            30.40427,-30.82612,0            30.404289,-30.826,0            30.404297,-30.825881,0            30.404313,-30.825738,0            30.404308,-30.825612,0            30.404306,-30.825526,0            30.404289,-30.825423,0            30.404267,-30.825308,0            30.404238,-30.825213,0            30.40431,-30.825135,0            30.404376,-30.82504,0            30.404432,-30.824936,0            30.404454,-30.824679,0            30.404502,-30.824537,0            30.404532,-30.824428,0            30.404564,-30.824325,0            30.404607,-30.824223,0            30.404679,-30.824099,0            30.404745,-30.823989,0            30.40481,-30.823876,0            30.404873,-30.823727,0            30.404898,-30.823639,0            30.404973,-30.823542,0            30.405029,-30.823457,0            30.405083,-30.823362,0            30.405123,-30.823266,0            30.405161,-30.823128,0            30.405171,-30.823036,0            30.405193,-30.822923,0            30.405229,-30.822788,0            30.405258,-30.822678,0            30.405283,-30.822559,0            30.405334,-30.822405,0            30.40538,-30.822315,0            30.405441,-30.822218,0            30.40549,-30.822145,0            30.405479,-30.822062,0            30.405519,-30.821947,0            30.405557,-30.821843,0            30.405587,-30.821733,0            30.405547,-30.821653,0            30.405584,-30.821561,0            30.405638,-30.821498,0            30.405743,-30.82142,0            30.405796,-30.821319,0            30.405791,-30.821227,0            30.405753,-30.821146,0            30.405694,-30.821038,0            30.405582,-30.82092,0            30.405496,-30.820865,0            30.405367,-30.820784,0            30.405233,-30.820775,0            30.405094,-30.820784,0            30.404682,-30.820839,0          </coordinates></LineString></Placemark><Placemark><name>Start</name><styleUrl>#icon-1899-0F9D58-nodesc</styleUrl><Point><coordinates>            30.405071,-30.82085,0          </coordinates></Point></Placemark><Placemark><name>Finish</name><styleUrl>#icon-1899-FF5252-nodesc</styleUrl><Point><coordinates>            30.404682,-30.820839,0          </coordinates></Point></Placemark></Folder></Document></kml>