<?xml version="1.0" encoding="UTF-8"?><kml xmlns="http://www.opengis.net/kml/2.2"><Document><name>Walvis Bay parkrun</name><description/><Style id="icon-1899-FFD600-nodesc-normal"><IconStyle><color>ff00d6ff</color><scale>1</scale><Icon><href>https://www.gstatic.com/mapspro/images/stock/503-wht-blank_maps.png</href></Icon><hotSpot x="32" xunits="pixels" y="64" yunits="insetPixels"/></IconStyle><LabelStyle><scale>0</scale></LabelStyle><BalloonStyle><text><![CDATA[<h3>$[name]</h3>]]></text></BalloonStyle></Style><Style id="icon-1899-FFD600-nodesc-highlight"><IconStyle><color>ff00d6ff</color><scale>1</scale><Icon><href>https://www.gstatic.com/mapspro/images/stock/503-wht-blank_maps.png</href></Icon><hotSpot x="32" xunits="pixels" y="64" yunits="insetPixels"/></IconStyle><LabelStyle><scale>1</scale></LabelStyle><BalloonStyle><text><![CDATA[<h3>$[name]</h3>]]></text></BalloonStyle></Style><StyleMap id="icon-1899-FFD600-nodesc"><Pair><key>normal</key><styleUrl>#icon-1899-FFD600-nodesc-normal</styleUrl></Pair><Pair><key>highlight</key><styleUrl>#icon-1899-FFD600-nodesc-highlight</styleUrl></Pair></StyleMap><Style id="icon-959-0288D1-nodesc-normal"><IconStyle><color>ffd18802</color><scale>1.1</scale><Icon><href>https://www.gstatic.com/mapspro/images/stock/959-wht-circle-blank.png</href></Icon></IconStyle><LabelStyle><scale>0</scale></LabelStyle><BalloonStyle><text><![CDATA[<h3>$[name]</h3>]]></text></BalloonStyle></Style><Style id="icon-959-0288D1-nodesc-highlight"><IconStyle><color>ffd18802</color><scale>1.1</scale><Icon><href>https://www.gstatic.com/mapspro/images/stock/959-wht-circle-blank.png</href></Icon></IconStyle><LabelStyle><scale>1.1</scale></LabelStyle><BalloonStyle><text><![CDATA[<h3>$[name]</h3>]]></text></BalloonStyle></Style><StyleMap id="icon-959-0288D1-nodesc"><Pair><key>normal</key><styleUrl>#icon-959-0288D1-nodesc-normal</styleUrl></Pair><Pair><key>highlight</key><styleUrl>#icon-959-0288D1-nodesc-highlight</styleUrl></Pair></StyleMap><Style id="line-0288D1-4875-nodesc-normal"><LineStyle><color>ffd18802</color><width>4.875</width></LineStyle><BalloonStyle><text><![CDATA[<h3>$[name]</h3>]]></text></BalloonStyle></Style><Style id="line-0288D1-4875-nodesc-highlight"><LineStyle><color>ffd18802</color><width>7.3125</width></LineStyle><BalloonStyle><text><![CDATA[<h3>$[name]</h3>]]></text></BalloonStyle></Style><StyleMap id="line-0288D1-4875-nodesc"><Pair><key>normal</key><styleUrl>#line-0288D1-4875-nodesc-normal</styleUrl></Pair><Pair><key>highlight</key><styleUrl>#line-0288D1-4875-nodesc-highlight</styleUrl></Pair></StyleMap><Folder><name>Untitled layer</name><Placemark><name>Course</name><styleUrl>#line-0288D1-4875-nodesc</styleUrl><LineString><tessellate>1</tessellate><coordinates>            14.481778,-22.977192,0            14.481676,-22.977268,0            14.481571,-22.977241,0            14.481458,-22.977145,0            14.48163,-22.976979,0            14.481922,-22.97669,0            14.482191,-22.976434,0            14.482767,-22.975863,0            14.482987,-22.975666,0            14.483467,-22.975196,0            14.483746,-22.97492,0            14.48409,-22.974582,0            14.48424,-22.974431,0            14.485036,-22.97367,0            14.485372,-22.973342,0            14.485704,-22.973026,0            14.485879,-22.97285,0            14.486064,-22.972658,0            14.486198,-22.972522,0            14.486375,-22.972366,0            14.486436,-22.972307,0            14.486498,-22.97226,0            14.486584,-22.972238,0            14.48671,-22.972203,0            14.486815,-22.972142,0            14.486914,-22.972033,0            14.487091,-22.971853,0            14.487206,-22.971737,0            14.4873,-22.971645,0            14.487351,-22.971586,0            14.487375,-22.971529,0            14.487426,-22.971384,0            14.487493,-22.971124,0            14.48756,-22.970895,0            14.487606,-22.970742,0            14.4877,-22.970416,0            14.487826,-22.97001,0            14.487968,-22.969551,0            14.488078,-22.969171,0            14.488183,-22.968838,0            14.488306,-22.968452,0            14.488365,-22.968242,0            14.488424,-22.968057,0            14.488405,-22.967963,0            14.488266,-22.967655,0            14.488016,-22.967109,0            14.487987,-22.967027,0            14.487882,-22.966686,0            14.487786,-22.966232,0            14.487713,-22.965906,0            14.487641,-22.965541,0            14.487544,-22.965098,0            14.48744,-22.964597,0            14.487348,-22.964182,0            14.487273,-22.963819,0            14.487238,-22.963656,0            14.487188,-22.96357,0            14.487131,-22.963496,0            14.487059,-22.963439,0            14.486986,-22.963394,0            14.486876,-22.963355,0            14.486415,-22.963143,0            14.486053,-22.962992,0            14.485796,-22.962873,0            14.485441,-22.962718,0            14.485149,-22.962587,0            14.484779,-22.962416,0            14.484192,-22.962157,0            14.483808,-22.961977,0            14.483534,-22.961851,0            14.483454,-22.961802,0            14.483314,-22.961789,0            14.483231,-22.961797,0            14.48307,-22.961732,0            14.482673,-22.961535,0            14.482448,-22.961429,0            14.482352,-22.961377,0            14.48229,-22.961332,0            14.482199,-22.961204,0            14.482188,-22.961112,0            14.482239,-22.961019,0            14.482309,-22.960888,0            14.482381,-22.960806,0            14.482459,-22.960732,0            14.482499,-22.96068,0          </coordinates></LineString></Placemark><Placemark><name>Start / Finish</name><styleUrl>#icon-1899-FFD600-nodesc</styleUrl><Point><coordinates>            14.481778,-22.977192,0          </coordinates></Point></Placemark><Placemark><name>Turn around point</name><styleUrl>#icon-959-0288D1-nodesc</styleUrl><Point><coordinates>            14.482499,-22.96068,0          </coordinates></Point></Placemark></Folder></Document></kml>