<?xml version="1.0" encoding="UTF-8"?><kml xmlns="http://www.opengis.net/kml/2.2"><Document><name>Winterton parkrun (from July 2024)</name><description/><Style id="icon-1899-0F9D58-nodesc-normal"><IconStyle><color>ff589d0f</color><scale>1</scale><Icon><href>https://www.gstatic.com/mapspro/images/stock/503-wht-blank_maps.png</href></Icon><hotSpot x="32" xunits="pixels" y="64" yunits="insetPixels"/></IconStyle><LabelStyle><scale>0</scale></LabelStyle><BalloonStyle><text><![CDATA[<h3>$[name]</h3>]]></text></BalloonStyle></Style><Style id="icon-1899-0F9D58-nodesc-highlight"><IconStyle><color>ff589d0f</color><scale>1</scale><Icon><href>https://www.gstatic.com/mapspro/images/stock/503-wht-blank_maps.png</href></Icon><hotSpot x="32" xunits="pixels" y="64" yunits="insetPixels"/></IconStyle><LabelStyle><scale>1</scale></LabelStyle><BalloonStyle><text><![CDATA[<h3>$[name]</h3>]]></text></BalloonStyle></Style><StyleMap id="icon-1899-0F9D58-nodesc"><Pair><key>normal</key><styleUrl>#icon-1899-0F9D58-nodesc-normal</styleUrl></Pair><Pair><key>highlight</key><styleUrl>#icon-1899-0F9D58-nodesc-highlight</styleUrl></Pair></StyleMap><Style id="icon-1899-FF5252-nodesc-normal"><IconStyle><color>ff5252ff</color><scale>1</scale><Icon><href>https://www.gstatic.com/mapspro/images/stock/503-wht-blank_maps.png</href></Icon><hotSpot x="32" xunits="pixels" y="64" yunits="insetPixels"/></IconStyle><LabelStyle><scale>0</scale></LabelStyle><BalloonStyle><text><![CDATA[<h3>$[name]</h3>]]></text></BalloonStyle></Style><Style id="icon-1899-FF5252-nodesc-highlight"><IconStyle><color>ff5252ff</color><scale>1</scale><Icon><href>https://www.gstatic.com/mapspro/images/stock/503-wht-blank_maps.png</href></Icon><hotSpot x="32" xunits="pixels" y="64" yunits="insetPixels"/></IconStyle><LabelStyle><scale>1</scale></LabelStyle><BalloonStyle><text><![CDATA[<h3>$[name]</h3>]]></text></BalloonStyle></Style><StyleMap id="icon-1899-FF5252-nodesc"><Pair><key>normal</key><styleUrl>#icon-1899-FF5252-nodesc-normal</styleUrl></Pair><Pair><key>highlight</key><styleUrl>#icon-1899-FF5252-nodesc-highlight</styleUrl></Pair></StyleMap><Style id="line-0288D1-4100-nodesc-normal"><LineStyle><color>ffd18802</color><width>4.1</width></LineStyle><BalloonStyle><text><![CDATA[<h3>$[name]</h3>]]></text></BalloonStyle></Style><Style id="line-0288D1-4100-nodesc-highlight"><LineStyle><color>ffd18802</color><width>6.15</width></LineStyle><BalloonStyle><text><![CDATA[<h3>$[name]</h3>]]></text></BalloonStyle></Style><StyleMap id="line-0288D1-4100-nodesc"><Pair><key>normal</key><styleUrl>#line-0288D1-4100-nodesc-normal</styleUrl></Pair><Pair><key>highlight</key><styleUrl>#line-0288D1-4100-nodesc-highlight</styleUrl></Pair></StyleMap><Folder><name>Winterton parkrun.gpx</name><Placemark><name>Course</name><styleUrl>#line-0288D1-4100-nodesc</styleUrl><LineString><tessellate>1</tessellate><coordinates>            29.5417490880936,-28.8981450721622,0            29.5426400005817,-28.8969548419118,0            29.544691639021,-28.894270118326,0            29.5459349267185,-28.8927368167788,0            29.5460671931505,-28.8927581068128,0            29.5473576709628,-28.8910289201885,0            29.5478966273367,-28.8899071700871,0            29.5482231024653,-28.8887404091656,0            29.5483532734215,-28.8886770419776,0            29.5484238490462,-28.8886775448918,0            29.548552762717,-28.8889949675649,0            29.5490078162402,-28.8898189924657,0            29.5493708364666,-28.8903141114861,0            29.5499408897012,-28.8907105755061,0            29.550365852192,-28.8911177683622,0            29.550500633195,-28.8911673054099,0            29.5506505016238,-28.8912381324917,0            29.5510764699429,-28.891320778057,0            29.5513254124671,-28.8913695607334,0            29.5518771093339,-28.8913548085839,0            29.5520434062928,-28.8912304211408,0            29.5522905047983,-28.8910806365311,0            29.5525081828237,-28.8909493759275,0            29.5527134556323,-28.890948118642,0            29.5528237614781,-28.8910890184343,0            29.5529613923281,-28.8914492726326,0            29.5531022083014,-28.8917138893157,0            29.553056275472,-28.8920399453491,0            29.5529280323535,-28.8927328772843,0            29.5528149604797,-28.8934237137437,0            29.5525850448757,-28.8948696758598,0            29.5524796843529,-28.895160863176,0            29.5520725753158,-28.8956396374852,0            29.5518813002855,-28.8958874065429,0            29.5514347963035,-28.896358218044,0            29.5509187225252,-28.8968641497195,0            29.5505629945546,-28.8971803151071,0            29.5504553709179,-28.8975252304226,0            29.5504769124091,-28.8979272264987,0            29.5501662790775,-28.8982784282416,0            29.5500710606575,-28.8985791709274,0            29.5500464178622,-28.8988787401468,0            29.5499932765961,-28.8989158719778,0            29.5488463807851,-28.8975779525936,0            29.548640018329,-28.8977017533034,0            29.5482246950269,-28.8980291504413,0            29.5479947794229,-28.8983206730336,0            29.5476032607257,-28.8986372575164,0            29.5470766257495,-28.8995987456292,0            29.5470624603331,-28.8994726818055,0            29.5473160967231,-28.8988934084773,0            29.5473150070757,-28.8986432086676,0            29.547112332657,-28.8981725648046,0            29.5468468777835,-28.8976350333542,0            29.54644119367,-28.896762561053,0            29.5459229405969,-28.8956780266017,0            29.5456918515265,-28.8952457718551,0            29.5451608579606,-28.8949743658304,0            29.5451237261295,-28.894907226786,0            29.5451406575739,-28.8947497308254,0            29.5452770311385,-28.8945799972862,0            29.545532092452,-28.8943211641163,0            29.5454801246524,-28.8939146418124,0            29.5455745048821,-28.8937253784388,0            29.5457052625716,-28.8935133162886,0            29.5458342600614,-28.8933201972395,0            29.5460909139365,-28.8929520640522,0            29.5459646824747,-28.8928123377264,0            29.5446956623346,-28.8943510875106,0            29.5434660371393,-28.8959515281022,0            29.5418052468449,-28.8981390371919,0            29.5418683625758,-28.8983946852386,0            29.541979841888,-28.8984770793468,0          </coordinates></LineString></Placemark><Placemark><name>Start</name><styleUrl>#icon-1899-0F9D58-nodesc</styleUrl><Point><coordinates>            29.5417491,-28.8981451,0          </coordinates></Point></Placemark><Placemark><name>Finish</name><styleUrl>#icon-1899-FF5252-nodesc</styleUrl><Point><coordinates>            29.5419798,-28.8984771,0          </coordinates></Point></Placemark></Folder></Document></kml>