<?xml version="1.0" encoding="UTF-8"?><kml xmlns="http://www.opengis.net/kml/2.2"><Document><name>Zuurfontein parkrun (from April 2024)</name><description/><Style id="icon-1899-FFEA00-nodesc-normal"><IconStyle><color>ff00eaff</color><scale>1</scale><Icon><href>https://www.gstatic.com/mapspro/images/stock/503-wht-blank_maps.png</href></Icon><hotSpot x="32" xunits="pixels" y="64" yunits="insetPixels"/></IconStyle><LabelStyle><scale>0</scale></LabelStyle><BalloonStyle><text><![CDATA[<h3>$[name]</h3>]]></text></BalloonStyle></Style><Style id="icon-1899-FFEA00-nodesc-highlight"><IconStyle><color>ff00eaff</color><scale>1</scale><Icon><href>https://www.gstatic.com/mapspro/images/stock/503-wht-blank_maps.png</href></Icon><hotSpot x="32" xunits="pixels" y="64" yunits="insetPixels"/></IconStyle><LabelStyle><scale>1</scale></LabelStyle><BalloonStyle><text><![CDATA[<h3>$[name]</h3>]]></text></BalloonStyle></Style><StyleMap id="icon-1899-FFEA00-nodesc"><Pair><key>normal</key><styleUrl>#icon-1899-FFEA00-nodesc-normal</styleUrl></Pair><Pair><key>highlight</key><styleUrl>#icon-1899-FFEA00-nodesc-highlight</styleUrl></Pair></StyleMap><Style id="line-0288D1-4000-nodesc-normal"><LineStyle><color>ffd18802</color><width>4</width></LineStyle><BalloonStyle><text><![CDATA[<h3>$[name]</h3>]]></text></BalloonStyle></Style><Style id="line-0288D1-4000-nodesc-highlight"><LineStyle><color>ffd18802</color><width>6</width></LineStyle><BalloonStyle><text><![CDATA[<h3>$[name]</h3>]]></text></BalloonStyle></Style><StyleMap id="line-0288D1-4000-nodesc"><Pair><key>normal</key><styleUrl>#line-0288D1-4000-nodesc-normal</styleUrl></Pair><Pair><key>highlight</key><styleUrl>#line-0288D1-4000-nodesc-highlight</styleUrl></Pair></StyleMap><Folder><name>Zuurfontein Lake parkrun</name><Placemark><name>Course</name><styleUrl>#line-0288D1-4000-nodesc</styleUrl><LineString><tessellate>1</tessellate><coordinates>            28.21742,-26.104588,0            28.217415,-26.10451,0            28.217411,-26.104471,0            28.217412,-26.10444,0            28.217403,-26.10441,0            28.2174,-26.104378,0            28.217406,-26.104357,0            28.217409,-26.104294,0            28.21742,-26.104276,0            28.217426,-26.104233,0            28.217467,-26.104206,0            28.217521,-26.104198,0            28.217577,-26.104188,0            28.217626,-26.104185,0            28.217658,-26.10419,0            28.217682,-26.104189,0            28.217705,-26.104197,0            28.217742,-26.104197,0            28.217776,-26.1042,0            28.217814,-26.104213,0            28.217835,-26.104225,0            28.217861,-26.104234,0            28.217877,-26.104248,0            28.217926,-26.104295,0            28.217937,-26.104314,0            28.217949,-26.104337,0            28.217962,-26.104352,0            28.217988,-26.104379,0            28.218002,-26.104402,0            28.218011,-26.104432,0            28.218034,-26.104462,0            28.218046,-26.104478,0            28.218059,-26.104494,0            28.218094,-26.10453,0            28.218137,-26.104581,0            28.218138,-26.1046,0            28.218154,-26.104636,0            28.218167,-26.10467,0            28.218179,-26.104705,0            28.218193,-26.104738,0            28.218215,-26.104767,0            28.218221,-26.104796,0            28.218246,-26.104827,0            28.218274,-26.10486,0            28.218284,-26.104876,0            28.218306,-26.104906,0            28.218314,-26.104926,0            28.218336,-26.10494,0            28.218343,-26.104951,0            28.21837,-26.10497,0            28.218425,-26.104983,0            28.218447,-26.104987,0            28.218501,-26.105004,0            28.218587,-26.105032,0            28.218649,-26.105062,0            28.218718,-26.105126,0            28.21879,-26.105251,0            28.218868,-26.105448,0            28.218915,-26.105639,0            28.218954,-26.105779,0            28.218953,-26.105902,0            28.218904,-26.10605,0            28.21887,-26.10612,0            28.218849,-26.1062,0            28.218815,-26.106236,0            28.218768,-26.106261,0            28.218693,-26.106243,0            28.218553,-26.106151,0            28.218485,-26.106085,0            28.218432,-26.106013,0            28.218341,-26.105841,0            28.218289,-26.10571,0            28.218284,-26.105571,0            28.218304,-26.10542,0            28.218313,-26.105314,0            28.218289,-26.105269,0            28.218247,-26.105183,0            28.218231,-26.105144,0            28.218139,-26.105088,0            28.218063,-26.105048,0            28.217973,-26.105019,0            28.217887,-26.105018,0            28.21787,-26.105058,0            28.217878,-26.105107,0            28.217873,-26.105131,0            28.217884,-26.10519,0            28.217909,-26.105214,0            28.217948,-26.10523,0            28.217978,-26.105238,0            28.218024,-26.105251,0            28.218071,-26.105268,0            28.218107,-26.105299,0            28.21814,-26.10533,0            28.218164,-26.105329,0            28.218194,-26.105347,0            28.218205,-26.105393,0            28.218138,-26.10565,0            28.218175,-26.10579,0            28.218204,-26.105833,0            28.218216,-26.105888,0            28.218282,-26.106001,0            28.218374,-26.10613,0            28.218501,-26.10624,0            28.218705,-26.106333,0            28.21887,-26.106385,0            28.218889,-26.106438,0            28.218902,-26.106487,0            28.21893,-26.106519,0            28.218939,-26.106556,0            28.218967,-26.106581,0            28.218967,-26.106636,0            28.218916,-26.106729,0            28.21884,-26.10679,0            28.218775,-26.106816,0            28.218608,-26.106724,0            28.218493,-26.106686,0            28.218381,-26.106696,0            28.218274,-26.106738,0            28.2182,-26.10682,0            28.218126,-26.106865,0            28.218029,-26.106886,0            28.217957,-26.10688,0            28.217789,-26.106839,0            28.217713,-26.10678,0            28.217692,-26.106702,0            28.21768,-26.106641,0            28.217717,-26.106563,0            28.217748,-26.106523,0            28.217763,-26.10648,0            28.217791,-26.106419,0            28.217777,-26.106332,0            28.217731,-26.106204,0            28.217663,-26.106134,0            28.217588,-26.10611,0            28.217519,-26.106101,0            28.217346,-26.106116,0            28.217219,-26.106104,0            28.217149,-26.106047,0            28.217108,-26.105957,0            28.217097,-26.10588,0            28.217159,-26.105809,0            28.217244,-26.105785,0            28.217379,-26.105766,0            28.217447,-26.105727,0            28.217473,-26.105699,0            28.217486,-26.10565,0            28.217499,-26.10561,0            28.217513,-26.105585,0            28.217526,-26.105552,0            28.217538,-26.10552,0            28.217551,-26.105478,0            28.217551,-26.105436,0            28.217555,-26.105364,0            28.217552,-26.105284,0            28.217554,-26.105258,0            28.217548,-26.105242,0            28.217552,-26.105214,0            28.21756,-26.105193,0            28.217571,-26.105168,0            28.21757,-26.105143,0            28.217562,-26.105123,0            28.217547,-26.105104,0            28.21754,-26.105091,0            28.21724,-26.104952,0            28.217206,-26.104984,0            28.217165,-26.104974,0            28.217135,-26.104956,0            28.217146,-26.1049,0          </coordinates></LineString></Placemark><Placemark><name>Start/Finish</name><styleUrl>#icon-1899-FFEA00-nodesc</styleUrl><Point><coordinates>            28.217418,-26.104597,0          </coordinates></Point></Placemark></Folder></Document></kml>