<?xml version="1.0" encoding="UTF-8"?><kml xmlns="http://www.opengis.net/kml/2.2"><Document><name>Djäkneberget parkrun</name><description/><Style id="icon-1899-0F9D58-nodesc-normal"><IconStyle><color>ff589d0f</color><scale>1</scale><Icon><href>https://www.gstatic.com/mapspro/images/stock/503-wht-blank_maps.png</href></Icon><hotSpot x="32" xunits="pixels" y="64" yunits="insetPixels"/></IconStyle><LabelStyle><scale>0</scale></LabelStyle><BalloonStyle><text><![CDATA[<h3>$[name]</h3>]]></text></BalloonStyle></Style><Style id="icon-1899-0F9D58-nodesc-highlight"><IconStyle><color>ff589d0f</color><scale>1</scale><Icon><href>https://www.gstatic.com/mapspro/images/stock/503-wht-blank_maps.png</href></Icon><hotSpot x="32" xunits="pixels" y="64" yunits="insetPixels"/></IconStyle><LabelStyle><scale>1</scale></LabelStyle><BalloonStyle><text><![CDATA[<h3>$[name]</h3>]]></text></BalloonStyle></Style><StyleMap id="icon-1899-0F9D58-nodesc"><Pair><key>normal</key><styleUrl>#icon-1899-0F9D58-nodesc-normal</styleUrl></Pair><Pair><key>highlight</key><styleUrl>#icon-1899-0F9D58-nodesc-highlight</styleUrl></Pair></StyleMap><Style id="icon-1899-FF5252-nodesc-normal"><IconStyle><color>ff5252ff</color><scale>1</scale><Icon><href>https://www.gstatic.com/mapspro/images/stock/503-wht-blank_maps.png</href></Icon><hotSpot x="32" xunits="pixels" y="64" yunits="insetPixels"/></IconStyle><LabelStyle><scale>0</scale></LabelStyle><BalloonStyle><text><![CDATA[<h3>$[name]</h3>]]></text></BalloonStyle></Style><Style id="icon-1899-FF5252-nodesc-highlight"><IconStyle><color>ff5252ff</color><scale>1</scale><Icon><href>https://www.gstatic.com/mapspro/images/stock/503-wht-blank_maps.png</href></Icon><hotSpot x="32" xunits="pixels" y="64" yunits="insetPixels"/></IconStyle><LabelStyle><scale>1</scale></LabelStyle><BalloonStyle><text><![CDATA[<h3>$[name]</h3>]]></text></BalloonStyle></Style><StyleMap id="icon-1899-FF5252-nodesc"><Pair><key>normal</key><styleUrl>#icon-1899-FF5252-nodesc-normal</styleUrl></Pair><Pair><key>highlight</key><styleUrl>#icon-1899-FF5252-nodesc-highlight</styleUrl></Pair></StyleMap><Style id="line-0288D1-5000-nodesc-normal"><LineStyle><color>ffd18802</color><width>5</width></LineStyle><BalloonStyle><text><![CDATA[<h3>$[name]</h3>]]></text></BalloonStyle></Style><Style id="line-0288D1-5000-nodesc-highlight"><LineStyle><color>ffd18802</color><width>7.5</width></LineStyle><BalloonStyle><text><![CDATA[<h3>$[name]</h3>]]></text></BalloonStyle></Style><StyleMap id="line-0288D1-5000-nodesc"><Pair><key>normal</key><styleUrl>#line-0288D1-5000-nodesc-normal</styleUrl></Pair><Pair><key>highlight</key><styleUrl>#line-0288D1-5000-nodesc-highlight</styleUrl></Pair></StyleMap><Folder><name>Untitled layer</name><Placemark><name>Course</name><styleUrl>#line-0288D1-5000-nodesc</styleUrl><LineString><tessellate>1</tessellate><coordinates>            16.53368,59.61138,39.96            16.5325,59.61135,42.02            16.53241,59.61151,42.01            16.53228,59.61164,42.29            16.53184,59.61194,43.16            16.53137,59.61226,44.21            16.53124,59.61244,45.84            16.53118,59.61249,46.12            16.5309,59.6126,46.88            16.53064,59.61267,46.86            16.53029,59.61285,46.61            16.52977,59.61298,44.63            16.52975,59.61303,44.63            16.53046,59.61355,41.97            16.53055,59.61357,41.41            16.53076,59.61328,43.84            16.53076,59.61327,42.98            16.53099,59.6131,44.05            16.53144,59.61285,44.84            16.5322,59.61261,45.06            16.53237,59.61251,44.12            16.53252,59.61246,43.48            16.53268,59.61244,43.12            16.53288,59.61249,41.94            16.53239,59.61287,42.45            16.53136,59.61339,37.28            16.53103,59.61364,38.48            16.53139,59.6136,36.66            16.53207,59.61347,33.32            16.53285,59.61335,30.5            16.533,59.6133,29.38            16.53336,59.61309,29.75            16.53365,59.61292,30.82            16.53382,59.61273,33.14            16.53403,59.61254,34.61            16.5342,59.61241,34.99            16.53427,59.61235,35.08            16.534640004594,59.6119350004945,31.23            16.53501,59.61152,26.79            16.5352,59.61128,25.96            16.53524,59.61116,25.61            16.53523,59.61107,25.33            16.5351,59.61061,25.06            16.53498,59.61024,26.35            16.53499,59.61003,26.59            16.53494,59.60988,26.73            16.53494,59.60987,26.75            16.53484,59.60963,27.29            16.53464,59.60978,29.24            16.53397,59.60947,35.37            16.53388,59.60921,34.61            16.53389,59.6092,30.72            16.53335,59.60909,32.49            16.53328,59.60913,32.49            16.53329,59.60919,33.39            16.53337,59.60931,33.39            16.53332,59.60966,35.06            16.53322,59.60995,37.61            16.53319,59.61016,38.78            16.53285,59.61063,41.53            16.53269,59.61094,42.78            16.53262,59.61102,42.73            16.53242,59.61111,42.6            16.53242,59.61123,42.02            16.5325,59.61135,42.02            16.53241,59.61151,42.01            16.53228,59.61164,42.29            16.53137,59.61226,44.21            16.53124,59.61244,45.84            16.53118,59.61249,46.12            16.5309,59.6126,46.88            16.53064,59.61267,46.86            16.53029,59.61285,46.61            16.52977,59.61298,44.63            16.52975,59.61303,44.63            16.53046,59.61355,41.97            16.53053,59.61357,41.5            16.53076,59.61327,43.99            16.53099,59.6131,44.05            16.53144,59.61285,44.84            16.5322,59.61261,45.06            16.53237,59.61251,44.12            16.53252,59.61246,43.48            16.53268,59.61244,43.12            16.53288,59.61249,41.94            16.53239,59.61287,42.45            16.53136,59.61339,37.28            16.53103,59.61364,38.48            16.53139,59.6136,36.66            16.53207,59.61347,33.32            16.53285,59.61335,30.5            16.533,59.6133,29.38            16.53336,59.61308,29.75            16.53337,59.61308,29.77            16.53365,59.61292,30.82            16.53382,59.61273,33.14            16.53403,59.61254,34.61            16.53422,59.61241,34.98            16.53471,59.61185,29.85            16.5352,59.61128,25.96            16.53524,59.61116,25.61            16.53523,59.61107,25.33            16.5351,59.61061,25.06            16.53498,59.61024,26.35            16.53499,59.61003,26.59            16.53494,59.60987,26.77            16.53494,59.60986,26.77            16.53484,59.60963,27.29            16.53464,59.60978,29.23            16.53397,59.60947,35.37            16.53389,59.6092,34.61            16.53388,59.6092,30.73            16.53335,59.60909,32.49            16.53328,59.60913,32.49            16.53329,59.60919,33.39            16.53337,59.60931,33.39            16.53332,59.60966,35.06            16.53322,59.60995,37.59            16.53319,59.61016,38.78            16.53285,59.61063,41.53            16.53269,59.61094,42.78            16.53262,59.61102,42.73            16.53242,59.61111,42.6            16.53242,59.61123,42.02            16.5325,59.61135,42.02            16.53241,59.61151,42.01            16.53228,59.61164,42.29            16.53137,59.61226,44.21            16.53124,59.61244,45.84            16.53118,59.61249,46.12            16.5309,59.6126,46.88            16.53064,59.61267,46.86            16.53029,59.61285,46.61            16.52977,59.61298,44.63            16.52975,59.61303,44.63            16.53046,59.61355,41.97            16.53052,59.61356,41.58            16.53051,59.61356,41.67            16.53076,59.61327,43.99            16.53099,59.6131,44.05            16.53144,59.61285,44.84            16.5322,59.61261,45.06            16.53237,59.61251,44.12            16.53252,59.61246,43.48            16.53268,59.61244,43.12            16.53288,59.61249,41.94            16.53239,59.61287,42.45            16.53136,59.61339,37.28            16.53103,59.61364,38.48            16.53139,59.6136,36.66            16.53207,59.61347,33.32            16.53285,59.61335,30.5            16.533,59.6133,29.38            16.53365,59.61292,30.82            16.53382,59.61273,33.14            16.53403,59.61254,34.61            16.53422,59.61241,34.98            16.53471,59.61185,29.85            16.5352,59.61128,25.96            16.53524,59.61116,25.61            16.53523,59.61107,25.33            16.5351,59.61061,25.06            16.53498,59.61024,26.35            16.53499,59.61003,26.59            16.53493,59.60983,26.74            16.53484,59.60963,27.29            16.53464,59.60978,29.23            16.53397,59.60947,35.37            16.53388,59.6092,34.61            16.53387,59.6092,30.75            16.53335,59.60909,32.49            16.53328,59.60913,32.49            16.53329,59.60919,33.39            16.53337,59.60931,33.39            16.53332,59.60966,35.06            16.53322,59.60995,37.59            16.53319,59.61016,38.78            16.53316,59.61019,39.06            16.53291,59.61054,40.9            16.53285,59.61063,41.53            16.53269,59.61094,42.78            16.53262,59.61102,42.73            16.53242,59.61111,42.6            16.53242,59.61123,42.02            16.5325,59.61135,42.02          </coordinates></LineString></Placemark><Placemark><name>Finish</name><styleUrl>#icon-1899-FF5252-nodesc</styleUrl><Point><coordinates>            16.5325,59.61135,42.02          </coordinates></Point></Placemark><Placemark><name>Start</name><styleUrl>#icon-1899-0F9D58-nodesc</styleUrl><Point><coordinates>            16.53368,59.61138,39.96          </coordinates></Point></Placemark></Folder></Document></kml>