<?xml version="1.0" encoding="UTF-8"?><kml xmlns="http://www.opengis.net/kml/2.2"><Document><name>Cornwall parkrun (from Jun 2025)</name><description/><Style id="icon-1899-0F9D58-nodesc-normal"><IconStyle><color>ff589d0f</color><scale>1</scale><Icon><href>https://www.gstatic.com/mapspro/images/stock/503-wht-blank_maps.png</href></Icon><hotSpot x="32" xunits="pixels" y="64" yunits="insetPixels"/></IconStyle><LabelStyle><scale>0</scale></LabelStyle><BalloonStyle><text><![CDATA[<h3>$[name]</h3>]]></text></BalloonStyle></Style><Style id="icon-1899-0F9D58-nodesc-highlight"><IconStyle><color>ff589d0f</color><scale>1</scale><Icon><href>https://www.gstatic.com/mapspro/images/stock/503-wht-blank_maps.png</href></Icon><hotSpot x="32" xunits="pixels" y="64" yunits="insetPixels"/></IconStyle><LabelStyle><scale>1</scale></LabelStyle><BalloonStyle><text><![CDATA[<h3>$[name]</h3>]]></text></BalloonStyle></Style><StyleMap id="icon-1899-0F9D58-nodesc"><Pair><key>normal</key><styleUrl>#icon-1899-0F9D58-nodesc-normal</styleUrl></Pair><Pair><key>highlight</key><styleUrl>#icon-1899-0F9D58-nodesc-highlight</styleUrl></Pair></StyleMap><Style id="icon-1899-FF5252-nodesc-normal"><IconStyle><color>ff5252ff</color><scale>1</scale><Icon><href>https://www.gstatic.com/mapspro/images/stock/503-wht-blank_maps.png</href></Icon><hotSpot x="32" xunits="pixels" y="64" yunits="insetPixels"/></IconStyle><LabelStyle><scale>0</scale></LabelStyle><BalloonStyle><text><![CDATA[<h3>$[name]</h3>]]></text></BalloonStyle></Style><Style id="icon-1899-FF5252-nodesc-highlight"><IconStyle><color>ff5252ff</color><scale>1</scale><Icon><href>https://www.gstatic.com/mapspro/images/stock/503-wht-blank_maps.png</href></Icon><hotSpot x="32" xunits="pixels" y="64" yunits="insetPixels"/></IconStyle><LabelStyle><scale>1</scale></LabelStyle><BalloonStyle><text><![CDATA[<h3>$[name]</h3>]]></text></BalloonStyle></Style><StyleMap id="icon-1899-FF5252-nodesc"><Pair><key>normal</key><styleUrl>#icon-1899-FF5252-nodesc-normal</styleUrl></Pair><Pair><key>highlight</key><styleUrl>#icon-1899-FF5252-nodesc-highlight</styleUrl></Pair></StyleMap><Style id="line-0288D1-5000-nodesc-normal"><LineStyle><color>ffd18802</color><width>5</width></LineStyle><BalloonStyle><text><![CDATA[<h3>$[name]</h3>]]></text></BalloonStyle></Style><Style id="line-0288D1-5000-nodesc-highlight"><LineStyle><color>ffd18802</color><width>7.5</width></LineStyle><BalloonStyle><text><![CDATA[<h3>$[name]</h3>]]></text></BalloonStyle></Style><StyleMap id="line-0288D1-5000-nodesc"><Pair><key>normal</key><styleUrl>#line-0288D1-5000-nodesc-normal</styleUrl></Pair><Pair><key>highlight</key><styleUrl>#line-0288D1-5000-nodesc-highlight</styleUrl></Pair></StyleMap><Folder><name>Untitled layer</name><Placemark><name>Course</name><styleUrl>#line-0288D1-5000-nodesc</styleUrl><LineString><tessellate>1</tessellate><coordinates>            174.78856,-36.89506,0            174.78841,-36.89515,0            174.788408,-36.8953386,0            174.7882329,-36.8957509,0            174.7881178,-36.8957715,0            174.7880563,-36.8957857,0            174.7879678,-36.8958458,0            174.78782,-36.89606,0            174.78764,-36.89618,0            174.787588,-36.8961643,0            174.78756,-36.89608,0            174.78759,-36.89588,0            174.7876,-36.89566,0            174.78759,-36.8955,0            174.78757,-36.89532,0            174.78751,-36.89499,0            174.78736,-36.89468,0            174.78708,-36.89411,0            174.78703,-36.89374,0            174.78702,-36.89347,0            174.78699,-36.89333,0            174.78701,-36.89326,0            174.7871239,-36.8932686,0            174.7872839,-36.8935081,0            174.787522,-36.893618,0            174.7878383,-36.8936435,0            174.7881691,-36.8936899,0            174.78833,-36.89379,0            174.78839,-36.89391,0            174.78846,-36.89405,0            174.78852,-36.89417,0            174.78858,-36.89433,0            174.7884086,-36.8944593,0            174.7884,-36.89463,0            174.78849,-36.89474,0            174.78858,-36.89482,0            174.78871,-36.89486,0            174.78886,-36.89491,0            174.78903,-36.89495,0            174.78922,-36.89488,0            174.78929,-36.89494,0            174.78939,-36.89497,0            174.78959,-36.89497,0            174.78978,-36.89497,0            174.78995,-36.89505,0            174.79013,-36.89513,0            174.7901956,-36.8951846,0            174.790347,-36.895368,0            174.7900253,-36.8955018,0            174.7895823,-36.8955565,0            174.78959,-36.89592,0            174.78954,-36.89601,0            174.78945,-36.89609,0            174.78922,-36.89631,0            174.78921,-36.8965,0            174.78929,-36.89663,0            174.78939,-36.89674,0            174.7895,-36.89681,0            174.78962,-36.89688,0            174.78977,-36.89707,0            174.78981,-36.89728,0            174.78966,-36.89734,0            174.78934,-36.89757,0            174.78911,-36.89766,0            174.7888927,-36.8977157,0            174.78874,-36.89758,0            174.78864,-36.89722,0            174.78856,-36.89689,0            174.78845,-36.89659,0            174.7884263,-36.8963493,0            174.7885278,-36.8962286,0            174.78858,-36.89605,0            174.78942,-36.89595,0            174.7894,-36.89596,0            174.7895076,-36.8959179,0            174.7895534,-36.89588,0            174.78956,-36.89567,0            174.78956,-36.89557,0            174.7894838,-36.8955182,0            174.789442,-36.895465,0            174.7894439,-36.8954143,0            174.78943,-36.89535,0            174.7893771,-36.8952449,0            174.7892839,-36.895112,0            174.7891307,-36.8950741,0            174.789069,-36.8950128,0            174.7887286,-36.8950843,0            174.78856,-36.89506,0            174.78841,-36.89515,0            174.788408,-36.8953386,0            174.7891456,-36.8954116,0            174.788408,-36.8953386,0            174.7882329,-36.8957509,0            174.7881178,-36.8957715,0            174.7880563,-36.8957857,0            174.7879678,-36.8958458,0            174.78782,-36.89606,0            174.78764,-36.89618,0            174.787588,-36.8961643,0            174.78756,-36.89612,0            174.78759,-36.89588,0            174.7876,-36.89566,0            174.78759,-36.8955,0            174.78757,-36.89532,0            174.78751,-36.89499,0            174.78736,-36.89468,0            174.78708,-36.89411,0            174.78703,-36.89374,0            174.78702,-36.89347,0            174.78699,-36.89333,0            174.78701,-36.89326,0            174.7871239,-36.8932686,0            174.7872839,-36.8935081,0            174.787522,-36.893618,0            174.7878383,-36.8936435,0            174.7881691,-36.8936899,0            174.78833,-36.89379,0            174.78839,-36.89391,0            174.78846,-36.89405,0            174.78852,-36.89417,0            174.78858,-36.89433,0            174.7884086,-36.8944593,0            174.7884,-36.89463,0            174.78849,-36.89474,0            174.78858,-36.89482,0            174.78871,-36.89486,0            174.78886,-36.89491,0            174.78903,-36.89495,0            174.78922,-36.89488,0            174.78929,-36.89494,0            174.78939,-36.89497,0            174.78959,-36.89497,0            174.78978,-36.89497,0            174.78995,-36.89505,0            174.79013,-36.89513,0            174.7901956,-36.8951846,0            174.790347,-36.895368,0            174.7900253,-36.8955018,0            174.7895823,-36.8955565,0            174.78959,-36.89592,0            174.7899483,-36.8958798,0            174.78959,-36.89592,0            174.78954,-36.89601,0            174.78945,-36.89609,0            174.78922,-36.89631,0            174.78921,-36.8965,0            174.78929,-36.89663,0            174.78939,-36.89674,0            174.7895,-36.89681,0            174.78962,-36.89688,0            174.78977,-36.89707,0            174.78981,-36.89728,0            174.78966,-36.89734,0            174.78934,-36.89757,0            174.78911,-36.89766,0            174.7888927,-36.8977157,0            174.78874,-36.89758,0            174.78864,-36.89722,0            174.78856,-36.89689,0            174.78845,-36.89659,0            174.7884263,-36.8963493,0            174.7885278,-36.8962286,0            174.78858,-36.89605,0            174.7891,-36.89599,0          </coordinates></LineString></Placemark><Placemark><name>Start</name><styleUrl>#icon-1899-0F9D58-nodesc</styleUrl><Point><coordinates>            174.7899608,-36.8958762,0          </coordinates></Point></Placemark><Placemark><name>Finish</name><styleUrl>#icon-1899-FF5252-nodesc</styleUrl><Point><coordinates>            174.7891322,-36.8954087,0          </coordinates></Point></Placemark></Folder></Document></kml>