<?xml version="1.0" encoding="UTF-8"?><kml xmlns="http://www.opengis.net/kml/2.2"><Document><name>Dunedin parkrun (from Nov 2025)</name><description/><Style id="icon-503-009D57-nodesc-normal"><IconStyle><color>ff579d00</color><scale>1.1</scale><Icon><href>https://www.gstatic.com/mapspro/images/stock/503-wht-blank_maps.png</href></Icon><hotSpot x="16" xunits="pixels" y="32" yunits="insetPixels"/></IconStyle><LabelStyle><scale>0</scale></LabelStyle><BalloonStyle><text><![CDATA[<h3>$[name]</h3>]]></text></BalloonStyle></Style><Style id="icon-503-009D57-nodesc-highlight"><IconStyle><color>ff579d00</color><scale>1.1</scale><Icon><href>https://www.gstatic.com/mapspro/images/stock/503-wht-blank_maps.png</href></Icon><hotSpot x="16" xunits="pixels" y="32" yunits="insetPixels"/></IconStyle><LabelStyle><scale>1.1</scale></LabelStyle><BalloonStyle><text><![CDATA[<h3>$[name]</h3>]]></text></BalloonStyle></Style><StyleMap id="icon-503-009D57-nodesc"><Pair><key>normal</key><styleUrl>#icon-503-009D57-nodesc-normal</styleUrl></Pair><Pair><key>highlight</key><styleUrl>#icon-503-009D57-nodesc-highlight</styleUrl></Pair></StyleMap><Style id="icon-503-DB4436-nodesc-normal"><IconStyle><color>ff3644db</color><scale>1.1</scale><Icon><href>https://www.gstatic.com/mapspro/images/stock/503-wht-blank_maps.png</href></Icon><hotSpot x="16" xunits="pixels" y="32" yunits="insetPixels"/></IconStyle><LabelStyle><scale>0</scale></LabelStyle><BalloonStyle><text><![CDATA[<h3>$[name]</h3>]]></text></BalloonStyle></Style><Style id="icon-503-DB4436-nodesc-highlight"><IconStyle><color>ff3644db</color><scale>1.1</scale><Icon><href>https://www.gstatic.com/mapspro/images/stock/503-wht-blank_maps.png</href></Icon><hotSpot x="16" xunits="pixels" y="32" yunits="insetPixels"/></IconStyle><LabelStyle><scale>1.1</scale></LabelStyle><BalloonStyle><text><![CDATA[<h3>$[name]</h3>]]></text></BalloonStyle></Style><StyleMap id="icon-503-DB4436-nodesc"><Pair><key>normal</key><styleUrl>#icon-503-DB4436-nodesc-normal</styleUrl></Pair><Pair><key>highlight</key><styleUrl>#icon-503-DB4436-nodesc-highlight</styleUrl></Pair></StyleMap><Style id="line-0288D1-5000-nodesc-normal"><LineStyle><color>ffd18802</color><width>5</width></LineStyle><BalloonStyle><text><![CDATA[<h3>$[name]</h3>]]></text></BalloonStyle></Style><Style id="line-0288D1-5000-nodesc-highlight"><LineStyle><color>ffd18802</color><width>7.5</width></LineStyle><BalloonStyle><text><![CDATA[<h3>$[name]</h3>]]></text></BalloonStyle></Style><StyleMap id="line-0288D1-5000-nodesc"><Pair><key>normal</key><styleUrl>#line-0288D1-5000-nodesc-normal</styleUrl></Pair><Pair><key>highlight</key><styleUrl>#line-0288D1-5000-nodesc-highlight</styleUrl></Pair></StyleMap><Folder><name>Untitled layer</name><Placemark><name>Course</name><styleUrl>#line-0288D1-5000-nodesc</styleUrl><LineString><tessellate>1</tessellate><coordinates>            170.518582,-45.85766,25.4            170.518583,-45.857651,25.4            170.518635,-45.857614,25.6            170.518727,-45.857513,25.8            170.518741,-45.857486,25.8            170.518752,-45.85746,25.8            170.518763,-45.857444,25.8            170.518777,-45.857423,26            170.518813,-45.857358,26            170.518832,-45.857327,26            170.518903,-45.857272,26            170.518927,-45.85725,26            170.51896,-45.857224,26            170.519073,-45.857127,26.4            170.519105,-45.857099,26.4            170.519165,-45.85703,26.4            170.519187,-45.857,26.4            170.519239,-45.856932,26.4            170.519273,-45.856879,26.6            170.519283,-45.856865,26.6            170.519376,-45.856781,26.8            170.519396,-45.85677,26.8            170.519554,-45.856666,26.8            170.519669,-45.856584,26.8            170.519765,-45.856486,26.8            170.519836,-45.856403,27            170.51992,-45.856287,27            170.520008,-45.856131,26.6            170.520074,-45.856029,27            170.520048,-45.855911,27.2            170.519892,-45.855815,27.4            170.519838,-45.855784,27.4            170.519753,-45.855733,27.4            170.519617,-45.855648,27.2            170.519497,-45.855573,27.4            170.519336,-45.855462,27.2            170.519143,-45.855352,27.4            170.519013,-45.855338,27.8            170.518952,-45.85544,27.8            170.518894,-45.855534,27.8            170.518814,-45.855614,27.6            170.518745,-45.855685,27.6            170.518712,-45.855714,27.8            170.518591,-45.855842,27.8            170.518462,-45.855977,27.8            170.518382,-45.856075,28            170.518343,-45.856104,28.2            170.51828,-45.856156,27.8            170.51824,-45.856191,27.4            170.518146,-45.856289,27.8            170.518101,-45.856333,28            170.518043,-45.856394,28            170.518033,-45.856411,27.8            170.517925,-45.856519,28.2            170.517912,-45.85653,28.2            170.51783,-45.856613,28            170.517777,-45.856731,28            170.517727,-45.856857,28            170.517705,-45.856994,27.8            170.51768,-45.857112,27.4            170.517649,-45.857229,27.2            170.517624,-45.857354,27            170.517634,-45.857511,26.8            170.517675,-45.857634,26.8            170.51772,-45.857742,26.6            170.517741,-45.857744,26.6            170.51784,-45.85773,26.6            170.51798,-45.857693,26.6            170.518177,-45.857672,26.4            170.518366,-45.85766,26.2            170.518544,-45.857633,26.4            170.518567,-45.857625,26.4            170.518667,-45.857545,26.2            170.518732,-45.85744,26.6            170.518755,-45.857392,26.4            170.518849,-45.857307,26.4            170.518885,-45.857284,26.4            170.519012,-45.857181,26.4            170.519142,-45.857058,26.6            170.519191,-45.856981,26.6            170.519232,-45.856916,26.8            170.519388,-45.856779,27.2            170.519542,-45.856671,27            170.519622,-45.856581,27.2            170.519725,-45.856508,27.2            170.519823,-45.856404,27.4            170.519888,-45.856323,27.2            170.519911,-45.856292,27.2            170.520011,-45.856125,27.4            170.520018,-45.856112,27.4            170.520074,-45.856019,27.8            170.520099,-45.855968,27.8            170.520073,-45.855923,27.6            170.520031,-45.855898,27.4            170.519851,-45.855777,27.6            170.519667,-45.855664,27.8            170.519601,-45.855625,28            170.519435,-45.855522,28            170.519253,-45.855414,28.2            170.519205,-45.855381,28.2            170.519042,-45.855334,28.4            170.518972,-45.855368,28.4            170.518957,-45.855416,28.6            170.5189,-45.855534,28.2            170.518766,-45.855664,28.2            170.518611,-45.855815,28.4            170.518597,-45.85583,28.6            170.518471,-45.855951,28.4            170.518342,-45.856072,28.4            170.518312,-45.856098,28.4            170.518226,-45.856201,29.2            170.518077,-45.856361,28.6            170.517936,-45.856498,28.4            170.517814,-45.856635,28.2            170.517775,-45.856734,28            170.517717,-45.856864,27.8            170.51769,-45.856995,27.6            170.517669,-45.857062,27.4            170.517661,-45.857102,27.4            170.517632,-45.85725,27.4            170.517629,-45.857359,27.2            170.517637,-45.857507,27            170.517681,-45.85763,26.8            170.5177,-45.857752,26.6            170.517706,-45.857792,26.4            170.517725,-45.857866,26.6            170.517817,-45.857876,26.4            170.518011,-45.857874,26.2            170.518181,-45.857878,26.2            170.518367,-45.857848,25.6            170.518538,-45.85779,25.6            170.518582,-45.857771,25.6            170.518657,-45.85769,26            170.5187,-45.857567,25.8            170.518804,-45.857396,25.8            170.518812,-45.85738,25.8            170.518916,-45.857286,25.8            170.518932,-45.857274,25.8            170.519103,-45.857125,26            170.519163,-45.857065,26.2            170.51916,-45.857065,26.2            170.519196,-45.857051,26            170.519288,-45.857074,26.4            170.519395,-45.857159,26.6            170.519388,-45.857177,26.8            170.519365,-45.857207,26.8            170.519293,-45.857287,26.2            170.519186,-45.85735,26.2            170.519116,-45.857411,26            170.519062,-45.857459,26            170.519028,-45.857488,26.2            170.518947,-45.857599,26.4            170.518967,-45.857672,26.8            170.518987,-45.857702,27            170.51901,-45.857725,27            170.519081,-45.857798,27.4            170.519093,-45.857814,27.6            170.519139,-45.857867,27.8            170.519191,-45.85792,28.2            170.51926,-45.85798,28.6            170.519278,-45.858006,29            170.519318,-45.858063,29.8            170.519345,-45.858127,30.8            170.519351,-45.858188,32            170.519366,-45.858227,32.8            170.519369,-45.858236,33            170.51937,-45.858307,34            170.519368,-45.858339,34.4            170.519366,-45.858382,34.2            170.519366,-45.858397,34.2            170.519366,-45.858411,34            170.519352,-45.858457,33.6            170.519337,-45.858524,33            170.519326,-45.858585,32.6            170.519328,-45.858669,31.8            170.519333,-45.858682,31.8            170.51935,-45.858737,31.8            170.519359,-45.858771,31.6            170.519393,-45.85887,31.4            170.519394,-45.858898,31            170.519392,-45.858926,30.8            170.519398,-45.859003,30.4            170.519418,-45.859083,29.8            170.519416,-45.859093,29.6            170.519377,-45.859207,29.4            170.519297,-45.859289,30            170.519253,-45.859381,30.2            170.519196,-45.859491,29.2            170.519178,-45.859538,28.6            170.519177,-45.859549,28.4            170.519164,-45.859568,28            170.519151,-45.859594,27.4            170.51911,-45.859677,26.4            170.519104,-45.859697,26.2            170.519102,-45.859732,25.8            170.519095,-45.859784,25.4            170.519092,-45.85984,25.2            170.519066,-45.860003,26            170.519049,-45.860059,26.4            170.519037,-45.860081,26.6            170.518998,-45.860172,27.2            170.518995,-45.860186,27.4            170.518993,-45.860216,27.6            170.51898,-45.860316,28            170.518933,-45.86043,28            170.518877,-45.860522,28            170.518821,-45.860625,27.2            170.518762,-45.860709,26.4            170.518738,-45.860725,26.4            170.518679,-45.860784,26            170.51862,-45.860858,25.2            170.51859,-45.860889,25.2            170.518462,-45.86101,25            170.518389,-45.8611,24.8            170.518364,-45.86113,24.8            170.518332,-45.861173,24.8            170.518281,-45.861255,24.8            170.518272,-45.861272,24.8            170.518206,-45.861393,24.4            170.51819,-45.861441,24.2            170.518234,-45.861535,24.6            170.51831,-45.861554,25.2            170.518355,-45.861561,26.2            170.51837,-45.861566,26.6            170.51841,-45.861594,27.8            170.518415,-45.861603,28            170.518427,-45.861626,28.2            170.51844,-45.861641,28.2            170.518493,-45.86169,28.8            170.518512,-45.861712,29.2            170.518543,-45.86176,30            170.518573,-45.861799,30.8            170.518583,-45.861811,31.2            170.518594,-45.861822,31.4            170.518606,-45.861834,31.6            170.518614,-45.861845,32            170.518622,-45.861859,32.2            170.518634,-45.861874,32.4            170.518645,-45.861888,32.8            170.518667,-45.861905,33.2            170.518685,-45.861908,33.6            170.518717,-45.861887,34.2            170.518717,-45.861874,34.4            170.518719,-45.86177,35.4            170.518727,-45.861754,35.6            170.518785,-45.86171,36.6            170.518856,-45.861702,37.8            170.518886,-45.861696,38.2            170.518931,-45.86169,39            170.518964,-45.861689,39.6            170.519016,-45.861688,40            170.519053,-45.861678,41            170.519062,-45.861676,41.2            170.51907,-45.861645,42.4            170.519062,-45.861616,43.6            170.519042,-45.861588,44.2            170.519023,-45.861563,44.6            170.519008,-45.861535,45.4            170.518997,-45.861518,45.8            170.51897,-45.861465,47            170.518918,-45.861416,48.2            170.518905,-45.861399,48.8            170.518876,-45.861366,49.4            170.518848,-45.861316,50.4            170.518844,-45.861308,50.6            170.518862,-45.861253,51.8            170.518874,-45.861242,52            170.518944,-45.861185,52.8            170.518985,-45.86116,53.4            170.519074,-45.861117,54            170.519141,-45.861079,54.2            170.519267,-45.861003,54.2            170.519319,-45.860969,54            170.519382,-45.860936,54.2            170.519475,-45.860903,54.6            170.519551,-45.860871,54.8            170.519566,-45.860861,55            170.519624,-45.860819,55.8            170.519633,-45.860811,56            170.519652,-45.860777,57            170.519662,-45.860768,57.6            170.519692,-45.860751,58            170.519725,-45.860736,58.8            170.519741,-45.860727,59.2            170.519777,-45.860691,60.2            170.519783,-45.860684,60.6            170.519799,-45.860666,61.4            170.519809,-45.860655,61.6            170.519818,-45.86062,62.4            170.519821,-45.860606,62.6            170.519843,-45.86057,63.4            170.519845,-45.860566,63.6            170.519867,-45.860524,64.8            170.519877,-45.860515,65.2            170.519908,-45.860474,66            170.519929,-45.860444,66.6            170.519943,-45.860416,67            170.519977,-45.860377,67.4            170.519986,-45.860367,67.6            170.520002,-45.860298,68            170.520007,-45.860288,68.2            170.520043,-45.860206,68.6            170.520094,-45.860142,69.2            170.520136,-45.860099,69.8            170.520181,-45.859976,70            170.52018,-45.859959,70.2            170.520181,-45.859928,70.4            170.520173,-45.859815,70.6            170.520156,-45.8597,71.4            170.520157,-45.859651,71.6            170.520158,-45.859569,72            170.520149,-45.859503,72            170.520117,-45.859373,72            170.520161,-45.859249,71.6            170.520248,-45.859152,71.6            170.520266,-45.859144,71.8            170.520298,-45.859083,72            170.520326,-45.85901,72.2            170.520357,-45.85885,72            170.52034,-45.858785,70.8            170.520337,-45.858768,70.6            170.520329,-45.858729,70.2            170.520292,-45.858643,69.4            170.520273,-45.858612,69.2            170.520254,-45.858585,69            170.520245,-45.858573,68.8            170.520216,-45.858538,68.6            170.520183,-45.858503,68.6            170.52016,-45.858446,68.6            170.520161,-45.858417,68.6            170.52021,-45.858348,69.2            170.520237,-45.858323,69.6            170.520295,-45.85829,70.2            170.520371,-45.858245,71            170.520433,-45.858148,70.8            170.520445,-45.858132,70.8            170.520533,-45.858038,70.2            170.520673,-45.857943,69.8            170.520831,-45.857884,70.2            170.520854,-45.857879,70.2            170.520941,-45.857871,70.8            170.521024,-45.85785,71.2            170.521042,-45.857845,71.2            170.521172,-45.857803,71.6            170.52132,-45.857739,71.6            170.521449,-45.857698,71.8            170.521472,-45.857691,71.8            170.521568,-45.857646,72            170.521616,-45.857596,71.8            170.521683,-45.857538,71            170.521726,-45.857501,70.6            170.521736,-45.857491,70.4            170.521746,-45.85748,70            170.521849,-45.857409,69            170.521866,-45.857396,68.6            170.521933,-45.85735,67.8            170.522035,-45.857292,67.2            170.522171,-45.857189,67.2            170.522205,-45.857166,67.2            170.522223,-45.857154,67.4            170.522279,-45.857121,67.2            170.522315,-45.857095,67            170.52235,-45.85707,66.8            170.522478,-45.857018,66            170.522497,-45.857009,65.8            170.52256,-45.856952,64.6            170.522569,-45.856943,64.4            170.522605,-45.856901,63.4            170.522652,-45.856864,62.4            170.522667,-45.856852,62.2            170.522682,-45.85684,61.8            170.522719,-45.856812,60.8            170.522744,-45.856774,60.2            170.52274,-45.856734,59.8            170.52274,-45.856682,59.2            170.52274,-45.856669,59            170.522741,-45.856654,58.6            170.522728,-45.856573,57.6            170.522716,-45.856531,56.8            170.522709,-45.856521,56.6            170.522674,-45.856458,55.4            170.522656,-45.856426,55            170.522641,-45.856396,54.4            170.52258,-45.85635,53.4            170.522561,-45.856344,53.2            170.522371,-45.856326,52.6            170.522225,-45.856319,52.4            170.522151,-45.856321,52.2            170.521989,-45.856325,51.6            170.521891,-45.856331,51.2            170.521802,-45.856329,50.6            170.521736,-45.856329,50.2            170.521644,-45.856339,49            170.521544,-45.856352,48            170.521498,-45.856358,47.4            170.521444,-45.856355,46.8            170.521286,-45.856345,45.8            170.521151,-45.856346,45.8            170.521115,-45.856352,45.4            170.521023,-45.856358,44.8            170.520891,-45.856381,43.6            170.520726,-45.856417,42.8            170.520687,-45.856436,42.6            170.520623,-45.856484,42.2            170.520517,-45.856613,41.8            170.520393,-45.856721,41.6            170.520359,-45.856741,41.6            170.520268,-45.856812,40.8            170.520206,-45.856856,40.4            170.520145,-45.856884,39.2            170.52011,-45.8569,38.6            170.520088,-45.856909,38.2            170.520001,-45.856945,36.8            170.519959,-45.856956,36.4            170.51992,-45.856966,35.8            170.519841,-45.856997,34.6            170.519827,-45.857003,34.4            170.519778,-45.857011,33.6            170.519704,-45.857035,32.4            170.51966,-45.857056,31.8            170.51962,-45.857075,31.4            170.519549,-45.857109,30.2            170.519529,-45.857119,30            170.519456,-45.857155,29            170.519403,-45.857192,28.6            170.519326,-45.857251,28            170.519246,-45.857314,27.8            170.51915,-45.857383,27.6            170.519114,-45.857417,27.6            170.519071,-45.857458,27.6            170.518994,-45.85753,27.6            170.518979,-45.857556,27.6            170.518982,-45.857675,28.2            170.519051,-45.857763,28.6            170.519108,-45.857822,28.8            170.519152,-45.857863,29            170.519166,-45.857875,29            170.519213,-45.857916,29.2            170.519274,-45.857971,29.8            170.519298,-45.857991,30            170.51934,-45.858049,30.8            170.519361,-45.858082,31.2            170.519368,-45.858094,31.4            170.519388,-45.858133,32.4            170.519386,-45.858167,33            170.51939,-45.858204,33.6            170.519403,-45.858245,34.4            170.519398,-45.858271,34.8            170.5194,-45.858311,35.2            170.519404,-45.858381,35.2            170.519403,-45.858397,35            170.519375,-45.858503,34.2            170.519371,-45.858548,33.6            170.519359,-45.858616,33.2            170.519363,-45.858647,32.8            170.519373,-45.858692,32.6            170.519397,-45.858739,32.6            170.519403,-45.858776,32.6            170.519405,-45.858795,32.6            170.519409,-45.858836,32.6            170.519416,-45.858873,32.2            170.519423,-45.858945,31.6            170.519425,-45.858962,31.6            170.519432,-45.859011,31.2            170.51943,-45.859048,30.8            170.519431,-45.859091,30.6            170.519418,-45.859143,30.4            170.519382,-45.859208,30.4            170.519348,-45.859266,30.6            170.519272,-45.859361,31            170.519234,-45.859482,30.4            170.519209,-45.859529,29.6            170.5192,-45.859548,29.2            170.519182,-45.85958,28.6            170.519143,-45.859649,27.6            170.519132,-45.859663,27.4            170.519095,-45.859777,26.4            170.519105,-45.859842,26.4            170.519112,-45.859892,26.4            170.519089,-45.86005,27.4            170.519081,-45.860064,27.6            170.519028,-45.860168,28.2            170.519024,-45.860207,28.6            170.519021,-45.860224,28.6            170.518983,-45.86034,29            170.518956,-45.86044,29.2            170.518904,-45.860525,29            170.518876,-45.86059,28.8            170.518853,-45.86062,28.4            170.51882,-45.860657,28            170.518769,-45.860706,27.6            170.518736,-45.860739,27.2            170.518657,-45.860816,26.6            170.518648,-45.860828,26.4            170.518601,-45.860891,26.2            170.518561,-45.86095,26.2            170.518448,-45.861055,26            170.518362,-45.861142,26            170.518305,-45.86123,26            170.518276,-45.861291,26            170.51821,-45.861381,25.6            170.518208,-45.86152,25.8            170.518333,-45.861556,26.8            170.518383,-45.861571,27.8            170.518425,-45.861604,29            170.518432,-45.861612,29.2            170.518468,-45.861651,29.8            170.518482,-45.861664,30            170.518498,-45.861676,30.2            170.518514,-45.861692,30.4            170.518547,-45.861733,31.2            170.518583,-45.861787,32            170.518594,-45.861795,32.2            170.518638,-45.861845,33.4            170.51865,-45.861866,34            170.518665,-45.86189,34.4            170.51869,-45.8619,35            170.518707,-45.861891,35.4            170.518717,-45.861883,35.6            170.518727,-45.861828,36.2            170.518745,-45.861765,36.8            170.518786,-45.861726,37.8            170.5188,-45.861719,38            170.518858,-45.861699,39            170.518879,-45.861691,39.4            170.518912,-45.861684,40            170.518959,-45.861677,41            170.519024,-45.861672,42.2            170.519028,-45.861671,42.6            170.519079,-45.861652,43.4            170.519084,-45.861641,43.8            170.519078,-45.861626,44.6            170.519051,-45.861597,45.6            170.519045,-45.861593,45.6            170.519002,-45.861545,46.6            170.51899,-45.861532,46.8            170.518959,-45.861489,48            170.518951,-45.861479,48.2            170.518934,-45.861457,49            170.518917,-45.861424,49.6            170.518899,-45.861403,50            170.518855,-45.861347,51            170.518854,-45.86134,51.2            170.518845,-45.861307,51.8            170.518844,-45.8613,52            170.518843,-45.861294,52.2            170.51888,-45.861244,53.4            170.518888,-45.861235,53.6            170.518941,-45.861186,54.4            170.519003,-45.86115,54.8            170.519099,-45.861098,55.4            170.519112,-45.86109,55.6            170.519267,-45.860993,55.4            170.519338,-45.860956,55.6            170.519417,-45.860925,55.6            170.519472,-45.860905,55.8            170.519522,-45.860886,56.2            170.519566,-45.860859,56.4            170.519612,-45.860825,57            170.519643,-45.860796,57.6            170.519669,-45.860777,58.6            170.519672,-45.860769,58.6            170.519714,-45.860732,59.8            170.519727,-45.860724,60.2            170.519751,-45.860699,61            170.519771,-45.860684,61.6            170.519798,-45.860662,62.2            170.519823,-45.860629,63.2            170.51983,-45.860624,63.4            170.519842,-45.860589,64.4            170.519844,-45.860583,64.4            170.519854,-45.860545,65.6            170.519888,-45.860492,66.6            170.519898,-45.860482,66.8            170.519952,-45.860437,67.8            170.51996,-45.860429,68            170.519975,-45.860415,68.4            170.520009,-45.860365,68.8            170.520039,-45.860269,69.4            170.520057,-45.860218,69.8            170.520083,-45.860154,70.4            170.520113,-45.860102,70.8            170.52014,-45.860063,71.2            170.520161,-45.859997,71.2            170.520187,-45.85994,71.6            170.520194,-45.859872,71.8            170.520187,-45.859835,72            170.520176,-45.859806,72.2            170.520172,-45.859761,72.4            170.520157,-45.859704,72.8            170.520155,-45.85968,73            170.520155,-45.859563,73.4            170.520136,-45.859427,73.6            170.52013,-45.85932,73.4            170.520143,-45.859252,73.2            170.520153,-45.859217,73            170.520177,-45.859179,73.2            170.520218,-45.859143,73.2            170.520308,-45.859061,73.6            170.520326,-45.858973,73.8            170.520327,-45.858937,73.8            170.520341,-45.858802,73            170.520336,-45.858735,72            170.520311,-45.858665,71.2            170.520293,-45.858635,70.8            170.520263,-45.858593,70.4            170.520256,-45.858585,70.2            170.52019,-45.858492,69.8            170.52016,-45.858437,70            170.520177,-45.858379,70.2            170.520186,-45.858369,70.4            170.520272,-45.858295,71            170.520336,-45.858263,72            170.52036,-45.858245,72.4            170.520405,-45.858175,72.6            170.520415,-45.858159,72.6            170.520421,-45.858143,72.4            170.520511,-45.858032,71.6            170.520641,-45.857952,71.4            170.52085,-45.857871,71.6            170.520935,-45.857857,72            170.520994,-45.857847,72.4            170.521032,-45.857836,72.4            170.521209,-45.857767,72.8            170.521265,-45.857746,73            170.5213,-45.857728,73            170.521386,-45.857692,73            170.521552,-45.857643,73.4            170.521659,-45.857554,72.6            170.521672,-45.857539,72.4            170.521702,-45.857503,72            170.521787,-45.857442,71            170.521806,-45.857429,70.6            170.521855,-45.857391,69.8            170.52198,-45.857315,68.8            170.522102,-45.857218,68.4            170.522192,-45.85716,68.4            170.522233,-45.85714,68.6            170.522335,-45.85708,68            170.522371,-45.85706,67.8            170.522387,-45.857053,67.8            170.522407,-45.857043,67.8            170.522429,-45.857031,67.6            170.522508,-45.856981,66.6            170.522518,-45.856969,66.4            170.522569,-45.856926,65.4            170.522616,-45.856886,64.6            170.52263,-45.856873,64.2            170.52266,-45.856847,63.6            170.522684,-45.856822,63            170.522709,-45.856789,62.2            170.522717,-45.85678,62            170.522735,-45.856708,60.8            170.522733,-45.856695,60.6            170.522719,-45.85664,59.6            170.522695,-45.856562,58.4            170.52269,-45.856484,57.2            170.522672,-45.856428,56.6            170.522655,-45.856404,56            170.522609,-45.856357,55            170.522589,-45.856344,54.8            170.522564,-45.856328,54.4            170.522493,-45.856305,54            170.522468,-45.856298,53.8            170.522316,-45.856293,53.6            170.522134,-45.856304,53            170.522085,-45.856302,52.8            170.521969,-45.856312,52.6            170.521872,-45.85632,52.2            170.521823,-45.856322,51.8            170.521705,-45.856336,50.8            170.521655,-45.856333,50.4            170.521591,-45.856335,49.4            170.521529,-45.856339,48.6            170.521508,-45.85634,48.4            170.521391,-45.856344,47.4            170.521328,-45.856345,47.2            170.52116,-45.85633,47            170.521072,-45.856343,46.4            170.520986,-45.856362,45.6            170.520941,-45.856369,45.2            170.520785,-45.856395,44            170.520655,-45.856458,43.4            170.520554,-45.856538,43            170.520527,-45.856557,43            170.520425,-45.856649,42.6            170.520316,-45.856741,42.2            170.520302,-45.856753,42            170.520247,-45.856813,41.8            170.520193,-45.856843,41.2            170.520166,-45.856854,41            170.520104,-45.856878,40            170.520063,-45.856893,39.2            170.520046,-45.856899,39            170.519973,-45.856919,37.6            170.519928,-45.856939,36.8            170.519907,-45.856948,36.6            170.519815,-45.856979,35.4            170.519795,-45.856986,35.2            170.519746,-45.857007,34.2            170.519698,-45.857033,33.2            170.519675,-45.857039,32.8            170.51959,-45.857076,31.8            170.519544,-45.857092,31.2            170.519519,-45.857099,31            170.519481,-45.857113,30.4            170.519439,-45.85713,29.8            170.519383,-45.857133,29.4            170.519309,-45.857101,28.8            170.519204,-45.857014,28.8            170.519208,-45.856998,28.8            170.519267,-45.856891,28.6            170.519433,-45.856739,28.4            170.519538,-45.856668,28.4            170.519584,-45.856635,28.4            170.519685,-45.85654,28.4            170.519763,-45.856466,28.2            170.519814,-45.856404,28.4            170.519821,-45.856388,28.2            170.519857,-45.856363,27.8            170.519965,-45.856203,28            170.519982,-45.856174,27.8            170.519977,-45.856149,27.4          </coordinates></LineString></Placemark><Placemark><name>Finish</name><styleUrl>#icon-503-DB4436-nodesc</styleUrl><Point><coordinates>            170.519977,-45.856149,27.6          </coordinates></Point></Placemark><Placemark><name>Start</name><styleUrl>#icon-503-009D57-nodesc</styleUrl><Point><coordinates>            170.518582,-45.85766,25.4          </coordinates></Point></Placemark></Folder></Document></kml>