<?xml version="1.0" encoding="UTF-8"?><kml xmlns="http://www.opengis.net/kml/2.2"><Document><name>East End parkrun, New Plymouth</name><description/><Style id="icon-1899-0F9D58-nodesc-normal"><IconStyle><color>ff589d0f</color><scale>1</scale><Icon><href>https://www.gstatic.com/mapspro/images/stock/503-wht-blank_maps.png</href></Icon><hotSpot x="32" xunits="pixels" y="64" yunits="insetPixels"/></IconStyle><LabelStyle><scale>0</scale></LabelStyle><BalloonStyle><text><![CDATA[<h3>$[name]</h3>]]></text></BalloonStyle></Style><Style id="icon-1899-0F9D58-nodesc-highlight"><IconStyle><color>ff589d0f</color><scale>1</scale><Icon><href>https://www.gstatic.com/mapspro/images/stock/503-wht-blank_maps.png</href></Icon><hotSpot x="32" xunits="pixels" y="64" yunits="insetPixels"/></IconStyle><LabelStyle><scale>1</scale></LabelStyle><BalloonStyle><text><![CDATA[<h3>$[name]</h3>]]></text></BalloonStyle></Style><StyleMap id="icon-1899-0F9D58-nodesc"><Pair><key>normal</key><styleUrl>#icon-1899-0F9D58-nodesc-normal</styleUrl></Pair><Pair><key>highlight</key><styleUrl>#icon-1899-0F9D58-nodesc-highlight</styleUrl></Pair></StyleMap><Style id="icon-1899-FF5252-nodesc-normal"><IconStyle><color>ff5252ff</color><scale>1</scale><Icon><href>https://www.gstatic.com/mapspro/images/stock/503-wht-blank_maps.png</href></Icon><hotSpot x="32" xunits="pixels" y="64" yunits="insetPixels"/></IconStyle><LabelStyle><scale>0</scale></LabelStyle><BalloonStyle><text><![CDATA[<h3>$[name]</h3>]]></text></BalloonStyle></Style><Style id="icon-1899-FF5252-nodesc-highlight"><IconStyle><color>ff5252ff</color><scale>1</scale><Icon><href>https://www.gstatic.com/mapspro/images/stock/503-wht-blank_maps.png</href></Icon><hotSpot x="32" xunits="pixels" y="64" yunits="insetPixels"/></IconStyle><LabelStyle><scale>1</scale></LabelStyle><BalloonStyle><text><![CDATA[<h3>$[name]</h3>]]></text></BalloonStyle></Style><StyleMap id="icon-1899-FF5252-nodesc"><Pair><key>normal</key><styleUrl>#icon-1899-FF5252-nodesc-normal</styleUrl></Pair><Pair><key>highlight</key><styleUrl>#icon-1899-FF5252-nodesc-highlight</styleUrl></Pair></StyleMap><Style id="line-0288D1-5000-nodesc-normal"><LineStyle><color>ffd18802</color><width>5</width></LineStyle><BalloonStyle><text><![CDATA[<h3>$[name]</h3>]]></text></BalloonStyle></Style><Style id="line-0288D1-5000-nodesc-highlight"><LineStyle><color>ffd18802</color><width>7.5</width></LineStyle><BalloonStyle><text><![CDATA[<h3>$[name]</h3>]]></text></BalloonStyle></Style><StyleMap id="line-0288D1-5000-nodesc"><Pair><key>normal</key><styleUrl>#line-0288D1-5000-nodesc-normal</styleUrl></Pair><Pair><key>highlight</key><styleUrl>#line-0288D1-5000-nodesc-highlight</styleUrl></Pair></StyleMap><Folder><name>Untitled layer</name><Placemark><name>Course</name><styleUrl>#line-0288D1-5000-nodesc</styleUrl><LineString><tessellate>1</tessellate><coordinates>            174.0949749,-39.0477354,0            174.0951299,-39.0476555,0            174.0952543,-39.0476047,0            174.0949749,-39.0477354,0            174.0950071,-39.0477125,0            174.0951299,-39.0476555,0            174.0950071,-39.0477125,0            174.09534,-39.04756,0            174.09538,-39.04753,0            174.09575,-39.04729,0            174.09604,-39.04709,0            174.09666,-39.04666,0            174.09677,-39.0466,0            174.09691,-39.04654,0            174.09703,-39.04654,0            174.09743,-39.04629,0            174.09795,-39.04597,0            174.09796,-39.04595,0            174.09805,-39.04578,0            174.09813,-39.04568,0            174.09822,-39.04558,0            174.09828,-39.04553,0            174.09863,-39.04526,0            174.09874,-39.04518,0            174.09877,-39.04513,0            174.09878,-39.04511,0            174.09878,-39.04507,0            174.09878,-39.045,0            174.09878,-39.04491,0            174.09872,-39.04482,0            174.09871,-39.04478,0            174.09882,-39.04463,0            174.09898,-39.04436,0            174.09903,-39.04426,0            174.09904,-39.04425,0            174.09941,-39.04389,0            174.09984,-39.0435,0            174.10008,-39.04329,0            174.10017,-39.0432,0            174.10019,-39.04319,0            174.10031,-39.0431,0            174.10046,-39.04299,0            174.10069,-39.04283,0            174.10084,-39.04266,0            174.10086,-39.04262,0            174.10089,-39.04255,0            174.10103,-39.04238,0            174.10109,-39.04231,0            174.10136,-39.04198,0            174.10159,-39.04182,0            174.10174,-39.04171,0            174.10185,-39.04153,0            174.10196,-39.04147,0            174.102,-39.04136,0            174.10207,-39.04129,0            174.10213,-39.04121,0            174.10217,-39.04113,0            174.10226,-39.04101,0            174.10233,-39.04094,0            174.10234,-39.04087,0            174.10237,-39.04081,0            174.10246,-39.04068,0            174.10264,-39.04057,0            174.10272,-39.04051,0            174.10277,-39.04046,0            174.10298,-39.0403,0            174.10312,-39.04019,0            174.10323,-39.04006,0            174.10336,-39.03996,0            174.10347,-39.03982,0            174.1035,-39.03978,0            174.10361,-39.03966,0            174.10373,-39.03958,0            174.10382,-39.03947,0            174.10394,-39.0394,0            174.10411,-39.03936,0            174.10417,-39.03928,0            174.10425,-39.03912,0            174.10425,-39.03911,0            174.10428,-39.03901,0            174.10435,-39.03891,0            174.10458,-39.03878,0            174.10467,-39.03864,0            174.10472,-39.03859,0            174.10477,-39.03852,0            174.10483,-39.03839,0            174.10493,-39.03833,0            174.10504,-39.03828,0            174.1051,-39.0382,0            174.10532,-39.03807,0            174.10561,-39.038,0            174.10582,-39.03794,0            174.10596,-39.03791,0            174.106,-39.03791,0            174.10626,-39.03795,0            174.10645,-39.03807,0            174.1066,-39.03822,0            174.10673,-39.03832,0            174.10692,-39.03836,0            174.10721,-39.03837,0            174.10722,-39.03837,0            174.10744,-39.03834,0            174.10759,-39.03827,0            174.10771,-39.03817,0            174.10774,-39.03816,0            174.10782,-39.03809,0            174.10797,-39.03802,0            174.1082,-39.03808,0            174.10835,-39.0382,0            174.10853,-39.03828,0            174.10887,-39.03821,0            174.10889,-39.03822,0            174.10915,-39.03831,0            174.1093,-39.03837,0            174.1096,-39.03838,0            174.11024,-39.03837,0            174.11061,-39.03836,0            174.11063,-39.03836,0            174.11209,-39.03817,0            174.11218,-39.03816,0            174.1122,-39.0381,0            174.1123,-39.03761,0            174.11234,-39.03743,0            174.11238,-39.03723,0            174.11238,-39.03722,0            174.1123,-39.0371,0            174.11206,-39.03686,0            174.112,-39.03681,0            174.11189,-39.03672,0            174.11169,-39.03646,0            174.1116,-39.03627,0            174.1116,-39.03621,0            174.1116,-39.03612,0            174.11165,-39.03596,0            174.11166,-39.03594,0            174.1127212,-39.0349303,0            174.11166,-39.03594,0            174.11165,-39.03596,0            174.1116,-39.03612,0            174.1116,-39.03621,0            174.1116,-39.03627,0            174.11169,-39.03646,0            174.11189,-39.03672,0            174.112,-39.03681,0            174.11206,-39.03686,0            174.1123,-39.0371,0            174.11238,-39.03722,0            174.11238,-39.03723,0            174.11234,-39.03743,0            174.1123,-39.03761,0            174.1122,-39.0381,0            174.11218,-39.03816,0            174.11209,-39.03817,0            174.11063,-39.03836,0            174.11061,-39.03836,0            174.11024,-39.03837,0            174.1096,-39.03838,0            174.1093,-39.03837,0            174.10915,-39.03831,0            174.10889,-39.03822,0            174.10887,-39.03821,0            174.10853,-39.03828,0            174.10835,-39.0382,0            174.1082,-39.03808,0            174.10797,-39.03802,0            174.10782,-39.03809,0            174.10774,-39.03816,0            174.10771,-39.03817,0            174.10759,-39.03827,0            174.10744,-39.03834,0            174.10722,-39.03837,0            174.10721,-39.03837,0            174.10692,-39.03836,0            174.10673,-39.03832,0            174.1066,-39.03822,0            174.10645,-39.03807,0            174.10626,-39.03795,0            174.106,-39.03791,0            174.10596,-39.03791,0            174.10582,-39.03794,0            174.10561,-39.038,0            174.10532,-39.03807,0            174.1051,-39.0382,0            174.10504,-39.03828,0            174.10493,-39.03833,0            174.10483,-39.03839,0            174.10477,-39.03852,0            174.10472,-39.03859,0            174.10467,-39.03864,0            174.10458,-39.03878,0            174.10435,-39.03891,0            174.10428,-39.03901,0            174.10425,-39.03911,0            174.10425,-39.03912,0            174.10417,-39.03928,0            174.10411,-39.03936,0            174.10394,-39.0394,0            174.10382,-39.03947,0            174.10373,-39.03958,0            174.10361,-39.03966,0            174.1035,-39.03978,0            174.10347,-39.03982,0            174.10336,-39.03996,0            174.10323,-39.04006,0            174.10312,-39.04019,0            174.10298,-39.0403,0            174.10277,-39.04046,0            174.10272,-39.04051,0            174.10264,-39.04057,0            174.10246,-39.04068,0            174.10237,-39.04081,0            174.10234,-39.04087,0            174.10233,-39.04094,0            174.10226,-39.04101,0            174.10217,-39.04113,0            174.10213,-39.04121,0            174.10207,-39.04129,0            174.102,-39.04136,0            174.10196,-39.04147,0            174.10185,-39.04153,0            174.10174,-39.04171,0            174.10159,-39.04182,0            174.10136,-39.04198,0            174.10109,-39.04231,0            174.10103,-39.04238,0            174.10089,-39.04255,0            174.10086,-39.04262,0            174.10084,-39.04266,0            174.10069,-39.04283,0            174.10046,-39.04299,0            174.10031,-39.0431,0            174.10019,-39.04319,0            174.10017,-39.0432,0            174.10008,-39.04329,0            174.09984,-39.0435,0            174.09941,-39.04389,0            174.09904,-39.04425,0            174.09903,-39.04426,0            174.09898,-39.04436,0            174.09882,-39.04463,0            174.09871,-39.04478,0            174.09872,-39.04482,0            174.09878,-39.04491,0            174.09878,-39.045,0            174.09878,-39.04507,0            174.09878,-39.04511,0            174.09877,-39.04513,0            174.09874,-39.04518,0            174.09863,-39.04526,0            174.09828,-39.04553,0            174.09822,-39.04558,0            174.09813,-39.04568,0            174.09805,-39.04578,0            174.09796,-39.04595,0            174.09795,-39.04597,0            174.09743,-39.04629,0            174.09703,-39.04654,0            174.09691,-39.04654,0            174.09677,-39.0466,0            174.09666,-39.04666,0            174.09604,-39.04709,0            174.09575,-39.04729,0            174.09538,-39.04753,0            174.09534,-39.04756,0            174.0950607,-39.0476896,0            174.0949749,-39.0477354,0            174.09534,-39.04756,0          </coordinates></LineString></Placemark><Placemark><name>Finish</name><styleUrl>#icon-1899-FF5252-nodesc</styleUrl><Point><coordinates>            174.0949716,-39.0478159,0          </coordinates></Point></Placemark><Placemark><name>Start</name><styleUrl>#icon-1899-0F9D58-nodesc</styleUrl><Point><coordinates>            174.0949824,-39.0478159,0          </coordinates></Point></Placemark></Folder></Document></kml>