<?xml version="1.0" encoding="UTF-8"?><kml xmlns="http://www.opengis.net/kml/2.2"><Document><name>Hamilton Lake parkrun</name><description/><Style id="icon-1899-0F9D58-nodesc-normal"><IconStyle><color>ff589d0f</color><scale>1</scale><Icon><href>https://www.gstatic.com/mapspro/images/stock/503-wht-blank_maps.png</href></Icon><hotSpot x="32" xunits="pixels" y="64" yunits="insetPixels"/></IconStyle><LabelStyle><scale>0</scale></LabelStyle><BalloonStyle><text><![CDATA[<h3>$[name]</h3>]]></text></BalloonStyle></Style><Style id="icon-1899-0F9D58-nodesc-highlight"><IconStyle><color>ff589d0f</color><scale>1</scale><Icon><href>https://www.gstatic.com/mapspro/images/stock/503-wht-blank_maps.png</href></Icon><hotSpot x="32" xunits="pixels" y="64" yunits="insetPixels"/></IconStyle><LabelStyle><scale>1</scale></LabelStyle><BalloonStyle><text><![CDATA[<h3>$[name]</h3>]]></text></BalloonStyle></Style><StyleMap id="icon-1899-0F9D58-nodesc"><Pair><key>normal</key><styleUrl>#icon-1899-0F9D58-nodesc-normal</styleUrl></Pair><Pair><key>highlight</key><styleUrl>#icon-1899-0F9D58-nodesc-highlight</styleUrl></Pair></StyleMap><Style id="icon-1899-FF5252-nodesc-normal"><IconStyle><color>ff5252ff</color><scale>1</scale><Icon><href>https://www.gstatic.com/mapspro/images/stock/503-wht-blank_maps.png</href></Icon><hotSpot x="32" xunits="pixels" y="64" yunits="insetPixels"/></IconStyle><LabelStyle><scale>0</scale></LabelStyle><BalloonStyle><text><![CDATA[<h3>$[name]</h3>]]></text></BalloonStyle></Style><Style id="icon-1899-FF5252-nodesc-highlight"><IconStyle><color>ff5252ff</color><scale>1</scale><Icon><href>https://www.gstatic.com/mapspro/images/stock/503-wht-blank_maps.png</href></Icon><hotSpot x="32" xunits="pixels" y="64" yunits="insetPixels"/></IconStyle><LabelStyle><scale>1</scale></LabelStyle><BalloonStyle><text><![CDATA[<h3>$[name]</h3>]]></text></BalloonStyle></Style><StyleMap id="icon-1899-FF5252-nodesc"><Pair><key>normal</key><styleUrl>#icon-1899-FF5252-nodesc-normal</styleUrl></Pair><Pair><key>highlight</key><styleUrl>#icon-1899-FF5252-nodesc-highlight</styleUrl></Pair></StyleMap><Style id="line-0288D1-5000-nodesc-normal"><LineStyle><color>ffd18802</color><width>5</width></LineStyle><BalloonStyle><text><![CDATA[<h3>$[name]</h3>]]></text></BalloonStyle></Style><Style id="line-0288D1-5000-nodesc-highlight"><LineStyle><color>ffd18802</color><width>7.5</width></LineStyle><BalloonStyle><text><![CDATA[<h3>$[name]</h3>]]></text></BalloonStyle></Style><StyleMap id="line-0288D1-5000-nodesc"><Pair><key>normal</key><styleUrl>#line-0288D1-5000-nodesc-normal</styleUrl></Pair><Pair><key>highlight</key><styleUrl>#line-0288D1-5000-nodesc-highlight</styleUrl></Pair></StyleMap><Folder><name>Untitled layer</name><Placemark><name>Course</name><styleUrl>#line-0288D1-5000-nodesc</styleUrl><LineString><tessellate>1</tessellate><coordinates>            175.270539,-37.800779,42.8            175.270538,-37.800769,10085.8            175.270548,-37.800754,3111.8            175.270562,-37.800742,5511.8            175.27058,-37.800727,6362.2            175.270599,-37.800713,6693            175.270626,-37.800696,6816.2            175.270657,-37.800678,6864.8            175.270689,-37.800661,6882.2            175.270719,-37.800642,6888.8            175.270747,-37.800625,6891.2            175.270802,-37.800593,6892.4            175.270995,-37.800479,6892.6            175.271161,-37.800354,6892.6            175.27131,-37.80019,6892.6            175.271282,-37.800007,6892.6            175.271229,-37.799819,6892.6            175.271191,-37.799627,6892.6            175.271144,-37.79945,6892.6            175.270949,-37.799346,6892.6            175.270705,-37.799284,6892.6            175.270502,-37.799202,6892.6            175.270309,-37.799086,6892.6            175.270129,-37.798959,6892.6            175.269968,-37.798811,6892.6            175.269866,-37.798629,6892.6            175.269823,-37.798435,6892.6            175.26975,-37.798261,6892.6            175.269651,-37.79808,6892.6            175.269598,-37.797901,6892.6            175.26956,-37.797724,6892.6            175.269517,-37.797523,6892.6            175.269498,-37.797324,6892.6            175.269477,-37.797125,6892.6            175.269558,-37.796933,6892.6            175.269674,-37.79677,6892.6            175.269788,-37.796607,6892.6            175.2697,-37.796427,6892.6            175.269585,-37.796271,6892.6            175.26944,-37.796101,6892.6            175.269296,-37.795932,6892.6            175.26922,-37.79574,6892.6            175.269226,-37.79554,6892.6            175.269329,-37.795365,6892.6            175.269432,-37.795194,6892.6            175.269542,-37.79501,6892.6            175.269675,-37.794845,6892.6            175.269824,-37.794695,6892.6            175.270002,-37.794554,6892.6            175.270156,-37.794411,6892.6            175.270266,-37.794241,6892.6            175.270327,-37.794057,6892.6            175.270338,-37.79387,6892.6            175.270365,-37.793663,6892.6            175.270502,-37.793489,6892.6            175.270696,-37.793352,6892.6            175.270883,-37.79325,6892.6            175.271085,-37.793164,6892.6            175.271302,-37.793054,6892.6            175.271521,-37.792952,6892.6            175.271754,-37.792898,6892.6            175.272015,-37.792884,6892.6            175.272247,-37.792903,6892.6            175.272474,-37.792945,6892.6            175.272697,-37.79304,6892.6            175.272872,-37.79316,6892.6            175.273064,-37.793295,6892.6            175.273298,-37.793319,6892.6            175.273526,-37.793322,6892.6            175.273769,-37.793322,6892.6            175.274027,-37.793331,6892.6            175.274283,-37.793348,6892.6            175.274534,-37.793336,6892.6            175.274779,-37.793327,6892.6            175.275011,-37.793341,6892.6            175.27524,-37.793358,6892.6            175.27548,-37.793426,6892.6            175.275703,-37.793536,6892.6            175.275826,-37.793709,6892.6            175.275921,-37.793886,6892.6            175.275888,-37.79408,6892.6            175.27587,-37.794287,6892.6            175.275818,-37.794485,6892.6            175.275749,-37.794672,6892.6            175.27567,-37.79487,6892.6            175.275575,-37.795049,6892.6            175.275459,-37.795219,6892.6            175.275367,-37.795414,6892.6            175.275342,-37.795612,6892.6            175.275352,-37.795806,6892.6            175.275367,-37.795993,6892.6            175.275339,-37.796193,6892.6            175.275234,-37.796366,6892.6            175.275195,-37.796558,6892.6            175.275246,-37.796744,6892.6            175.275459,-37.796837,6892.6            175.275697,-37.796879,6892.6            175.275929,-37.796904,6892.6            175.276158,-37.796949,6892.6            175.276399,-37.797025,6892.6            175.276611,-37.797132,6892.6            175.276818,-37.797235,6892.6            175.276992,-37.797345,6892.6            175.277177,-37.797469,6892.6            175.277378,-37.797577,6892.8            175.277593,-37.797669,6892.8            175.277829,-37.797737,6892.8            175.278053,-37.797779,6892.8            175.278297,-37.797787,6892.8            175.278544,-37.797809,6892.8            175.278756,-37.797885,6892.8            175.278908,-37.79803,6892.8            175.279001,-37.798225,6892.8            175.27904,-37.798404,6892.8            175.279018,-37.798591,6892.8            175.278973,-37.798777,6892.8            175.278912,-37.798978,6892.8            175.278857,-37.79917,6892.8            175.278931,-37.799356,6892.8            175.279087,-37.799508,6892.8            175.279204,-37.799681,6892.8            175.279187,-37.799879,6892.8            175.279053,-37.800038,6892.8            175.278892,-37.800194,6892.8            175.278784,-37.80036,6892.8            175.278964,-37.800488,6892.8            175.27915,-37.800623,6892.8            175.279236,-37.800816,6892.8            175.279195,-37.800996,6892.8            175.279152,-37.801199,6892.8            175.279036,-37.80135,6892.8            175.278965,-37.801545,6892.8            175.278898,-37.801721,6892.8            175.278803,-37.801903,6892.8            175.278756,-37.802085,6892.8            175.278875,-37.802256,6892.8            175.278978,-37.802431,6892.8            175.279115,-37.802582,6892.8            175.279201,-37.802694,6892.8            175.279386,-37.802818,6892.8            175.279484,-37.80299,6892.8            175.279586,-37.803175,6892.8            175.279638,-37.803376,6892.8            175.279625,-37.803571,6892.8            175.279482,-37.803705,6892.8            175.279236,-37.80371,6892.8            175.279002,-37.803709,6892.8            175.27874,-37.803699,6892.8            175.278519,-37.803649,6892.8            175.278382,-37.803613,6892.8            175.278137,-37.80359,6892.8            175.277908,-37.803568,6892.8            175.27767,-37.803508,6892.8            175.27744,-37.803447,6892.8            175.277219,-37.803394,6892.8            175.277005,-37.803297,6892.8            175.276832,-37.803149,6892.8            175.27681,-37.802967,6892.8            175.27663,-37.802835,6892.8            175.276418,-37.802722,6892.8            175.27623,-37.802602,6892.8            175.276117,-37.802444,6892.8            175.27598,-37.802276,6892.8            175.275858,-37.802117,6892.8            175.275678,-37.802003,6892.8            175.275486,-37.801895,6892.8            175.275269,-37.80182,6892.8            175.275085,-37.801711,6892.8            175.274837,-37.801719,6892.8            175.274622,-37.801638,6892.8            175.274494,-37.801461,6892.8            175.274395,-37.80127,6892.8            175.274293,-37.801111,6892.8            175.274246,-37.80106,6892.8            175.274232,-37.800878,6892.8            175.274111,-37.800691,6892.8            175.273925,-37.800589,6892.8            175.273891,-37.800403,6892.8            175.273732,-37.800273,6892.8            175.273673,-37.800082,6892.8            175.273653,-37.800034,6892.8            175.273494,-37.799881,6892.8            175.273299,-37.799787,6892.8            175.273088,-37.799693,6892.8            175.273011,-37.79967,6892.8            175.272781,-37.799693,6892.8            175.272524,-37.799697,6892.8            175.272273,-37.799659,6892.8            175.272036,-37.799681,6892.8            175.271811,-37.79967,6892.8            175.271602,-37.799552,6892.8            175.271377,-37.79947,6892.8            175.271141,-37.799431,6892.8            175.27091,-37.799386,6892.8            175.270689,-37.79932,6892.8            175.270483,-37.799238,6892.8            175.270276,-37.799127,6892.8            175.270108,-37.798994,6892.8            175.269978,-37.798888,6892.8            175.269876,-37.798701,6892.8            175.269843,-37.798504,6892.8            175.269789,-37.798327,6892.8            175.269682,-37.798154,6892.8            175.269622,-37.797956,6892.8            175.269588,-37.797759,6892.8            175.269528,-37.797582,6892.8            175.269504,-37.797386,6892.8            175.26947,-37.797192,6892.8            175.269515,-37.797003,6892.8            175.269614,-37.796832,6892.8            175.269743,-37.796655,6892.8            175.269762,-37.79657,6892.8            175.269667,-37.796733,6892.8            175.269504,-37.796888,6892.8            175.269345,-37.797027,6892.8            175.269211,-37.797203,6892.8            175.269123,-37.797385,6892.8            175.269089,-37.797572,6892.8            175.269089,-37.797763,6892.8            175.269083,-37.797957,6892.8            175.269071,-37.798146,6892.8            175.269068,-37.798348,6892.8            175.269055,-37.798538,6892.8            175.269131,-37.798717,6892.8            175.269242,-37.798893,6892.8            175.269334,-37.799083,6892.8            175.269466,-37.799231,6892.8            175.26961,-37.799385,6892.8            175.26973,-37.799539,6892.8            175.269817,-37.799711,6892.8            175.269908,-37.799885,6892.8            175.269999,-37.800069,6892.8            175.270064,-37.800261,6892.8            175.270136,-37.800452,6892.8            175.270211,-37.800633,6892.8            175.270356,-37.800798,6892.8            175.270545,-37.800929,6892.8            175.270765,-37.800984,6892.8            175.270976,-37.800919,6892.8            175.271153,-37.800765,6892.8            175.271297,-37.800621,6892.8            175.271426,-37.800468,6892.8            175.271492,-37.800345,6892.8            175.271366,-37.800182,6892.8            175.271202,-37.800012,6892.8            175.271053,-37.799863,6892.8            175.271026,-37.799837,6892.8            175.270892,-37.799702,6892.8          </coordinates></LineString></Placemark><Placemark><name>Finish</name><styleUrl>#icon-1899-FF5252-nodesc</styleUrl><Point><coordinates>            175.270892,-37.799702,6892.8          </coordinates></Point></Placemark><Placemark><name>Start</name><styleUrl>#icon-1899-0F9D58-nodesc</styleUrl><Point><coordinates>            175.270539,-37.800779,42.8          </coordinates></Point></Placemark></Folder></Document></kml>