<?xml version="1.0" encoding="UTF-8"?><kml xmlns="http://www.opengis.net/kml/2.2"><Document><name>Kapiti Coast parkrun</name><description/><Style id="icon-503-F4EB37-nodesc-normal"><IconStyle><color>ff37ebf4</color><scale>1.1</scale><Icon><href>https://www.gstatic.com/mapspro/images/stock/503-wht-blank_maps.png</href></Icon><hotSpot x="16" xunits="pixels" y="32" yunits="insetPixels"/></IconStyle><LabelStyle><scale>0</scale></LabelStyle><BalloonStyle><text><![CDATA[<h3>$[name]</h3>]]></text></BalloonStyle></Style><Style id="icon-503-F4EB37-nodesc-highlight"><IconStyle><color>ff37ebf4</color><scale>1.1</scale><Icon><href>https://www.gstatic.com/mapspro/images/stock/503-wht-blank_maps.png</href></Icon><hotSpot x="16" xunits="pixels" y="32" yunits="insetPixels"/></IconStyle><LabelStyle><scale>1.1</scale></LabelStyle><BalloonStyle><text><![CDATA[<h3>$[name]</h3>]]></text></BalloonStyle></Style><StyleMap id="icon-503-F4EB37-nodesc"><Pair><key>normal</key><styleUrl>#icon-503-F4EB37-nodesc-normal</styleUrl></Pair><Pair><key>highlight</key><styleUrl>#icon-503-F4EB37-nodesc-highlight</styleUrl></Pair></StyleMap><Style id="line-4186F0-4100-nodesc-normal"><LineStyle><color>fff08641</color><width>4.1</width></LineStyle><BalloonStyle><text><![CDATA[<h3>$[name]</h3>]]></text></BalloonStyle></Style><Style id="line-4186F0-4100-nodesc-highlight"><LineStyle><color>fff08641</color><width>6.15</width></LineStyle><BalloonStyle><text><![CDATA[<h3>$[name]</h3>]]></text></BalloonStyle></Style><StyleMap id="line-4186F0-4100-nodesc"><Pair><key>normal</key><styleUrl>#line-4186F0-4100-nodesc-normal</styleUrl></Pair><Pair><key>highlight</key><styleUrl>#line-4186F0-4100-nodesc-highlight</styleUrl></Pair></StyleMap><Folder><name>Untitled layer</name><Placemark><name>Course</name><styleUrl>#line-4186F0-4100-nodesc</styleUrl><LineString><tessellate>1</tessellate><coordinates>            175.0196099,-40.8772447,0            175.0203717,-40.8772528,0            175.0211012,-40.8773988,0            175.0219703,-40.8776746,0            175.0223887,-40.8777801,0            175.0230324,-40.8778125,0            175.0235581,-40.8778206,0            175.024277,-40.8779423,0            175.024513,-40.8779504,0            175.0247383,-40.8778774,0            175.0249207,-40.8778693,0            175.0251138,-40.8778044,0            175.0252962,-40.8776827,0            175.0255644,-40.8776827,0            175.0259507,-40.8776827,0            175.026294,-40.8778125,0            175.026648,-40.8778125,0            175.0269806,-40.877845,0            175.0275574,-40.8779544,0            175.0284345,-40.8780476,0            175.030489,-40.8778125,0            175.0314009,-40.8777882,0            175.0315752,-40.8777476,0            175.0318569,-40.8775935,0            175.0323129,-40.8776341,0            175.0331068,-40.8776016,0            175.0333965,-40.8775611,0            175.0339758,-40.8773907,0            175.0351238,-40.8774069,0            175.0356925,-40.8772609,0            175.0365508,-40.8769851,0            175.037452,-40.8766525,0            175.0378168,-40.8766525,0            175.0385249,-40.8767661,0            175.039115,-40.8770094,0            175.039469,-40.8774962,0            175.0400377,-40.878283,0            175.0402147,-40.8785345,0            175.0401128,-40.8794674,0            175.0399947,-40.8796621,0            175.0400162,-40.8803354,0            175.0399303,-40.8805057,0            175.0400805,-40.8811871,0            175.040617,-40.8816414,0            175.0418401,-40.8820794,0            175.0430095,-40.8821849,0            175.0432133,-40.8821605,0          </coordinates></LineString></Placemark><Placemark><name>Start / Finish</name><styleUrl>#icon-503-F4EB37-nodesc</styleUrl><Point><coordinates>            175.0196099,-40.8772447,0          </coordinates></Point></Placemark></Folder></Document></kml>