<?xml version="1.0" encoding="UTF-8"?><kml xmlns="http://www.opengis.net/kml/2.2"><Document><name>Lake Dunstan parkrun</name><description/><Style id="icon-1899-FFEA00-nodesc-normal"><IconStyle><color>ff00eaff</color><scale>1</scale><Icon><href>https://www.gstatic.com/mapspro/images/stock/503-wht-blank_maps.png</href></Icon><hotSpot x="32" xunits="pixels" y="64" yunits="insetPixels"/></IconStyle><LabelStyle><scale>0</scale></LabelStyle><BalloonStyle><text><![CDATA[<h3>$[name]</h3>]]></text></BalloonStyle></Style><Style id="icon-1899-FFEA00-nodesc-highlight"><IconStyle><color>ff00eaff</color><scale>1</scale><Icon><href>https://www.gstatic.com/mapspro/images/stock/503-wht-blank_maps.png</href></Icon><hotSpot x="32" xunits="pixels" y="64" yunits="insetPixels"/></IconStyle><LabelStyle><scale>1</scale></LabelStyle><BalloonStyle><text><![CDATA[<h3>$[name]</h3>]]></text></BalloonStyle></Style><StyleMap id="icon-1899-FFEA00-nodesc"><Pair><key>normal</key><styleUrl>#icon-1899-FFEA00-nodesc-normal</styleUrl></Pair><Pair><key>highlight</key><styleUrl>#icon-1899-FFEA00-nodesc-highlight</styleUrl></Pair></StyleMap><Style id="line-0288D1-5236-nodesc-normal"><LineStyle><color>ffd18802</color><width>5.236</width></LineStyle><BalloonStyle><text><![CDATA[<h3>$[name]</h3>]]></text></BalloonStyle></Style><Style id="line-0288D1-5236-nodesc-highlight"><LineStyle><color>ffd18802</color><width>7.854</width></LineStyle><BalloonStyle><text><![CDATA[<h3>$[name]</h3>]]></text></BalloonStyle></Style><StyleMap id="line-0288D1-5236-nodesc"><Pair><key>normal</key><styleUrl>#line-0288D1-5236-nodesc-normal</styleUrl></Pair><Pair><key>highlight</key><styleUrl>#line-0288D1-5236-nodesc-highlight</styleUrl></Pair></StyleMap><Folder><name>Untitled layer</name><Placemark><name>Course</name><styleUrl>#line-0288D1-5236-nodesc</styleUrl><LineString><tessellate>1</tessellate><coordinates>            169.2142,-45.04385,0            169.214267,-45.043635,0            169.21458,-45.043361,0            169.215895,-45.043095,0            169.216692,-45.04284,0            169.217437,-45.042064,0            169.218229,-45.041602,0            169.219038,-45.040633,0            169.219096,-45.040385,0            169.21885,-45.039418,0            169.218917,-45.03886,0            169.21909,-45.038416,0            169.2194,-45.038316,0            169.219762,-45.03814,0            169.219772,-45.037849,0            169.219331,-45.037616,0            169.217983,-45.037228,0            169.216811,-45.037072,0            169.215327,-45.036607,0            169.2143062,-45.0362379,0            169.213109,-45.03549,0            169.21227,-45.033854,0            169.212024,-45.033712,0            169.211996,-45.033597,0            169.21215,-45.033449,0            169.211797,-45.032764,0            169.2113379,-45.0323317,0            169.211029,-45.031763,0            169.210297,-45.031125,0            169.210101,-45.030759,0            169.210026,-45.03037,0            169.210181,-45.029957,0            169.210333,-45.029585,0            169.210158,-45.029067,0            169.209912,-45.028421,0            169.20931,-45.028106,0            169.208655,-45.02806,0          </coordinates></LineString></Placemark><Placemark><name>Start/Finish</name><styleUrl>#icon-1899-FFEA00-nodesc</styleUrl><Point><coordinates>            169.214202,-45.04393,0          </coordinates></Point></Placemark></Folder></Document></kml>