<?xml version="1.0" encoding="UTF-8"?><kml xmlns="http://www.opengis.net/kml/2.2"><Document><name>Mangawhero River parkrun, Ohakune</name><description/><Style id="icon-1899-FFEA00-nodesc-normal"><IconStyle><color>ff00eaff</color><scale>1</scale><Icon><href>https://www.gstatic.com/mapspro/images/stock/503-wht-blank_maps.png</href></Icon><hotSpot x="32" xunits="pixels" y="64" yunits="insetPixels"/></IconStyle><LabelStyle><scale>0</scale></LabelStyle><BalloonStyle><text><![CDATA[<h3>$[name]</h3>]]></text></BalloonStyle></Style><Style id="icon-1899-FFEA00-nodesc-highlight"><IconStyle><color>ff00eaff</color><scale>1</scale><Icon><href>https://www.gstatic.com/mapspro/images/stock/503-wht-blank_maps.png</href></Icon><hotSpot x="32" xunits="pixels" y="64" yunits="insetPixels"/></IconStyle><LabelStyle><scale>1</scale></LabelStyle><BalloonStyle><text><![CDATA[<h3>$[name]</h3>]]></text></BalloonStyle></Style><StyleMap id="icon-1899-FFEA00-nodesc"><Pair><key>normal</key><styleUrl>#icon-1899-FFEA00-nodesc-normal</styleUrl></Pair><Pair><key>highlight</key><styleUrl>#icon-1899-FFEA00-nodesc-highlight</styleUrl></Pair></StyleMap><Style id="line-0288D1-5650-nodesc-normal"><LineStyle><color>ffd18802</color><width>5.65</width></LineStyle><BalloonStyle><text><![CDATA[<h3>$[name]</h3>]]></text></BalloonStyle></Style><Style id="line-0288D1-5650-nodesc-highlight"><LineStyle><color>ffd18802</color><width>8.475</width></LineStyle><BalloonStyle><text><![CDATA[<h3>$[name]</h3>]]></text></BalloonStyle></Style><StyleMap id="line-0288D1-5650-nodesc"><Pair><key>normal</key><styleUrl>#line-0288D1-5650-nodesc-normal</styleUrl></Pair><Pair><key>highlight</key><styleUrl>#line-0288D1-5650-nodesc-highlight</styleUrl></Pair></StyleMap><Folder><name>Untitled layer</name><Placemark><name>Course</name><styleUrl>#line-0288D1-5650-nodesc</styleUrl><LineString><tessellate>1</tessellate><coordinates>            175.3975422,-39.4149356,0            175.3978832,-39.4148016,0            175.3982962,-39.4149596,0            175.3990842,-39.4145466,0            175.3993922,-39.4144116,0            175.3995392,-39.4141966,0            175.3994486,-39.4141216,0            175.4000769,-39.413682,0            175.4001442,-39.4136296,0            175.4000942,-39.4128816,0            175.4007671,-39.4123103,0            175.4013072,-39.4116076,0            175.4019642,-39.4118076,0            175.4025295,-39.4115752,0            175.4029992,-39.4112706,0            175.4041466,-39.410984,0            175.4048865,-39.410578,0            175.4054922,-39.4100476,0            175.4040992,-39.4108656,0            175.4050522,-39.4097776,0            175.4056382,-39.4096906,0            175.4060662,-39.4099486,0            175.4064872,-39.4099326,0            175.4065032,-39.4096896,0            175.4077012,-39.4085676,0            175.4085777,-39.4073532,0            175.4085992,-39.4066876,0            175.4093142,-39.4057176,0            175.4096408,-39.4055265,0            175.4099352,-39.4052276,0            175.4101103,-39.4049619,0            175.4101782,-39.4041656,0            175.4103172,-39.4035476,0            175.4102802,-39.4030546,0            175.4106832,-39.4030126,0            175.411111,-39.4029529,0            175.4114376,-39.4024008,0            175.411791,-39.4018404,0            175.4116592,-39.4015576,0            175.4113972,-39.4015176,0          </coordinates></LineString></Placemark><Placemark><name>Start/Finish</name><styleUrl>#icon-1899-FFEA00-nodesc</styleUrl><Point><coordinates>            175.39751,-39.41489,581.4          </coordinates></Point></Placemark></Folder></Document></kml>