<?xml version="1.0" encoding="UTF-8"?><kml xmlns="http://www.opengis.net/kml/2.2"><Document><name>Scarborough parkrun</name><description/><Style id="icon-1899-FFEA00-nodesc-normal"><IconStyle><color>ff00eaff</color><scale>1</scale><Icon><href>https://www.gstatic.com/mapspro/images/stock/503-wht-blank_maps.png</href></Icon><hotSpot x="32" xunits="pixels" y="64" yunits="insetPixels"/></IconStyle><LabelStyle><scale>0</scale></LabelStyle><BalloonStyle><text><![CDATA[<h3>$[name]</h3>]]></text></BalloonStyle></Style><Style id="icon-1899-FFEA00-nodesc-highlight"><IconStyle><color>ff00eaff</color><scale>1</scale><Icon><href>https://www.gstatic.com/mapspro/images/stock/503-wht-blank_maps.png</href></Icon><hotSpot x="32" xunits="pixels" y="64" yunits="insetPixels"/></IconStyle><LabelStyle><scale>1</scale></LabelStyle><BalloonStyle><text><![CDATA[<h3>$[name]</h3>]]></text></BalloonStyle></Style><StyleMap id="icon-1899-FFEA00-nodesc"><Pair><key>normal</key><styleUrl>#icon-1899-FFEA00-nodesc-normal</styleUrl></Pair><Pair><key>highlight</key><styleUrl>#icon-1899-FFEA00-nodesc-highlight</styleUrl></Pair></StyleMap><Style id="line-0288D1-7000-nodesc-normal"><LineStyle><color>ffd18802</color><width>7</width></LineStyle><BalloonStyle><text><![CDATA[<h3>$[name]</h3>]]></text></BalloonStyle></Style><Style id="line-0288D1-7000-nodesc-highlight"><LineStyle><color>ffd18802</color><width>10.5</width></LineStyle><BalloonStyle><text><![CDATA[<h3>$[name]</h3>]]></text></BalloonStyle></Style><StyleMap id="line-0288D1-7000-nodesc"><Pair><key>normal</key><styleUrl>#line-0288D1-7000-nodesc-normal</styleUrl></Pair><Pair><key>highlight</key><styleUrl>#line-0288D1-7000-nodesc-highlight</styleUrl></Pair></StyleMap><Folder><name>Untitled layer</name><Placemark><name>Course</name><styleUrl>#line-0288D1-7000-nodesc</styleUrl><LineString><tessellate>1</tessellate><coordinates>            172.769725,-43.573008,0            172.768883,-43.572951,0            172.768051,-43.572801,0            172.766728,-43.572325,0            172.76548,-43.571811,0            172.764528,-43.571208,0            172.763994,-43.570734,0            172.763447,-43.570476,0            172.76245,-43.56974,0            172.762005,-43.569306,0            172.761831,-43.569082,0            172.761721,-43.568849,0            172.761633,-43.568643,0            172.759671,-43.566536,0            172.759368,-43.566581,0            172.759163,-43.566718,0            172.758197,-43.566844,0            172.757557,-43.5668,0            172.756981,-43.566609,0            172.75684,-43.566235,0            172.756483,-43.566022,0            172.755926,-43.565809,0            172.754407,-43.564692,0            172.749618,-43.563636,0            172.749225,-43.563734,0            172.747826,-43.5655,0            172.747535,-43.565927,0            172.747132,-43.566185,0            172.746807,-43.566235,0            172.746503,-43.566261,0          </coordinates></LineString></Placemark><Placemark><name>Start/Finish</name><styleUrl>#icon-1899-FFEA00-nodesc</styleUrl><Point><coordinates>            172.769725,-43.573008,0          </coordinates></Point></Placemark></Folder></Document></kml>