<?xml version="1.0" encoding="UTF-8"?><kml xmlns="http://www.opengis.net/kml/2.2"><Document><name>Tuff Crater Reserve parkrun</name><description/><Style id="icon-1899-0F9D58-nodesc-normal"><IconStyle><color>ff589d0f</color><scale>1</scale><Icon><href>https://www.gstatic.com/mapspro/images/stock/503-wht-blank_maps.png</href></Icon><hotSpot x="32" xunits="pixels" y="64" yunits="insetPixels"/></IconStyle><LabelStyle><scale>0</scale></LabelStyle><BalloonStyle><text><![CDATA[<h3>$[name]</h3>]]></text></BalloonStyle></Style><Style id="icon-1899-0F9D58-nodesc-highlight"><IconStyle><color>ff589d0f</color><scale>1</scale><Icon><href>https://www.gstatic.com/mapspro/images/stock/503-wht-blank_maps.png</href></Icon><hotSpot x="32" xunits="pixels" y="64" yunits="insetPixels"/></IconStyle><LabelStyle><scale>1</scale></LabelStyle><BalloonStyle><text><![CDATA[<h3>$[name]</h3>]]></text></BalloonStyle></Style><StyleMap id="icon-1899-0F9D58-nodesc"><Pair><key>normal</key><styleUrl>#icon-1899-0F9D58-nodesc-normal</styleUrl></Pair><Pair><key>highlight</key><styleUrl>#icon-1899-0F9D58-nodesc-highlight</styleUrl></Pair></StyleMap><Style id="icon-1899-FF5252-nodesc-normal"><IconStyle><color>ff5252ff</color><scale>1</scale><Icon><href>https://www.gstatic.com/mapspro/images/stock/503-wht-blank_maps.png</href></Icon><hotSpot x="32" xunits="pixels" y="64" yunits="insetPixels"/></IconStyle><LabelStyle><scale>0</scale></LabelStyle><BalloonStyle><text><![CDATA[<h3>$[name]</h3>]]></text></BalloonStyle></Style><Style id="icon-1899-FF5252-nodesc-highlight"><IconStyle><color>ff5252ff</color><scale>1</scale><Icon><href>https://www.gstatic.com/mapspro/images/stock/503-wht-blank_maps.png</href></Icon><hotSpot x="32" xunits="pixels" y="64" yunits="insetPixels"/></IconStyle><LabelStyle><scale>1</scale></LabelStyle><BalloonStyle><text><![CDATA[<h3>$[name]</h3>]]></text></BalloonStyle></Style><StyleMap id="icon-1899-FF5252-nodesc"><Pair><key>normal</key><styleUrl>#icon-1899-FF5252-nodesc-normal</styleUrl></Pair><Pair><key>highlight</key><styleUrl>#icon-1899-FF5252-nodesc-highlight</styleUrl></Pair></StyleMap><Style id="line-0288D1-6038-nodesc-normal"><LineStyle><color>ffd18802</color><width>6.038</width></LineStyle><BalloonStyle><text><![CDATA[<h3>$[name]</h3>]]></text></BalloonStyle></Style><Style id="line-0288D1-6038-nodesc-highlight"><LineStyle><color>ffd18802</color><width>9.057</width></LineStyle><BalloonStyle><text><![CDATA[<h3>$[name]</h3>]]></text></BalloonStyle></Style><StyleMap id="line-0288D1-6038-nodesc"><Pair><key>normal</key><styleUrl>#line-0288D1-6038-nodesc-normal</styleUrl></Pair><Pair><key>highlight</key><styleUrl>#line-0288D1-6038-nodesc-highlight</styleUrl></Pair></StyleMap><Folder><name>Untitled layer</name><Placemark><name>Finish</name><styleUrl>#icon-1899-FF5252-nodesc</styleUrl><Point><coordinates>            174.758088,-36.802183,19.48          </coordinates></Point></Placemark><Placemark><name>Course</name><styleUrl>#line-0288D1-6038-nodesc</styleUrl><LineString><tessellate>1</tessellate><coordinates>            174.757422,-36.801981,0            174.757551,-36.801991,0            174.757731,-36.802024,0            174.757841,-36.802059,0            174.757992,-36.80212,0            174.758094,-36.802178,0            174.758157,-36.802264,0            174.758214,-36.802373,0            174.758268,-36.802499,0            174.758311,-36.802629,0            174.758388,-36.802751,0            174.758454,-36.802992,0            174.758469,-36.803131,0            174.758473,-36.803272,0            174.758466,-36.803384,0            174.75851,-36.803492,0            174.758639,-36.803591,0            174.758702,-36.803683,0            174.758547,-36.803736,0            174.75843,-36.803711,0            174.758279,-36.803629,0            174.758155,-36.803382,0            174.758006,-36.803272,0            174.757919,-36.803204,0            174.757855,-36.803078,0            174.757836,-36.802934,0            174.757755,-36.802838,0            174.757642,-36.802721,0            174.757518,-36.80262,0            174.757364,-36.80255,0            174.757198,-36.802518,0            174.757061,-36.802448,0            174.756952,-36.802352,0            174.756799,-36.802363,0            174.756635,-36.80242,0            174.756548,-36.802342,0            174.756508,-36.802211,0            174.756478,-36.802083,0            174.756409,-36.801949,0            174.756298,-36.801842,0            174.756109,-36.801794,0            174.756019,-36.801669,0            174.756003,-36.801526,0            174.755948,-36.801396,0            174.755865,-36.801281,0            174.755779,-36.801162,0            174.755768,-36.801051,0            174.755635,-36.800965,0            174.755483,-36.800875,0            174.755347,-36.800782,0            174.755362,-36.800642,0            174.755327,-36.800501,0            174.755252,-36.800388,0            174.755132,-36.800264,0            174.755087,-36.800138,0            174.755084,-36.800007,0            174.754944,-36.799906,0            174.754815,-36.799826,0            174.75477,-36.799696,0            174.754685,-36.799571,0            174.754587,-36.799476,0            174.754452,-36.799375,0            174.754297,-36.799328,0            174.754133,-36.799268,0            174.753991,-36.799176,0            174.753828,-36.79918,0            174.753657,-36.799207,0            174.753497,-36.799223,0            174.753294,-36.799251,0            174.753128,-36.799213,0            174.752953,-36.799171,0            174.752795,-36.799207,0            174.752644,-36.799272,0            174.752532,-36.799378,0            174.752399,-36.799467,0            174.75228,-36.799552,0            174.75219,-36.79961,0            174.752024,-36.799664,0            174.751854,-36.799725,0            174.751708,-36.799787,0            174.75156,-36.799853,0            174.751439,-36.799948,0            174.751328,-36.800042,0            174.751224,-36.800174,0            174.751146,-36.800266,0            174.751062,-36.800354,0            174.750993,-36.800462,0            174.750865,-36.800548,0            174.750745,-36.80064,0            174.750702,-36.800772,0            174.750666,-36.8009,0            174.750669,-36.801006,0            174.750656,-36.801099,0            174.750717,-36.801263,0            174.750788,-36.801386,0            174.750797,-36.801524,0            174.750807,-36.80168,0            174.750849,-36.801818,0            174.750914,-36.801951,0            174.750949,-36.802086,0            174.750945,-36.802232,0            174.750936,-36.802324,0            174.750978,-36.802453,0            174.750991,-36.802596,0            174.751029,-36.802732,0            174.751031,-36.802888,0            174.75105,-36.803036,0            174.751086,-36.803147,0            174.751122,-36.803236,0            174.751138,-36.803375,0            174.751207,-36.803533,0            174.751311,-36.803658,0            174.751413,-36.803775,0            174.751519,-36.803887,0            174.751657,-36.803976,0            174.751802,-36.804063,0            174.751953,-36.80411,0            174.7521,-36.804175,0            174.75227,-36.804228,0            174.752426,-36.804281,0            174.752586,-36.804353,0            174.752762,-36.804392,0            174.75292,-36.80443,0            174.753066,-36.804474,0            174.753241,-36.804453,0            174.753394,-36.804406,0            174.753578,-36.804431,0            174.753745,-36.804425,0            174.753916,-36.804405,0            174.754102,-36.804402,0            174.754287,-36.804425,0            174.754399,-36.804366,0            174.754494,-36.804314,0            174.754614,-36.804211,0            174.754773,-36.804146,0            174.754919,-36.804069,0            174.755045,-36.803992,0            174.755156,-36.803901,0            174.75526,-36.803852,0            174.755412,-36.803778,0            174.755525,-36.803689,0            174.755668,-36.80362,0            174.755788,-36.803525,0            174.755881,-36.803435,0            174.756037,-36.803349,0            174.756181,-36.803313,0            174.756334,-36.803352,0            174.756672,-36.803513,0            174.756704,-36.803539,0            174.756724,-36.803636,0            174.756743,-36.803792,0            174.756723,-36.803945,0            174.756659,-36.804052,0            174.75664,-36.804143,0            174.75659,-36.804272,0            174.756574,-36.804426,0            174.756572,-36.804551,0            174.756629,-36.80469,0            174.756719,-36.804798,0            174.756824,-36.804837,0            174.75693,-36.804935,0            174.757028,-36.805082,0            174.757246,-36.805497,0            174.757455,-36.805897,0            174.757425,-36.80595,0            174.757411,-36.805943,0            174.757442,-36.805898,0            174.75723,-36.805481,0            174.757028,-36.805082,0            174.75693,-36.804935,0            174.756824,-36.804837,0            174.756719,-36.804798,0            174.756629,-36.80469,0            174.756572,-36.804551,0            174.756574,-36.804426,0            174.75659,-36.804272,0            174.75664,-36.804143,0            174.756659,-36.804052,0            174.756723,-36.803945,0            174.756743,-36.803792,0            174.756724,-36.803636,0            174.756704,-36.803539,0            174.756672,-36.803513,0            174.756334,-36.803352,0            174.756181,-36.803313,0            174.756037,-36.803349,0            174.755881,-36.803435,0            174.755788,-36.803525,0            174.755668,-36.80362,0            174.755525,-36.803689,0            174.755412,-36.803778,0            174.75526,-36.803852,0            174.755156,-36.803901,0            174.755045,-36.803992,0            174.754919,-36.804069,0            174.754773,-36.804146,0            174.754614,-36.804211,0            174.754494,-36.804314,0            174.754399,-36.804366,0            174.754287,-36.804425,0            174.754102,-36.804402,0            174.753916,-36.804405,0            174.753745,-36.804425,0            174.753578,-36.804431,0            174.753394,-36.804406,0            174.753241,-36.804453,0            174.753066,-36.804474,0            174.75292,-36.80443,0            174.752762,-36.804392,0            174.752586,-36.804353,0            174.752426,-36.804281,0            174.75227,-36.804228,0            174.7521,-36.804175,0            174.751953,-36.80411,0            174.751802,-36.804063,0            174.751657,-36.803976,0            174.751519,-36.803887,0            174.751413,-36.803775,0            174.751311,-36.803658,0            174.751207,-36.803533,0            174.751138,-36.803375,0            174.751122,-36.803236,0            174.751086,-36.803147,0            174.75105,-36.803036,0            174.751031,-36.802888,0            174.751029,-36.802732,0            174.750991,-36.802596,0            174.750978,-36.802453,0            174.750936,-36.802324,0            174.750945,-36.802232,0            174.750949,-36.802086,0            174.750914,-36.801951,0            174.750849,-36.801818,0            174.750807,-36.80168,0            174.750797,-36.801524,0            174.750788,-36.801386,0            174.750717,-36.801263,0            174.750656,-36.801099,0            174.750669,-36.801006,0            174.750666,-36.8009,0            174.750702,-36.800772,0            174.750745,-36.80064,0            174.750865,-36.800548,0            174.750993,-36.800462,0            174.751062,-36.800354,0            174.751146,-36.800266,0            174.751224,-36.800174,0            174.751328,-36.800042,0            174.751439,-36.799948,0            174.75156,-36.799853,0            174.751708,-36.799787,0            174.751854,-36.799725,0            174.752024,-36.799664,0            174.75219,-36.79961,0            174.75228,-36.799552,0            174.752399,-36.799467,0            174.752532,-36.799378,0            174.752644,-36.799272,0            174.752795,-36.799207,0            174.752953,-36.799171,0            174.753128,-36.799213,0            174.753294,-36.799251,0            174.753497,-36.799223,0            174.753657,-36.799207,0            174.753828,-36.79918,0            174.753991,-36.799176,0            174.754133,-36.799268,0            174.754297,-36.799328,0            174.754452,-36.799375,0            174.754587,-36.799476,0            174.754685,-36.799571,0            174.75477,-36.799696,0            174.754815,-36.799826,0            174.754944,-36.799906,0            174.755084,-36.800007,0            174.755087,-36.800138,0            174.755132,-36.800264,0            174.755252,-36.800388,0            174.755327,-36.800501,0            174.755362,-36.800642,0            174.755347,-36.800782,0            174.755483,-36.800875,0            174.755635,-36.800965,0            174.755768,-36.801051,0            174.755779,-36.801162,0            174.755865,-36.801281,0            174.755948,-36.801396,0            174.756003,-36.801526,0            174.756019,-36.801669,0            174.756109,-36.801794,0            174.756298,-36.801842,0            174.756409,-36.801949,0            174.756478,-36.802083,0            174.756508,-36.802211,0            174.756548,-36.802342,0            174.756635,-36.80242,0            174.756799,-36.802363,0            174.756952,-36.802352,0            174.757061,-36.802448,0            174.757198,-36.802518,0            174.757364,-36.80255,0            174.757518,-36.80262,0            174.757642,-36.802721,0            174.757755,-36.802838,0            174.757836,-36.802934,0            174.757855,-36.803078,0            174.757919,-36.803204,0            174.758006,-36.803272,0            174.758155,-36.803382,0            174.758292,-36.803623,0            174.758437,-36.803702,0            174.758548,-36.803723,0            174.75869,-36.803681,0            174.758631,-36.803599,0            174.758503,-36.803499,0            174.758459,-36.803384,0            174.758465,-36.803131,0            174.75845,-36.802993,0            174.758414,-36.802885,0            174.758383,-36.802752,0            174.758306,-36.802632,0            174.758256,-36.802503,0            174.758202,-36.80238,0            174.758151,-36.802269,0            174.758088,-36.802183,0          </coordinates></LineString></Placemark><Placemark><name>Start</name><styleUrl>#icon-1899-0F9D58-nodesc</styleUrl><Point><coordinates>            174.757422,-36.801981,19.12          </coordinates></Point></Placemark></Folder></Document></kml>