<?xml version="1.0" encoding="UTF-8"?><kml xmlns="http://www.opengis.net/kml/2.2"><Document><name>Waitangi parkrun</name><description/><Style id="icon-1899-FFEA00-nodesc-normal"><IconStyle><color>ff00eaff</color><scale>1</scale><Icon><href>https://www.gstatic.com/mapspro/images/stock/503-wht-blank_maps.png</href></Icon><hotSpot x="32" xunits="pixels" y="64" yunits="insetPixels"/></IconStyle><LabelStyle><scale>0</scale></LabelStyle><BalloonStyle><text><![CDATA[<h3>$[name]</h3>]]></text></BalloonStyle></Style><Style id="icon-1899-FFEA00-nodesc-highlight"><IconStyle><color>ff00eaff</color><scale>1</scale><Icon><href>https://www.gstatic.com/mapspro/images/stock/503-wht-blank_maps.png</href></Icon><hotSpot x="32" xunits="pixels" y="64" yunits="insetPixels"/></IconStyle><LabelStyle><scale>1</scale></LabelStyle><BalloonStyle><text><![CDATA[<h3>$[name]</h3>]]></text></BalloonStyle></Style><StyleMap id="icon-1899-FFEA00-nodesc"><Pair><key>normal</key><styleUrl>#icon-1899-FFEA00-nodesc-normal</styleUrl></Pair><Pair><key>highlight</key><styleUrl>#icon-1899-FFEA00-nodesc-highlight</styleUrl></Pair></StyleMap><Style id="line-0288D1-5650-nodesc-normal"><LineStyle><color>ffd18802</color><width>5.65</width></LineStyle><BalloonStyle><text><![CDATA[<h3>$[name]</h3>]]></text></BalloonStyle></Style><Style id="line-0288D1-5650-nodesc-highlight"><LineStyle><color>ffd18802</color><width>8.475</width></LineStyle><BalloonStyle><text><![CDATA[<h3>$[name]</h3>]]></text></BalloonStyle></Style><StyleMap id="line-0288D1-5650-nodesc"><Pair><key>normal</key><styleUrl>#line-0288D1-5650-nodesc-normal</styleUrl></Pair><Pair><key>highlight</key><styleUrl>#line-0288D1-5650-nodesc-highlight</styleUrl></Pair></StyleMap><Folder><name>Untitled layer</name><Placemark><name>Course</name><styleUrl>#line-0288D1-5650-nodesc</styleUrl><LineString><tessellate>1</tessellate><coordinates>            174.785056,-41.291868,0            174.785323,-41.291947,0            174.785407,-41.29195,0            174.785489,-41.291935,0            174.7857794,-41.2917087,0            174.785489,-41.291935,0            174.785407,-41.29195,0            174.785323,-41.291947,0            174.7852407,-41.2919254,0            174.785056,-41.291868,0            174.785086,-41.29193,0            174.785114,-41.291985,0            174.785148,-41.292006,0            174.785366,-41.292073,0            174.785513,-41.292041,0            174.7856675,-41.291929,0            174.785814,-41.291809,0            174.785828,-41.291704,0            174.7859484,-41.2915938,0            174.786084,-41.291498,0            174.785789,-41.29128,0            174.785752,-41.291224,0            174.785754,-41.291109,0            174.784123,-41.290936,0            174.78418,-41.291574,0            174.785056,-41.291868,0            174.783652,-41.291403,0            174.7834878,-41.2905665,0            174.783262,-41.28974,0            174.783118,-41.28957,0            174.783017,-41.289506,0            174.782842,-41.289465,0            174.782072,-41.289504,0            174.781152,-41.2895856,0            174.780401,-41.289629,0            174.780305,-41.289609,0            174.780052,-41.288312,0            174.779469,-41.28786,0            174.779282,-41.286999,0            174.779119,-41.286141,0            174.779333,-41.285931,0            174.779488,-41.285884,0            174.779288,-41.284806,0          </coordinates></LineString></Placemark><Placemark><name>Start / Finish</name><styleUrl>#icon-1899-FFEA00-nodesc</styleUrl><Point><coordinates>            174.785767,-41.291721,0          </coordinates></Point></Placemark></Folder></Document></kml>