<?xml version="1.0" encoding="UTF-8"?><kml xmlns="http://www.opengis.net/kml/2.2"><Document><name>Ōpaheke Park parkrun</name><description/><Style id="icon-1899-FFEA00-nodesc-normal"><IconStyle><color>ff00eaff</color><scale>1</scale><Icon><href>https://www.gstatic.com/mapspro/images/stock/503-wht-blank_maps.png</href></Icon><hotSpot x="32" xunits="pixels" y="64" yunits="insetPixels"/></IconStyle><LabelStyle><scale>0</scale></LabelStyle><BalloonStyle><text><![CDATA[<h3>$[name]</h3>]]></text></BalloonStyle></Style><Style id="icon-1899-FFEA00-nodesc-highlight"><IconStyle><color>ff00eaff</color><scale>1</scale><Icon><href>https://www.gstatic.com/mapspro/images/stock/503-wht-blank_maps.png</href></Icon><hotSpot x="32" xunits="pixels" y="64" yunits="insetPixels"/></IconStyle><LabelStyle><scale>1</scale></LabelStyle><BalloonStyle><text><![CDATA[<h3>$[name]</h3>]]></text></BalloonStyle></Style><StyleMap id="icon-1899-FFEA00-nodesc"><Pair><key>normal</key><styleUrl>#icon-1899-FFEA00-nodesc-normal</styleUrl></Pair><Pair><key>highlight</key><styleUrl>#icon-1899-FFEA00-nodesc-highlight</styleUrl></Pair></StyleMap><Style id="line-0288D1-5650-nodesc-normal"><LineStyle><color>ffd18802</color><width>5.65</width></LineStyle><BalloonStyle><text><![CDATA[<h3>$[name]</h3>]]></text></BalloonStyle></Style><Style id="line-0288D1-5650-nodesc-highlight"><LineStyle><color>ffd18802</color><width>8.475</width></LineStyle><BalloonStyle><text><![CDATA[<h3>$[name]</h3>]]></text></BalloonStyle></Style><StyleMap id="line-0288D1-5650-nodesc"><Pair><key>normal</key><styleUrl>#line-0288D1-5650-nodesc-normal</styleUrl></Pair><Pair><key>highlight</key><styleUrl>#line-0288D1-5650-nodesc-highlight</styleUrl></Pair></StyleMap><Folder><name>Opaheke Park parkrun</name><Placemark><name>Start/Finish</name><styleUrl>#icon-1899-FFEA00-nodesc</styleUrl><Point><coordinates>            174.953827,-37.085767,14          </coordinates></Point></Placemark><Placemark><name>Course</name><styleUrl>#line-0288D1-5650-nodesc</styleUrl><LineString><tessellate>1</tessellate><coordinates>            174.953805,-37.085801,0            174.953192,-37.08561,0            174.9531569,-37.085492,0            174.9530628,-37.085374,0            174.9528522,-37.0852155,0            174.952636,-37.085129,0            174.952463,-37.08493,0            174.952367,-37.084552,0            174.952234,-37.084519,0            174.9520798,-37.0845051,0            174.951881,-37.084822,0            174.9517042,-37.0849587,0            174.951464,-37.085032,0            174.9511893,-37.0849673,0            174.950866,-37.084847,0            174.9507923,-37.0850143,0            174.950607,-37.08525,0            174.9504543,-37.085301,0            174.9501217,-37.0853096,0            174.9497945,-37.0850272,0            174.9497,-37.084869,0            174.949547,-37.084783,0            174.9490757,-37.0847276,0            174.9488665,-37.0845949,0            174.948757,-37.084391,0            174.9482871,-37.0842954,0            174.948241,-37.084094,0            174.948297,-37.08383,0            174.9486787,-37.0836149,0            174.9487431,-37.0834737,0            174.948916,-37.083329,0            174.949201,-37.083202,0            174.9498642,-37.0832127,0            174.950447,-37.083258,0            174.949201,-37.083202,0            174.949152,-37.082959,0            174.9493439,-37.0827505,0            174.949622,-37.082696,0            174.9501378,-37.0825151,0            174.951035,-37.08246,0            174.951631,-37.082367,0            174.952043,-37.082421,0            174.95232,-37.082333,0            174.952889,-37.082432,0            174.953283,-37.082634,0            174.953602,-37.082776,0            174.9541772,-37.083264,0            174.954234,-37.083378,0            174.954199,-37.0835,0            174.954024,-37.083763,0            174.9539251,-37.0841584,0            174.953608,-37.084492,0            174.95329,-37.084728,0            174.952865,-37.085184,0          </coordinates></LineString></Placemark></Folder></Document></kml>