<?xml version="1.0" encoding="UTF-8"?><kml xmlns="http://www.opengis.net/kml/2.2"><Document><name>Churchill Parkway parkrun</name><description/><Style id="icon-1899-FFEA00-nodesc-normal"><IconStyle><color>ff00eaff</color><scale>1</scale><Icon><href>https://www.gstatic.com/mapspro/images/stock/503-wht-blank_maps.png</href></Icon><hotSpot x="32" xunits="pixels" y="64" yunits="insetPixels"/></IconStyle><LabelStyle><scale>0</scale></LabelStyle><BalloonStyle><text><![CDATA[<h3>$[name]</h3>]]></text></BalloonStyle></Style><Style id="icon-1899-FFEA00-nodesc-highlight"><IconStyle><color>ff00eaff</color><scale>1</scale><Icon><href>https://www.gstatic.com/mapspro/images/stock/503-wht-blank_maps.png</href></Icon><hotSpot x="32" xunits="pixels" y="64" yunits="insetPixels"/></IconStyle><LabelStyle><scale>1</scale></LabelStyle><BalloonStyle><text><![CDATA[<h3>$[name]</h3>]]></text></BalloonStyle></Style><StyleMap id="icon-1899-FFEA00-nodesc"><Pair><key>normal</key><styleUrl>#icon-1899-FFEA00-nodesc-normal</styleUrl></Pair><Pair><key>highlight</key><styleUrl>#icon-1899-FFEA00-nodesc-highlight</styleUrl></Pair></StyleMap><Style id="line-0288D1-5069-nodesc-normal"><LineStyle><color>ffd18802</color><width>5.069</width></LineStyle><BalloonStyle><text><![CDATA[<h3>$[name]</h3>]]></text></BalloonStyle></Style><Style id="line-0288D1-5069-nodesc-highlight"><LineStyle><color>ffd18802</color><width>7.6035</width></LineStyle><BalloonStyle><text><![CDATA[<h3>$[name]</h3>]]></text></BalloonStyle></Style><StyleMap id="line-0288D1-5069-nodesc"><Pair><key>normal</key><styleUrl>#line-0288D1-5069-nodesc-normal</styleUrl></Pair><Pair><key>highlight</key><styleUrl>#line-0288D1-5069-nodesc-highlight</styleUrl></Pair></StyleMap><Folder><name>Untitled layer</name><Placemark><name>Course</name><styleUrl>#line-0288D1-5069-nodesc</styleUrl><LineString><tessellate>1</tessellate><coordinates>            -97.114066,49.866166,0            -97.114238,49.865765,0            -97.114474,49.865357,0            -97.114646,49.865018,0            -97.11486,49.864756,0            -97.11515,49.864465,0            -97.115247,49.864286,0            -97.115182,49.864168,0            -97.1153,49.863884,0            -97.115354,49.863718,0            -97.115976,49.862861,0            -97.116556,49.862058,0            -97.116867,49.861526,0            -97.117113,49.861166,0            -97.117403,49.860841,0            -97.117918,49.860385,0            -97.118937,49.859589,0            -97.119517,49.859202,0            -97.119871,49.85896,0            -97.120171,49.858766,0            -97.120482,49.858635,0            -97.120879,49.85851,0            -97.121276,49.858386,0            -97.12178,49.858151,0            -97.122328,49.857929,0            -97.122607,49.857798,0            -97.122928,49.857667,0            -97.123164,49.85759,0            -97.123411,49.857549,0            -97.123787,49.857549,0            -97.124066,49.857597,0            -97.124463,49.857729,0            -97.124656,49.857791,0            -97.124806,49.857777,0            -97.125031,49.857611,0            -97.125364,49.857501,0            -97.125847,49.857418,0            -97.126136,49.857342,0            -97.12634,49.857176,0            -97.126523,49.857051,0            -97.126662,49.856885,0            -97.12692,49.856767,0            -97.12707,49.856629,0            -97.127649,49.856449,0            -97.12796,49.85629,0            -97.128261,49.856172,0            -97.128432,49.85611,0            -97.128561,49.856027,0            -97.128872,49.855979,0            -97.129226,49.855958,0            -97.129602,49.855937,0            -97.12987,49.855896,0            -97.13017,49.855778,0            -97.130449,49.855778,0            -97.130621,49.855771,0            -97.130911,49.855695,0            -97.131329,49.855681,0            -97.131565,49.85573,0            -97.131801,49.855674,0            -97.13208,49.855674,0            -97.132402,49.855709,0            -97.132778,49.855709,0            -97.133174,49.855709,0            -97.133775,49.855695,0            -97.134086,49.855674,0            -97.134644,49.855723,0            -97.135127,49.855702,0            -97.135599,49.855688,0            -97.135921,49.855688,0            -97.136264,49.855799,0            -97.136629,49.855868,0            -97.136951,49.855903,0            -97.137305,49.855889,0            -97.137595,49.855847,0            -97.137874,49.855778,0            -97.138206,49.85573,0            -97.138711,49.855668,0            -97.139011,49.855612,0            -97.13915,49.855605,0            -97.139376,49.855654,0            -97.139708,49.855605,0            -97.139966,49.855592,0          </coordinates></LineString></Placemark><Placemark><name>Start/Finish</name><styleUrl>#icon-1899-FFEA00-nodesc</styleUrl><Point><coordinates>            -97.114066,49.866166,0          </coordinates></Point></Placemark></Folder></Document></kml>