<?xml version="1.0" encoding="UTF-8"?><kml xmlns="http://www.opengis.net/kml/2.2"><Document><name>Courtenay Airpark parkrun</name><description/><Style id="icon-1899-FFEA00-nodesc-normal"><IconStyle><color>ff00eaff</color><scale>1</scale><Icon><href>https://www.gstatic.com/mapspro/images/stock/503-wht-blank_maps.png</href></Icon><hotSpot x="32" xunits="pixels" y="64" yunits="insetPixels"/></IconStyle><LabelStyle><scale>0</scale></LabelStyle><BalloonStyle><text><![CDATA[<h3>$[name]</h3>]]></text></BalloonStyle></Style><Style id="icon-1899-FFEA00-nodesc-highlight"><IconStyle><color>ff00eaff</color><scale>1</scale><Icon><href>https://www.gstatic.com/mapspro/images/stock/503-wht-blank_maps.png</href></Icon><hotSpot x="32" xunits="pixels" y="64" yunits="insetPixels"/></IconStyle><LabelStyle><scale>1</scale></LabelStyle><BalloonStyle><text><![CDATA[<h3>$[name]</h3>]]></text></BalloonStyle></Style><StyleMap id="icon-1899-FFEA00-nodesc"><Pair><key>normal</key><styleUrl>#icon-1899-FFEA00-nodesc-normal</styleUrl></Pair><Pair><key>highlight</key><styleUrl>#icon-1899-FFEA00-nodesc-highlight</styleUrl></Pair></StyleMap><Style id="line-0288D1-6006-nodesc-normal"><LineStyle><color>ffd18802</color><width>6.006</width></LineStyle><BalloonStyle><text><![CDATA[<h3>$[name]</h3>]]></text></BalloonStyle></Style><Style id="line-0288D1-6006-nodesc-highlight"><LineStyle><color>ffd18802</color><width>9.009</width></LineStyle><BalloonStyle><text><![CDATA[<h3>$[name]</h3>]]></text></BalloonStyle></Style><StyleMap id="line-0288D1-6006-nodesc"><Pair><key>normal</key><styleUrl>#line-0288D1-6006-nodesc-normal</styleUrl></Pair><Pair><key>highlight</key><styleUrl>#line-0288D1-6006-nodesc-highlight</styleUrl></Pair></StyleMap><Folder><name>Untitled layer</name><Placemark><name>Course</name><styleUrl>#line-0288D1-6006-nodesc</styleUrl><LineString><tessellate>1</tessellate><coordinates>            -124.982714,49.681932,0            -124.981909,49.681642,0            -124.981609,49.681498,0            -124.981354,49.681319,0            -124.981067,49.681014,0            -124.981005,49.680986,0            -124.980742,49.680898,0            -124.979377,49.680481,0            -124.978476,49.680209,0            -124.977282,49.679848,0            -124.977094,49.679728,0            -124.97699,49.679568,0            -124.976974,49.679452,0            -124.976995,49.67935,0            -124.977078,49.679228,0            -124.97773,49.678768,0            -124.978229,49.678454,0            -124.978293,49.678449,0            -124.978422,49.67835,0            -124.978433,49.678308,0            -124.978664,49.67815,0            -124.978701,49.678067,0            -124.978698,49.677959,0            -124.978685,49.677928,0            -124.97821,49.677385,0            -124.978192,49.677314,0            -124.978438,49.676784,0            -124.978538,49.676651,0            -124.978674,49.676562,0            -124.978819,49.676494,0            -124.97909,49.67646,0            -124.979557,49.676422,0            -124.979645,49.676428,0            -124.979777,49.676312,0            -124.979814,49.675706,0            -124.979801,49.67563,0            -124.979715,49.675561,0            -124.979385,49.675385,0            -124.979318,49.675332,0            -124.979291,49.675262,0            -124.979313,49.675148,0            -124.97938,49.675035,0            -124.979495,49.67492,0            -124.97942,49.67488,0            -124.979447,49.674806,0            -124.979412,49.674705,0            -124.979482,49.674616,0            -124.979439,49.674486,0            -124.979447,49.674387,0            -124.979431,49.674242,0            -124.979514,49.674014,0            -124.979466,49.673782,0            -124.979428,49.673259,0            -124.978932,49.672764,0            -124.978602,49.672153,0            -124.977819,49.671133,0            -124.977623,49.67102,0            -124.97707,49.670766,0            -124.976649,49.670622,0            -124.976352,49.670551,0            -124.976006,49.670431,0            -124.975853,49.670353,0            -124.975646,49.670176,0            -124.975461,49.670044,0            -124.975338,49.670008,0            -124.97523,49.669867,0            -124.975056,49.669699,0            -124.974922,49.669515,0            -124.974852,49.669402,0            -124.974925,49.66923,0            -124.974965,49.669048,0            -124.975035,49.668753,0            -124.975107,49.668491,0            -124.97549,49.668275,0            -124.975094,49.667942,0            -124.974576,49.6676,0            -124.973771,49.666991,0            -124.973184,49.666518,0            -124.972403,49.665798,0            -124.971644,49.665069,0          </coordinates></LineString></Placemark><Placemark><name>Start/Finish</name><styleUrl>#icon-1899-FFEA00-nodesc</styleUrl><Point><coordinates>            -124.982714,49.681932,0          </coordinates></Point></Placemark></Folder></Document></kml>