<?xml version="1.0" encoding="UTF-8"?><kml xmlns="http://www.opengis.net/kml/2.2"><Document><name>Eramosa River Trail parkrun Regular Course (from March 2024)</name><description/><Style id="icon-1899-0288D1-nodesc-normal"><IconStyle><color>ffd18802</color><scale>1</scale><Icon><href>https://www.gstatic.com/mapspro/images/stock/503-wht-blank_maps.png</href></Icon><hotSpot x="32" xunits="pixels" y="64" yunits="insetPixels"/></IconStyle><LabelStyle><scale>0</scale></LabelStyle><BalloonStyle><text><![CDATA[<h3>$[name]</h3>]]></text></BalloonStyle></Style><Style id="icon-1899-0288D1-nodesc-highlight"><IconStyle><color>ffd18802</color><scale>1</scale><Icon><href>https://www.gstatic.com/mapspro/images/stock/503-wht-blank_maps.png</href></Icon><hotSpot x="32" xunits="pixels" y="64" yunits="insetPixels"/></IconStyle><LabelStyle><scale>1</scale></LabelStyle><BalloonStyle><text><![CDATA[<h3>$[name]</h3>]]></text></BalloonStyle></Style><StyleMap id="icon-1899-0288D1-nodesc"><Pair><key>normal</key><styleUrl>#icon-1899-0288D1-nodesc-normal</styleUrl></Pair><Pair><key>highlight</key><styleUrl>#icon-1899-0288D1-nodesc-highlight</styleUrl></Pair></StyleMap><Style id="icon-1899-0F9D58-nodesc-normal"><IconStyle><color>ff589d0f</color><scale>1</scale><Icon><href>https://www.gstatic.com/mapspro/images/stock/503-wht-blank_maps.png</href></Icon><hotSpot x="32" xunits="pixels" y="64" yunits="insetPixels"/></IconStyle><LabelStyle><scale>0</scale></LabelStyle><BalloonStyle><text><![CDATA[<h3>$[name]</h3>]]></text></BalloonStyle></Style><Style id="icon-1899-0F9D58-nodesc-highlight"><IconStyle><color>ff589d0f</color><scale>1</scale><Icon><href>https://www.gstatic.com/mapspro/images/stock/503-wht-blank_maps.png</href></Icon><hotSpot x="32" xunits="pixels" y="64" yunits="insetPixels"/></IconStyle><LabelStyle><scale>1</scale></LabelStyle><BalloonStyle><text><![CDATA[<h3>$[name]</h3>]]></text></BalloonStyle></Style><StyleMap id="icon-1899-0F9D58-nodesc"><Pair><key>normal</key><styleUrl>#icon-1899-0F9D58-nodesc-normal</styleUrl></Pair><Pair><key>highlight</key><styleUrl>#icon-1899-0F9D58-nodesc-highlight</styleUrl></Pair></StyleMap><Style id="icon-1899-FF5252-nodesc-normal"><IconStyle><color>ff5252ff</color><scale>1</scale><Icon><href>https://www.gstatic.com/mapspro/images/stock/503-wht-blank_maps.png</href></Icon><hotSpot x="32" xunits="pixels" y="64" yunits="insetPixels"/></IconStyle><LabelStyle><scale>0</scale></LabelStyle><BalloonStyle><text><![CDATA[<h3>$[name]</h3>]]></text></BalloonStyle></Style><Style id="icon-1899-FF5252-nodesc-highlight"><IconStyle><color>ff5252ff</color><scale>1</scale><Icon><href>https://www.gstatic.com/mapspro/images/stock/503-wht-blank_maps.png</href></Icon><hotSpot x="32" xunits="pixels" y="64" yunits="insetPixels"/></IconStyle><LabelStyle><scale>1</scale></LabelStyle><BalloonStyle><text><![CDATA[<h3>$[name]</h3>]]></text></BalloonStyle></Style><StyleMap id="icon-1899-FF5252-nodesc"><Pair><key>normal</key><styleUrl>#icon-1899-FF5252-nodesc-normal</styleUrl></Pair><Pair><key>highlight</key><styleUrl>#icon-1899-FF5252-nodesc-highlight</styleUrl></Pair></StyleMap><Style id="line-0288D1-4294-nodesc-normal"><LineStyle><color>ffd18802</color><width>4.294</width></LineStyle><BalloonStyle><text><![CDATA[<h3>$[name]</h3>]]></text></BalloonStyle></Style><Style id="line-0288D1-4294-nodesc-highlight"><LineStyle><color>ffd18802</color><width>6.441</width></LineStyle><BalloonStyle><text><![CDATA[<h3>$[name]</h3>]]></text></BalloonStyle></Style><StyleMap id="line-0288D1-4294-nodesc"><Pair><key>normal</key><styleUrl>#line-0288D1-4294-nodesc-normal</styleUrl></Pair><Pair><key>highlight</key><styleUrl>#line-0288D1-4294-nodesc-highlight</styleUrl></Pair></StyleMap><Folder><name>Eramosa River Trail parkrun Regular Course</name><Placemark><name>Course</name><styleUrl>#line-0288D1-4294-nodesc</styleUrl><LineString><tessellate>1</tessellate><coordinates>            -80.241129,43.540343,0            -80.241027,43.540288,0            -80.240571,43.540276,0            -80.239853,43.540681,0            -80.238968,43.540945,0            -80.238364,43.540796,0            -80.236883,43.540959,0            -80.235371,43.54134,0            -80.234915,43.541321,0            -80.232984,43.540761,0            -80.232318,43.541087,0            -80.232318,43.541523,0            -80.231846,43.541678,0            -80.231202,43.541974,0            -80.230452,43.542316,0            -80.230022,43.542969,0            -80.228906,43.543685,0            -80.228585,43.544058,0            -80.228477,43.544525,0            -80.227683,43.545224,0            -80.226932,43.546002,0            -80.225452,43.546718,0            -80.223821,43.547915,0            -80.222448,43.549035,0            -80.221117,43.549486,0            -80.222405,43.549035,0            -80.223842,43.547884,0            -80.22543,43.546686,0            -80.226868,43.546002,0            -80.227619,43.545271,0            -80.228456,43.544494,0            -80.228606,43.544011,0            -80.229014,43.543591,0            -80.229872,43.543063,0            -80.230323,43.542518,0            -80.230645,43.542114,0            -80.231696,43.541818,0            -80.232318,43.541492,0            -80.232297,43.541056,0            -80.232984,43.540792,0            -80.234915,43.541274,0            -80.235365,43.541352,0            -80.23691,43.540947,0            -80.238348,43.540792,0            -80.23897,43.540932,0            -80.23985,43.540667,0            -80.240574,43.540282,0            -80.241089,43.540267,0            -80.241357,43.540523,0            -80.241239,43.540866,0            -80.240735,43.541068,0            -80.240542,43.541083,0            -80.237549,43.542141,0            -80.240542,43.541068,0            -80.241111,43.540858,0            -80.241218,43.540687,0            -80.241196,43.540523,0          </coordinates></LineString></Placemark><Placemark><name>Start</name><styleUrl>#icon-1899-0F9D58-nodesc</styleUrl><Point><coordinates>            -80.241129,43.540343,0          </coordinates></Point></Placemark><Placemark><name>Turnaround 1</name><styleUrl>#icon-1899-0288D1-nodesc</styleUrl><Point><coordinates>            -80.221117,43.549486,0          </coordinates></Point></Placemark><Placemark><name>Turnaround 2</name><styleUrl>#icon-1899-0288D1-nodesc</styleUrl><Point><coordinates>            -80.237549,43.542141,0          </coordinates></Point></Placemark><Placemark><name>Finish</name><styleUrl>#icon-1899-FF5252-nodesc</styleUrl><Point><coordinates>            -80.241196,43.540523,0          </coordinates></Point></Placemark></Folder></Document></kml>