<?xml version="1.0" encoding="UTF-8"?><kml xmlns="http://www.opengis.net/kml/2.2"><Document><name>Frédéric Back parkrun</name><description/><Style id="icon-1899-0F9D58-nodesc-normal"><IconStyle><color>ff589d0f</color><scale>1</scale><Icon><href>https://www.gstatic.com/mapspro/images/stock/503-wht-blank_maps.png</href></Icon><hotSpot x="32" xunits="pixels" y="64" yunits="insetPixels"/></IconStyle><LabelStyle><scale>0</scale></LabelStyle><BalloonStyle><text><![CDATA[<h3>$[name]</h3>]]></text></BalloonStyle></Style><Style id="icon-1899-0F9D58-nodesc-highlight"><IconStyle><color>ff589d0f</color><scale>1</scale><Icon><href>https://www.gstatic.com/mapspro/images/stock/503-wht-blank_maps.png</href></Icon><hotSpot x="32" xunits="pixels" y="64" yunits="insetPixels"/></IconStyle><LabelStyle><scale>1</scale></LabelStyle><BalloonStyle><text><![CDATA[<h3>$[name]</h3>]]></text></BalloonStyle></Style><StyleMap id="icon-1899-0F9D58-nodesc"><Pair><key>normal</key><styleUrl>#icon-1899-0F9D58-nodesc-normal</styleUrl></Pair><Pair><key>highlight</key><styleUrl>#icon-1899-0F9D58-nodesc-highlight</styleUrl></Pair></StyleMap><Style id="icon-1899-FF5252-nodesc-normal"><IconStyle><color>ff5252ff</color><scale>1</scale><Icon><href>https://www.gstatic.com/mapspro/images/stock/503-wht-blank_maps.png</href></Icon><hotSpot x="32" xunits="pixels" y="64" yunits="insetPixels"/></IconStyle><LabelStyle><scale>0</scale></LabelStyle><BalloonStyle><text><![CDATA[<h3>$[name]</h3>]]></text></BalloonStyle></Style><Style id="icon-1899-FF5252-nodesc-highlight"><IconStyle><color>ff5252ff</color><scale>1</scale><Icon><href>https://www.gstatic.com/mapspro/images/stock/503-wht-blank_maps.png</href></Icon><hotSpot x="32" xunits="pixels" y="64" yunits="insetPixels"/></IconStyle><LabelStyle><scale>1</scale></LabelStyle><BalloonStyle><text><![CDATA[<h3>$[name]</h3>]]></text></BalloonStyle></Style><StyleMap id="icon-1899-FF5252-nodesc"><Pair><key>normal</key><styleUrl>#icon-1899-FF5252-nodesc-normal</styleUrl></Pair><Pair><key>highlight</key><styleUrl>#icon-1899-FF5252-nodesc-highlight</styleUrl></Pair></StyleMap><Style id="line-0288D1-5263-nodesc-normal"><LineStyle><color>ffd18802</color><width>5.263</width></LineStyle><BalloonStyle><text><![CDATA[<h3>$[name]</h3>]]></text></BalloonStyle></Style><Style id="line-0288D1-5263-nodesc-highlight"><LineStyle><color>ffd18802</color><width>7.8945</width></LineStyle><BalloonStyle><text><![CDATA[<h3>$[name]</h3>]]></text></BalloonStyle></Style><StyleMap id="line-0288D1-5263-nodesc"><Pair><key>normal</key><styleUrl>#line-0288D1-5263-nodesc-normal</styleUrl></Pair><Pair><key>highlight</key><styleUrl>#line-0288D1-5263-nodesc-highlight</styleUrl></Pair></StyleMap><Folder><name>Untitled layer</name><Placemark><name>Course</name><styleUrl>#line-0288D1-5263-nodesc</styleUrl><LineString><tessellate>1</tessellate><coordinates>            -73.620222,45.558866,0            -73.621412,45.558986,0            -73.621616,45.559024,0            -73.621928,45.558994,0            -73.622185,45.558896,0            -73.622378,45.558776,0            -73.622539,45.558588,0            -73.622625,45.558348,0            -73.62284,45.557206,0            -73.623236,45.556687,0            -73.62343,45.556605,0            -73.623612,45.556575,0            -73.623751,45.556567,0            -73.626605,45.557829,0            -73.626863,45.557949,0            -73.62976,45.559211,0            -73.632517,45.560398,0            -73.632678,45.560376,0            -73.632839,45.560323,0            -73.632925,45.560293,0            -73.633064,45.560361,0            -73.63315,45.560473,0            -73.633204,45.560639,0            -73.635242,45.561525,0            -73.636894,45.562254,0            -73.637034,45.562441,0            -73.637087,45.562547,0            -73.638375,45.56314,0            -73.639748,45.563741,0            -73.640649,45.564154,0            -73.641701,45.564612,0            -73.640381,45.566069,0            -73.640016,45.566347,0            -73.639694,45.566513,0            -73.639426,45.566633,0            -73.638986,45.566685,0            -73.6386,45.566663,0            -73.638396,45.5667,0            -73.638214,45.566776,0            -73.637828,45.567031,0            -73.637634,45.567234,0            -73.63727,45.567587,0            -73.637077,45.567609,0            -73.63698,45.567579,0            -73.635843,45.567121,0            -73.63565,45.567204,0            -73.635317,45.567496,0            -73.634373,45.568586,0            -73.634094,45.568616,0            -73.633879,45.568668,0            -73.633676,45.568706,0            -73.633472,45.568661,0            -73.6333,45.568608,0            -73.633118,45.568503,0            -73.632699,45.56845,0            -73.632463,45.568398,0            -73.632249,45.56827,0            -73.632141,45.568165,0            -73.631905,45.568007,0            -73.631573,45.567925,0            -73.631326,45.567917,0            -73.631015,45.567647,0            -73.630629,45.567542,0            -73.630328,45.567204,0            -73.628322,45.566445,0            -73.628011,45.566295,0            -73.627689,45.566077,0            -73.627453,45.565994,0            -73.627217,45.565972,0            -73.626992,45.566017,0            -73.626734,45.566077,0            -73.626026,45.566738,0            -73.625801,45.566971,0            -73.625522,45.567061,0            -73.62535,45.567061,0            -73.625125,45.567008,0            -73.624921,45.566918,0            -73.624653,45.566783,0            -73.623998,45.566535,0            -73.623612,45.566355,0            -73.62329,45.566197,0            -73.622958,45.565994,0            -73.622614,45.565867,0            -73.621681,45.565574,0            -73.62137,45.565468,0            -73.620951,45.565251,0            -73.620404,45.564883,0            -73.619986,45.564665,0            -73.619674,45.564417,0            -73.618977,45.563824,0            -73.619063,45.563576,0            -73.619031,45.563425,0            -73.618891,45.56332,0            -73.619031,45.56311,0            -73.619524,45.562952,0            -73.619878,45.562689,0            -73.619986,45.562547,0            -73.620039,45.562351,0            -73.620018,45.562231,0            -73.619878,45.562103,0            -73.619589,45.561976,0            -73.619095,45.561938,0            -73.618784,45.561856,0            -73.618355,45.56163,0            -73.618001,45.561375,0            -73.61769,45.561277,0            -73.617314,45.56118,0            -73.616735,45.560962,0            -73.61637,45.560864,0          </coordinates></LineString></Placemark><Placemark><name>Start</name><styleUrl>#icon-1899-0F9D58-nodesc</styleUrl><Point><coordinates>            -73.620222,45.558866,0          </coordinates></Point></Placemark><Placemark><name>Finish</name><styleUrl>#icon-1899-FF5252-nodesc</styleUrl><Point><coordinates>            -73.61637,45.560864,0          </coordinates></Point></Placemark></Folder></Document></kml>