<?xml version="1.0" encoding="UTF-8"?><kml xmlns="http://www.opengis.net/kml/2.2"><Document><name>Kiwanis parkrun</name><description/><Style id="icon-1899-FFEA00-nodesc-normal"><IconStyle><color>ff00eaff</color><scale>1</scale><Icon><href>https://www.gstatic.com/mapspro/images/stock/503-wht-blank_maps.png</href></Icon><hotSpot x="32" xunits="pixels" y="64" yunits="insetPixels"/></IconStyle><LabelStyle><scale>0</scale></LabelStyle><BalloonStyle><text><![CDATA[<h3>$[name]</h3>]]></text></BalloonStyle></Style><Style id="icon-1899-FFEA00-nodesc-highlight"><IconStyle><color>ff00eaff</color><scale>1</scale><Icon><href>https://www.gstatic.com/mapspro/images/stock/503-wht-blank_maps.png</href></Icon><hotSpot x="32" xunits="pixels" y="64" yunits="insetPixels"/></IconStyle><LabelStyle><scale>1</scale></LabelStyle><BalloonStyle><text><![CDATA[<h3>$[name]</h3>]]></text></BalloonStyle></Style><StyleMap id="icon-1899-FFEA00-nodesc"><Pair><key>normal</key><styleUrl>#icon-1899-FFEA00-nodesc-normal</styleUrl></Pair><Pair><key>highlight</key><styleUrl>#icon-1899-FFEA00-nodesc-highlight</styleUrl></Pair></StyleMap><Style id="line-0288D1-5069-nodesc-normal"><LineStyle><color>ffd18802</color><width>5.069</width></LineStyle><BalloonStyle><text><![CDATA[<h3>$[name]</h3>]]></text></BalloonStyle></Style><Style id="line-0288D1-5069-nodesc-highlight"><LineStyle><color>ffd18802</color><width>7.6035</width></LineStyle><BalloonStyle><text><![CDATA[<h3>$[name]</h3>]]></text></BalloonStyle></Style><StyleMap id="line-0288D1-5069-nodesc"><Pair><key>normal</key><styleUrl>#line-0288D1-5069-nodesc-normal</styleUrl></Pair><Pair><key>highlight</key><styleUrl>#line-0288D1-5069-nodesc-highlight</styleUrl></Pair></StyleMap><Folder><name>Untitled layer</name><Placemark><name>Course</name><styleUrl>#line-0288D1-5069-nodesc</styleUrl><LineString><tessellate>1</tessellate><coordinates>            -81.186848,42.990433,0            -81.186645,42.990189,0            -81.186135,42.989891,0            -81.185765,42.989779,0            -81.185572,42.989813,0            -81.185218,42.989909,0            -81.18503,42.989887,0            -81.184874,42.989795,0            -81.18477,42.989687,0            -81.184719,42.989573,0            -81.184716,42.98942,0            -81.184788,42.989285,0            -81.184917,42.989146,0            -81.184933,42.989059,0            -81.184898,42.98894,0            -81.184772,42.988838,0            -81.184547,42.988728,0            -81.184354,42.98862,0            -81.184249,42.988541,0            -81.184129,42.988308,0            -81.183944,42.988249,0            -81.18403,42.98778,0            -81.183965,42.987645,0            -81.183863,42.987533,0            -81.183657,42.987439,0            -81.18337,42.987292,0            -81.182753,42.986864,0            -81.182538,42.986358,0            -81.182423,42.986099,0            -81.182297,42.985946,0            -81.182235,42.985855,0            -81.182112,42.985245,0            -81.18202,42.985153,0            -81.181921,42.985084,0            -81.181768,42.985041,0            -81.181632,42.985027,0            -81.180862,42.985096,0            -81.180317,42.985127,0            -81.180127,42.985118,0            -81.179845,42.985039,0            -81.17951,42.984951,0            -81.177109,42.984862,0            -81.176251,42.98468,0            -81.175969,42.984525,0            -81.175583,42.983862,0            -81.175286,42.983511,0            -81.175017,42.983155,0            -81.174778,42.982736,0            -81.174639,42.982225,0            -81.174398,42.981715,0            -81.174146,42.98094,0            -81.173995,42.980579,0            -81.173998,42.980187,0            -81.173727,42.979916,0            -81.173663,42.979772,0            -81.173682,42.979608,0            -81.174097,42.978519,0            -81.174226,42.978248,0            -81.174213,42.978061,0            -81.174226,42.977928,0            -81.174408,42.977584,0            -81.174607,42.977365,0            -81.174792,42.977294,0            -81.174961,42.977322,0            -81.175127,42.977365,0            -81.175315,42.977384,0            -81.17558,42.977278,0            -81.175677,42.977172,0            -81.175712,42.97708,0            -81.175661,42.976925,0            -81.1755,42.976674,0            -81.175446,42.976584,0            -81.175508,42.976391,0            -81.17564,42.976156,0            -81.175632,42.975968,0            -81.175656,42.975779,0            -81.175755,42.975648,0            -81.175932,42.975426,0            -81.176015,42.975346,0            -81.176044,42.9753,0            -81.176012,42.975261,0          </coordinates></LineString></Placemark><Placemark><name>Start/Finish</name><styleUrl>#icon-1899-FFEA00-nodesc</styleUrl><Point><coordinates>            -81.18337,42.987292,0          </coordinates></Point></Placemark></Folder></Document></kml>