<?xml version="1.0" encoding="UTF-8"?><kml xmlns="http://www.opengis.net/kml/2.2"><Document><name>Kovach parkrun</name><description/><Style id="icon-1899-FFEA00-nodesc-normal"><IconStyle><color>ff00eaff</color><scale>1</scale><Icon><href>https://www.gstatic.com/mapspro/images/stock/503-wht-blank_maps.png</href></Icon><hotSpot x="32" xunits="pixels" y="64" yunits="insetPixels"/></IconStyle><LabelStyle><scale>0</scale></LabelStyle><BalloonStyle><text><![CDATA[<h3>$[name]</h3>]]></text></BalloonStyle></Style><Style id="icon-1899-FFEA00-nodesc-highlight"><IconStyle><color>ff00eaff</color><scale>1</scale><Icon><href>https://www.gstatic.com/mapspro/images/stock/503-wht-blank_maps.png</href></Icon><hotSpot x="32" xunits="pixels" y="64" yunits="insetPixels"/></IconStyle><LabelStyle><scale>1</scale></LabelStyle><BalloonStyle><text><![CDATA[<h3>$[name]</h3>]]></text></BalloonStyle></Style><StyleMap id="icon-1899-FFEA00-nodesc"><Pair><key>normal</key><styleUrl>#icon-1899-FFEA00-nodesc-normal</styleUrl></Pair><Pair><key>highlight</key><styleUrl>#icon-1899-FFEA00-nodesc-highlight</styleUrl></Pair></StyleMap><Style id="line-0288D1-5621-nodesc-normal"><LineStyle><color>ffd18802</color><width>5.621</width></LineStyle><BalloonStyle><text><![CDATA[<h3>$[name]</h3>]]></text></BalloonStyle></Style><Style id="line-0288D1-5621-nodesc-highlight"><LineStyle><color>ffd18802</color><width>8.4315</width></LineStyle><BalloonStyle><text><![CDATA[<h3>$[name]</h3>]]></text></BalloonStyle></Style><StyleMap id="line-0288D1-5621-nodesc"><Pair><key>normal</key><styleUrl>#line-0288D1-5621-nodesc-normal</styleUrl></Pair><Pair><key>highlight</key><styleUrl>#line-0288D1-5621-nodesc-highlight</styleUrl></Pair></StyleMap><Folder><name>Untitled layer</name><Placemark><name>Course</name><styleUrl>#line-0288D1-5621-nodesc</styleUrl><LineString><tessellate>1</tessellate><coordinates>            -118.192113,50.987447,0            -118.1918,50.987259,0            -118.191512,50.987095,0            -118.191449,50.987018,0            -118.191422,50.986901,0            -118.19142,50.986634,0            -118.191983,50.986624,0            -118.192219,50.986601,0            -118.192568,50.986533,0            -118.193093,50.986385,0            -118.193496,50.986287,0            -118.194703,50.986074,0            -118.198259,50.985483,0            -118.200732,50.985068,0            -118.201027,50.985047,0            -118.201247,50.985068,0            -118.20143,50.985132,0            -118.202073,50.985473,0            -118.202148,50.985493,0            -118.202218,50.98549,0            -118.204466,50.984858,0            -118.204659,50.984831,0            -118.204804,50.984841,0            -118.204943,50.984882,0            -118.205045,50.984976,0            -118.205726,50.986006,0            -118.205839,50.986077,0            -118.206681,50.98651,0            -118.207518,50.987006,0            -118.207615,50.987087,0            -118.207679,50.987158,0            -118.207717,50.987772,0            -118.207765,50.989289,0            -118.20776,50.98937,0            -118.207695,50.989427,0            -118.207588,50.989444,0            -118.207245,50.989444,0            -118.207143,50.989458,0            -118.207041,50.989508,0            -118.206976,50.989582,0            -118.206724,50.990116,0            -118.206596,50.99018,0            -118.206456,50.990248,0            -118.206354,50.990346,0            -118.206317,50.990433,0            -118.206322,50.9907,0            -118.206354,50.990876,0            -118.206365,50.991007,0            -118.20629,50.991608,0            -118.206322,50.991686,0            -118.206408,50.991801,0            -118.206478,50.991956,0            -118.206488,50.99202,0            -118.206435,50.992138,0            -118.206381,50.992284,0            -118.20637,50.992368,0            -118.20637,50.992554,0            -118.206284,50.992743,0            -118.206204,50.992861,0            -118.206038,50.992969,0            -118.20563,50.993246,0            -118.205426,50.993324,0            -118.205115,50.993428,0            -118.204949,50.993543,0            -118.20467,50.99379,0            -118.204355,50.994067,0          </coordinates></LineString></Placemark><Placemark><name>Start/ Finish</name><styleUrl>#icon-1899-FFEA00-nodesc</styleUrl><Point><coordinates>            -118.192113,50.987447,0          </coordinates></Point></Placemark></Folder></Document></kml>