<?xml version="1.0" encoding="UTF-8"?><kml xmlns="http://www.opengis.net/kml/2.2"><Document><name>New York Central Fitness Trail parkrun</name><description/><Style id="icon-1899-FFEA00-nodesc-normal"><IconStyle><color>ff00eaff</color><scale>1</scale><Icon><href>https://www.gstatic.com/mapspro/images/stock/503-wht-blank_maps.png</href></Icon><hotSpot x="32" xunits="pixels" y="64" yunits="insetPixels"/></IconStyle><LabelStyle><scale>0</scale></LabelStyle><BalloonStyle><text><![CDATA[<h3>$[name]</h3>]]></text></BalloonStyle></Style><Style id="icon-1899-FFEA00-nodesc-highlight"><IconStyle><color>ff00eaff</color><scale>1</scale><Icon><href>https://www.gstatic.com/mapspro/images/stock/503-wht-blank_maps.png</href></Icon><hotSpot x="32" xunits="pixels" y="64" yunits="insetPixels"/></IconStyle><LabelStyle><scale>1</scale></LabelStyle><BalloonStyle><text><![CDATA[<h3>$[name]</h3>]]></text></BalloonStyle></Style><StyleMap id="icon-1899-FFEA00-nodesc"><Pair><key>normal</key><styleUrl>#icon-1899-FFEA00-nodesc-normal</styleUrl></Pair><Pair><key>highlight</key><styleUrl>#icon-1899-FFEA00-nodesc-highlight</styleUrl></Pair></StyleMap><Style id="line-0288D1-5456-nodesc-normal"><LineStyle><color>ffd18802</color><width>5.456</width></LineStyle><BalloonStyle><text><![CDATA[<h3>$[name]</h3>]]></text></BalloonStyle></Style><Style id="line-0288D1-5456-nodesc-highlight"><LineStyle><color>ffd18802</color><width>8.184</width></LineStyle><BalloonStyle><text><![CDATA[<h3>$[name]</h3>]]></text></BalloonStyle></Style><StyleMap id="line-0288D1-5456-nodesc"><Pair><key>normal</key><styleUrl>#line-0288D1-5456-nodesc-normal</styleUrl></Pair><Pair><key>highlight</key><styleUrl>#line-0288D1-5456-nodesc-highlight</styleUrl></Pair></StyleMap><Folder><name>Untitled layer</name><Placemark><name>Course</name><styleUrl>#line-0288D1-5456-nodesc</styleUrl><LineString><tessellate>1</tessellate><coordinates>            -75.36126,45.26293,0            -75.36122,45.26293,0            -75.36052,45.26303,0            -75.36046,45.26303,0            -75.36042,45.26302,0            -75.36038,45.26303,0            -75.35964,45.26313,0            -75.3585,45.26331,0            -75.35713,45.26353,0            -75.35701,45.26355,0            -75.3548,45.26389,0            -75.35466,45.26391,0            -75.35305,45.26414,0            -75.35232,45.26425,0            -75.35105,45.26443,0            -75.34979,45.26462,0            -75.34946,45.26467,0            -75.34904,45.26473,0            -75.34855,45.2648,0            -75.34755,45.26496,0            -75.34566,45.26524,0            -75.34755,45.26496,0            -75.34855,45.2648,0            -75.34904,45.26473,0            -75.34946,45.26467,0            -75.34979,45.26462,0            -75.35105,45.26443,0            -75.35232,45.26425,0            -75.35305,45.26414,0            -75.35466,45.26391,0            -75.3548,45.26389,0            -75.35701,45.26355,0            -75.35713,45.26353,0            -75.3585,45.26331,0            -75.35964,45.26313,0            -75.36039,45.26303,0            -75.36042,45.26301,0            -75.36046,45.26303,0            -75.36052,45.26303,0            -75.36122,45.26293,0            -75.36125,45.26293,0            -75.36122,45.26293,0            -75.36052,45.26303,0            -75.36046,45.26303,0            -75.36042,45.26302,0            -75.36038,45.26303,0            -75.35964,45.26313,0            -75.3585,45.26331,0            -75.35713,45.26353,0            -75.35701,45.26355,0            -75.3548,45.26389,0            -75.35466,45.26391,0            -75.35305,45.26414,0            -75.35232,45.26425,0            -75.35105,45.26443,0            -75.34979,45.26462,0            -75.34946,45.26467,0            -75.34904,45.26473,0            -75.34855,45.2648,0            -75.34755,45.26496,0            -75.34566,45.26524,0            -75.34755,45.26496,0            -75.34855,45.2648,0            -75.34904,45.26473,0            -75.34946,45.26467,0            -75.34979,45.26462,0            -75.35105,45.26443,0            -75.35232,45.26425,0            -75.35305,45.26414,0            -75.35466,45.26391,0            -75.3548,45.26389,0            -75.35701,45.26355,0            -75.35713,45.26353,0            -75.3585,45.26331,0            -75.35964,45.26313,0            -75.36039,45.26303,0            -75.36042,45.26301,0            -75.36046,45.26303,0            -75.36052,45.26303,0            -75.36122,45.26293,0            -75.36125,45.26293,0          </coordinates></LineString></Placemark><Placemark><name>Start/Finish</name><styleUrl>#icon-1899-FFEA00-nodesc</styleUrl><Point><coordinates>            -75.361256,45.262925,0          </coordinates></Point></Placemark></Folder></Document></kml>