<?xml version="1.0" encoding="UTF-8"?><kml xmlns="http://www.opengis.net/kml/2.2"><Document><name>Okanagan Rail Trail parkrun</name><description/><Style id="icon-1899-FFEA00-nodesc-normal"><IconStyle><color>ff00eaff</color><scale>1</scale><Icon><href>https://www.gstatic.com/mapspro/images/stock/503-wht-blank_maps.png</href></Icon><hotSpot x="32" xunits="pixels" y="64" yunits="insetPixels"/></IconStyle><LabelStyle><scale>0</scale></LabelStyle><BalloonStyle><text><![CDATA[<h3>$[name]</h3>]]></text></BalloonStyle></Style><Style id="icon-1899-FFEA00-nodesc-highlight"><IconStyle><color>ff00eaff</color><scale>1</scale><Icon><href>https://www.gstatic.com/mapspro/images/stock/503-wht-blank_maps.png</href></Icon><hotSpot x="32" xunits="pixels" y="64" yunits="insetPixels"/></IconStyle><LabelStyle><scale>1</scale></LabelStyle><BalloonStyle><text><![CDATA[<h3>$[name]</h3>]]></text></BalloonStyle></Style><StyleMap id="icon-1899-FFEA00-nodesc"><Pair><key>normal</key><styleUrl>#icon-1899-FFEA00-nodesc-normal</styleUrl></Pair><Pair><key>highlight</key><styleUrl>#icon-1899-FFEA00-nodesc-highlight</styleUrl></Pair></StyleMap><Style id="line-0288D1-4681-nodesc-normal"><LineStyle><color>ffd18802</color><width>4.681</width></LineStyle><BalloonStyle><text><![CDATA[<h3>$[name]</h3>]]></text></BalloonStyle></Style><Style id="line-0288D1-4681-nodesc-highlight"><LineStyle><color>ffd18802</color><width>7.0215</width></LineStyle><BalloonStyle><text><![CDATA[<h3>$[name]</h3>]]></text></BalloonStyle></Style><StyleMap id="line-0288D1-4681-nodesc"><Pair><key>normal</key><styleUrl>#line-0288D1-4681-nodesc-normal</styleUrl></Pair><Pair><key>highlight</key><styleUrl>#line-0288D1-4681-nodesc-highlight</styleUrl></Pair></StyleMap><Folder><name>Untitled layer</name><Placemark><name>Course</name><styleUrl>#line-0288D1-4681-nodesc</styleUrl><LineString><tessellate>1</tessellate><coordinates>            -119.281709,50.227479,0            -119.282054,50.225641,0            -119.282566,50.224363,0            -119.283204,50.222681,0            -119.28317,50.221156,0            -119.283312,50.220773,0            -119.283693,50.220349,0            -119.284267,50.220023,0            -119.284747,50.219862,0            -119.286458,50.219427,0            -119.287273,50.218804,0            -119.287759,50.218247,0            -119.289741,50.215157,0            -119.290194,50.214618,0            -119.291382,50.213647,0            -119.292262,50.212372,0            -119.293214,50.211216,0            -119.294274,50.210315,0            -119.295427,50.209946,0            -119.2958042,50.209613,0            -119.2960035,50.2093641,0            -119.2961384,50.2090259,0            -119.2962034,50.2088354,0            -119.296286,50.208686,0            -119.296527,50.208408,0            -119.296398,50.208388,0            -119.296245,50.20842,0            -119.29616,50.208458,0            -119.296067,50.208656,0            -119.2960167,50.2087742,0            -119.29602,50.208865,0            -119.29613,50.208963,0            -119.2961354,50.2090008,0          </coordinates></LineString></Placemark><Placemark><name>Start/Finish</name><styleUrl>#icon-1899-FFEA00-nodesc</styleUrl><Point><coordinates>            -119.281709,50.227479,0          </coordinates></Point></Placemark></Folder></Document></kml>