<?xml version="1.0" encoding="UTF-8"?><kml xmlns="http://www.opengis.net/kml/2.2"><Document><name>River Valley parkrun, Edmonton</name><description/><Style id="icon-1899-FFEA00-nodesc-normal"><IconStyle><color>ff00eaff</color><scale>1</scale><Icon><href>https://www.gstatic.com/mapspro/images/stock/503-wht-blank_maps.png</href></Icon><hotSpot x="32" xunits="pixels" y="64" yunits="insetPixels"/></IconStyle><LabelStyle><scale>0</scale></LabelStyle><BalloonStyle><text><![CDATA[<h3>$[name]</h3>]]></text></BalloonStyle></Style><Style id="icon-1899-FFEA00-nodesc-highlight"><IconStyle><color>ff00eaff</color><scale>1</scale><Icon><href>https://www.gstatic.com/mapspro/images/stock/503-wht-blank_maps.png</href></Icon><hotSpot x="32" xunits="pixels" y="64" yunits="insetPixels"/></IconStyle><LabelStyle><scale>1</scale></LabelStyle><BalloonStyle><text><![CDATA[<h3>$[name]</h3>]]></text></BalloonStyle></Style><StyleMap id="icon-1899-FFEA00-nodesc"><Pair><key>normal</key><styleUrl>#icon-1899-FFEA00-nodesc-normal</styleUrl></Pair><Pair><key>highlight</key><styleUrl>#icon-1899-FFEA00-nodesc-highlight</styleUrl></Pair></StyleMap><Style id="line-0288D1-5456-nodesc-normal"><LineStyle><color>ffd18802</color><width>5.456</width></LineStyle><BalloonStyle><text><![CDATA[<h3>$[name]</h3>]]></text></BalloonStyle></Style><Style id="line-0288D1-5456-nodesc-highlight"><LineStyle><color>ffd18802</color><width>8.184</width></LineStyle><BalloonStyle><text><![CDATA[<h3>$[name]</h3>]]></text></BalloonStyle></Style><StyleMap id="line-0288D1-5456-nodesc"><Pair><key>normal</key><styleUrl>#line-0288D1-5456-nodesc-normal</styleUrl></Pair><Pair><key>highlight</key><styleUrl>#line-0288D1-5456-nodesc-highlight</styleUrl></Pair></StyleMap><Folder><name>Untitled layer</name><Placemark><name>Start / Finish</name><styleUrl>#icon-1899-FFEA00-nodesc</styleUrl><Point><coordinates>            -113.526296,53.533436,0          </coordinates></Point></Placemark><Placemark><name>Course</name><styleUrl>#line-0288D1-5456-nodesc</styleUrl><LineString><tessellate>1</tessellate><coordinates>            -113.503636,53.527875,0            -113.5037472,53.5268658,0            -113.502864,53.526753,0            -113.502495,53.527468,0            -113.503636,53.527875,0            -113.501877,53.527237,0            -113.5017017,53.5271726,0            -113.500547,53.52637,0            -113.501748,53.525936,0            -113.502349,53.526498,0            -113.502349,53.526753,0            -113.501877,53.527237,0            -113.5018697,53.5277523,0            -113.500962,53.529264,0            -113.500203,53.528844,0            -113.498701,53.529355,0            -113.50059,53.52989,0            -113.5009631,53.5292526,0            -113.501495,53.529553,0            -113.501534,53.529329,0            -113.502495,53.527468,0            -113.501534,53.529329,0            -113.501362,53.530324,0            -113.5034066,53.5301884,0            -113.5030096,53.5301853,0            -113.501495,53.529553,0            -113.5030096,53.5301853,0            -113.504152,53.530196,0            -113.5082211,53.5312407,0            -113.5102811,53.5318657,0            -113.5119128,53.5319642,0            -113.5131152,53.5319352,0            -113.5156704,53.5319536,0            -113.5167384,53.5320583,0            -113.5182784,53.5321472,0            -113.5208919,53.5325703,0            -113.5234588,53.5329752,0            -113.526296,53.533436,0          </coordinates></LineString></Placemark></Folder></Document></kml>