<?xml version="1.0" encoding="UTF-8"?><kml xmlns="http://www.opengis.net/kml/2.2"><Document><name>Tom Taylor Trail parkrun</name><description/><Style id="icon-1899-FFEA00-nodesc-normal"><IconStyle><color>ff00eaff</color><scale>1</scale><Icon><href>https://www.gstatic.com/mapspro/images/stock/503-wht-blank_maps.png</href></Icon><hotSpot x="32" xunits="pixels" y="64" yunits="insetPixels"/></IconStyle><LabelStyle><scale>0</scale></LabelStyle><BalloonStyle><text><![CDATA[<h3>$[name]</h3>]]></text></BalloonStyle></Style><Style id="icon-1899-FFEA00-nodesc-highlight"><IconStyle><color>ff00eaff</color><scale>1</scale><Icon><href>https://www.gstatic.com/mapspro/images/stock/503-wht-blank_maps.png</href></Icon><hotSpot x="32" xunits="pixels" y="64" yunits="insetPixels"/></IconStyle><LabelStyle><scale>1</scale></LabelStyle><BalloonStyle><text><![CDATA[<h3>$[name]</h3>]]></text></BalloonStyle></Style><StyleMap id="icon-1899-FFEA00-nodesc"><Pair><key>normal</key><styleUrl>#icon-1899-FFEA00-nodesc-normal</styleUrl></Pair><Pair><key>highlight</key><styleUrl>#icon-1899-FFEA00-nodesc-highlight</styleUrl></Pair></StyleMap><Style id="line-0288D1-4488-nodesc-normal"><LineStyle><color>ffd18802</color><width>4.488</width></LineStyle><BalloonStyle><text><![CDATA[<h3>$[name]</h3>]]></text></BalloonStyle></Style><Style id="line-0288D1-4488-nodesc-highlight"><LineStyle><color>ffd18802</color><width>6.732</width></LineStyle><BalloonStyle><text><![CDATA[<h3>$[name]</h3>]]></text></BalloonStyle></Style><StyleMap id="line-0288D1-4488-nodesc"><Pair><key>normal</key><styleUrl>#line-0288D1-4488-nodesc-normal</styleUrl></Pair><Pair><key>highlight</key><styleUrl>#line-0288D1-4488-nodesc-highlight</styleUrl></Pair></StyleMap><Folder><name>Untitled layer</name><Placemark><name>Course</name><styleUrl>#line-0288D1-4488-nodesc</styleUrl><LineString><tessellate>1</tessellate><coordinates>            -79.454362,44.075374,0            -79.454303,44.074594,0            -79.454445,44.0738901,0            -79.4547686,44.073316,0            -79.45506,44.0727341,0            -79.455019,44.072366,0            -79.455038,44.072279,0            -79.45521,44.0720751,0            -79.4556567,44.0715231,0            -79.4560389,44.0709557,0            -79.4562871,44.0705039,0            -79.4567713,44.0700366,0            -79.457034,44.069656,0            -79.4577946,44.0681419,0            -79.4585529,44.0669478,0            -79.45885,44.066594,0            -79.459955,44.0646381,0            -79.460132,44.064027,0            -79.460046,44.0632501,0            -79.459842,44.0620671,0            -79.459346,44.0611941,0            -79.458866,44.0610221,0            -79.458611,44.060733,0            -79.458431,44.060459,0            -79.458423,44.0603781,0            -79.458509,44.060203,0            -79.4585236,44.0600027,0            -79.458463,44.0598641,0            -79.458517,44.059929,0            -79.4585236,44.0600316,0            -79.458509,44.0601991,0            -79.458517,44.059929,0            -79.4583147,44.0596865,0            -79.458099,44.0592741,0            -79.457844,44.0588711,0            -79.457804,44.058759,0            -79.457836,44.0585381,0            -79.457812,44.058318,0            -79.4576641,44.0581108,0            -79.457592,44.058002,0            -79.457482,44.057921,0            -79.457259,44.057894,0            -79.457144,44.0578511,0            -79.456666,44.0576141,0            -79.45661,44.057532,0            -79.456554,44.057497,0            -79.456437,44.0575344,0            -79.45632,44.057539,0            -79.456208,44.057501,0            -79.4562623,44.0572152,0            -79.456245,44.057098,0            -79.456194,44.057052,0            -79.456127,44.0570361,0            -79.455926,44.0569981,0            -79.455966,44.0569011,0            -79.456208,44.0567741,0            -79.4562921,44.0564543,0            -79.456269,44.0561421,0            -79.456335,44.0559916,0            -79.456283,44.0558411,0            -79.456184,44.0557181,0            -79.456092,44.0556561,0            -79.455939,44.0555731,0            -79.455878,44.0554781,0            -79.455896,44.0553571,0            -79.455792,44.0552401,0            -79.45555,44.0551281,0            -79.455513,44.0550041,0          </coordinates></LineString></Placemark><Placemark><name>Start/Finish</name><styleUrl>#icon-1899-FFEA00-nodesc</styleUrl><Point><coordinates>            -79.455513,44.055008,0          </coordinates></Point></Placemark></Folder></Document></kml>