<?xml version="1.0" encoding="UTF-8"?><kml xmlns="http://www.opengis.net/kml/2.2"><Document><name>Victoria Park Beach parkrun, Cobourg (from Apr 2026)</name><description/><Style id="icon-1899-FFEA00-nodesc-normal"><IconStyle><color>ff00eaff</color><scale>1</scale><Icon><href>https://www.gstatic.com/mapspro/images/stock/503-wht-blank_maps.png</href></Icon><hotSpot x="32" xunits="pixels" y="64" yunits="insetPixels"/></IconStyle><LabelStyle><scale>0</scale></LabelStyle><BalloonStyle><text><![CDATA[<h3>$[name]</h3>]]></text></BalloonStyle></Style><Style id="icon-1899-FFEA00-nodesc-highlight"><IconStyle><color>ff00eaff</color><scale>1</scale><Icon><href>https://www.gstatic.com/mapspro/images/stock/503-wht-blank_maps.png</href></Icon><hotSpot x="32" xunits="pixels" y="64" yunits="insetPixels"/></IconStyle><LabelStyle><scale>1</scale></LabelStyle><BalloonStyle><text><![CDATA[<h3>$[name]</h3>]]></text></BalloonStyle></Style><StyleMap id="icon-1899-FFEA00-nodesc"><Pair><key>normal</key><styleUrl>#icon-1899-FFEA00-nodesc-normal</styleUrl></Pair><Pair><key>highlight</key><styleUrl>#icon-1899-FFEA00-nodesc-highlight</styleUrl></Pair></StyleMap><Style id="line-0288D1-5621-nodesc-normal"><LineStyle><color>ffd18802</color><width>5.621</width></LineStyle><BalloonStyle><text><![CDATA[<h3>$[name]</h3>]]></text></BalloonStyle></Style><Style id="line-0288D1-5621-nodesc-highlight"><LineStyle><color>ffd18802</color><width>8.4315</width></LineStyle><BalloonStyle><text><![CDATA[<h3>$[name]</h3>]]></text></BalloonStyle></Style><StyleMap id="line-0288D1-5621-nodesc"><Pair><key>normal</key><styleUrl>#line-0288D1-5621-nodesc-normal</styleUrl></Pair><Pair><key>highlight</key><styleUrl>#line-0288D1-5621-nodesc-highlight</styleUrl></Pair></StyleMap><Folder><name>Untitled layer</name><Placemark><name>Course</name><styleUrl>#line-0288D1-5621-nodesc</styleUrl><LineString><tessellate>1</tessellate><coordinates>            -78.163994,43.95708,0            -78.1625663,43.957452,0            -78.1623732,43.9576102,0            -78.162528,43.958056,0            -78.1625126,43.9581142,0            -78.162306,43.958164,0            -78.162359,43.958332,0            -78.162421,43.958347,0            -78.1624993,43.9583362,0            -78.1629025,43.9591991,0            -78.1629007,43.9592432,0            -78.1625443,43.9591349,0            -78.161786,43.958942,0            -78.1611742,43.9588065,0            -78.160871,43.958682,0            -78.16104,43.958448,0            -78.1606861,43.9585776,0            -78.1605037,43.9586046,0            -78.1602838,43.9585833,0            -78.160112,43.958473,0            -78.1600128,43.9583479,0            -78.1599963,43.9582406,0            -78.159953,43.95806,0            -78.159876,43.957954,0            -78.1596266,43.9578767,0            -78.159218,43.957819,0            -78.1589507,43.9578883,0            -78.158869,43.957892,0            -78.158757,43.957852,0            -78.15873,43.957773,0            -78.1587545,43.9576704,0            -78.15883,43.957674,0            -78.159218,43.957732,0            -78.159876,43.957954,0            -78.1600182,43.95784,0            -78.1606941,43.9578111,0            -78.1611107,43.9577997,0            -78.161522,43.957827,0            -78.161909,43.957786,0            -78.1623732,43.9576102,0          </coordinates></LineString></Placemark><Placemark><name>Start/Finish</name><styleUrl>#icon-1899-FFEA00-nodesc</styleUrl><Point><coordinates>            -78.16106,43.958442,0          </coordinates></Point></Placemark></Folder></Document></kml>