<?xml version="1.0" encoding="UTF-8"?><kml xmlns="http://www.opengis.net/kml/2.2"><Document><name>Donauradweg parkrun</name><description/><Style id="icon-1899-FFEA00-nodesc-normal"><IconStyle><color>ff00eaff</color><scale>1</scale><Icon><href>https://www.gstatic.com/mapspro/images/stock/503-wht-blank_maps.png</href></Icon><hotSpot x="32" xunits="pixels" y="64" yunits="insetPixels"/></IconStyle><LabelStyle><scale>0</scale></LabelStyle><BalloonStyle><text><![CDATA[<h3>$[name]</h3>]]></text></BalloonStyle></Style><Style id="icon-1899-FFEA00-nodesc-highlight"><IconStyle><color>ff00eaff</color><scale>1</scale><Icon><href>https://www.gstatic.com/mapspro/images/stock/503-wht-blank_maps.png</href></Icon><hotSpot x="32" xunits="pixels" y="64" yunits="insetPixels"/></IconStyle><LabelStyle><scale>1</scale></LabelStyle><BalloonStyle><text><![CDATA[<h3>$[name]</h3>]]></text></BalloonStyle></Style><StyleMap id="icon-1899-FFEA00-nodesc"><Pair><key>normal</key><styleUrl>#icon-1899-FFEA00-nodesc-normal</styleUrl></Pair><Pair><key>highlight</key><styleUrl>#icon-1899-FFEA00-nodesc-highlight</styleUrl></Pair></StyleMap><Style id="line-0288D1-5000-nodesc-normal"><LineStyle><color>ffd18802</color><width>5</width></LineStyle><BalloonStyle><text><![CDATA[<h3>$[name]</h3>]]></text></BalloonStyle></Style><Style id="line-0288D1-5000-nodesc-highlight"><LineStyle><color>ffd18802</color><width>7.5</width></LineStyle><BalloonStyle><text><![CDATA[<h3>$[name]</h3>]]></text></BalloonStyle></Style><StyleMap id="line-0288D1-5000-nodesc"><Pair><key>normal</key><styleUrl>#line-0288D1-5000-nodesc-normal</styleUrl></Pair><Pair><key>highlight</key><styleUrl>#line-0288D1-5000-nodesc-highlight</styleUrl></Pair></StyleMap><Folder><name>Untitled layer</name><Placemark><name>Course</name><styleUrl>#line-0288D1-5000-nodesc</styleUrl><LineString><tessellate>1</tessellate><coordinates>            14.29326,48.3181,0            14.29333,48.31816,0            14.29343,48.31825,0            14.29375,48.31855,0            14.29385,48.31869,0            14.29392,48.31878,0            14.29397,48.31884,0            14.29398,48.31886,0            14.29415,48.31903,0            14.29422,48.31911,0            14.29426,48.31917,0            14.29439,48.31921,0            14.29471,48.3194,0            14.29501,48.31961,0            14.29536,48.31987,0            14.29548,48.31996,0            14.29553,48.32,0            14.29592,48.32031,0            14.29606,48.32041,0            14.29635,48.32064,0            14.29654,48.32078,0            14.2969,48.32105,0            14.2972,48.32129,0            14.29743,48.32146,0            14.29817,48.32201,0            14.29843,48.32218,0            14.29922,48.32271,0            14.29951,48.32287,0            14.29955,48.3229,0            14.29974,48.32301,0            14.30006,48.32319,0            14.30037,48.32336,0            14.3006,48.32348,0            14.30095,48.32366,0            14.30097,48.32366,0            14.3014,48.32387,0            14.30192,48.3241,0            14.30238,48.32429,0            14.30279,48.32445,0            14.30311,48.32457,0            14.30325,48.32463,0            14.30334,48.32464,0            14.30352,48.32468,0            14.30376,48.32475,0            14.30416,48.32488,0            14.3044,48.32496,0            14.30461,48.32502,0            14.30475,48.32507,0            14.30501,48.32516,0            14.30531,48.32525,0            14.30574,48.32535,0            14.30625,48.32547,0            14.30659,48.32554,0            14.30709,48.32565,0            14.30757,48.32573,0            14.30788,48.32578,0            14.30838,48.32586,0            14.30892,48.32592,0            14.30949,48.32598,0            14.31014,48.32603,0            14.31066,48.32607,0            14.31109,48.32607,0            14.31136,48.32609,0            14.31154,48.32607,0            14.31179,48.32606,0            14.31218,48.32606,0            14.31246,48.32606,0            14.31297,48.32606,0            14.31347,48.32605,0            14.31403,48.32601,0            14.31442,48.32598,0            14.31447,48.32598,0            14.31484,48.32596,0            14.3151,48.32594,0            14.31532,48.32592,0            14.31554,48.32589,0            14.31587,48.32586,0            14.31617,48.32581,0            14.31647,48.32576,0            14.31699,48.32569,0            14.31738,48.32561,0            14.31803,48.32548,0            14.31849,48.32538,0            14.31907,48.32523,0            14.31971,48.32507,0            14.32041,48.32487,0            14.3208,48.32474,0            14.32089,48.3247,0            14.32096,48.32467,0            14.321,48.32463,0            14.32104,48.32461,0            14.3211,48.32459,0            14.32116,48.32459,0            14.32124,48.32458,0            14.32132,48.32457,0            14.32142,48.32454,0            14.32154,48.3245,0            14.32198,48.32433,0            14.32259,48.32409,0            14.3229,48.32394,0            14.32319,48.32385,0            14.32334,48.32381,0            14.32346,48.32379,0            14.32338,48.32385,0            14.32331,48.32389,0            14.32231,48.32431,0            14.32172,48.32454,0            14.32134,48.32469,0            14.32124,48.32458,0            14.32116,48.32459,0            14.3211,48.32459,0            14.32104,48.32461,0            14.321,48.32463,0            14.32096,48.32467,0            14.32089,48.3247,0            14.3208,48.32474,0            14.32041,48.32487,0            14.31971,48.32507,0            14.31907,48.32523,0            14.31849,48.32538,0            14.31803,48.32548,0            14.31738,48.32561,0            14.31699,48.32569,0            14.31647,48.32576,0            14.31617,48.32581,0            14.31587,48.32586,0            14.31554,48.32589,0            14.31532,48.32592,0            14.3151,48.32594,0            14.31484,48.32596,0            14.31447,48.32598,0            14.31442,48.32598,0            14.31403,48.32601,0            14.31347,48.32605,0            14.31297,48.32606,0            14.31246,48.32606,0            14.31218,48.32606,0            14.31179,48.32606,0            14.31154,48.32607,0            14.31136,48.32609,0            14.31109,48.32607,0            14.31066,48.32607,0            14.31014,48.32603,0            14.30949,48.32598,0            14.30892,48.32592,0            14.30838,48.32586,0            14.30788,48.32578,0            14.30757,48.32573,0            14.30709,48.32565,0            14.30659,48.32554,0            14.30625,48.32547,0            14.30574,48.32535,0            14.30531,48.32525,0            14.30501,48.32516,0            14.30475,48.32507,0            14.30461,48.32502,0            14.3044,48.32496,0            14.30416,48.32488,0            14.30376,48.32475,0            14.30352,48.32468,0            14.30334,48.32464,0            14.30325,48.32463,0            14.30311,48.32457,0            14.30279,48.32445,0            14.30238,48.32429,0            14.30192,48.3241,0            14.3014,48.32387,0            14.30097,48.32366,0            14.30095,48.32366,0            14.3006,48.32348,0            14.30037,48.32336,0            14.30006,48.32319,0            14.29974,48.32301,0            14.29955,48.3229,0            14.29951,48.32287,0            14.29922,48.32271,0            14.29843,48.32218,0            14.29817,48.32201,0            14.29743,48.32146,0            14.2972,48.32129,0            14.2969,48.32105,0            14.29654,48.32078,0            14.29635,48.32064,0            14.29606,48.32041,0            14.29592,48.32031,0            14.29553,48.32,0            14.29548,48.31996,0            14.29536,48.31987,0            14.29501,48.31961,0            14.29471,48.3194,0            14.29439,48.31921,0            14.29426,48.31917,0            14.29422,48.31911,0            14.29415,48.31903,0            14.29398,48.31886,0            14.29397,48.31884,0            14.29392,48.31878,0            14.29385,48.31869,0            14.29375,48.31855,0            14.29343,48.31825,0            14.29333,48.31816,0            14.29328,48.31811,0          </coordinates></LineString></Placemark><Placemark><name>Start/Ziel</name><styleUrl>#icon-1899-FFEA00-nodesc</styleUrl><Point><coordinates>            14.29326,48.318099,0          </coordinates></Point></Placemark></Folder></Document></kml>