<?xml version="1.0" encoding="UTF-8"?><kml xmlns="http://www.opengis.net/kml/2.2"><Document><name>Stadtpark parkrun, Graz</name><description/><Style id="icon-1899-FFEA00-nodesc-normal"><IconStyle><color>ff00eaff</color><scale>1</scale><Icon><href>https://www.gstatic.com/mapspro/images/stock/503-wht-blank_maps.png</href></Icon><hotSpot x="32" xunits="pixels" y="64" yunits="insetPixels"/></IconStyle><LabelStyle><scale>0</scale></LabelStyle><BalloonStyle><text><![CDATA[<h3>$[name]</h3>]]></text></BalloonStyle></Style><Style id="icon-1899-FFEA00-nodesc-highlight"><IconStyle><color>ff00eaff</color><scale>1</scale><Icon><href>https://www.gstatic.com/mapspro/images/stock/503-wht-blank_maps.png</href></Icon><hotSpot x="32" xunits="pixels" y="64" yunits="insetPixels"/></IconStyle><LabelStyle><scale>1</scale></LabelStyle><BalloonStyle><text><![CDATA[<h3>$[name]</h3>]]></text></BalloonStyle></Style><StyleMap id="icon-1899-FFEA00-nodesc"><Pair><key>normal</key><styleUrl>#icon-1899-FFEA00-nodesc-normal</styleUrl></Pair><Pair><key>highlight</key><styleUrl>#icon-1899-FFEA00-nodesc-highlight</styleUrl></Pair></StyleMap><Style id="line-0288D1-5236-nodesc-normal"><LineStyle><color>ffd18802</color><width>5.236</width></LineStyle><BalloonStyle><text><![CDATA[<h3>$[name]</h3>]]></text></BalloonStyle></Style><Style id="line-0288D1-5236-nodesc-highlight"><LineStyle><color>ffd18802</color><width>7.854</width></LineStyle><BalloonStyle><text><![CDATA[<h3>$[name]</h3>]]></text></BalloonStyle></Style><StyleMap id="line-0288D1-5236-nodesc"><Pair><key>normal</key><styleUrl>#line-0288D1-5236-nodesc-normal</styleUrl></Pair><Pair><key>highlight</key><styleUrl>#line-0288D1-5236-nodesc-highlight</styleUrl></Pair></StyleMap><Folder><name>Untitled layer</name><Placemark><name>Course</name><styleUrl>#line-0288D1-5236-nodesc</styleUrl><LineString><tessellate>1</tessellate><coordinates>            15.442923,47.07512,0            15.442872,47.075432,0            15.442956,47.075967,0            15.443696,47.076148,0            15.44296,47.076498,0            15.441821,47.076614,0            15.441884,47.076652,0            15.442714,47.076742,0            15.443133,47.077367,0            15.443406,47.077387,0            15.443744,47.077266,0            15.443846,47.077124,0            15.443798,47.076824,0            15.443782,47.07643,0            15.443835,47.076207,0            15.444002,47.07583,0            15.444243,47.0756,0            15.445461,47.075092,0            15.445756,47.074238,0            15.445901,47.073624,0            15.445238,47.072349,0            15.445072,47.072303,0            15.444833,47.072798,0            15.445176,47.073426,0            15.444372,47.073616,0            15.44425,47.073748,0            15.444149,47.073931,0            15.443584,47.073991,0            15.443491,47.074024,0            15.443264,47.074308,0            15.443151,47.074244,0            15.443248,47.074114,0            15.443264,47.074063,0            15.443237,47.074019,0            15.44295,47.073915,0            15.442778,47.074134,0            15.443235,47.074328,0            15.443226,47.074367,0            15.4431,47.074641,0            15.443048,47.074865,0            15.442931,47.074888,0            15.442923,47.075094,0          </coordinates></LineString></Placemark><Placemark><name>Start/Finish</name><styleUrl>#icon-1899-FFEA00-nodesc</styleUrl><Point><coordinates>            15.443202,47.0743455,0          </coordinates></Point></Placemark></Folder></Document></kml>