<?xml version="1.0" encoding="UTF-8"?><kml xmlns="http://www.opengis.net/kml/2.2"><Document><name>Bugasee parkrun</name><description/><Style id="icon-1899-FFEA00-nodesc-normal"><IconStyle><color>ff00eaff</color><scale>1</scale><Icon><href>https://www.gstatic.com/mapspro/images/stock/503-wht-blank_maps.png</href></Icon><hotSpot x="32" xunits="pixels" y="64" yunits="insetPixels"/></IconStyle><LabelStyle><scale>0</scale></LabelStyle><BalloonStyle><text><![CDATA[<h3>$[name]</h3>]]></text></BalloonStyle></Style><Style id="icon-1899-FFEA00-nodesc-highlight"><IconStyle><color>ff00eaff</color><scale>1</scale><Icon><href>https://www.gstatic.com/mapspro/images/stock/503-wht-blank_maps.png</href></Icon><hotSpot x="32" xunits="pixels" y="64" yunits="insetPixels"/></IconStyle><LabelStyle><scale>1</scale></LabelStyle><BalloonStyle><text><![CDATA[<h3>$[name]</h3>]]></text></BalloonStyle></Style><StyleMap id="icon-1899-FFEA00-nodesc"><Pair><key>normal</key><styleUrl>#icon-1899-FFEA00-nodesc-normal</styleUrl></Pair><Pair><key>highlight</key><styleUrl>#icon-1899-FFEA00-nodesc-highlight</styleUrl></Pair></StyleMap><Style id="line-1267FF-5000-nodesc-normal"><LineStyle><color>ffff6712</color><width>5</width></LineStyle><BalloonStyle><text><![CDATA[<h3>$[name]</h3>]]></text></BalloonStyle></Style><Style id="line-1267FF-5000-nodesc-highlight"><LineStyle><color>ffff6712</color><width>7.5</width></LineStyle><BalloonStyle><text><![CDATA[<h3>$[name]</h3>]]></text></BalloonStyle></Style><StyleMap id="line-1267FF-5000-nodesc"><Pair><key>normal</key><styleUrl>#line-1267FF-5000-nodesc-normal</styleUrl></Pair><Pair><key>highlight</key><styleUrl>#line-1267FF-5000-nodesc-highlight</styleUrl></Pair></StyleMap><Folder><name>Untitled layer</name><Placemark><name>Course</name><styleUrl>#line-1267FF-5000-nodesc</styleUrl><LineString><tessellate>1</tessellate><coordinates>            9.49419,51.29153,0            9.49429,51.29165,0            9.49433,51.29168,0            9.4945,51.29183,0            9.49454,51.29186,0            9.49488,51.29215,0            9.49495,51.29219,0            9.49498,51.29221,0            9.49509,51.29227,0            9.49518,51.29232,0            9.4953,51.29237,0            9.49563,51.29251,0            9.49574,51.29257,0            9.49586,51.29264,0            9.49591,51.29268,0            9.49597,51.29272,0            9.49616,51.29285,0            9.49623,51.2929,0            9.49632,51.29294,0            9.4964,51.29297,0            9.49647,51.293,0            9.49652,51.29301,0            9.49667,51.29309,0            9.49673,51.29312,0            9.49678,51.29316,0            9.49682,51.2932,0            9.49684,51.29323,0            9.49686,51.29327,0            9.49714,51.29343,0            9.49748,51.29364,0            9.49768,51.29378,0            9.4978,51.29387,0            9.49796,51.29406,0            9.49804,51.29423,0            9.49838,51.29452,0            9.49863,51.29473,0            9.49896,51.29499,0            9.49955,51.29546,0            9.50002,51.29529,0            9.50005,51.29528,0            9.50007,51.29526,0            9.50008,51.29525,0            9.50011,51.29519,0            9.50011,51.29517,0            9.5001,51.29514,0            9.50009,51.29512,0            9.50006,51.29509,0            9.50001,51.29505,0            9.49994,51.29501,0            9.49985,51.29498,0            9.49977,51.29495,0            9.49972,51.29491,0            9.49969,51.29488,0            9.49966,51.29483,0            9.49963,51.29474,0            9.4996,51.29461,0            9.49959,51.29451,0            9.4996,51.29435,0            9.49972,51.29384,0            9.49972,51.2938,0            9.49971,51.29376,0            9.4997,51.29373,0            9.49959,51.2935,0            9.49937,51.29311,0            9.4993,51.29301,0            9.49928,51.29295,0            9.49927,51.29292,0            9.4993,51.29286,0            9.49933,51.29279,0            9.49938,51.29269,0            9.49944,51.29266,0            9.49955,51.29262,0            9.49966,51.29259,0            9.49993,51.29255,0            9.50009,51.29252,0            9.50038,51.29251,0            9.50053,51.29251,0            9.50062,51.29252,0            9.50073,51.29254,0            9.50086,51.29257,0            9.50096,51.29259,0            9.50109,51.29264,0            9.50119,51.29268,0            9.5013,51.29273,0            9.50133,51.29275,0            9.50137,51.29277,0            9.50143,51.29282,0            9.50153,51.2929,0            9.50183,51.2932,0            9.50206,51.29326,0            9.50225,51.29323,0            9.50234,51.29321,0            9.50262,51.29316,0            9.50287,51.29313,0            9.50293,51.29312,0            9.50315,51.29304,0            9.50327,51.29299,0            9.50349,51.29288,0            9.50372,51.29277,0            9.50394,51.29266,0            9.50412,51.29257,0            9.50441,51.29243,0            9.5044,51.29241,0            9.5044,51.2924,0            9.5044,51.29239,0            9.50442,51.29237,0            9.50445,51.29237,0            9.50447,51.29236,0            9.50449,51.29237,0            9.50452,51.29237,0            9.50483,51.29221,0            9.50488,51.29226,0            9.50492,51.29231,0            9.50495,51.29235,0            9.50497,51.2924,0            9.505,51.29247,0            9.50501,51.29257,0            9.50502,51.29271,0            9.50503,51.2928,0            9.50504,51.29286,0            9.50507,51.29291,0            9.50509,51.29294,0            9.50514,51.29298,0            9.50523,51.29304,0            9.50531,51.2931,0            9.50539,51.29317,0            9.50545,51.29324,0            9.5055,51.29331,0            9.50555,51.29339,0            9.50558,51.29346,0            9.50561,51.29354,0            9.50564,51.29367,0            9.50566,51.29376,0            9.50569,51.29382,0            9.50573,51.29387,0            9.50578,51.29392,0            9.50586,51.29398,0            9.50663,51.29451,0            9.50668,51.29454,0            9.50674,51.29456,0            9.5068,51.29457,0            9.50697,51.29459,0            9.50711,51.29461,0            9.50725,51.29464,0            9.50739,51.29467,0            9.50749,51.29469,0            9.50758,51.29472,0            9.5077,51.29477,0            9.50782,51.29482,0            9.50792,51.29487,0            9.50799,51.29491,0            9.50803,51.29493,0            9.50812,51.29503,0            9.50817,51.29511,0            9.50823,51.29521,0            9.50827,51.29532,0            9.50826,51.29544,0            9.50823,51.29556,0            9.50819,51.29569,0            9.50811,51.29587,0            9.50816,51.29601,0            9.5082,51.2961,0            9.50827,51.29623,0            9.50833,51.29629,0            9.50838,51.29634,0            9.50845,51.2964,0            9.50856,51.29646,0            9.50868,51.29653,0            9.50879,51.2966,0            9.50886,51.29665,0            9.50893,51.29671,0            9.50898,51.29676,0            9.50901,51.2968,0            9.50904,51.29687,0            9.50911,51.29709,0            9.5091,51.29718,0            9.50909,51.29721,0            9.50908,51.29725,0            9.50904,51.29729,0            9.50901,51.29734,0            9.50888,51.29738,0            9.50873,51.29742,0            9.50856,51.29747,0            9.50839,51.29755,0            9.5083,51.2976,0            9.50825,51.29763,0            9.50811,51.29774,0            9.50787,51.298,0            9.50783,51.29804,0            9.50776,51.29808,0            9.50764,51.29815,0            9.50754,51.2982,0            9.50737,51.29827,0            9.50722,51.29833,0            9.50711,51.29837,0            9.507,51.29844,0            9.5069,51.2985,0            9.50682,51.29859,0            9.50674,51.29869,0            9.50669,51.29878,0            9.50662,51.29893,0            9.50659,51.29906,0            9.50658,51.29914,0            9.50658,51.29954,0            9.50656,51.29974,0            9.50653,51.29986,0            9.50651,51.29993,0            9.50644,51.30003,0            9.50631,51.30017,0            9.50612,51.30035,0            9.50603,51.30043,0            9.50597,51.30051,0            9.50586,51.3007,0            9.50581,51.30082,0            9.50579,51.3009,0            9.50576,51.30104,0            9.50575,51.30124,0            9.50574,51.30133,0            9.50568,51.30155,0            9.50563,51.30167,0            9.50551,51.3018,0            9.50533,51.30189,0            9.50496,51.30201,0            9.50495,51.30201,0            9.50472,51.30205,0            9.50458,51.30207,0            9.50439,51.30208,0            9.5042,51.30208,0            9.50398,51.30207,0            9.50377,51.30206,0            9.50354,51.30208,0            9.5032,51.30214,0            9.50308,51.30215,0            9.50314,51.30195,0            9.50314,51.3019,0            9.50313,51.30187,0            9.50311,51.30179,0            9.5031,51.30179,0            9.50302,51.3016,0            9.50284,51.30128,0            9.50281,51.30123,0            9.50277,51.3011,0            9.50275,51.30104,0            9.50275,51.30098,0            9.50275,51.30093,0            9.50276,51.30087,0            9.50278,51.30079,0            9.5028,51.30067,0            9.50283,51.30053,0            9.50286,51.30023,0            9.50286,51.30006,0            9.50284,51.29985,0            9.50283,51.29972,0            9.50274,51.29913,0            9.50267,51.29845,0            9.50267,51.29839,0            9.50263,51.2983,0            9.5026,51.2982,0            9.5024,51.29795,0            9.50234,51.29775,0            9.50227,51.29737,0            9.50225,51.29724,0            9.50226,51.29712,0            9.50227,51.29699,0            9.50232,51.29677,0            9.50238,51.29656,0            9.50241,51.29646,0            9.50243,51.29638,0            9.50242,51.29628,0            9.5024,51.29614,0            9.50236,51.29601,0            9.50234,51.29596,0            9.50231,51.2959,0            9.50222,51.29573,0            9.50197,51.29534,0            9.50194,51.29527,0            9.50192,51.2952,0            9.50192,51.29513,0            9.50193,51.295,0            9.50194,51.29494,0            9.50197,51.29487,0            9.50203,51.29476,0            9.50206,51.29469,0            9.50208,51.29463,0            9.50208,51.29458,0            9.50208,51.2945,0            9.50205,51.29437,0            9.50202,51.29424,0            9.50192,51.29399,0            9.5019,51.29391,0            9.5019,51.29384,0            9.50191,51.29371,0            9.50193,51.29354,0            9.50193,51.29344,0            9.50206,51.29326,0            9.50225,51.29323,0            9.50234,51.29321,0            9.50262,51.29316,0            9.50287,51.29313,0            9.50293,51.29312,0            9.50315,51.29304,0            9.50327,51.29299,0            9.50349,51.29288,0            9.50372,51.29277,0            9.50394,51.29266,0            9.50412,51.29257,0            9.50441,51.29243,0            9.5044,51.29241,0            9.5044,51.2924,0            9.5044,51.29239,0            9.50442,51.29237,0            9.50445,51.29237,0            9.50447,51.29236,0            9.50449,51.29237,0            9.50452,51.29237,0            9.50483,51.29221,0            9.50475,51.29215,0            9.50469,51.29211,0            9.50464,51.29208,0            9.5046,51.29205,0            9.50454,51.29204,0            9.50445,51.29202,0            9.50435,51.292,0            9.50422,51.29199,0            9.50404,51.29197,0            9.50384,51.29195,0            9.50365,51.29194,0            9.50358,51.29192,0            9.50352,51.29191,0            9.50348,51.29188,0            9.50344,51.29185,0            9.50342,51.29182,0            9.5034,51.2918,0            9.50337,51.29169,0            9.5033,51.29143,0            9.50325,51.29138,0            9.50321,51.29134,0            9.50315,51.29129,0            9.50308,51.29124,0            9.50298,51.29119,0            9.50289,51.29114,0            9.50279,51.29109,0            9.50269,51.29106,0            9.5026,51.29103,0            9.50249,51.291,0            9.5024,51.29099,0            9.5023,51.29098,0            9.50213,51.29099,0            9.502,51.291,0            9.50196,51.29101,0            9.50183,51.29102,0            9.50163,51.29106,0            9.5015,51.29108,0            9.50134,51.29112,0            9.50128,51.29113,0            9.50123,51.29114,0            9.50115,51.29115,0            9.50077,51.29113,0            9.50061,51.29111,0            9.50041,51.29107,0            9.4999,51.29096,0            9.49977,51.29092,0            9.49963,51.29088,0            9.49946,51.29085,0            9.49922,51.29083,0            9.49893,51.29083,0            9.49859,51.29084,0            9.49843,51.29083,0            9.49831,51.29082,0            9.49819,51.2908,0            9.49808,51.29078,0            9.49799,51.29075,0            9.49787,51.2907,0            9.49761,51.29058,0            9.49715,51.29041,0            9.49704,51.29037,0            9.49692,51.29035,0            9.49678,51.29032,0            9.49663,51.2903,0            9.49654,51.29029,0            9.49645,51.29029,0            9.49635,51.29029,0            9.49626,51.2903,0            9.49619,51.29031,0            9.49611,51.29032,0            9.49604,51.29034,0            9.49597,51.29037,0            9.49587,51.29044,0            9.49582,51.29049,0            9.49577,51.29055,0            9.49572,51.29064,0            9.49567,51.29077,0            9.49563,51.29086,0            9.49555,51.29097,0            9.49552,51.291,0            9.49545,51.29103,0            9.49536,51.29105,0            9.49513,51.29111,0            9.4948,51.29119,0            9.49459,51.29127,0            9.49441,51.29135,0            9.49438,51.29136,0            9.49435,51.2914,0            9.49433,51.29144,0            9.49429,51.29148,0            9.49425,51.2915,0            9.49419,51.29153,0            9.49415,51.29148,0          </coordinates></LineString></Placemark><Placemark><name>Start/Finish</name><styleUrl>#icon-1899-FFEA00-nodesc</styleUrl><Point><coordinates>            9.5047832,51.2919799,0          </coordinates></Point></Placemark></Folder></Document></kml>