<?xml version="1.0" encoding="UTF-8"?><kml xmlns="http://www.opengis.net/kml/2.2"><Document><name>Ehrenbreitstein parkrun </name><description/><Style id="icon-1899-FFEA00-nodesc-normal"><IconStyle><color>ff00eaff</color><scale>1</scale><Icon><href>https://www.gstatic.com/mapspro/images/stock/503-wht-blank_maps.png</href></Icon><hotSpot x="32" xunits="pixels" y="64" yunits="insetPixels"/></IconStyle><LabelStyle><scale>0</scale></LabelStyle><BalloonStyle><text><![CDATA[<h3>$[name]</h3>]]></text></BalloonStyle></Style><Style id="icon-1899-FFEA00-nodesc-highlight"><IconStyle><color>ff00eaff</color><scale>1</scale><Icon><href>https://www.gstatic.com/mapspro/images/stock/503-wht-blank_maps.png</href></Icon><hotSpot x="32" xunits="pixels" y="64" yunits="insetPixels"/></IconStyle><LabelStyle><scale>1</scale></LabelStyle><BalloonStyle><text><![CDATA[<h3>$[name]</h3>]]></text></BalloonStyle></Style><StyleMap id="icon-1899-FFEA00-nodesc"><Pair><key>normal</key><styleUrl>#icon-1899-FFEA00-nodesc-normal</styleUrl></Pair><Pair><key>highlight</key><styleUrl>#icon-1899-FFEA00-nodesc-highlight</styleUrl></Pair></StyleMap><Style id="line-0288D1-5456-nodesc-normal"><LineStyle><color>ffd18802</color><width>5.456</width></LineStyle><BalloonStyle><text><![CDATA[<h3>$[name]</h3>]]></text></BalloonStyle></Style><Style id="line-0288D1-5456-nodesc-highlight"><LineStyle><color>ffd18802</color><width>8.184</width></LineStyle><BalloonStyle><text><![CDATA[<h3>$[name]</h3>]]></text></BalloonStyle></Style><StyleMap id="line-0288D1-5456-nodesc"><Pair><key>normal</key><styleUrl>#line-0288D1-5456-nodesc-normal</styleUrl></Pair><Pair><key>highlight</key><styleUrl>#line-0288D1-5456-nodesc-highlight</styleUrl></Pair></StyleMap><Folder><name>Untitled layer</name><Placemark><name>Course</name><styleUrl>#line-0288D1-5456-nodesc</styleUrl><LineString><tessellate>1</tessellate><coordinates>            7.60939,50.36077,66.68            7.60943,50.36109,66.6            7.60949,50.36132,66.64            7.60969,50.36183,66.6            7.61001,50.36256,66.6            7.61029,50.36324,66.49            7.61057,50.36392,66.39            7.6108,50.364505,66.38            7.61103,50.36509,66.43            7.611382,50.36594,66.45            7.611735,50.36679,66.45            7.612087,50.36764,66.31            7.61244,50.36849,66.42            7.612655,50.36893,66.52            7.61287,50.36937,66.29            7.613145,50.369985,66.15            7.61342,50.3706,65.95            7.61359,50.37106,66.04            7.61376,50.37152,66.21            7.6139,50.372005,67.91            7.61404,50.37249,70.77            7.61411,50.3729,67.38            7.61418,50.37313,66.57            7.61429,50.37337,67.38            7.61467,50.37402,70.32            7.61486,50.37439,68.06            7.61521,50.37489,71.42            7.615635,50.37554,72.54            7.61606,50.37619,71.26            7.6165,50.37697,67.11            7.617,50.3778,66.04            7.61696,50.37787,66.04            7.61724,50.37871,66.46            7.61723,50.37882,66.49            7.61728,50.37894,66.49            7.6175,50.37929,66.6            7.61797,50.3799,66.65            7.61866,50.38052,67.83            7.61913,50.38126,71.83            7.619435,50.3817,75.9            7.61974,50.38214,75.53          </coordinates></LineString></Placemark><Placemark><name>Start/Ziel</name><styleUrl>#icon-1899-FFEA00-nodesc</styleUrl><Point><coordinates>            7.609338,50.360572,0          </coordinates></Point></Placemark></Folder></Document></kml>