<?xml version="1.0" encoding="UTF-8"?><kml xmlns="http://www.opengis.net/kml/2.2"><Document><name>Havelkanal parkrun</name><description/><Style id="icon-1899-FFEA00-nodesc-normal"><IconStyle><color>ff00eaff</color><scale>1</scale><Icon><href>https://www.gstatic.com/mapspro/images/stock/503-wht-blank_maps.png</href></Icon><hotSpot x="32" xunits="pixels" y="64" yunits="insetPixels"/></IconStyle><LabelStyle><scale>0</scale></LabelStyle><BalloonStyle><text><![CDATA[<h3>$[name]</h3>]]></text></BalloonStyle></Style><Style id="icon-1899-FFEA00-nodesc-highlight"><IconStyle><color>ff00eaff</color><scale>1</scale><Icon><href>https://www.gstatic.com/mapspro/images/stock/503-wht-blank_maps.png</href></Icon><hotSpot x="32" xunits="pixels" y="64" yunits="insetPixels"/></IconStyle><LabelStyle><scale>1</scale></LabelStyle><BalloonStyle><text><![CDATA[<h3>$[name]</h3>]]></text></BalloonStyle></Style><StyleMap id="icon-1899-FFEA00-nodesc"><Pair><key>normal</key><styleUrl>#icon-1899-FFEA00-nodesc-normal</styleUrl></Pair><Pair><key>highlight</key><styleUrl>#icon-1899-FFEA00-nodesc-highlight</styleUrl></Pair></StyleMap><Style id="line-0288D1-5000-normal"><LineStyle><color>ffd18802</color><width>5</width></LineStyle></Style><Style id="line-0288D1-5000-highlight"><LineStyle><color>ffd18802</color><width>7.5</width></LineStyle></Style><StyleMap id="line-0288D1-5000"><Pair><key>normal</key><styleUrl>#line-0288D1-5000-normal</styleUrl></Pair><Pair><key>highlight</key><styleUrl>#line-0288D1-5000-highlight</styleUrl></Pair></StyleMap><Folder><name>Untitled layer</name><Placemark><name>Course</name><description><![CDATA[Die Statistiken basieren auf importierten Daten.<br><br>Entfernung: 5,0 km]]></description><styleUrl>#line-0288D1-5000</styleUrl><LineString><tessellate>1</tessellate><coordinates>            13.19258,52.614092,0            13.192131,52.614029,0            13.19169,52.613958,0            13.19105,52.613862,0            13.190268,52.613772,0            13.189579,52.613687,0            13.189022,52.613622,0            13.188356,52.613541,0            13.187877,52.613487,0            13.186524,52.613328,0            13.175665,52.61206,0            13.173884,52.61186,0            13.173586,52.611848,0            13.168616,52.611257,0            13.159508,52.610234,0            13.156651,52.609908,0            13.156216,52.609861,0            13.157442,52.609993,0            13.159652,52.610246,0            13.1612,52.610418,0            13.16275,52.610592,0            13.164542,52.610809,0            13.165985,52.61097,0            13.168501,52.611241,0            13.171363,52.611584,0            13.173546,52.611838,0            13.173911,52.611858,0            13.176534,52.612167,0            13.178809,52.612434,0            13.180697,52.612654,0            13.18288,52.612905,0            13.184229,52.613052,0            13.186643,52.613337,0            13.189403,52.613658,0            13.191501,52.613925,0            13.192552,52.614084,0            13.192582,52.614089,0          </coordinates></LineString></Placemark><Placemark><name>Start/Finish</name><styleUrl>#icon-1899-FFEA00-nodesc</styleUrl><Point><coordinates>            13.1924513,52.6139877,0          </coordinates></Point></Placemark></Folder></Document></kml>