<?xml version="1.0" encoding="UTF-8"?><kml xmlns="http://www.opengis.net/kml/2.2"><Document><name>Kastanienallee parkrun</name><description/><Style id="icon-1899-FFEA00-nodesc-normal"><IconStyle><color>ff00eaff</color><scale>1</scale><Icon><href>https://www.gstatic.com/mapspro/images/stock/503-wht-blank_maps.png</href></Icon><hotSpot x="32" xunits="pixels" y="64" yunits="insetPixels"/></IconStyle><LabelStyle><scale>0</scale></LabelStyle><BalloonStyle><text><![CDATA[<h3>$[name]</h3>]]></text></BalloonStyle></Style><Style id="icon-1899-FFEA00-nodesc-highlight"><IconStyle><color>ff00eaff</color><scale>1</scale><Icon><href>https://www.gstatic.com/mapspro/images/stock/503-wht-blank_maps.png</href></Icon><hotSpot x="32" xunits="pixels" y="64" yunits="insetPixels"/></IconStyle><LabelStyle><scale>1</scale></LabelStyle><BalloonStyle><text><![CDATA[<h3>$[name]</h3>]]></text></BalloonStyle></Style><StyleMap id="icon-1899-FFEA00-nodesc"><Pair><key>normal</key><styleUrl>#icon-1899-FFEA00-nodesc-normal</styleUrl></Pair><Pair><key>highlight</key><styleUrl>#icon-1899-FFEA00-nodesc-highlight</styleUrl></Pair></StyleMap><Style id="line-0288D1-5000-nodesc-normal"><LineStyle><color>ffd18802</color><width>5</width></LineStyle><BalloonStyle><text><![CDATA[<h3>$[name]</h3>]]></text></BalloonStyle></Style><Style id="line-0288D1-5000-nodesc-highlight"><LineStyle><color>ffd18802</color><width>7.5</width></LineStyle><BalloonStyle><text><![CDATA[<h3>$[name]</h3>]]></text></BalloonStyle></Style><StyleMap id="line-0288D1-5000-nodesc"><Pair><key>normal</key><styleUrl>#line-0288D1-5000-nodesc-normal</styleUrl></Pair><Pair><key>highlight</key><styleUrl>#line-0288D1-5000-nodesc-highlight</styleUrl></Pair></StyleMap><Folder><name>Untitled layer</name><Placemark><name>Course</name><styleUrl>#line-0288D1-5000-nodesc</styleUrl><LineString><tessellate>1</tessellate><coordinates>            9.046674,48.515471,0            9.045279,48.514462,0            9.044357,48.513836,0            9.044625,48.513595,0            9.044721,48.513381,0            9.044711,48.513175,0            9.044646,48.513005,0            9.044507,48.512884,0            9.044335,48.512777,0            9.044067,48.512756,0            9.043756,48.512784,0            9.043498,48.512863,0            9.04308,48.51314,0            9.042898,48.513325,0            9.042822,48.513502,0            9.042812,48.513687,0            9.042908,48.513858,0            9.043058,48.513936,0            9.043262,48.514021,0            9.043563,48.514042,0            9.043842,48.513993,0            9.044046,48.5139,0            9.044217,48.513801,0            9.044314,48.513879,0            9.043509,48.514369,0            9.043262,48.514234,0            9.042983,48.514057,0            9.042694,48.513779,0            9.042554,48.513516,0            9.042522,48.513445,0            9.04205,48.513339,0            9.04176,48.513182,0            9.040559,48.512358,0            9.036889,48.510012,0            9.036621,48.509856,0            9.036331,48.509638,0            9.036046,48.509407,0            9.035728,48.509116,0            9.03542,48.508822,0            9.034805,48.508239,0            9.034618,48.508089,0            9.034432,48.507938,0            9.034007,48.507649,0            9.03314,48.507095,0            9.032795,48.506835,0            9.032472,48.506563,0            9.031787,48.505789,0            9.031681,48.505629,0            9.031596,48.505465,0            9.031425,48.505132,0            9.031368,48.505001,0            9.031247,48.50487,0            9.03101,48.504634,0            9.03074,48.504403,0            9.030424,48.504187,0            9.030091,48.50399,0            9.029237,48.503573,0            9.028238,48.503186,0            9.027366,48.502859,0            9.026482,48.502538,0          </coordinates></LineString></Placemark><Placemark><name>Start/Finish</name><styleUrl>#icon-1899-FFEA00-nodesc</styleUrl><Point><coordinates>            9.046674,48.515471,0          </coordinates></Point></Placemark></Folder></Document></kml>