<?xml version="1.0" encoding="UTF-8"?><kml xmlns="http://www.opengis.net/kml/2.2"><Document><name>Krupunder See parkrun</name><description/><Style id="icon-1899-FFEA00-nodesc-normal"><IconStyle><color>ff00eaff</color><scale>1</scale><Icon><href>https://www.gstatic.com/mapspro/images/stock/503-wht-blank_maps.png</href></Icon><hotSpot x="32" xunits="pixels" y="64" yunits="insetPixels"/></IconStyle><LabelStyle><scale>0</scale></LabelStyle><BalloonStyle><text><![CDATA[<h3>$[name]</h3>]]></text></BalloonStyle></Style><Style id="icon-1899-FFEA00-nodesc-highlight"><IconStyle><color>ff00eaff</color><scale>1</scale><Icon><href>https://www.gstatic.com/mapspro/images/stock/503-wht-blank_maps.png</href></Icon><hotSpot x="32" xunits="pixels" y="64" yunits="insetPixels"/></IconStyle><LabelStyle><scale>1</scale></LabelStyle><BalloonStyle><text><![CDATA[<h3>$[name]</h3>]]></text></BalloonStyle></Style><StyleMap id="icon-1899-FFEA00-nodesc"><Pair><key>normal</key><styleUrl>#icon-1899-FFEA00-nodesc-normal</styleUrl></Pair><Pair><key>highlight</key><styleUrl>#icon-1899-FFEA00-nodesc-highlight</styleUrl></Pair></StyleMap><Style id="line-0288D1-5236-nodesc-normal"><LineStyle><color>ffd18802</color><width>5.236</width></LineStyle><BalloonStyle><text><![CDATA[<h3>$[name]</h3>]]></text></BalloonStyle></Style><Style id="line-0288D1-5236-nodesc-highlight"><LineStyle><color>ffd18802</color><width>7.854</width></LineStyle><BalloonStyle><text><![CDATA[<h3>$[name]</h3>]]></text></BalloonStyle></Style><StyleMap id="line-0288D1-5236-nodesc"><Pair><key>normal</key><styleUrl>#line-0288D1-5236-nodesc-normal</styleUrl></Pair><Pair><key>highlight</key><styleUrl>#line-0288D1-5236-nodesc-highlight</styleUrl></Pair></StyleMap><Folder><name>Untitled layer</name><Placemark><name>Course</name><styleUrl>#line-0288D1-5236-nodesc</styleUrl><LineString><tessellate>1</tessellate><coordinates>            9.8761,53.625062,0            9.875611,53.624597,0            9.8758405,53.6239825,0            9.874956,53.622185,0            9.873958,53.621759,0            9.8735016,53.6213226,0            9.873412,53.621196,0            9.8722433,53.6213605,0            9.8709244,53.6217413,0            9.870686,53.62188,0            9.870794,53.622147,0            9.871426,53.62263,0            9.869774,53.623356,0            9.8704117,53.624746,0            9.870633,53.624972,0            9.87104,53.625131,0            9.871512,53.625227,0            9.8729665,53.625251,0            9.874313,53.625205,0            9.875611,53.624597,0          </coordinates></LineString></Placemark><Placemark><name>Start/Ziel</name><styleUrl>#icon-1899-FFEA00-nodesc</styleUrl><Point><coordinates>            9.8761,53.625062,0          </coordinates></Point></Placemark></Folder></Document></kml>