<?xml version="1.0" encoding="UTF-8"?><kml xmlns="http://www.opengis.net/kml/2.2"><Document><name>Kulturpark Neubrandenburg parkrun Temporary Course</name><description/><Style id="icon-1899-0F9D58-nodesc-normal"><IconStyle><color>ff589d0f</color><scale>1</scale><Icon><href>https://www.gstatic.com/mapspro/images/stock/503-wht-blank_maps.png</href></Icon><hotSpot x="32" xunits="pixels" y="64" yunits="insetPixels"/></IconStyle><LabelStyle><scale>0</scale></LabelStyle><BalloonStyle><text><![CDATA[<h3>$[name]</h3>]]></text></BalloonStyle></Style><Style id="icon-1899-0F9D58-nodesc-highlight"><IconStyle><color>ff589d0f</color><scale>1</scale><Icon><href>https://www.gstatic.com/mapspro/images/stock/503-wht-blank_maps.png</href></Icon><hotSpot x="32" xunits="pixels" y="64" yunits="insetPixels"/></IconStyle><LabelStyle><scale>1</scale></LabelStyle><BalloonStyle><text><![CDATA[<h3>$[name]</h3>]]></text></BalloonStyle></Style><StyleMap id="icon-1899-0F9D58-nodesc"><Pair><key>normal</key><styleUrl>#icon-1899-0F9D58-nodesc-normal</styleUrl></Pair><Pair><key>highlight</key><styleUrl>#icon-1899-0F9D58-nodesc-highlight</styleUrl></Pair></StyleMap><Style id="icon-1899-FF5252-nodesc-normal"><IconStyle><color>ff5252ff</color><scale>1</scale><Icon><href>https://www.gstatic.com/mapspro/images/stock/503-wht-blank_maps.png</href></Icon><hotSpot x="32" xunits="pixels" y="64" yunits="insetPixels"/></IconStyle><LabelStyle><scale>0</scale></LabelStyle><BalloonStyle><text><![CDATA[<h3>$[name]</h3>]]></text></BalloonStyle></Style><Style id="icon-1899-FF5252-nodesc-highlight"><IconStyle><color>ff5252ff</color><scale>1</scale><Icon><href>https://www.gstatic.com/mapspro/images/stock/503-wht-blank_maps.png</href></Icon><hotSpot x="32" xunits="pixels" y="64" yunits="insetPixels"/></IconStyle><LabelStyle><scale>1</scale></LabelStyle><BalloonStyle><text><![CDATA[<h3>$[name]</h3>]]></text></BalloonStyle></Style><StyleMap id="icon-1899-FF5252-nodesc"><Pair><key>normal</key><styleUrl>#icon-1899-FF5252-nodesc-normal</styleUrl></Pair><Pair><key>highlight</key><styleUrl>#icon-1899-FF5252-nodesc-highlight</styleUrl></Pair></StyleMap><Style id="line-0288D1-5000-nodesc-normal"><LineStyle><color>ffd18802</color><width>5</width></LineStyle><BalloonStyle><text><![CDATA[<h3>$[name]</h3>]]></text></BalloonStyle></Style><Style id="line-0288D1-5000-nodesc-highlight"><LineStyle><color>ffd18802</color><width>7.5</width></LineStyle><BalloonStyle><text><![CDATA[<h3>$[name]</h3>]]></text></BalloonStyle></Style><StyleMap id="line-0288D1-5000-nodesc"><Pair><key>normal</key><styleUrl>#line-0288D1-5000-nodesc-normal</styleUrl></Pair><Pair><key>highlight</key><styleUrl>#line-0288D1-5000-nodesc-highlight</styleUrl></Pair></StyleMap><Folder><name>Untitled layer</name><Placemark><name>Start</name><styleUrl>#icon-1899-0F9D58-nodesc</styleUrl><Point><coordinates>            13.253525,53.55179,16.558738          </coordinates></Point></Placemark><Placemark><name>Finish</name><styleUrl>#icon-1899-FF5252-nodesc</styleUrl><Point><coordinates>            13.25497,53.552055,15.946656          </coordinates></Point></Placemark><Placemark><name>Course</name><styleUrl>#line-0288D1-5000-nodesc</styleUrl><LineString><tessellate>1</tessellate><coordinates>            13.253525,53.55179,16.558738            13.252963,53.551686,16.558738            13.252883,53.55167,16.558738            13.252542,53.551601,16.558738            13.252093,53.551445,16.558767            13.251926,53.551364,16.558922            13.251639,53.551174,16.559232            13.251201,53.550868,16.559719            13.250978,53.55075,16.559934            13.250744,53.550633,16.560154            13.250393,53.550459,16.560484            13.250097,53.550347,16.560737            13.249714,53.550247,16.50225            13.249175,53.550147,16.300863            13.248857,53.550111,16.185409            13.248241,53.550075,15.964654            13.247931,53.550077,15.854087            13.247655,53.550103,15.754422            13.247519,53.550148,15.698904            13.246886,53.550312,15.518023            13.246765,53.550337,15.576868            13.246707,53.550349,15.605079            13.246618,53.550367,15.648264            13.24636,53.550418,15.773161            13.245437,53.55059,16.217495            13.245023,53.550649,16.413055            13.24479,53.550648,16.520083            13.244686,53.550636,16.568746            13.244223,53.550596,16.783656            13.243285,53.55072,16.316899            13.243009,53.550703,16.116668            13.242695,53.550626,15.871542            13.242036,53.550424,15.33644            13.241758,53.550322,15.100661            13.241496,53.550188,14.851194            13.241267,53.550071,14.681122            13.241091,53.550022,14.665337            13.240566,53.549951,14.621607            13.240261,53.549822,14.5912            13.240081,53.549777,14.57534            13.240036,53.549769,14.571525            13.239919,53.549768,14.562022            13.239811,53.549692,14.548425            13.239919,53.549768,14.534828            13.240036,53.549769,14.525325            13.240081,53.549777,14.52151            13.240261,53.549822,14.505649            13.240566,53.549951,14.475243            13.240841,53.549988,14.452342            13.241091,53.550022,14.535005            13.241267,53.550071,14.685814            13.241496,53.550188,14.920158            13.241758,53.550322,15.188391            13.242036,53.550424,15.441906            13.242695,53.550626,16.01726            13.243009,53.550703,16.280825            13.243285,53.55072,16.496118            13.244223,53.550596,16.593591            13.244686,53.550636,16.435425            13.24479,53.550648,16.39961            13.245023,53.550649,16.320841            13.245437,53.55059,16.176915            13.24636,53.550418,15.849899            13.246618,53.550367,15.772071            13.246707,53.550349,15.790899            13.246765,53.550337,15.803198            13.246886,53.550312,15.828853            13.247519,53.550148,15.967149            13.247655,53.550103,15.998324            13.247775,53.549997,16.041384            13.24804,53.549673,16.162809            13.248826,53.548813,16.232338            13.248861,53.548773,16.214447            13.249093,53.548528,16.102884            13.249398,53.548332,15.996949            13.249814,53.548063,15.851972            13.250214,53.547872,15.73097            13.250383,53.547801,15.682166            13.250429,53.547708,15.638642            13.250569,53.547557,15.548064            13.250677,53.54744,15.477953            13.250569,53.547342,15.416407            13.250573,53.547245,15.365427            13.250752,53.54705,15.248725            13.251159,53.546749,15.045861            13.251402,53.546498,14.893721            13.25161,53.546332,14.784986            13.251787,53.546204,14.726707            13.251874,53.546141,14.759271            13.252217,53.545944,14.872538            13.252769,53.546227,15.045644            13.253029,53.546408,15.140733            13.253067,53.546367,15.159437            13.253176,53.54622,15.223626            13.253193,53.546196,15.234031            13.253228,53.546149,15.254569            13.253929,53.54526,15.128478            13.254167,53.544921,14.91946            13.254586,53.544492,14.637208            13.255353,53.543644,14.609215            13.255833,53.542817,14.919766            13.256156,53.542113,15.358089            13.256198,53.541968,15.481919            13.256224,53.541887,15.551319            13.256254,53.541786,15.637637            13.256231,53.541136,16.184812            13.256132,53.540458,16.677712            13.255989,53.540161,16.831648            13.255839,53.539837,16.999098            13.255801,53.539707,17.064848            13.255614,53.53906,17.391974            13.255611,53.539054,17.395093            13.255614,53.53906,17.398212            13.255801,53.539707,17.129378            13.255839,53.539837,17.048517            13.255989,53.540161,16.842583            13.256132,53.540458,16.65327            13.256231,53.541136,16.192138            13.256254,53.541786,15.64689            13.256224,53.541887,15.560876            13.256198,53.541968,15.49172            13.256156,53.542113,15.368327            13.255833,53.542817,14.828253            13.255353,53.543644,14.674177            13.254586,53.544492,14.606151            13.254167,53.544921,14.860496            13.253929,53.54526,15.048848            13.253228,53.546149,15.367208            13.253193,53.546196,15.344487            13.253176,53.54622,15.332975            13.253067,53.546367,15.26196            13.253029,53.546408,15.241267            13.252769,53.546227,15.136065            13.252217,53.545944,14.944549            13.251874,53.546141,14.819237            13.251787,53.546204,14.78321            13.25161,53.546332,14.709971            13.251402,53.546498,14.704926            13.251159,53.546749,14.858931            13.250752,53.54705,15.064284            13.250573,53.547245,15.182418            13.250569,53.547342,15.234023            13.250677,53.54744,15.296324            13.250888,53.547622,15.413863            13.251199,53.547947,15.612699            13.251886,53.548664,15.808782            13.252172,53.548861,15.870326            13.252249,53.548909,15.886013            13.252402,53.549001,15.916609            13.253162,53.549458,16.033529            13.253087,53.549503,16.030248            13.252835,53.549668,16.018707            13.252749,53.549759,16.013301            13.252634,53.550072,15.996705            13.252624,53.550206,15.989757            13.252647,53.550813,15.958306            13.252678,53.550961,15.95058            13.252778,53.551331,15.946656            13.252963,53.551686,15.946656            13.253525,53.55179,15.946656            13.254503,53.551971,15.946656            13.25497,53.552055,15.946656          </coordinates></LineString></Placemark></Folder></Document></kml>