<?xml version="1.0" encoding="UTF-8"?><kml xmlns="http://www.opengis.net/kml/2.2"><Document><name>Luitpold parkrun</name><description/><Style id="icon-1899-0F9D58-nodesc-normal"><IconStyle><color>ff589d0f</color><scale>1</scale><Icon><href>https://www.gstatic.com/mapspro/images/stock/503-wht-blank_maps.png</href></Icon><hotSpot x="32" xunits="pixels" y="64" yunits="insetPixels"/></IconStyle><LabelStyle><scale>0</scale></LabelStyle><BalloonStyle><text><![CDATA[<h3>$[name]</h3>]]></text></BalloonStyle></Style><Style id="icon-1899-0F9D58-nodesc-highlight"><IconStyle><color>ff589d0f</color><scale>1</scale><Icon><href>https://www.gstatic.com/mapspro/images/stock/503-wht-blank_maps.png</href></Icon><hotSpot x="32" xunits="pixels" y="64" yunits="insetPixels"/></IconStyle><LabelStyle><scale>1</scale></LabelStyle><BalloonStyle><text><![CDATA[<h3>$[name]</h3>]]></text></BalloonStyle></Style><StyleMap id="icon-1899-0F9D58-nodesc"><Pair><key>normal</key><styleUrl>#icon-1899-0F9D58-nodesc-normal</styleUrl></Pair><Pair><key>highlight</key><styleUrl>#icon-1899-0F9D58-nodesc-highlight</styleUrl></Pair></StyleMap><Style id="icon-1899-FF5252-nodesc-normal"><IconStyle><color>ff5252ff</color><scale>1</scale><Icon><href>https://www.gstatic.com/mapspro/images/stock/503-wht-blank_maps.png</href></Icon><hotSpot x="32" xunits="pixels" y="64" yunits="insetPixels"/></IconStyle><LabelStyle><scale>0</scale></LabelStyle><BalloonStyle><text><![CDATA[<h3>$[name]</h3>]]></text></BalloonStyle></Style><Style id="icon-1899-FF5252-nodesc-highlight"><IconStyle><color>ff5252ff</color><scale>1</scale><Icon><href>https://www.gstatic.com/mapspro/images/stock/503-wht-blank_maps.png</href></Icon><hotSpot x="32" xunits="pixels" y="64" yunits="insetPixels"/></IconStyle><LabelStyle><scale>1</scale></LabelStyle><BalloonStyle><text><![CDATA[<h3>$[name]</h3>]]></text></BalloonStyle></Style><StyleMap id="icon-1899-FF5252-nodesc"><Pair><key>normal</key><styleUrl>#icon-1899-FF5252-nodesc-normal</styleUrl></Pair><Pair><key>highlight</key><styleUrl>#icon-1899-FF5252-nodesc-highlight</styleUrl></Pair></StyleMap><Style id="line-0288D1-6038-nodesc-normal"><LineStyle><color>ffd18802</color><width>6.038</width></LineStyle><BalloonStyle><text><![CDATA[<h3>$[name]</h3>]]></text></BalloonStyle></Style><Style id="line-0288D1-6038-nodesc-highlight"><LineStyle><color>ffd18802</color><width>9.057</width></LineStyle><BalloonStyle><text><![CDATA[<h3>$[name]</h3>]]></text></BalloonStyle></Style><StyleMap id="line-0288D1-6038-nodesc"><Pair><key>normal</key><styleUrl>#line-0288D1-6038-nodesc-normal</styleUrl></Pair><Pair><key>highlight</key><styleUrl>#line-0288D1-6038-nodesc-highlight</styleUrl></Pair></StyleMap><Folder><name>Untitled layer</name><Placemark><name>Course</name><styleUrl>#line-0288D1-6038-nodesc</styleUrl><LineString><tessellate>1</tessellate><coordinates>            11.426624,48.755674,0            11.425748,48.754753,0            11.425705,48.754598,0            11.425877,48.754329,0            11.426049,48.754102,0            11.425598,48.75389,0            11.425351,48.753657,0            11.424976,48.75331,0            11.424568,48.753154,0            11.424128,48.753162,0            11.42297,48.75343,0            11.42195,48.753558,0            11.421854,48.753607,0            11.421875,48.753331,0            11.422068,48.753183,0            11.422658,48.753041,0            11.423066,48.75285,0            11.423538,48.752843,0            11.423935,48.752744,0            11.4243,48.752688,0            11.425222,48.752723,0            11.425738,48.752893,0            11.425523,48.753041,0            11.425544,48.753819,0            11.426242,48.754216,0            11.426488,48.754371,0            11.426703,48.75459,0            11.426832,48.754916,0            11.427036,48.75517,0            11.427315,48.755439,0            11.4274,48.755616,0            11.427583,48.755772,0            11.427883,48.755864,0            11.428044,48.755984,0            11.428441,48.755913,0            11.428913,48.755977,0            11.429332,48.756189,0            11.428452,48.75655,0            11.428055,48.756012,0            11.427873,48.755828,0            11.427476,48.755722,0            11.427304,48.755439,0            11.426939,48.755022,0            11.426789,48.754725,0            11.426639,48.75447,0            11.426328,48.754265,0            11.426038,48.754102,0            11.425748,48.754527,0            11.425738,48.754725,0            11.426472,48.755489,0            11.426789,48.755379,0            11.426574,48.755153,0            11.426172,48.754742,0          </coordinates></LineString></Placemark><Placemark><name>Finish</name><styleUrl>#icon-1899-FF5252-nodesc</styleUrl><Point><coordinates>            11.426172,48.754742,0          </coordinates></Point></Placemark><Placemark><name>Start</name><styleUrl>#icon-1899-0F9D58-nodesc</styleUrl><Point><coordinates>            11.426624,48.755674,0          </coordinates></Point></Placemark></Folder></Document></kml>