<?xml version="1.0" encoding="UTF-8"?><kml xmlns="http://www.opengis.net/kml/2.2"><Document><name>Maaraue parkrun (from May 2024)</name><description/><Style id="icon-123-nodesc-normal"><IconStyle><scale>1.1</scale><Icon><href>https://www.gstatic.com/mapspro/images/stock/123-red-dot.png</href></Icon><hotSpot x="16" xunits="pixels" y="32" yunits="insetPixels"/></IconStyle><LabelStyle><scale>0</scale></LabelStyle><BalloonStyle><text><![CDATA[<h3>$[name]</h3>]]></text></BalloonStyle></Style><Style id="icon-123-nodesc-highlight"><IconStyle><scale>1.1</scale><Icon><href>https://www.gstatic.com/mapspro/images/stock/123-red-dot.png</href></Icon><hotSpot x="16" xunits="pixels" y="32" yunits="insetPixels"/></IconStyle><LabelStyle><scale>1.1</scale></LabelStyle><BalloonStyle><text><![CDATA[<h3>$[name]</h3>]]></text></BalloonStyle></Style><StyleMap id="icon-123-nodesc"><Pair><key>normal</key><styleUrl>#icon-123-nodesc-normal</styleUrl></Pair><Pair><key>highlight</key><styleUrl>#icon-123-nodesc-highlight</styleUrl></Pair></StyleMap><Style id="icon-61-nodesc-normal"><IconStyle><scale>1.1</scale><Icon><href>https://www.gstatic.com/mapspro/images/stock/61-green-dot.png</href></Icon><hotSpot x="16" xunits="pixels" y="32" yunits="insetPixels"/></IconStyle><LabelStyle><scale>0</scale></LabelStyle><BalloonStyle><text><![CDATA[<h3>$[name]</h3>]]></text></BalloonStyle></Style><Style id="icon-61-nodesc-highlight"><IconStyle><scale>1.1</scale><Icon><href>https://www.gstatic.com/mapspro/images/stock/61-green-dot.png</href></Icon><hotSpot x="16" xunits="pixels" y="32" yunits="insetPixels"/></IconStyle><LabelStyle><scale>1.1</scale></LabelStyle><BalloonStyle><text><![CDATA[<h3>$[name]</h3>]]></text></BalloonStyle></Style><StyleMap id="icon-61-nodesc"><Pair><key>normal</key><styleUrl>#icon-61-nodesc-normal</styleUrl></Pair><Pair><key>highlight</key><styleUrl>#icon-61-nodesc-highlight</styleUrl></Pair></StyleMap><Style id="line-0288D1-5000-nodesc-normal"><LineStyle><color>ffd18802</color><width>5</width></LineStyle><BalloonStyle><text><![CDATA[<h3>$[name]</h3>]]></text></BalloonStyle></Style><Style id="line-0288D1-5000-nodesc-highlight"><LineStyle><color>ffd18802</color><width>7.5</width></LineStyle><BalloonStyle><text><![CDATA[<h3>$[name]</h3>]]></text></BalloonStyle></Style><StyleMap id="line-0288D1-5000-nodesc"><Pair><key>normal</key><styleUrl>#line-0288D1-5000-nodesc-normal</styleUrl></Pair><Pair><key>highlight</key><styleUrl>#line-0288D1-5000-nodesc-highlight</styleUrl></Pair></StyleMap><Folder><name>Parkrun_course.gpx</name><Placemark><name>Start </name><styleUrl>#icon-61-nodesc</styleUrl><Point><coordinates>            8.288691,49.999695,86.4          </coordinates></Point></Placemark><Placemark><name>Finish</name><styleUrl>#icon-123-nodesc</styleUrl><Point><coordinates>            8.287962,49.999748,86.3          </coordinates></Point></Placemark><Placemark><name>Course</name><styleUrl>#line-0288D1-5000-nodesc</styleUrl><LineString><tessellate>1</tessellate><coordinates>            8.288691,49.999695,86.4            8.289252,49.999276,86.5            8.289812,49.998854,86.6            8.290351,49.998411,86.6            8.290931,49.998031,86.7            8.291258,49.997953,86.8            8.291976,49.997677,86.8            8.292731,49.997448,87            8.293109,49.997279,87.1            8.293765,49.996945,86.9            8.294317,49.996649,87            8.294957,49.996281,86.9            8.295457,49.995818,86.9            8.295748,49.995687,86.8            8.296174,49.995467,86.6            8.296161,49.995433,86.2            8.295307,49.995257,85.8            8.294458,49.995285,85.7            8.29415,49.995331,85.8            8.293314,49.995473,86.1            8.293009,49.99555,86.2            8.292233,49.99581,86.3            8.291815,49.995972,86.2            8.291529,49.996102,86.2            8.291363,49.996186,86.1            8.290779,49.996552,86.1            8.290637,49.996648,86.1            8.290589,49.99668,86.1            8.290539,49.996711,86            8.290488,49.996742,86            8.290285,49.996867,86            8.289715,49.997319,86            8.289668,49.997353,86            8.289571,49.997418,86            8.289521,49.99745,86            8.289474,49.997488,85.9            8.289395,49.997567,85.9            8.289355,49.997606,85.9            8.289312,49.997643,85.9            8.289266,49.997677,85.9            8.289083,49.997821,85.9            8.289034,49.997857,85.9            8.288988,49.997895,86            8.288945,49.997931,86            8.288812,49.998044,86            8.288768,49.99808,86            8.288721,49.998116,86            8.288592,49.998232,86            8.288462,49.998351,85.9            8.288416,49.998392,85.9            8.287998,49.998755,85.9            8.287512,49.999196,85.8            8.287362,49.99935,85.9            8.28736,49.999422,86            8.287395,49.999444,86            8.287439,49.99946,86            8.287484,49.999475,86            8.287528,49.999494,86.1            8.287571,49.999518,86.1            8.287614,49.999544,86.1            8.287702,49.999599,86.1            8.287966,49.999759,86.2            8.288011,49.999789,86.3            8.288108,49.999845,86.3            8.288223,49.999886,86.3            8.288359,49.999886,86.4            8.288487,49.999851,86.4            8.288803,49.999651,86.4            8.288886,49.999588,86.4            8.288961,49.999521,86.4            8.289076,49.999429,86.5            8.289116,49.999399,86.5            8.289154,49.999368,86.5            8.289344,49.99921,86.5            8.289384,49.999178,86.5            8.289423,49.999147,86.5            8.289463,49.999117,86.5            8.289503,49.999086,86.6            8.289544,49.999058,86.6            8.289582,49.99903,86.6            8.289677,49.998948,86.6            8.289751,49.998894,86.6            8.290288,49.998461,86.6            8.290673,49.998103,86.7            8.29091,49.99804,86.7            8.291076,49.997994,86.7            8.291854,49.997719,86.8            8.29248,49.997506,86.9            8.292721,49.99747,87            8.293093,49.997296,87.1            8.293339,49.997159,87.1            8.294034,49.996801,86.9            8.294704,49.996434,87            8.295065,49.996198,86.9            8.295395,49.995874,86.9            8.295508,49.99579,86.9            8.295773,49.995678,86.8            8.295945,49.995596,86.7            8.296144,49.995502,86.7            8.296155,49.995468,86.6            8.296099,49.995409,86.3            8.296054,49.995391,86.2            8.295951,49.995362,86.1            8.295346,49.995277,85.8            8.294687,49.995245,85.7            8.293864,49.995359,85.9            8.293061,49.995557,86.2            8.292234,49.995803,86.3            8.291483,49.996122,86.2            8.291315,49.99621,86.1            8.291204,49.99627,86.1            8.290948,49.996437,86.1            8.290853,49.996511,86.1            8.290695,49.996615,86.1            8.290642,49.996649,86.1            8.290592,49.996682,86.1            8.290539,49.996715,86.1            8.290489,49.996749,86            8.290435,49.996782,86            8.290218,49.996917,86            8.290173,49.996954,86            8.290129,49.996992,86            8.289758,49.99728,86            8.289712,49.997315,86            8.289476,49.997494,85.9            8.28921,49.997722,85.9            8.288925,49.997938,86            8.28888,49.997974,86            8.288568,49.998249,86            8.288524,49.998291,85.9            8.288478,49.998332,85.9            8.288434,49.998373,85.9            8.288388,49.998411,85.9            8.288017,49.998715,85.9            8.287874,49.998818,85.9            8.287374,49.999279,85.9            8.287341,49.999317,85.9            8.287333,49.999398,85.9            8.287971,49.999783,86.2            8.288069,49.999839,86.3            8.288184,49.999877,86.3            8.288316,49.999878,86.4            8.288975,49.999514,86.4            8.289528,49.999074,86.6            8.289686,49.998959,86.6            8.29025,49.998534,86.6            8.29032,49.998463,86.6            8.290864,49.998065,86.7            8.29113,49.997983,86.7            8.291521,49.997845,86.8            8.291727,49.997758,86.8            8.291882,49.997693,86.8            8.292051,49.997634,86.8            8.292269,49.997561,86.9            8.292976,49.997347,87            8.293281,49.997176,87.1            8.293999,49.996847,86.9            8.294654,49.996488,87            8.295158,49.99615,86.9            8.295356,49.995944,86.9            8.29599,49.995601,86.7            8.296155,49.995458,86.6            8.295848,49.995346,86            8.295504,49.995282,85.8            8.295172,49.995245,85.8            8.294898,49.995234,85.7            8.294699,49.995251,85.7            8.294315,49.995309,85.8            8.29347,49.99546,86.1            8.292637,49.995669,86.3            8.29258,49.995692,86.3            8.291806,49.995978,86.2            8.291262,49.996247,86.1            8.290676,49.996635,86.1            8.290248,49.996909,86            8.290018,49.997099,86            8.289829,49.997242,86            8.289402,49.997569,85.9            8.289178,49.997756,85.9            8.288608,49.998209,86            8.28848,49.998326,85.9            8.287949,49.998795,85.9            8.287817,49.998907,85.9            8.287647,49.999042,85.8            8.287511,49.99919,85.8            8.287432,49.999261,85.9            8.287344,49.999396,85.9            8.287366,49.999422,86            8.287437,49.999455,86            8.287646,49.999557,86.1            8.287921,49.999724,86.2            8.287962,49.999748,86.3          </coordinates></LineString></Placemark></Folder></Document></kml>