<?xml version="1.0" encoding="UTF-8"?><kml xmlns="http://www.opengis.net/kml/2.2"><Document><name>Mattheiser Weiher parkrun</name><description/><Style id="icon-1899-FFEA00-nodesc-normal"><IconStyle><color>ff00eaff</color><scale>1</scale><Icon><href>https://www.gstatic.com/mapspro/images/stock/503-wht-blank_maps.png</href></Icon><hotSpot x="32" xunits="pixels" y="64" yunits="insetPixels"/></IconStyle><LabelStyle><scale>0</scale></LabelStyle><BalloonStyle><text><![CDATA[<h3>$[name]</h3>]]></text></BalloonStyle></Style><Style id="icon-1899-FFEA00-nodesc-highlight"><IconStyle><color>ff00eaff</color><scale>1</scale><Icon><href>https://www.gstatic.com/mapspro/images/stock/503-wht-blank_maps.png</href></Icon><hotSpot x="32" xunits="pixels" y="64" yunits="insetPixels"/></IconStyle><LabelStyle><scale>1</scale></LabelStyle><BalloonStyle><text><![CDATA[<h3>$[name]</h3>]]></text></BalloonStyle></Style><StyleMap id="icon-1899-FFEA00-nodesc"><Pair><key>normal</key><styleUrl>#icon-1899-FFEA00-nodesc-normal</styleUrl></Pair><Pair><key>highlight</key><styleUrl>#icon-1899-FFEA00-nodesc-highlight</styleUrl></Pair></StyleMap><Style id="line-0288D1-5844-nodesc-normal"><LineStyle><color>ffd18802</color><width>5.844</width></LineStyle><BalloonStyle><text><![CDATA[<h3>$[name]</h3>]]></text></BalloonStyle></Style><Style id="line-0288D1-5844-nodesc-highlight"><LineStyle><color>ffd18802</color><width>8.766</width></LineStyle><BalloonStyle><text><![CDATA[<h3>$[name]</h3>]]></text></BalloonStyle></Style><StyleMap id="line-0288D1-5844-nodesc"><Pair><key>normal</key><styleUrl>#line-0288D1-5844-nodesc-normal</styleUrl></Pair><Pair><key>highlight</key><styleUrl>#line-0288D1-5844-nodesc-highlight</styleUrl></Pair></StyleMap><Folder><name>Untitled layer</name><Placemark><name>Course</name><styleUrl>#line-0288D1-5844-nodesc</styleUrl><LineString><tessellate>1</tessellate><coordinates>            6.641768,49.734622,0            6.641935,49.73468,0            6.641854,49.734944,0            6.641758,49.73509,0            6.640921,49.735024,0            6.640416,49.735866,0            6.640309,49.735738,0            6.639928,49.735669,0            6.639644,49.73571,0            6.639159,49.735866,0            6.638652,49.736071,0            6.638351,49.736248,0            6.638056,49.736528,0            6.637992,49.736678,0            6.638614,49.737003,0            6.639242,49.737187,0            6.639826,49.736733,0            6.640363,49.736404,0            6.640752,49.736256,0            6.640948,49.736213,0            6.641784,49.735644,0            6.642691,49.734885,0            6.642659,49.734686,0            6.64267,49.734507,0            6.643136,49.733672,0            6.643176,49.733377,0            6.643195,49.733082,0            6.643308,49.732954,0            6.643372,49.73268,0            6.643276,49.732493,0            6.643075,49.732342,0            6.64282,49.732219,0            6.642487,49.732139,0            6.64061,49.73355,0            6.640272,49.733691,0            6.639955,49.733886,0            6.641168,49.73441,0            6.641817,49.734712,0          </coordinates></LineString></Placemark><Placemark><name>Start/Finish</name><styleUrl>#icon-1899-FFEA00-nodesc</styleUrl><Point><coordinates>            6.641768,49.734622,0          </coordinates></Point></Placemark></Folder></Document></kml>