<?xml version="1.0" encoding="UTF-8"?><kml xmlns="http://www.opengis.net/kml/2.2"><Document><name>Obersee parkrun (from July 2024)</name><description/><Style id="icon-1899-FFEA00-nodesc-normal"><IconStyle><color>ff00eaff</color><scale>1</scale><Icon><href>https://www.gstatic.com/mapspro/images/stock/503-wht-blank_maps.png</href></Icon><hotSpot x="32" xunits="pixels" y="64" yunits="insetPixels"/></IconStyle><LabelStyle><scale>0</scale></LabelStyle><BalloonStyle><text><![CDATA[<h3>$[name]</h3>]]></text></BalloonStyle></Style><Style id="icon-1899-FFEA00-nodesc-highlight"><IconStyle><color>ff00eaff</color><scale>1</scale><Icon><href>https://www.gstatic.com/mapspro/images/stock/503-wht-blank_maps.png</href></Icon><hotSpot x="32" xunits="pixels" y="64" yunits="insetPixels"/></IconStyle><LabelStyle><scale>1</scale></LabelStyle><BalloonStyle><text><![CDATA[<h3>$[name]</h3>]]></text></BalloonStyle></Style><StyleMap id="icon-1899-FFEA00-nodesc"><Pair><key>normal</key><styleUrl>#icon-1899-FFEA00-nodesc-normal</styleUrl></Pair><Pair><key>highlight</key><styleUrl>#icon-1899-FFEA00-nodesc-highlight</styleUrl></Pair></StyleMap><Style id="line-0288D1-3713-nodesc-normal"><LineStyle><color>ffd18802</color><width>3.713</width></LineStyle><BalloonStyle><text><![CDATA[<h3>$[name]</h3>]]></text></BalloonStyle></Style><Style id="line-0288D1-3713-nodesc-highlight"><LineStyle><color>ffd18802</color><width>5.5695</width></LineStyle><BalloonStyle><text><![CDATA[<h3>$[name]</h3>]]></text></BalloonStyle></Style><StyleMap id="line-0288D1-3713-nodesc"><Pair><key>normal</key><styleUrl>#line-0288D1-3713-nodesc-normal</styleUrl></Pair><Pair><key>highlight</key><styleUrl>#line-0288D1-3713-nodesc-highlight</styleUrl></Pair></StyleMap><Folder><name>Track.gpx</name><Placemark><name>Course</name><styleUrl>#line-0288D1-3713-nodesc</styleUrl><LineString><tessellate>1</tessellate><coordinates>            8.559278,52.059897,88.2            8.558974,52.059655,87.3            8.558812,52.059504,86.3            8.558647,52.059309,85.2            8.55852,52.059115,84.4            8.558399,52.058905,83.4            8.558348,52.058797,83            8.558321,52.058694,82.5            8.558393,52.058685,82.1            8.558684,52.058646,81.6            8.559105,52.058566,81.7            8.55943,52.058487,81.8            8.560412,52.058218,82.2            8.561507,52.057901,81.3            8.561839,52.057857,81.5            8.561987,52.057838,81.7            8.562291,52.057824,82            8.56246,52.057812,82            8.562761,52.05782,82.6            8.563032,52.057863,83.1            8.563218,52.05793,83.6            8.563294,52.057982,83.8            8.563354,52.058042,84.2            8.563397,52.058113,84.3            8.563394,52.058196,84.5            8.563257,52.058511,85.6            8.563204,52.058652,86.1            8.563199,52.05869,85.2            8.563188,52.058881,86.2            8.563219,52.058998,86.8            8.563291,52.059102,87.4            8.563524,52.059277,88.4            8.564171,52.059644,88.2            8.565299,52.060025,88            8.565684,52.060176,87.9            8.565925,52.060309,87.8            8.56612,52.060449,87.8            8.566237,52.06057,87.7            8.566205,52.060649,87.8            8.566129,52.060941,88.3            8.566086,52.061147,88.6            8.56605,52.061321,88.9            8.566066,52.061625,88.8            8.566197,52.06209,88.5            8.566221,52.062258,88.5            8.566212,52.062454,88.4            8.56597,52.062562,88.7            8.56578,52.062647,89            8.565282,52.062439,90.9            8.565087,52.062338,91.7            8.564856,52.062346,92.4            8.563771,52.062275,96.5            8.563242,52.062284,97.4            8.56231,52.062309,97.6            8.562026,52.0623,97.7            8.561729,52.062267,97.7            8.561507,52.062205,97.8            8.561394,52.06214,97.8            8.561188,52.061985,97.7            8.561013,52.061801,97.5            8.560923,52.061646,97            8.560846,52.061462,96.3            8.56075,52.061129,95.1            8.560522,52.060612,93.1            8.560394,52.060451,92.4            8.560341,52.060401,92.2            8.560144,52.060285,91.6            8.559909,52.060181,90.9            8.559822,52.060146,90.6            8.559333,52.059941,89.1            8.558974,52.059655,87.3            8.558812,52.059504,86.3            8.558647,52.059309,85.2            8.55852,52.059115,84.4            8.558399,52.058905,83.4            8.558348,52.058797,83            8.558321,52.058694,82.5            8.557762,52.058745,84.1            8.557702,52.058618,84            8.557554,52.058303,84.7            8.557531,52.058259,84.8            8.557614,52.058211,84.7            8.557671,52.058178,84.7            8.557716,52.058152,84.7            8.557771,52.058082,84.8            8.557815,52.057997,84.9            8.557831,52.057893,85            8.55779,52.057754,85.1            8.557639,52.057569,85.3            8.557521,52.05745,85.4            8.55735,52.057259,85.4            8.557335,52.057154,85.4            8.557381,52.057053,85.4            8.557473,52.056981,85.4            8.557615,52.056909,85.4            8.557761,52.056861,85.4            8.557854,52.056831,85.2            8.55807,52.056789,85            8.558772,52.056692,84            8.559019,52.056633,84.5            8.559224,52.056561,84.9            8.559427,52.056455,85.5            8.559701,52.056258,86.3            8.559964,52.056127,86.9            8.560115,52.056073,87.3            8.56023,52.056047,87.5            8.560375,52.056024,87.4            8.56071,52.055992,87.1            8.561157,52.056001,86.5            8.561383,52.056008,86.4            8.562121,52.056058,85.8            8.562746,52.056076,85.5            8.563689,52.056068,84.5            8.564204,52.056046,84            8.564558,52.056017,83.7            8.564995,52.055958,83.4            8.56559,52.055847,83.7            8.56605,52.055723,84            8.56663,52.055531,84.4            8.567031,52.055367,84.7            8.567307,52.055237,84.9            8.567675,52.055047,85.2            8.567906,52.054911,85.4            8.568217,52.05475,85.8            8.568391,52.054695,86.1            8.569203,52.054471,87.2            8.569811,52.05435,86.7            8.569947,52.054333,86.6            8.57005,52.054331,86.5            8.570158,52.054343,86.4            8.570297,52.054391,86.3            8.570402,52.054453,86.2            8.570694,52.054726,85.5            8.570713,52.054743,85.2            8.570829,52.054843,85            8.570913,52.054985,84.7            8.570933,52.05503,84.7            8.57092,52.055063,84.7            8.570838,52.055129,84.8            8.570657,52.055232,85            8.570274,52.05538,84.6            8.570128,52.055462,84.4            8.570071,52.055511,84.3            8.570032,52.055565,84.2            8.569967,52.055678,84            8.569889,52.055848,83.7            8.569837,52.055912,83.5            8.569756,52.055987,83.2            8.569645,52.056065,82.9            8.569515,52.056134,82.5            8.569346,52.056185,82.5            8.569209,52.056215,82.4            8.568487,52.056319,81.9            8.568331,52.056354,81.8            8.568213,52.056394,81.7            8.568052,52.056465,81.6            8.567877,52.05656,81.4            8.567726,52.056663,81.3            8.567637,52.056749,81.2            8.567573,52.056848,81.1            8.567522,52.056963,80.9            8.567485,52.057137,81.3            8.567504,52.05737,81.7            8.567679,52.057798,82.5            8.567823,52.058132,83.2            8.567905,52.05842,83.8            8.567922,52.058602,84.1            8.567899,52.058998,84.7            8.567754,52.059567,85.6            8.567715,52.059777,85.9            8.567685,52.060039,86.3            8.567683,52.060388,86.9            8.56773,52.060765,87.5            8.567514,52.060763,86.9            8.567306,52.060694,86.4            8.567077,52.060602,85.8            8.566759,52.060593,86.4            8.566534,52.060587,87            8.566237,52.06057,87.7            8.56612,52.060449,87.8            8.565925,52.060309,87.8            8.565684,52.060176,87.9            8.565299,52.060025,88            8.564171,52.059644,88.2            8.563524,52.059277,88.4            8.563291,52.059102,87.4            8.563219,52.058998,86.8            8.563188,52.058881,86.2            8.563199,52.05869,85.2            8.563204,52.058652,86.1            8.5633,52.058412,85.1            8.563394,52.058196,84.5            8.563397,52.058113,84.3            8.563353,52.058039,84            8.563294,52.057982,83.8            8.563218,52.05793,83.6            8.563032,52.057863,83.1            8.562761,52.05782,82.6            8.56246,52.057812,82            8.562113,52.057832,81.8            8.561987,52.057838,81.7            8.561507,52.057901,81.3            8.560412,52.058218,82.2            8.55943,52.058487,81.8            8.559105,52.058566,81.7            8.558684,52.058646,81.6            8.558321,52.058694,82.5            8.558373,52.05885,83.2            8.55852,52.059115,84.4            8.558647,52.059309,85.2            8.558812,52.059504,86.3            8.558974,52.059655,87.3            8.559333,52.059941,89.1            8.559245,52.060012,89.5          </coordinates></LineString></Placemark><Placemark><name>Start/Finish</name><styleUrl>#icon-1899-FFEA00-nodesc</styleUrl><Point><coordinates>            8.5592289,52.060012,0          </coordinates></Point></Placemark></Folder></Document></kml>