<?xml version="1.0" encoding="UTF-8"?><kml xmlns="http://www.opengis.net/kml/2.2"><Document><name>Rabenauer Grund parkrun</name><description/><Style id="icon-1899-FFEA00-nodesc-normal"><IconStyle><color>ff00eaff</color><scale>1</scale><Icon><href>https://www.gstatic.com/mapspro/images/stock/503-wht-blank_maps.png</href></Icon><hotSpot x="32" xunits="pixels" y="64" yunits="insetPixels"/></IconStyle><LabelStyle><scale>0</scale></LabelStyle><BalloonStyle><text><![CDATA[<h3>$[name]</h3>]]></text></BalloonStyle></Style><Style id="icon-1899-FFEA00-nodesc-highlight"><IconStyle><color>ff00eaff</color><scale>1</scale><Icon><href>https://www.gstatic.com/mapspro/images/stock/503-wht-blank_maps.png</href></Icon><hotSpot x="32" xunits="pixels" y="64" yunits="insetPixels"/></IconStyle><LabelStyle><scale>1</scale></LabelStyle><BalloonStyle><text><![CDATA[<h3>$[name]</h3>]]></text></BalloonStyle></Style><StyleMap id="icon-1899-FFEA00-nodesc"><Pair><key>normal</key><styleUrl>#icon-1899-FFEA00-nodesc-normal</styleUrl></Pair><Pair><key>highlight</key><styleUrl>#icon-1899-FFEA00-nodesc-highlight</styleUrl></Pair></StyleMap><Style id="line-0288D1-4875-nodesc-normal"><LineStyle><color>ffd18802</color><width>4.875</width></LineStyle><BalloonStyle><text><![CDATA[<h3>$[name]</h3>]]></text></BalloonStyle></Style><Style id="line-0288D1-4875-nodesc-highlight"><LineStyle><color>ffd18802</color><width>7.3125</width></LineStyle><BalloonStyle><text><![CDATA[<h3>$[name]</h3>]]></text></BalloonStyle></Style><StyleMap id="line-0288D1-4875-nodesc"><Pair><key>normal</key><styleUrl>#line-0288D1-4875-nodesc-normal</styleUrl></Pair><Pair><key>highlight</key><styleUrl>#line-0288D1-4875-nodesc-highlight</styleUrl></Pair></StyleMap><Folder><name>Untitled layer</name><Placemark><name>Course</name><styleUrl>#line-0288D1-4875-nodesc</styleUrl><LineString><tessellate>1</tessellate><coordinates>            13.61927,50.97109,0            13.6194,50.97085,0            13.6213,50.96921,0            13.6216909,50.9689003,0            13.6222082,50.9687522,0            13.62321,50.96871,0            13.62397,50.96855,0            13.62427,50.96839,0            13.62427,50.9682,0            13.6242,50.96811,0            13.62379,50.96778,0            13.62268,50.96732,0            13.6214,50.96692,0            13.62058,50.96678,0            13.62004,50.96683,0            13.61959,50.96677,0            13.61919,50.96658,0            13.61887,50.96632,0            13.61861,50.96593,0            13.61852,50.96546,0            13.61862,50.96521,0            13.61899,50.96494,0            13.61949,50.96461,0            13.6195,50.96452,0            13.6194,50.96444,0            13.61912,50.96437,0            13.61887,50.96436,0            13.61839,50.96446,0            13.618,50.96475,0            13.61768,50.96482,0            13.61731,50.96478,0            13.61701,50.96463,0            13.61669,50.96399,0            13.61653,50.96306,0            13.6166356,50.9626977,0            13.61687,50.96243,0            13.61738,50.96216,0            13.61789,50.962,0            13.61839,50.96189,0            13.61928,50.96189,0            13.61965,50.96181,0            13.6198525,50.9616614,0            13.61991,50.96139,0            13.61991,50.96073,0            13.62,50.9605,0            13.6212921,50.9601589,0            13.62276,50.95975,0            13.62351,50.95974,0            13.62404,50.95994,0            13.62426,50.96018,0            13.62418,50.96117,0          </coordinates></LineString></Placemark><Placemark><name>Start/Finish</name><styleUrl>#icon-1899-FFEA00-nodesc</styleUrl><Point><coordinates>            13.619255,50.971119,0          </coordinates></Point></Placemark></Folder></Document></kml>