<?xml version="1.0" encoding="UTF-8"?><kml xmlns="http://www.opengis.net/kml/2.2"><Document><name>Rosensteinpark parkrun</name><description/><Style id="icon-1899-FFEA00-nodesc-normal"><IconStyle><color>ff00eaff</color><scale>1</scale><Icon><href>https://www.gstatic.com/mapspro/images/stock/503-wht-blank_maps.png</href></Icon><hotSpot x="32" xunits="pixels" y="64" yunits="insetPixels"/></IconStyle><LabelStyle><scale>0</scale></LabelStyle><BalloonStyle><text><![CDATA[<h3>$[name]</h3>]]></text></BalloonStyle></Style><Style id="icon-1899-FFEA00-nodesc-highlight"><IconStyle><color>ff00eaff</color><scale>1</scale><Icon><href>https://www.gstatic.com/mapspro/images/stock/503-wht-blank_maps.png</href></Icon><hotSpot x="32" xunits="pixels" y="64" yunits="insetPixels"/></IconStyle><LabelStyle><scale>1</scale></LabelStyle><BalloonStyle><text><![CDATA[<h3>$[name]</h3>]]></text></BalloonStyle></Style><StyleMap id="icon-1899-FFEA00-nodesc"><Pair><key>normal</key><styleUrl>#icon-1899-FFEA00-nodesc-normal</styleUrl></Pair><Pair><key>highlight</key><styleUrl>#icon-1899-FFEA00-nodesc-highlight</styleUrl></Pair></StyleMap><Style id="line-0288D1-7000-nodesc-normal"><LineStyle><color>ffd18802</color><width>7</width></LineStyle><BalloonStyle><text><![CDATA[<h3>$[name]</h3>]]></text></BalloonStyle></Style><Style id="line-0288D1-7000-nodesc-highlight"><LineStyle><color>ffd18802</color><width>10.5</width></LineStyle><BalloonStyle><text><![CDATA[<h3>$[name]</h3>]]></text></BalloonStyle></Style><StyleMap id="line-0288D1-7000-nodesc"><Pair><key>normal</key><styleUrl>#line-0288D1-7000-nodesc-normal</styleUrl></Pair><Pair><key>highlight</key><styleUrl>#line-0288D1-7000-nodesc-highlight</styleUrl></Pair></StyleMap><Folder><name>Untitled layer</name><Placemark><name>Course</name><styleUrl>#line-0288D1-7000-nodesc</styleUrl><LineString><tessellate>1</tessellate><coordinates>            9.192442,48.805161,0            9.192457,48.805192,0            9.192594,48.805653,0            9.19283,48.805908,0            9.193313,48.80607,0            9.193656,48.806112,0            9.195116,48.805816,0            9.195995,48.805674,0            9.197551,48.805667,0            9.198398,48.805808,0            9.199171,48.805808,0            9.200018,48.80571,0            9.200855,48.805462,0            9.202701,48.80431,0            9.20386,48.803639,0            9.204578,48.803194,0            9.204975,48.80289,0            9.205447,48.802466,0            9.20578,48.801745,0            9.205887,48.801039,0            9.205254,48.800608,0            9.204686,48.800466,0            9.204332,48.800438,0            9.203602,48.800466,0            9.202701,48.800629,0            9.202125,48.800806,0            9.201727,48.80097,0            9.200984,48.801371,0            9.200458,48.801562,0            9.19945,48.801972,0            9.19886,48.802353,0            9.198538,48.802558,0            9.198098,48.802763,0            9.197175,48.802996,0            9.196017,48.803024,0            9.195169,48.803144,0            9.194654,48.8033,0            9.193892,48.803597,0            9.193184,48.804035,0            9.192669,48.804614,0            9.192505,48.804912,0            9.192455,48.805054,0            9.192416,48.805118,0            9.19244,48.805158,0          </coordinates></LineString></Placemark><Placemark><name>Start/Finish</name><styleUrl>#icon-1899-FFEA00-nodesc</styleUrl><Point><coordinates>            9.192451,48.805163,0          </coordinates></Point></Placemark></Folder></Document></kml>