<?xml version="1.0" encoding="UTF-8"?><kml xmlns="http://www.opengis.net/kml/2.2"><Document><name>Rubbenbruchsee parkrun</name><description/><Style id="icon-1577-0288D1-nodesc-normal"><IconStyle><color>ffd18802</color><scale>1</scale><Icon><href>https://www.gstatic.com/mapspro/images/stock/503-wht-blank_maps.png</href></Icon></IconStyle><LabelStyle><scale>0</scale></LabelStyle><BalloonStyle><text><![CDATA[<h3>$[name]</h3>]]></text></BalloonStyle></Style><Style id="icon-1577-0288D1-nodesc-highlight"><IconStyle><color>ffd18802</color><scale>1</scale><Icon><href>https://www.gstatic.com/mapspro/images/stock/503-wht-blank_maps.png</href></Icon></IconStyle><LabelStyle><scale>1</scale></LabelStyle><BalloonStyle><text><![CDATA[<h3>$[name]</h3>]]></text></BalloonStyle></Style><StyleMap id="icon-1577-0288D1-nodesc"><Pair><key>normal</key><styleUrl>#icon-1577-0288D1-nodesc-normal</styleUrl></Pair><Pair><key>highlight</key><styleUrl>#icon-1577-0288D1-nodesc-highlight</styleUrl></Pair></StyleMap><Style id="icon-1644-0288D1-nodesc-normal"><IconStyle><color>ffd18802</color><scale>1</scale><Icon><href>https://www.gstatic.com/mapspro/images/stock/503-wht-blank_maps.png</href></Icon></IconStyle><LabelStyle><scale>0</scale></LabelStyle><BalloonStyle><text><![CDATA[<h3>$[name]</h3>]]></text></BalloonStyle></Style><Style id="icon-1644-0288D1-nodesc-highlight"><IconStyle><color>ffd18802</color><scale>1</scale><Icon><href>https://www.gstatic.com/mapspro/images/stock/503-wht-blank_maps.png</href></Icon></IconStyle><LabelStyle><scale>1</scale></LabelStyle><BalloonStyle><text><![CDATA[<h3>$[name]</h3>]]></text></BalloonStyle></Style><StyleMap id="icon-1644-0288D1-nodesc"><Pair><key>normal</key><styleUrl>#icon-1644-0288D1-nodesc-normal</styleUrl></Pair><Pair><key>highlight</key><styleUrl>#icon-1644-0288D1-nodesc-highlight</styleUrl></Pair></StyleMap><Style id="icon-1899-0288D1-nodesc-normal"><IconStyle><color>ffd18802</color><scale>1</scale><Icon><href>https://www.gstatic.com/mapspro/images/stock/503-wht-blank_maps.png</href></Icon><hotSpot x="32" xunits="pixels" y="64" yunits="insetPixels"/></IconStyle><LabelStyle><scale>0</scale></LabelStyle><BalloonStyle><text><![CDATA[<h3>$[name]</h3>]]></text></BalloonStyle></Style><Style id="icon-1899-0288D1-nodesc-highlight"><IconStyle><color>ffd18802</color><scale>1</scale><Icon><href>https://www.gstatic.com/mapspro/images/stock/503-wht-blank_maps.png</href></Icon><hotSpot x="32" xunits="pixels" y="64" yunits="insetPixels"/></IconStyle><LabelStyle><scale>1</scale></LabelStyle><BalloonStyle><text><![CDATA[<h3>$[name]</h3>]]></text></BalloonStyle></Style><StyleMap id="icon-1899-0288D1-nodesc"><Pair><key>normal</key><styleUrl>#icon-1899-0288D1-nodesc-normal</styleUrl></Pair><Pair><key>highlight</key><styleUrl>#icon-1899-0288D1-nodesc-highlight</styleUrl></Pair></StyleMap><Style id="icon-1899-FFEA00-nodesc-normal"><IconStyle><color>ff00eaff</color><scale>1</scale><Icon><href>https://www.gstatic.com/mapspro/images/stock/503-wht-blank_maps.png</href></Icon><hotSpot x="32" xunits="pixels" y="64" yunits="insetPixels"/></IconStyle><LabelStyle><scale>0</scale></LabelStyle><BalloonStyle><text><![CDATA[<h3>$[name]</h3>]]></text></BalloonStyle></Style><Style id="icon-1899-FFEA00-nodesc-highlight"><IconStyle><color>ff00eaff</color><scale>1</scale><Icon><href>https://www.gstatic.com/mapspro/images/stock/503-wht-blank_maps.png</href></Icon><hotSpot x="32" xunits="pixels" y="64" yunits="insetPixels"/></IconStyle><LabelStyle><scale>1</scale></LabelStyle><BalloonStyle><text><![CDATA[<h3>$[name]</h3>]]></text></BalloonStyle></Style><StyleMap id="icon-1899-FFEA00-nodesc"><Pair><key>normal</key><styleUrl>#icon-1899-FFEA00-nodesc-normal</styleUrl></Pair><Pair><key>highlight</key><styleUrl>#icon-1899-FFEA00-nodesc-highlight</styleUrl></Pair></StyleMap><Style id="line-0288D1-6000-nodesc-normal"><LineStyle><color>ffd18802</color><width>6</width></LineStyle><BalloonStyle><text><![CDATA[<h3>$[name]</h3>]]></text></BalloonStyle></Style><Style id="line-0288D1-6000-nodesc-highlight"><LineStyle><color>ffd18802</color><width>9</width></LineStyle><BalloonStyle><text><![CDATA[<h3>$[name]</h3>]]></text></BalloonStyle></Style><StyleMap id="line-0288D1-6000-nodesc"><Pair><key>normal</key><styleUrl>#line-0288D1-6000-nodesc-normal</styleUrl></Pair><Pair><key>highlight</key><styleUrl>#line-0288D1-6000-nodesc-highlight</styleUrl></Pair></StyleMap><Folder><name>Untitled layer</name><Placemark><name>Cafe</name><styleUrl>#icon-1577-0288D1-nodesc</styleUrl><Point><coordinates>            7.989354,52.28925,0          </coordinates></Point></Placemark><Placemark><name>Car park</name><styleUrl>#icon-1644-0288D1-nodesc</styleUrl><Point><coordinates>            7.98988,52.289463,0          </coordinates></Point></Placemark><Placemark><name>Turning point</name><styleUrl>#icon-1899-0288D1-nodesc</styleUrl><Point><coordinates>            7.993176,52.273285,0          </coordinates></Point></Placemark><Placemark><name>Course</name><styleUrl>#line-0288D1-6000-nodesc</styleUrl><LineString><tessellate>1</tessellate><coordinates>            7.989035,52.289281,0            7.989174,52.289478,0            7.989196,52.289648,0            7.98926,52.289753,0            7.989271,52.290298,0            7.989238,52.290495,0            7.989099,52.290744,0            7.988788,52.290928,0            7.98852,52.291079,0            7.987522,52.290895,0            7.98706,52.290738,0            7.986621,52.29062,0            7.986224,52.290403,0            7.985805,52.290449,0            7.985387,52.290364,0            7.984572,52.290318,0            7.984142,52.290482,0            7.983896,52.290508,0            7.98381,52.290396,0            7.983885,52.289924,0            7.983778,52.289812,0            7.983681,52.289753,0            7.983424,52.288861,0            7.986288,52.285225,0            7.98793,52.28575,0            7.988112,52.28575,0            7.98823,52.285652,0            7.988262,52.285455,0            7.988273,52.285225,0            7.98837,52.284943,0            7.988488,52.284746,0            7.98852,52.284523,0            7.988488,52.28424,0            7.988595,52.283676,0            7.988777,52.283361,0            7.98897,52.283151,0            7.989324,52.282849,0            7.989925,52.283144,0            7.990011,52.283085,0            7.990601,52.281142,0            7.990547,52.28107,0            7.990665,52.281024,0            7.993176,52.273285,0            7.990762,52.28105,0            7.99205,52.281129,0            7.992162,52.281178,0            7.992275,52.281254,0            7.9928,52.28218,0            7.992865,52.282383,0            7.992865,52.282718,0            7.992554,52.283617,0            7.99235,52.284208,0            7.992318,52.284496,0            7.992575,52.284759,0            7.991481,52.285796,0            7.991352,52.285986,0            7.991374,52.286163,0            7.991052,52.286656,0            7.990987,52.286826,0            7.991266,52.287141,0            7.991277,52.287272,0            7.989657,52.288165,0            7.988466,52.288756,0            7.98838,52.288861,0            7.98897,52.289228,0          </coordinates></LineString></Placemark><Placemark><name>Start/Finish</name><styleUrl>#icon-1899-FFEA00-nodesc</styleUrl><Point><coordinates>            7.989035,52.289281,0          </coordinates></Point></Placemark></Folder></Document></kml>