<?xml version="1.0" encoding="UTF-8"?><kml xmlns="http://www.opengis.net/kml/2.2"><Document><name>Unisee parkrun</name><description/><Style id="icon-1899-FFEA00-nodesc-normal"><IconStyle><color>ff00eaff</color><scale>1</scale><Icon><href>https://www.gstatic.com/mapspro/images/stock/503-wht-blank_maps.png</href></Icon><hotSpot x="32" xunits="pixels" y="64" yunits="insetPixels"/></IconStyle><LabelStyle><scale>0</scale></LabelStyle><BalloonStyle><text><![CDATA[<h3>$[name]</h3>]]></text></BalloonStyle></Style><Style id="icon-1899-FFEA00-nodesc-highlight"><IconStyle><color>ff00eaff</color><scale>1</scale><Icon><href>https://www.gstatic.com/mapspro/images/stock/503-wht-blank_maps.png</href></Icon><hotSpot x="32" xunits="pixels" y="64" yunits="insetPixels"/></IconStyle><LabelStyle><scale>1</scale></LabelStyle><BalloonStyle><text><![CDATA[<h3>$[name]</h3>]]></text></BalloonStyle></Style><StyleMap id="icon-1899-FFEA00-nodesc"><Pair><key>normal</key><styleUrl>#icon-1899-FFEA00-nodesc-normal</styleUrl></Pair><Pair><key>highlight</key><styleUrl>#icon-1899-FFEA00-nodesc-highlight</styleUrl></Pair></StyleMap><Style id="line-1267FF-5000-nodesc-normal"><LineStyle><color>ffff6712</color><width>5</width></LineStyle><BalloonStyle><text><![CDATA[<h3>$[name]</h3>]]></text></BalloonStyle></Style><Style id="line-1267FF-5000-nodesc-highlight"><LineStyle><color>ffff6712</color><width>7.5</width></LineStyle><BalloonStyle><text><![CDATA[<h3>$[name]</h3>]]></text></BalloonStyle></Style><StyleMap id="line-1267FF-5000-nodesc"><Pair><key>normal</key><styleUrl>#line-1267FF-5000-nodesc-normal</styleUrl></Pair><Pair><key>highlight</key><styleUrl>#line-1267FF-5000-nodesc-highlight</styleUrl></Pair></StyleMap><Folder><name>Untitled layer</name><Placemark><name>Course</name><styleUrl>#line-1267FF-5000-nodesc</styleUrl><LineString><tessellate>1</tessellate><coordinates>            8.8348,53.10858,0            8.83469,53.10861,0            8.8344,53.1087,0            8.83434,53.10877,0            8.8343,53.10887,0            8.83422,53.10893,0            8.83431,53.10899,0            8.83436,53.10901,0            8.83444,53.10907,0            8.8345,53.10911,0            8.83461,53.10918,0            8.8347,53.10926,0            8.83475,53.10933,0            8.83479,53.1094,0            8.83482,53.10946,0            8.83484,53.10952,0            8.83485,53.10962,0            8.83486,53.10968,0            8.83486,53.10989,0            8.83486,53.10999,0            8.83485,53.11008,0            8.83485,53.11018,0            8.83485,53.11021,0            8.83486,53.11025,0            8.83487,53.11028,0            8.83488,53.11032,0            8.83493,53.1104,0            8.83498,53.11048,0            8.83513,53.11064,0            8.83521,53.11077,0            8.83525,53.1108,0            8.83528,53.11083,0            8.83535,53.11085,0            8.83544,53.11088,0            8.83554,53.11091,0            8.8357,53.11097,0            8.83579,53.11101,0            8.83586,53.11104,0            8.83595,53.1111,0            8.83602,53.11114,0            8.83617,53.11124,0            8.83647,53.11143,0            8.83651,53.11145,0            8.83655,53.11149,0            8.8366,53.11154,0            8.83662,53.11156,0            8.83663,53.11159,0            8.83664,53.11162,0            8.83664,53.11167,0            8.83664,53.11169,0            8.83665,53.11179,0            8.83664,53.11188,0            8.83663,53.11196,0            8.83663,53.11201,0            8.83659,53.11212,0            8.83655,53.11221,0            8.83647,53.11229,0            8.83644,53.11232,0            8.83641,53.11237,0            8.83638,53.1124,0            8.83637,53.11244,0            8.83635,53.1125,0            8.83633,53.11259,0            8.83632,53.11263,0            8.83629,53.11267,0            8.83626,53.1127,0            8.83622,53.11271,0            8.83617,53.11274,0            8.83612,53.11276,0            8.83608,53.11278,0            8.83602,53.11279,0            8.83596,53.11281,0            8.83555,53.11288,0            8.83511,53.11295,0            8.83481,53.11301,0            8.83462,53.11305,0            8.83447,53.11311,0            8.83429,53.1132,0            8.83418,53.11325,0            8.83401,53.11334,0            8.83391,53.11343,0            8.83381,53.1135,0            8.83371,53.11356,0            8.83356,53.11364,0            8.83348,53.11367,0            8.83336,53.11372,0            8.83318,53.11381,0            8.83309,53.11386,0            8.83301,53.11395,0            8.83296,53.11402,0            8.83292,53.1141,0            8.83286,53.11419,0            8.83281,53.11426,0            8.83276,53.1143,0            8.83272,53.11432,0            8.83265,53.11437,0            8.83259,53.1144,0            8.83254,53.11443,0            8.83248,53.11446,0            8.83243,53.11449,0            8.83239,53.11451,0            8.83225,53.11455,0            8.83161,53.11462,0            8.83103,53.11466,0            8.83096,53.11466,0            8.83089,53.11466,0            8.8308,53.11465,0            8.83071,53.11464,0            8.83058,53.11463,0            8.83044,53.11461,0            8.8303,53.11459,0            8.8302,53.11456,0            8.83008,53.11454,0            8.83002,53.11452,0            8.82994,53.11449,0            8.82987,53.11446,0            8.82971,53.11441,0            8.82955,53.11435,0            8.8291,53.11423,0            8.82874,53.11415,0            8.82863,53.11413,0            8.82852,53.11411,0            8.82844,53.11409,0            8.82838,53.11408,0            8.8283,53.11405,0            8.82813,53.11399,0            8.82795,53.11393,0            8.82779,53.11387,0            8.82734,53.11366,0            8.82709,53.11355,0            8.82694,53.11348,0            8.82666,53.11338,0            8.82651,53.11331,0            8.82643,53.11327,0            8.8263,53.1132,0            8.8261,53.11309,0            8.826,53.11305,0            8.8259,53.11301,0            8.82579,53.11297,0            8.8257,53.11293,0            8.82557,53.11289,0            8.82551,53.11287,0            8.82546,53.11285,0            8.82542,53.11284,0            8.82536,53.11283,0            8.8253,53.11282,0            8.82524,53.11281,0            8.82518,53.1128,0            8.82514,53.1128,0            8.82504,53.11278,0            8.82492,53.11275,0            8.82484,53.11273,0            8.82475,53.11271,0            8.82463,53.11268,0            8.82448,53.11264,0            8.82432,53.1126,0            8.82406,53.11252,0            8.8238,53.11244,0            8.82373,53.11242,0            8.82353,53.11234,0            8.82329,53.11225,0            8.82315,53.11219,0            8.82309,53.11216,0            8.82305,53.11213,0            8.82303,53.11212,0            8.82299,53.11208,0            8.82297,53.11205,0            8.82296,53.11203,0            8.82292,53.11193,0            8.82301,53.11187,0            8.82304,53.11184,0            8.82309,53.11182,0            8.82311,53.11181,0            8.82316,53.1118,0            8.8232,53.11179,0            8.82325,53.11177,0            8.8233,53.11174,0            8.82349,53.11162,0            8.82364,53.11153,0            8.82367,53.11151,0            8.82372,53.11147,0            8.82374,53.11146,0            8.8238,53.1114,0            8.82386,53.11135,0            8.82399,53.11128,0            8.82407,53.11126,0            8.82447,53.11111,0            8.82462,53.11106,0            8.82497,53.11096,0            8.82604,53.11064,0            8.82715,53.1103,0            8.82718,53.11029,0            8.82744,53.11021,0            8.82814,53.10999,0            8.82909,53.10965,0            8.82911,53.10965,0            8.8301,53.10935,0            8.8308,53.10914,0            8.83125,53.10899,0            8.83154,53.10891,0            8.83187,53.10882,0            8.83202,53.10879,0            8.8321,53.10878,0            8.83231,53.10877,0            8.83246,53.10875,0            8.83268,53.10873,0            8.83279,53.10873,0            8.83286,53.10873,0            8.83295,53.10874,0            8.83326,53.10873,0            8.83351,53.10877,0            8.8341,53.10892,0            8.83422,53.10893,0            8.8343,53.10887,0            8.83434,53.10877,0            8.8344,53.1087,0            8.83469,53.10861,0            8.83483,53.10857,0          </coordinates></LineString></Placemark><Placemark><name>Start/Finish</name><styleUrl>#icon-1899-FFEA00-nodesc</styleUrl><Point><coordinates>            8.835123,53.108601,0          </coordinates></Point></Placemark></Folder></Document></kml>