<?xml version="1.0" encoding="UTF-8"?><kml xmlns="http://www.opengis.net/kml/2.2"><Document><name>Werdersee parkrun</name><description/><Style id="icon-1899-FFEA00-nodesc-normal"><IconStyle><color>ff00eaff</color><scale>1</scale><Icon><href>https://www.gstatic.com/mapspro/images/stock/503-wht-blank_maps.png</href></Icon><hotSpot x="32" xunits="pixels" y="64" yunits="insetPixels"/></IconStyle><LabelStyle><scale>0</scale></LabelStyle><BalloonStyle><text><![CDATA[<h3>$[name]</h3>]]></text></BalloonStyle></Style><Style id="icon-1899-FFEA00-nodesc-highlight"><IconStyle><color>ff00eaff</color><scale>1</scale><Icon><href>https://www.gstatic.com/mapspro/images/stock/503-wht-blank_maps.png</href></Icon><hotSpot x="32" xunits="pixels" y="64" yunits="insetPixels"/></IconStyle><LabelStyle><scale>1</scale></LabelStyle><BalloonStyle><text><![CDATA[<h3>$[name]</h3>]]></text></BalloonStyle></Style><StyleMap id="icon-1899-FFEA00-nodesc"><Pair><key>normal</key><styleUrl>#icon-1899-FFEA00-nodesc-normal</styleUrl></Pair><Pair><key>highlight</key><styleUrl>#icon-1899-FFEA00-nodesc-highlight</styleUrl></Pair></StyleMap><Style id="line-0288D1-5000-nodesc-normal"><LineStyle><color>ffd18802</color><width>5</width></LineStyle><BalloonStyle><text><![CDATA[<h3>$[name]</h3>]]></text></BalloonStyle></Style><Style id="line-0288D1-5000-nodesc-highlight"><LineStyle><color>ffd18802</color><width>7.5</width></LineStyle><BalloonStyle><text><![CDATA[<h3>$[name]</h3>]]></text></BalloonStyle></Style><StyleMap id="line-0288D1-5000-nodesc"><Pair><key>normal</key><styleUrl>#line-0288D1-5000-nodesc-normal</styleUrl></Pair><Pair><key>highlight</key><styleUrl>#line-0288D1-5000-nodesc-highlight</styleUrl></Pair></StyleMap><Folder><name>Untitled layer</name><Placemark><name>Course</name><styleUrl>#line-0288D1-5000-nodesc</styleUrl><LineString><tessellate>1</tessellate><coordinates>            8.83331894874573,53.0583618001887,4.1            8.833433,53.05836,4            8.834084,53.058389,3.3            8.83428,53.058379,3            8.83534,53.058221,2            8.835571,53.058199,2            8.835996,53.058169,2            8.836044,53.058166,2            8.836219,53.058064,2            8.836302,53.058025,2            8.8364,53.058001,2            8.836532,53.057996,2            8.836856,53.058024,2            8.837046,53.058016,2            8.837231,53.057994,2            8.837417,53.057986,2            8.837585,53.057988,2            8.838557,53.058057,2            8.838791,53.058074,2            8.839423,53.058123,2.8            8.839258,53.058235,2.8            8.839027,53.058374,2.8            8.838763,53.058485,2.8            8.838537,53.05856,2.8            8.838347,53.058641,3            8.837935,53.058849,3.8            8.837628,53.059094,4            8.837367,53.059304,4.5            8.837044,53.059463,4.3            8.836895,53.059526,4            8.836744,53.059565,4            8.836567,53.059597,4            8.836392,53.059616,4.3            8.836148,53.059602,4.5            8.835912,53.059566,4.8            8.835752,53.059524,5            8.835612,53.059464,5.3            8.835445,53.059346,5.5            8.835296,53.059218,5.5            8.835213,53.059148,5.8            8.835123,53.059092,5.5            8.834997,53.059034,5.3            8.834919,53.058996,5.3            8.834827,53.058972,5.3            8.834703,53.058968,5.3            8.834615,53.058977,5.5            8.834537,53.058956,5.5            8.834489,53.058943,5.5            8.834268,53.058848,5.3            8.833855,53.058585,4.5            8.83348,53.058385,4            8.833433,53.05836,4            8.833266,53.05836,4.3            8.833101,53.058374,4.8            8.832793,53.058431,6            8.832134,53.058576,7.8            8.831484,53.058702,8            8.831177,53.058739,7.3            8.830993,53.058713,6.8            8.830807,53.058677,6.3            8.83055,53.058614,5.8            8.830287,53.058527,5            8.82979,53.058326,3.5            8.829551,53.058379,3.5            8.829351,53.058424,3.5            8.829019,53.058486,3.5            8.827283,53.058701,4            8.826843,53.058711,3.8            8.826124,53.058727,4            8.825701,53.058747,4.3            8.825544,53.058769,4.5            8.825422,53.058838,5            8.825387,53.058914,5.3            8.825313,53.059108,6.5            8.825017,53.059495,6.8            8.824738,53.059818,7.3            8.824469,53.060148,7.3            8.82438,53.060243,7            8.82429,53.060283,7            8.823967,53.060381,6.8            8.823544,53.060468,6.8            8.823317,53.060508,6.8            8.823265,53.060518,6.8            8.823157,53.060527,6.8            8.823069,53.060501,7            8.822627,53.060301,7.8            8.822346,53.060211,8.3            8.822219,53.060158,8.3            8.822129,53.059862,7.8            8.821994,53.059719,6.5            8.821935,53.059596,5.5            8.821901,53.05955,5            8.821801,53.059475,4.5            8.821771,53.059443,4.3            8.82175,53.059386,3.8            8.821724,53.059355,3.5            8.821649,53.059331,3.3            8.821549,53.05931,3.3            8.821458,53.059299,3            8.821343,53.059293,3.3            8.821216,53.059299,3.3            8.821083,53.05932,3.5            8.820999,53.059343,3.8            8.820838,53.059415,4            8.820237,53.059652,5            8.820039,53.05969,5.3            8.819755,53.059789,5            8.818968,53.060091,3.8            8.818438,53.060277,3.3            8.818227,53.060364,3.5            8.817201,53.060757,4            8.8164,53.061072,4.3            8.81536,53.061479,4.8            8.814908,53.061653,4            8.814711,53.061757,3.5            8.814525,53.061829,3.3            8.814151,53.061931,3.3            8.813923,53.06203,3.5            8.813888,53.062052,3.5            8.813656,53.062167,3.8            8.813478,53.062259,4.3            8.813095,53.062461,5.3            8.812837,53.062615,6.3            8.812732,53.062729,6.5            8.812315,53.063052,7            8.812196,53.063166,7            8.811851,53.06354,7.3            8.811731,53.063501,7.3            8.810512,53.063097,5.5            8.810424,53.063068,5.5            8.810448,53.062881,5.5            8.810482,53.062769,5.5            8.810592,53.062612,5.5            8.810866,53.062303,6.3            8.811238,53.06195,7.3            8.811115,53.062066,6.3            8.81100127725437,53.0621724988722,7.7            8.81089506719612,53.0622819159816,6.9            8.81072816567602,53.0624961903492,5            8.81056126415591,53.062710463651,4.6            8.81050815912678,53.0627925254843,4.4            8.81045,53.062874,5.5            8.810448,53.062881,5.5            8.810425,53.063056,5.5            8.810424,53.063068,5.5            8.810512,53.063097,5.5            8.811731,53.063501,7.3            8.811851,53.06354,7.3            8.81187,53.063519,7            8.812196,53.063166,7            8.812315,53.063052,7            8.812712,53.062744,6.5            8.812732,53.062729,6.5            8.812837,53.062615,6.3            8.812894,53.06258,6            8.813095,53.062461,5.3            8.813131,53.062441,5            8.813478,53.062259,4.3            8.813427,53.06227,4.3            8.813478,53.062259,4.3            8.813656,53.062167,3.8            8.813768,53.062111,3.5            8.813888,53.062052,3.5            8.813923,53.06203,3.5            8.814151,53.061931,3.3            8.814525,53.061829,3.3            8.814711,53.061757,3.5            8.814908,53.061653,4            8.81536,53.061479,4.8            8.8164,53.061072,4.3            8.817201,53.060757,4            8.818227,53.060364,3.5            8.818438,53.060277,3.3            8.818968,53.060091,3.8            8.819755,53.059789,5            8.820039,53.05969,5.3            8.820237,53.059652,5            8.820838,53.059415,4            8.820987,53.059348,3.8            8.820999,53.059343,3.8            8.821083,53.05932,3.5            8.821216,53.059299,3.3            8.821343,53.059293,3.3            8.821458,53.059299,3            8.821549,53.05931,3.3            8.821649,53.059331,3.3            8.821694,53.059345,3.3            8.821724,53.059355,3.5            8.82175,53.059386,3.8            8.821771,53.059443,4.3            8.821775,53.059448,4.3            8.821801,53.059475,4.5            8.821901,53.05955,5            8.821935,53.059596,5.5            8.821982,53.059694,6.3            8.821994,53.059719,6.5            8.822129,53.059862,7.8            8.822217,53.060152,8            8.822219,53.060158,8.3            8.822346,53.060211,8.3            8.822627,53.060301,7.8            8.823069,53.060501,7            8.823122,53.060516,6.8            8.823157,53.060527,6.8            8.823265,53.060518,6.8            8.823544,53.060468,6.8            8.823967,53.060381,6.8            8.82429,53.060283,7            8.82438,53.060243,7            8.824382,53.06024,7            8.824469,53.060148,7.3            8.824738,53.059818,7.3            8.825017,53.059495,6.8            8.825313,53.059108,6.5            8.825313,53.059107,6.3            8.825387,53.058914,5.3            8.825422,53.058838,5            8.825544,53.058769,4.5            8.825701,53.058747,4.3            8.826124,53.058727,4            8.826843,53.058711,3.8            8.826967,53.058708,3.8            8.827283,53.058701,4            8.829019,53.058486,3.5            8.829351,53.058424,3.5            8.82979,53.058326,3.5            8.82995380805091,53.0583923043838,4.3            8.830287,53.058527,5            8.83055,53.058614,5.8            8.83070898479257,53.0586528577856,6            8.830807,53.058677,6.3            8.830993,53.058713,6.8            8.831034,53.058718,6.8            8.831177,53.058739,7.3            8.831484,53.058702,8            8.832134,53.058576,7.8            8.832793,53.058431,6            8.833101,53.058374,4.8            8.833266,53.05836,4.3            8.833319,53.05836,4          </coordinates></LineString></Placemark><Placemark><name>Start/Finish</name><styleUrl>#icon-1899-FFEA00-nodesc</styleUrl><Point><coordinates>            8.8112417,53.0619387,0          </coordinates></Point></Placemark></Folder></Document></kml>