<?xml version="1.0" encoding="UTF-8"?><kml xmlns="http://www.opengis.net/kml/2.2"><Document><name>Wittelsbacher parkrun</name><description/><Style id="icon-1899-0F9D58-nodesc-normal"><IconStyle><color>ff589d0f</color><scale>1</scale><Icon><href>https://www.gstatic.com/mapspro/images/stock/503-wht-blank_maps.png</href></Icon><hotSpot x="32" xunits="pixels" y="64" yunits="insetPixels"/></IconStyle><LabelStyle><scale>0</scale></LabelStyle><BalloonStyle><text><![CDATA[<h3>$[name]</h3>]]></text></BalloonStyle></Style><Style id="icon-1899-0F9D58-nodesc-highlight"><IconStyle><color>ff589d0f</color><scale>1</scale><Icon><href>https://www.gstatic.com/mapspro/images/stock/503-wht-blank_maps.png</href></Icon><hotSpot x="32" xunits="pixels" y="64" yunits="insetPixels"/></IconStyle><LabelStyle><scale>1</scale></LabelStyle><BalloonStyle><text><![CDATA[<h3>$[name]</h3>]]></text></BalloonStyle></Style><StyleMap id="icon-1899-0F9D58-nodesc"><Pair><key>normal</key><styleUrl>#icon-1899-0F9D58-nodesc-normal</styleUrl></Pair><Pair><key>highlight</key><styleUrl>#icon-1899-0F9D58-nodesc-highlight</styleUrl></Pair></StyleMap><Style id="icon-1899-FF5252-nodesc-normal"><IconStyle><color>ff5252ff</color><scale>1</scale><Icon><href>https://www.gstatic.com/mapspro/images/stock/503-wht-blank_maps.png</href></Icon><hotSpot x="32" xunits="pixels" y="64" yunits="insetPixels"/></IconStyle><LabelStyle><scale>0</scale></LabelStyle><BalloonStyle><text><![CDATA[<h3>$[name]</h3>]]></text></BalloonStyle></Style><Style id="icon-1899-FF5252-nodesc-highlight"><IconStyle><color>ff5252ff</color><scale>1</scale><Icon><href>https://www.gstatic.com/mapspro/images/stock/503-wht-blank_maps.png</href></Icon><hotSpot x="32" xunits="pixels" y="64" yunits="insetPixels"/></IconStyle><LabelStyle><scale>1</scale></LabelStyle><BalloonStyle><text><![CDATA[<h3>$[name]</h3>]]></text></BalloonStyle></Style><StyleMap id="icon-1899-FF5252-nodesc"><Pair><key>normal</key><styleUrl>#icon-1899-FF5252-nodesc-normal</styleUrl></Pair><Pair><key>highlight</key><styleUrl>#icon-1899-FF5252-nodesc-highlight</styleUrl></Pair></StyleMap><Style id="line-0288D1-5456-nodesc-normal"><LineStyle><color>ffd18802</color><width>5.456</width></LineStyle><BalloonStyle><text><![CDATA[<h3>$[name]</h3>]]></text></BalloonStyle></Style><Style id="line-0288D1-5456-nodesc-highlight"><LineStyle><color>ffd18802</color><width>8.184</width></LineStyle><BalloonStyle><text><![CDATA[<h3>$[name]</h3>]]></text></BalloonStyle></Style><StyleMap id="line-0288D1-5456-nodesc"><Pair><key>normal</key><styleUrl>#line-0288D1-5456-nodesc-normal</styleUrl></Pair><Pair><key>highlight</key><styleUrl>#line-0288D1-5456-nodesc-highlight</styleUrl></Pair></StyleMap><Folder><name>Untitled layer</name><Placemark><name>Ziel</name><styleUrl>#icon-1899-FF5252-nodesc</styleUrl><Point><coordinates>            10.885693,48.359751,0          </coordinates></Point></Placemark><Placemark><name>Strecke</name><styleUrl>#line-0288D1-5456-nodesc</styleUrl><LineString><tessellate>1</tessellate><coordinates>            10.886142,48.359936,0            10.885761,48.359788,0            10.88547,48.359675,0            10.885191,48.359564,0            10.884978,48.359481,0            10.884926,48.359464,0            10.884867,48.359459,0            10.884802,48.359457,0            10.884686,48.359468,0            10.88462,48.359466,0            10.884545,48.359447,0            10.884504,48.359426,0            10.884474,48.359394,0            10.88444,48.35935,0            10.884444,48.359288,0            10.884455,48.358575,0            10.884283,48.358554,0            10.88413,48.358524,0            10.884032,48.358504,0            10.883941,48.358482,0            10.883865,48.358455,0            10.883776,48.358408,0            10.883712,48.358362,0            10.883664,48.358324,0            10.883648,48.358311,0            10.883618,48.358257,0            10.883606,48.358227,0            10.883596,48.3582,0            10.883596,48.358179,0            10.883594,48.357957,0            10.883588,48.357895,0            10.883583,48.357842,0            10.883528,48.357728,0            10.883519,48.357716,0            10.883452,48.357628,0            10.883437,48.357608,0            10.883392,48.357565,0            10.883313,48.357486,0            10.883297,48.35747,0            10.883204,48.3574,0            10.883189,48.357361,0            10.883165,48.357302,0            10.883143,48.357218,0            10.883155,48.357028,0            10.883276,48.356929,0            10.883348,48.356867,0            10.883361,48.356838,0            10.883298,48.356838,0            10.883054,48.356836,0            10.882647,48.356831,0            10.881979,48.356824,0            10.881366,48.356817,0            10.880691,48.356809,0            10.880127,48.356802,0            10.879528,48.356793,0            10.879352,48.356786,0            10.879069,48.356802,0            10.878962,48.356822,0            10.87892,48.356874,0            10.878959,48.356932,0            10.878984,48.356964,0            10.879009,48.356999,0            10.879057,48.357068,0            10.879282,48.357379,0            10.879395,48.357564,0            10.879717,48.357853,0            10.880158,48.358218,0            10.880369,48.358356,0            10.880532,48.358486,0            10.880959,48.358847,0            10.881117,48.358962,0            10.881268,48.359065,0            10.881582,48.359245,0            10.881708,48.359318,0            10.881854,48.359379,0            10.881974,48.359426,0            10.882232,48.359512,0            10.882514,48.359598,0            10.882695,48.359651,0            10.882903,48.359717,0            10.883059,48.35976,0            10.883123,48.359777,0            10.883156,48.359806,0            10.883192,48.359839,0            10.883287,48.359921,0            10.883378,48.359991,0            10.883407,48.360017,0            10.883507,48.360114,0            10.883562,48.360165,0            10.883589,48.360194,0            10.88366,48.360235,0            10.88369,48.360253,0            10.883785,48.360279,0            10.883848,48.360319,0            10.883912,48.360358,0            10.883973,48.360401,0            10.884024,48.360434,0            10.884158,48.360486,0            10.884286,48.36053,0            10.884385,48.360554,0            10.884405,48.360558,0            10.884501,48.36056,0            10.884554,48.360547,0            10.884645,48.360518,0            10.884716,48.360484,0            10.88477,48.360455,0            10.884824,48.360425,0            10.884867,48.360403,0            10.884928,48.360384,0            10.88504,48.360378,0            10.885295,48.360379,0            10.885518,48.360377,0            10.88565,48.360375,0            10.885771,48.360373,0            10.885862,48.360371,0            10.885959,48.360364,0            10.886071,48.360357,0            10.886149,48.360352,0            10.886268,48.360333,0            10.8863,48.360328,0            10.886344,48.360313,0            10.886408,48.360292,0            10.886509,48.360267,0            10.886472,48.360208,0            10.886424,48.360132,0            10.886385,48.360069,0            10.886379,48.360062,0            10.886366,48.360048,0            10.886338,48.360023,0            10.886312,48.360006,0            10.88615,48.359926,0            10.885931,48.35984,0            10.885767,48.359777,0            10.885694,48.359749,0          </coordinates></LineString></Placemark><Placemark><name>Start</name><styleUrl>#icon-1899-0F9D58-nodesc</styleUrl><Point><coordinates>            10.886141,48.359938,0          </coordinates></Point></Placemark></Folder></Document></kml>