<?xml version="1.0" encoding="UTF-8"?><kml xmlns="http://www.opengis.net/kml/2.2"><Document><name>parkrun Park Nadnyski</name><description/><Style id="icon-1899-FFEA00-nodesc-normal"><IconStyle><color>ff00eaff</color><scale>1</scale><Icon><href>https://www.gstatic.com/mapspro/images/stock/503-wht-blank_maps.png</href></Icon><hotSpot x="32" xunits="pixels" y="64" yunits="insetPixels"/></IconStyle><LabelStyle><scale>0</scale></LabelStyle><BalloonStyle><text><![CDATA[<h3>$[name]</h3>]]></text></BalloonStyle></Style><Style id="icon-1899-FFEA00-nodesc-highlight"><IconStyle><color>ff00eaff</color><scale>1</scale><Icon><href>https://www.gstatic.com/mapspro/images/stock/503-wht-blank_maps.png</href></Icon><hotSpot x="32" xunits="pixels" y="64" yunits="insetPixels"/></IconStyle><LabelStyle><scale>1</scale></LabelStyle><BalloonStyle><text><![CDATA[<h3>$[name]</h3>]]></text></BalloonStyle></Style><StyleMap id="icon-1899-FFEA00-nodesc"><Pair><key>normal</key><styleUrl>#icon-1899-FFEA00-nodesc-normal</styleUrl></Pair><Pair><key>highlight</key><styleUrl>#icon-1899-FFEA00-nodesc-highlight</styleUrl></Pair></StyleMap><Style id="line-0288D1-5069-nodesc-normal"><LineStyle><color>ffd18802</color><width>5.069</width></LineStyle><BalloonStyle><text><![CDATA[<h3>$[name]</h3>]]></text></BalloonStyle></Style><Style id="line-0288D1-5069-nodesc-highlight"><LineStyle><color>ffd18802</color><width>7.6035</width></LineStyle><BalloonStyle><text><![CDATA[<h3>$[name]</h3>]]></text></BalloonStyle></Style><StyleMap id="line-0288D1-5069-nodesc"><Pair><key>normal</key><styleUrl>#line-0288D1-5069-nodesc-normal</styleUrl></Pair><Pair><key>highlight</key><styleUrl>#line-0288D1-5069-nodesc-highlight</styleUrl></Pair></StyleMap><Folder><name>Untitled layer</name><Placemark><name>Course</name><styleUrl>#line-0288D1-5069-nodesc</styleUrl><LineString><tessellate>1</tessellate><coordinates>            14.9913977,51.1424882,0            14.991623,51.1427372,0            14.9918671,51.1428466,0            14.9924062,51.1428736,0            14.9941282,51.1427406,0            14.994861,51.142722,0            14.995201,51.1428399,0            14.9955658,51.1429712,0            14.9959789,51.1431764,0            14.9963719,51.1433699,0            14.9967809,51.1437183,0            14.9970545,51.1439858,0            14.9977089,51.1445092,0            14.998012,51.1453,0            14.9982212,51.1459327,0            14.9982829,51.1461043,0            14.9994631,51.1473865,0            15.0007774,51.1488655,0            15.0013433,51.1497152,0            15.0014157,51.1500921,0            15.001615,51.149456,0            15.0014613,51.1490539,0            15.000654,51.1483557,0            15.0001551,51.1477348,0            14.9996133,51.1472317,0            14.9991493,51.1468195,0            14.9988998,51.1463786,0            14.9983419,51.1454666,0            14.997763,51.144536,0            14.9977545,51.1443931,0            14.9970545,51.1439858,0          </coordinates></LineString></Placemark><Placemark><name>Start/Finish</name><styleUrl>#icon-1899-FFEA00-nodesc</styleUrl><Point><coordinates>            14.998767,51.146692,0          </coordinates></Point></Placemark></Folder></Document></kml>