<?xml version="1.0" encoding="UTF-8"?><kml xmlns="http://www.opengis.net/kml/2.2"><Document><name>parkrun Faktoria</name><description/><Style id="icon-1899-FFEA00-nodesc-normal"><IconStyle><color>ff00eaff</color><scale>1</scale><Icon><href>https://www.gstatic.com/mapspro/images/stock/503-wht-blank_maps.png</href></Icon><hotSpot x="32" xunits="pixels" y="64" yunits="insetPixels"/></IconStyle><LabelStyle><scale>0</scale></LabelStyle><BalloonStyle><text><![CDATA[<h3>$[name]</h3>]]></text></BalloonStyle></Style><Style id="icon-1899-FFEA00-nodesc-highlight"><IconStyle><color>ff00eaff</color><scale>1</scale><Icon><href>https://www.gstatic.com/mapspro/images/stock/503-wht-blank_maps.png</href></Icon><hotSpot x="32" xunits="pixels" y="64" yunits="insetPixels"/></IconStyle><LabelStyle><scale>1</scale></LabelStyle><BalloonStyle><text><![CDATA[<h3>$[name]</h3>]]></text></BalloonStyle></Style><StyleMap id="icon-1899-FFEA00-nodesc"><Pair><key>normal</key><styleUrl>#icon-1899-FFEA00-nodesc-normal</styleUrl></Pair><Pair><key>highlight</key><styleUrl>#icon-1899-FFEA00-nodesc-highlight</styleUrl></Pair></StyleMap><Style id="line-0288D1-6000-nodesc-normal"><LineStyle><color>ffd18802</color><width>6</width></LineStyle><BalloonStyle><text><![CDATA[<h3>$[name]</h3>]]></text></BalloonStyle></Style><Style id="line-0288D1-6000-nodesc-highlight"><LineStyle><color>ffd18802</color><width>9</width></LineStyle><BalloonStyle><text><![CDATA[<h3>$[name]</h3>]]></text></BalloonStyle></Style><StyleMap id="line-0288D1-6000-nodesc"><Pair><key>normal</key><styleUrl>#line-0288D1-6000-nodesc-normal</styleUrl></Pair><Pair><key>highlight</key><styleUrl>#line-0288D1-6000-nodesc-highlight</styleUrl></Pair></StyleMap><Folder><name>Untitled layer</name><Placemark><name>Trasa</name><styleUrl>#line-0288D1-6000-nodesc</styleUrl><LineString><tessellate>1</tessellate><coordinates>            18.630827,54.253728,0            18.630408,54.253252,0            18.629711,54.253032,0            18.628037,54.252675,0            18.626686,54.252656,0            18.626203,54.252637,0            18.625591,54.2527,0            18.62498,54.252719,0            18.624111,54.252913,0            18.623553,54.253132,0            18.623156,54.25312,0            18.62292,54.252838,0            18.622941,54.252424,0            18.62322,54.251998,0            18.623092,54.251641,0            18.622802,54.251277,0            18.622716,54.250638,0            18.622652,54.250475,0            18.622362,54.250575,0            18.62219,54.250519,0            18.621664,54.2505,0            18.620527,54.250713,0            18.619766,54.250625,0            18.619487,54.250832,0            18.61968,54.251089,0            18.619626,54.251271,0            18.619304,54.251553,0            18.61851,54.25196,0            18.617909,54.252192,0            18.617716,54.252393,0            18.617352,54.252481,0            18.617201,54.252481,0            18.616879,54.25243,0            18.617094,54.252349,0            18.617341,54.252393,0            18.617706,54.252299,0            18.617834,54.25213,0            18.618467,54.251891,0            18.619218,54.251503,0            18.619519,54.251233,0            18.619551,54.251083,0            18.619358,54.250857,0            18.619755,54.250531,0            18.620549,54.250644,0            18.621654,54.250437,0            18.622276,54.250443,0            18.622437,54.250494,0            18.622641,54.250393,0            18.624143,54.250105,0            18.624594,54.250324,0            18.625055,54.250331,0            18.626407,54.25255,0            18.626696,54.252587,0            18.62807,54.2526,0            18.629786,54.25297,0            18.630516,54.253208,0            18.630956,54.253703,0          </coordinates></LineString></Placemark><Placemark><name>Start/Meta</name><styleUrl>#icon-1899-FFEA00-nodesc</styleUrl><Point><coordinates>            18.630838,54.253772,0          </coordinates></Point></Placemark></Folder></Document></kml>