<?xml version="1.0" encoding="UTF-8"?><kml xmlns="http://www.opengis.net/kml/2.2"><Document><name>parkrun Rezerwat Strzelnica</name><description/><Style id="icon-1899-FFEA00-nodesc-normal"><IconStyle><color>ff00eaff</color><scale>1</scale><Icon><href>https://www.gstatic.com/mapspro/images/stock/503-wht-blank_maps.png</href></Icon><hotSpot x="32" xunits="pixels" y="64" yunits="insetPixels"/></IconStyle><LabelStyle><scale>0</scale></LabelStyle><BalloonStyle><text><![CDATA[<h3>$[name]</h3>]]></text></BalloonStyle></Style><Style id="icon-1899-FFEA00-nodesc-highlight"><IconStyle><color>ff00eaff</color><scale>1</scale><Icon><href>https://www.gstatic.com/mapspro/images/stock/503-wht-blank_maps.png</href></Icon><hotSpot x="32" xunits="pixels" y="64" yunits="insetPixels"/></IconStyle><LabelStyle><scale>1</scale></LabelStyle><BalloonStyle><text><![CDATA[<h3>$[name]</h3>]]></text></BalloonStyle></Style><StyleMap id="icon-1899-FFEA00-nodesc"><Pair><key>normal</key><styleUrl>#icon-1899-FFEA00-nodesc-normal</styleUrl></Pair><Pair><key>highlight</key><styleUrl>#icon-1899-FFEA00-nodesc-highlight</styleUrl></Pair></StyleMap><Style id="line-0288D1-5000-nodesc-normal"><LineStyle><color>ffd18802</color><width>5</width></LineStyle><BalloonStyle><text><![CDATA[<h3>$[name]</h3>]]></text></BalloonStyle></Style><Style id="line-0288D1-5000-nodesc-highlight"><LineStyle><color>ffd18802</color><width>7.5</width></LineStyle><BalloonStyle><text><![CDATA[<h3>$[name]</h3>]]></text></BalloonStyle></Style><StyleMap id="line-0288D1-5000-nodesc"><Pair><key>normal</key><styleUrl>#line-0288D1-5000-nodesc-normal</styleUrl></Pair><Pair><key>highlight</key><styleUrl>#line-0288D1-5000-nodesc-highlight</styleUrl></Pair></StyleMap><Folder><name>Untitled layer</name><Placemark><name>Course</name><styleUrl>#line-0288D1-5000-nodesc</styleUrl><MultiGeometry><LineString><tessellate>1</tessellate><coordinates>              17.957431,54.130322,0              17.957419,54.130375,203.95              17.957387,54.13043,205.27              17.957364,54.130467,206.6            </coordinates></LineString><LineString><tessellate>1</tessellate><coordinates>              17.957364,54.130467,0              17.95741,54.130428,213.76              17.957381,54.13048,213.73              17.957385,54.130563,212.91              17.957385,54.130602,212.56              17.957358,54.130648,212.09              17.957299,54.130692,211.78              17.957236,54.130721,211.82              17.95712,54.130772,211.52              17.957005,54.130818,211.4              17.95695,54.130838,211.42              17.956854,54.130875,211.56              17.956806,54.130893,211.5              17.956761,54.130908,211.7              17.956716,54.130924,212.07              17.956672,54.130938,212.48              17.956632,54.130953,212.65              17.956594,54.130966,213.02              17.956499,54.131,213.93              17.956439,54.131017,214.17              17.956344,54.131047,214.83              17.956283,54.131064,214.91              17.956188,54.131086,214.82              17.95612,54.131099,214.16              17.956013,54.131116,213.97              17.9559,54.131124,213.56              17.955757,54.131111,214.04              17.95568,54.131105,214.01              17.955521,54.131092,214.28              17.955404,54.131073,214.51              17.955322,54.13105,214.28              17.955165,54.130982,214.1              17.955126,54.130963,213.54              17.955086,54.130943,213.19              17.955009,54.1309,212.74              17.954972,54.130877,212.77              17.954904,54.130835,212.63              17.954837,54.130792,212.83              17.954806,54.130771,213.26              17.954746,54.130729,213.79              17.954718,54.130711,214.04              17.95467,54.13068,214.54              17.954625,54.130653,214.72              17.954536,54.130611,214.93              17.954408,54.130576,215.13              17.954278,54.130564,215.54              17.954201,54.130566,215.47              17.954158,54.130567,215.06              17.954076,54.130564,214.37              17.953988,54.130561,213.14              17.953942,54.130561,212.54              17.953893,54.130561,212.16              17.953793,54.130562,211.62              17.953744,54.130561,211.52              17.9537,54.130561,211.32              17.953654,54.130559,210.98              17.953563,54.130555,210.68              17.953384,54.130546,210.93              17.953293,54.130538,210.99              17.953248,54.130537,210.95              17.953209,54.130536,210.9              17.95309,54.130531,210.92              17.953011,54.130525,210.54              17.952931,54.130516,210.18              17.952858,54.130508,209.9              17.952703,54.130486,209.11              17.952664,54.130478,209.11              17.952622,54.130469,208.84              17.952533,54.130451,208.84              17.952489,54.130443,208.96              17.95245,54.130434,208.91              17.952334,54.13041,209.08              17.952298,54.130402,209.23              17.95219,54.13038,209.74              17.95209,54.130348,210.34              17.952011,54.130284,209.99              17.95203,54.130199,210.81              17.952054,54.130136,210.62              17.95207,54.130096,210.81              17.952108,54.130015,210.38              17.952128,54.129976,210              17.95215,54.129936,209.95              17.952185,54.129875,209.43              17.952228,54.129809,208.95              17.952242,54.129784,208.89              17.952273,54.129733,208.61              17.952331,54.129637,207.96              17.95236,54.129588,207.32              17.952389,54.129545,207.02              17.952403,54.129524,206.85              17.952429,54.129479,206.58              17.952453,54.129436,205.8              17.95247,54.129392,206.01              17.952477,54.129325,206.03              17.952468,54.12928,206.19              17.952463,54.129238,206.47              17.952454,54.129197,205.9              17.952451,54.129134,206.08              17.952461,54.129089,206.71              17.952484,54.129043,207.36              17.952534,54.128981,208.89              17.952577,54.128943,210.29              17.952693,54.128885,211.42              17.952759,54.12886,212.23              17.952861,54.128831,213.06              17.952927,54.128815,213.53              17.953032,54.128793,212.6              17.953213,54.128769,210.36              17.953331,54.128745,210.1              17.953416,54.128726,210.43              17.953458,54.128714,210.81              17.953531,54.128689,211.36              17.953602,54.128663,210.95              17.953693,54.128615,209.69              17.953755,54.128562,208.41              17.953755,54.128484,205.95              17.95371,54.128445,204.38              17.953659,54.128411,204.54              17.953631,54.128394,204.97              17.953543,54.128347,205.02              17.953511,54.128332,204.54              17.953479,54.128318,204.09              17.95342,54.128292,203.6              17.953358,54.128264,203.3              17.953204,54.12821,203.35              17.95313,54.128182,204.08              17.953093,54.128167,204.37              17.953025,54.128142,204.97              17.952953,54.128118,205.32              17.952888,54.128098,205.32              17.952824,54.128082,204.99              17.952765,54.128068,204.68              17.952661,54.128049,204.7              17.952523,54.128028,205.64              17.952408,54.128013,205.26              17.952368,54.128007,205.17              17.952293,54.127994,205.19              17.952172,54.127975,206.52              17.95213,54.127968,206.9              17.95209,54.127961,207.33              17.952049,54.127953,207.53              17.952007,54.127945,207.62              17.951924,54.127924,207.34              17.95185,54.127902,207.21              17.951745,54.127862,207.17              17.95171,54.127847,207.09              17.951645,54.127814,207.47              17.95159,54.127782,208.05              17.95154,54.127748,208.32              17.951502,54.127709,208.65              17.95146,54.127647,209.02              17.951445,54.1276,208.76              17.951451,54.127511,208.31              17.951494,54.127424,207.45              17.951529,54.127364,206.52              17.951552,54.127328,206.17              17.951613,54.127231,205.9              17.951644,54.127172,205.87              17.951674,54.127113,205.79              17.951691,54.127073,205.88              17.951698,54.126987,205.59              17.951689,54.126899,205.02              17.951688,54.126875,204.95              17.951686,54.126851,204.81              17.951683,54.126827,204.52              17.951679,54.126804,204.32              17.951675,54.126755,203.8              17.951677,54.126708,204.07              17.951678,54.126684,204.39              17.951679,54.126638,204.76              17.95168,54.126566,205.07              17.951685,54.126521,205.32              17.951688,54.126497,205.22              17.951694,54.12645,205.49              17.951696,54.126425,205.76              17.951695,54.126374,205.86              17.951694,54.126351,205.9              17.951692,54.126327,205.91              17.951687,54.126303,205.88              17.951664,54.126235,205.35              17.95163,54.12619,204.15              17.951548,54.12614,202.78              17.951423,54.12609,202.31              17.951362,54.126064,202.18              17.951281,54.126022,201.98              17.951183,54.125956,201.52              17.951099,54.125865,201.26              17.951055,54.125818,201.3              17.951038,54.125795,201.44              17.951,54.125746,201.85              17.950936,54.125678,201.76              17.95089,54.125632,200.56              17.950867,54.125611,200.05              17.950811,54.12557,198.71              17.950751,54.125535,199.76              17.950683,54.125504,200.61              17.950618,54.125478,200.7              17.950524,54.125452,200.89              17.950395,54.125426,201.37              17.950331,54.125417,201.36              17.950197,54.125373,201.7              17.950159,54.125358,202.07              17.950086,54.125325,202.8              17.950015,54.125289,203.48              17.949951,54.125255,203.75              17.949888,54.12522,204.09              17.949768,54.125159,203.46              17.949712,54.125133,203.36              17.949626,54.125101,203.55              17.949539,54.125075,203.99              17.949479,54.125058,203.78              17.949414,54.125043,203.35              17.949344,54.125024,203.31              17.949241,54.124985,203.72              17.949171,54.124954,204.04              17.949134,54.124937,204.17              17.949057,54.124903,204.61              17.949018,54.124885,204.98              17.948938,54.124848,205.31              17.948902,54.124831,205.89              17.948824,54.124798,206.09              17.948752,54.124767,206.2              17.948715,54.124751,206.36              17.94866,54.124718,206.56              17.948593,54.124691,206.86              17.94856,54.124678,207.04              17.948501,54.124656,206.96              17.948447,54.124636,206.92              17.948394,54.124615,206.95              17.94834,54.124597,207.45              17.948245,54.12457,208.29              17.948153,54.124545,209.84              17.948059,54.124526,210.22              17.947931,54.124512,211.02              17.947818,54.124504,211.39              17.947775,54.124502,211.52              17.947733,54.124499,211.61              17.947691,54.124498,211.65              17.947648,54.124496,211.67              17.947608,54.124496,211.89              17.947527,54.124504,212.24              17.947453,54.124517,212.07              17.94738,54.124539,212.2              17.947343,54.124552,212.38              17.947245,54.12459,213.08              17.947157,54.124627,213.5              17.94704,54.124653,213.31              17.946949,54.124674,213.02              17.946879,54.124691,213.04              17.94684,54.124699,212.88              17.946756,54.124719,212.5              17.946713,54.12473,212.33              17.946631,54.124748,212.24              17.946588,54.124757,212.29              17.946549,54.124766,212.3              17.946469,54.124784,212.89              17.946399,54.124803,213.48              17.946324,54.124821,214.03              17.946247,54.124838,214.26              17.946207,54.124845,214.16              17.946165,54.124853,214.26              17.946085,54.124868,214.89              17.945916,54.1249,215.63              17.945834,54.124915,215.48              17.945796,54.124922,215.14              17.945757,54.124928,215.08              17.945716,54.124933,214.85              17.945678,54.124938,214.7              17.945601,54.124947,214.57              17.945526,54.124955,214.51              17.945427,54.124969,213.77              17.945366,54.124978,213.42              17.945308,54.124989,213.7              17.945249,54.125001,213.88              17.945192,54.125011,213.83              17.945131,54.125022,213.04              17.945001,54.125055,211.33              17.944925,54.125073,210.57              17.944883,54.125083,209.99              17.944847,54.125093,209.51              17.94477,54.125113,208.53              17.944735,54.125122,208.29              17.944575,54.125155,207.31              17.944423,54.125171,206.63              17.944317,54.125177,206.37              17.944215,54.125178,206.43              17.944118,54.125175,206.08              17.944032,54.125172,205.64              17.94399,54.12517,205.41              17.943918,54.125166,205.19              17.943812,54.125155,204.82              17.94371,54.125141,205.01              17.943617,54.12513,205.3              17.943536,54.125129,205.25              17.943437,54.125116,205.23              17.943324,54.125098,204.32              17.943286,54.125091,204.03              17.943247,54.125083,203.75              17.943167,54.125067,203.78              17.94313,54.12506,203.81              17.943052,54.125047,204.1              17.942975,54.12504,203.96              17.942935,54.125038,203.59              17.942852,54.125031,203.08              17.942778,54.125026,202.28              17.942708,54.125023,201.1              17.942567,54.125018,199.51              17.942483,54.125013,198.21              17.942438,54.125011,198.08              17.94235,54.125005,197.89              17.942258,54.124996,197.58              17.942211,54.124991,197.53              17.942115,54.124978,197.31              17.942068,54.12497,197.57              17.941981,54.124959,197.85              17.941898,54.124953,198.64              17.941821,54.124943,199.28              17.941747,54.124929,199.16              17.941645,54.124901,198.51              17.941578,54.124875,198.23              17.941514,54.124839,198.62              17.941457,54.1248,199              17.941414,54.124755,198.69              17.941388,54.124684,198.22              17.941402,54.124611,197.67              17.94143,54.124567,198.06              17.941504,54.12449,196.97              17.941562,54.124442,196.4              17.941601,54.124408,195.96              17.941639,54.124373,195.58              17.941679,54.124334,195.52              17.941714,54.124291,195.32              17.941744,54.124242,195.52              17.941759,54.124191,195.64              17.941755,54.12414,195.81              17.941751,54.124117,195.82              17.941718,54.124075,195.48              17.941677,54.124035,194.53              17.941645,54.123999,194.45              17.94161,54.123941,195.04              17.941573,54.123883,195.64              17.941545,54.123846,196.26              17.941516,54.123808,196.36              17.941485,54.12377,196.77              17.941408,54.123702,197.08              17.941337,54.123644,196.95              17.941313,54.123622,196.64              17.941263,54.123582,196.91              17.941235,54.123562,196.88              17.941155,54.123503,196.47              17.941128,54.123482,196.45              17.941075,54.123443,196.09              17.941021,54.123404,196.2              17.940996,54.123385,196.09              17.940968,54.123367,196.03              17.94091,54.123331,196.12              17.940881,54.123312,196.26              17.940789,54.123258,196.29              17.940688,54.12321,196.05              17.94065,54.123194,196.04              17.940494,54.123136,195.95              17.940405,54.123115,196.09              17.940366,54.123107,196.26              17.940283,54.123096,196.1              17.940206,54.123088,196.15              17.94009,54.123071,196.38              17.939982,54.123055,196.81              17.939912,54.123046,197.52              17.939799,54.123029,198.22              17.939725,54.123017,198.76              17.939685,54.12301,199.21              17.939647,54.123004,199.52              17.939568,54.122989,200.16              17.93946,54.122968,200.76              17.939382,54.122953,201.1              17.939346,54.122945,201.46              17.939308,54.122937,201.72              17.939227,54.122924,202.44              17.939186,54.122918,202.69              17.939113,54.122909,202.99              17.939004,54.122904,203.17              17.938859,54.122912,204.19              17.938711,54.122937,204.91              17.938673,54.122944,204.83              17.9386,54.122957,204.52              17.938515,54.12297,204              17.938467,54.122976,203.88              17.938373,54.122979,203.53              17.938278,54.122966,203.54              17.938195,54.122936,203.17              17.938137,54.122898,202.92              17.938091,54.122854,201.58              17.938069,54.122833,201.3              17.938027,54.122795,200.44              17.937948,54.122746,199.25              17.937919,54.122731,199              17.937863,54.122702,198.38              17.937813,54.122677,198.04              17.937724,54.122646,197.24              17.93765,54.122624,196.2              17.937603,54.12261,195.39              17.937508,54.122581,195.37              17.93746,54.122566,195.82              17.937408,54.122551,196.32              17.937352,54.122533,196.88              17.937289,54.122506,197.45              17.937228,54.12248,197.83              17.937194,54.122466,197.99              17.937131,54.122439,198.77              17.937098,54.122424,199.13              17.93703,54.122392,200.07              17.936998,54.122377,200.59              17.936932,54.122344,201.3              17.93687,54.12231,201.82              17.936839,54.122292,201.95              17.93678,54.122259,201.65              17.93675,54.122242,201.77              17.936694,54.122206,202.24              17.936647,54.122175,202.76              17.936583,54.122128,203.36              17.936497,54.122063,204.93              17.936453,54.122026,205.62              17.936409,54.121988,206.25              17.936385,54.121966,206.74              17.936339,54.121923,207.92              17.936287,54.121877,208.78              17.936241,54.12183,209.64              17.936217,54.121807,209.72              17.936176,54.121762,210.14              17.936142,54.121715,210.68              17.936112,54.12167,210.66              17.936099,54.121644,210.89              17.936075,54.121592,210.93              17.936065,54.121568,210.96              17.936052,54.121517,211.29              17.936047,54.121494,211.94              17.936041,54.121446,212.59              17.936042,54.121399,213.61              17.936043,54.121338,214.08              17.936047,54.121303,213.86              17.936053,54.121267,213.96              17.936075,54.121213,214.42              17.936113,54.121154,213.92              17.936188,54.12108,213.48              17.936257,54.121029,213.26              17.936311,54.120995,213.17              17.936362,54.120962,213.47              17.936389,54.120945,213.99              17.936436,54.120911,213.93              17.936485,54.120878,213.44              17.936531,54.120841,212.29              17.936582,54.1208,211.6              17.936604,54.120781,211.52              17.936626,54.120761,211.5              17.936667,54.120718,211.22              17.936684,54.120695,210.92              17.936716,54.120654,210.25              17.93673,54.120632,210.17              17.936755,54.120592,210              17.936769,54.12057,209.72              17.936794,54.120525,209.74              17.936816,54.12048,209.5              17.936826,54.120456,209.21              17.936837,54.120434,209.26              17.936876,54.120368,209.75              17.936871,54.12032,212.27              17.936888,54.120274,212.12              17.936931,54.120206,213.18              17.936948,54.120172,212.54              17.936969,54.120111,212.11              17.93699,54.120036,211.65              17.936999,54.12,211.56              17.937009,54.119963,212.95              17.937036,54.119913,213.41              17.937059,54.119826,213.46              17.937083,54.119776,212.93              17.937118,54.119719,211.83              17.937153,54.11964,210.31              17.937198,54.119545,208.93              17.937208,54.119498,208.99              17.937241,54.119439,210.84              17.937251,54.119415,212.13              17.937295,54.119446,212.32              17.937243,54.119591,211.73              17.937231,54.119631,210.84              17.937215,54.119671,210              17.937191,54.119714,209.5              17.937206,54.119782,208.82              17.9372,54.119847,208.36              17.937163,54.119937,207.81              17.937132,54.119995,207.56              17.937098,54.120051,207.35              17.937066,54.120102,207.61              17.937039,54.12015,207.81              17.937016,54.120197,208.16              17.936981,54.12026,208.85              17.936957,54.120301,209.09              17.936945,54.120323,209.08              17.936921,54.120369,208.54              17.93691,54.12039,208.13              17.936899,54.120413,208.18              17.93688,54.120462,208.55              17.936868,54.120487,208.61              17.936846,54.120535,208.77              17.936818,54.120582,208.79              17.936769,54.120654,209.1              17.936731,54.120699,209.42              17.936709,54.12072,209.6              17.936667,54.120764,209.73              17.936646,54.120785,209.62              17.936626,54.120805,209.41              17.936582,54.120844,209.16              17.936557,54.120863,209.1              17.936459,54.120938,209.13              17.936388,54.121,209.62              17.936364,54.121024,209.94              17.93634,54.121049,210.41              17.936318,54.121072,210.74              17.936268,54.121122,211.06              17.936246,54.12115,210.96              17.936209,54.121206,210.78              17.936193,54.121235,210.46              17.936169,54.121289,210.19              17.936153,54.12134,209.77              17.936139,54.121392,209.33              17.936133,54.121416,209.14              17.936129,54.121464,208.6              17.936134,54.121511,208.22              17.93615,54.121575,208.08              17.936158,54.121598,208.16              17.936176,54.121648,208.05              17.936185,54.121673,207.79              17.936196,54.121699,207.83              17.93622,54.12175,207.86              17.936254,54.121803,208.3              17.93629,54.121853,209.26              17.936333,54.121898,210.03              17.936397,54.121957,210.4              17.93642,54.121977,210.8              17.936469,54.122015,211.38              17.936567,54.122096,212.63              17.936623,54.122136,213.11              17.936678,54.122173,213.61              17.936707,54.12219,213.65              17.936737,54.122207,213.86              17.936796,54.122241,214.04              17.936879,54.122286,213.42              17.936934,54.122316,213.18              17.936965,54.122331,212.89              17.937031,54.122365,212.51              17.937096,54.1224,212.49              17.937168,54.122441,212.32              17.937243,54.122482,212.09              17.937281,54.1225,212.04              17.937321,54.122519,212.09              17.937397,54.12255,212.08              17.937438,54.122564,212.34              17.937479,54.122577,212.31              17.937558,54.122599,212.38              17.93764,54.122617,212.42              17.937725,54.122637,212.11              17.937764,54.122645,212.21              17.937869,54.122673,212.51              17.937904,54.122683,212.24              17.93794,54.122695,212.34              17.938008,54.122724,212.36              17.938068,54.122757,212.31              17.938139,54.12281,211.64              17.938181,54.12287,208.56              17.938199,54.122916,206.05              17.93821,54.122991,203.94              17.938213,54.123017,203.98              17.938215,54.123066,203.94              17.938216,54.123091,203.94              17.938214,54.123115,203.87              17.938213,54.123162,203.61              17.938214,54.123186,203.8              17.938214,54.123209,203.82              17.938227,54.123276,203.39              17.93824,54.123321,202.96              17.93826,54.123365,202.62              17.938283,54.123415,202.16              17.938296,54.12344,201.98              17.938307,54.123464,201.4              17.93833,54.123513,201.22              17.938355,54.123565,201.31              17.93838,54.123614,201.02              17.938413,54.123664,201.22              17.938439,54.123717,201.63              17.938449,54.123743,201.81              17.938467,54.123798,202.35              17.938485,54.12385,202.63              17.938496,54.123875,202.78              17.938512,54.123926,202.7              17.938519,54.123951,202.59              17.938523,54.123975,202.72              17.93853,54.123998,202.57              17.938543,54.12404,202.73              17.93855,54.12408,203.2              17.93856,54.124122,203.5              17.938565,54.124145,203.54              17.938576,54.124212,204.12              17.93859,54.124258,204.41              17.93863,54.124326,205.16              17.938662,54.124372,206.11              17.938694,54.124417,206.35              17.938712,54.124438,206.61              17.938748,54.124484,206.82              17.93878,54.124531,207.15              17.938808,54.12458,206.91              17.938823,54.124604,206.78              17.938847,54.124653,206.62              17.938853,54.124704,206.81              17.938855,54.124752,206.69              17.938851,54.124801,206.56              17.938851,54.124826,206.23              17.938849,54.124872,205.37              17.938846,54.124896,205.21              17.938841,54.12492,205              17.938836,54.124943,204.33              17.938805,54.12503,202.65              17.938797,54.125053,202.21              17.93878,54.125095,201.51              17.938765,54.12514,201.39              17.938758,54.125163,201.38              17.938748,54.125205,201.06              17.938743,54.125274,200              17.938742,54.12532,199.63              17.938743,54.125344,199.39              17.938746,54.125391,198.6              17.938758,54.125461,197.34              17.938764,54.125484,197.18              17.938771,54.125508,197.16              17.938784,54.125553,196.92              17.93881,54.125649,196.92              17.938817,54.125674,197.02              17.938838,54.125744,197.14              17.938862,54.125813,197.09              17.938887,54.125877,195.99              17.938898,54.1259,195.62              17.93891,54.125922,195              17.938947,54.125988,193.53              17.938958,54.126011,193.14              17.938968,54.126034,192.82              17.93899,54.126079,192.26              17.938999,54.126104,192.18              17.939007,54.126128,191.92              17.939014,54.126152,192              17.939023,54.126178,192.19              17.939033,54.126205,192.22              17.939041,54.126232,192.44              17.939048,54.126257,192.71              17.939068,54.126337,193.89              17.939084,54.126385,193.89              17.939092,54.126407,193.81              17.939111,54.126452,193.66              17.939138,54.126515,193.31              17.939155,54.126559,193.26              17.939174,54.1266,193.54              17.939189,54.126641,193.76              17.93922,54.126728,194.37              17.939227,54.126751,194.59              17.939235,54.126801,194.73              17.939239,54.126849,194.06              17.939243,54.126901,193.4              17.939241,54.126928,193.19              17.939234,54.126977,192.84              17.939229,54.127003,192.74              17.939214,54.127054,192              17.939207,54.127077,191.72              17.939197,54.1271,191.35              17.939184,54.127145,191.13              17.939163,54.12719,190.24              17.939141,54.12724,190.36              17.93913,54.127263,190.29              17.939109,54.127313,190.91              17.939101,54.127339,191.28              17.939095,54.127389,191.94              17.939109,54.127464,193.45              17.939128,54.127515,194.01              17.939151,54.127589,194.2              17.939161,54.12764,194.36              17.939169,54.127693,194.64              17.93916,54.127774,194.21              17.939154,54.127799,194.08              17.939149,54.127825,193.56              17.939144,54.127851,193.28              17.939136,54.1279,193.01              17.93913,54.127953,192.94              17.939127,54.127981,192.96              17.939122,54.128038,193.28              17.93912,54.128066,193.48              17.939119,54.128096,193.65              17.939122,54.128125,193.68              17.939123,54.128154,193.57              17.939125,54.128181,193.42              17.939126,54.128209,193.13              17.939131,54.128265,193.07              17.939141,54.128319,192.9              17.939154,54.128371,192.88              17.939196,54.128445,193.46              17.939243,54.128487,193.85              17.939299,54.12852,193.91              17.939372,54.128548,195.8              17.939449,54.128571,195.71              17.93957,54.128596,194.94              17.93965,54.12861,193.8              17.939689,54.128616,193.3              17.939729,54.128623,192.78              17.939768,54.128632,192.26              17.939807,54.12864,191.88              17.93988,54.128655,191.29              17.939988,54.12868,191.47              17.940063,54.128698,191.97              17.940102,54.128707,191.83              17.940141,54.128717,191.82              17.94018,54.128727,191.76              17.940217,54.128735,191.7              17.940254,54.128743,191.72              17.940292,54.128752,191.69              17.940331,54.128761,191.74              17.94037,54.128769,191.73              17.940442,54.128785,191.34              17.940479,54.128794,191.23              17.940516,54.128803,191.2              17.940554,54.128813,191.44              17.940623,54.128831,191.56              17.94066,54.128841,191.45              17.940697,54.12885,191.34              17.940734,54.12886,191.42              17.940803,54.128878,191.49              17.940875,54.128897,191.76              17.940979,54.128925,191.75              17.941015,54.128936,191.58              17.941116,54.128971,191.3              17.941187,54.129,190.93              17.941222,54.129017,190.71              17.941289,54.129052,190.69              17.941359,54.129087,190.8              17.941396,54.129104,190.98              17.941468,54.129139,190.92              17.941504,54.129157,190.89              17.941542,54.129174,191.11              17.941581,54.12919,191.25              17.941691,54.129228,192.03              17.941798,54.129256,192.7              17.941933,54.129279,193.98              17.942078,54.129286,195.78              17.942179,54.129284,196.18              17.94233,54.12927,197.13              17.942406,54.12926,198.23              17.942529,54.129244,199.41              17.942574,54.129239,199.47              17.942661,54.129232,200.02              17.942751,54.12923,200.28              17.942795,54.12923,200.24              17.94284,54.12923,200.21              17.942964,54.12924,200.44              17.94304,54.12925,200.21              17.943112,54.129263,199.62              17.943178,54.129275,198.98              17.943277,54.129297,197.82              17.943385,54.129326,197.26              17.943461,54.129347,197.1              17.943502,54.129358,196.87              17.943582,54.12938,196.76              17.943668,54.129404,196.96              17.943748,54.129427,197.51              17.943827,54.12945,198.18              17.943903,54.129473,198.54              17.94397,54.129492,199.05              17.944037,54.129511,199.64              17.944107,54.129532,200.13              17.944144,54.129543,200.65              17.944216,54.129569,201.61              17.944289,54.129599,202.72              17.944326,54.129616,202.98              17.944395,54.12965,203.24              17.944429,54.129666,203.44              17.944463,54.129682,203.58              17.944498,54.129697,203.61              17.944563,54.129728,204.05              17.94466,54.129772,205.01              17.944729,54.129803,205.42              17.944799,54.129834,205.48              17.944836,54.129849,205.71              17.944874,54.129864,205.83              17.944914,54.129879,205.76              17.945028,54.129917,205.37              17.945147,54.129942,205.46              17.945255,54.129951,205.26              17.945332,54.129951,204.9              17.94548,54.129938,204.95              17.945552,54.129931,205.34              17.945621,54.129927,205.4              17.945727,54.129925,204.69              17.945836,54.129935,204.24              17.945875,54.12994,203.82              17.945949,54.129952,203.6              17.946027,54.129966,203.5              17.946068,54.129973,203.56              17.946106,54.129979,202.88              17.946146,54.129985,202.79              17.946228,54.129995,201.61              17.946271,54.129999,201.54              17.946364,54.130006,201.27              17.94646,54.130014,201.1              17.946557,54.13002,200.76              17.946605,54.130022,200.62              17.946698,54.130026,199.78              17.946743,54.130029,199.38              17.946832,54.130037,198.46              17.946916,54.130044,197.04              17.946999,54.130051,195.91              17.947085,54.130065,195.21              17.947126,54.130073,194.9              17.947253,54.130105,193.95              17.947334,54.13013,193.95              17.947372,54.130143,193.8              17.947449,54.130171,194.04              17.947526,54.130199,194.39              17.947602,54.130228,194.69              17.947639,54.130245,194.66              17.947712,54.130274,194.23              17.947834,54.130306,195.33              17.94792,54.130326,196.46              17.948006,54.130342,197.32              17.948048,54.130348,197.61              17.948089,54.130353,197.41              17.948158,54.130362,197.22              17.948259,54.13037,197.01              17.948358,54.130375,197.47              17.948493,54.130379,197.94              17.948574,54.130381,198.2              17.948617,54.130382,198.29              17.948659,54.130382,198.59              17.948703,54.130381,198.83              17.948748,54.130381,198.98              17.948882,54.130376,199.05              17.948924,54.130374,198.88              17.948967,54.130371,198.79              17.949009,54.13037,198.95              17.949091,54.130368,199.5              17.949178,54.130366,200.09              17.949223,54.130366,200.55              17.949313,54.130368,200.86              17.949358,54.130368,201.18              17.949446,54.13037,201.63              17.94953,54.130375,202.25              17.949572,54.130377,202.28              17.949651,54.130379,203.01              17.949732,54.130378,203.58              17.949819,54.130376,204.09              17.9499,54.130375,204.69              17.94994,54.130373,204.99              17.95002,54.130373,205.55              17.95009,54.130372,205.29              17.950191,54.130369,204.6              17.950263,54.130368,204.74              17.950334,54.130366,204.96              17.950449,54.130361,204.86              17.950532,54.130357,204.24              17.950611,54.130353,204.05              17.95069,54.13035,203.73              17.950731,54.130348,203.58              17.95081,54.130344,202.88              17.950889,54.130338,202.24              17.950978,54.13033,202.05              17.951064,54.130324,201.53              17.951151,54.130317,201.24              17.951194,54.130313,201.42              17.951239,54.13031,201.69              17.951327,54.1303,202.29              17.951453,54.130295,203.54              17.951538,54.130293,204.21              17.951576,54.130293,204.58              17.951659,54.130295,205.28              17.951702,54.130297,205.74              17.95179,54.130304,206.68              17.951835,54.13031,207.36              17.951929,54.130322,209.24              17.951976,54.130327,209.94              17.952061,54.130339,211.82              17.952103,54.130347,212.27              17.952188,54.130366,212.88              17.952265,54.130384,212.99              17.952387,54.130414,212.35              17.952464,54.130434,211.55              17.952552,54.130453,210.49              17.952639,54.130471,209.69              17.952729,54.130487,209.12              17.952822,54.130503,208.96              17.952866,54.13051,208.89              17.952911,54.130517,208.91              17.953007,54.130528,209.05              17.9531,54.130539,209.21              17.953193,54.130548,209.32              17.953241,54.130553,209.43              17.953334,54.130558,209.84              17.953423,54.130559,210.34              17.953468,54.130561,210.51              17.953594,54.130564,210.73              17.953678,54.130566,210.18              17.953761,54.130569,210.32              17.953942,54.130573,210.91              17.953984,54.130574,210.94              17.954027,54.130575,210.9              17.954112,54.130574,210.6              17.954198,54.130571,210.36              17.954321,54.13057,210.32              17.954395,54.130573,210.62              17.954462,54.130578,210.14              17.954553,54.130594,209.64              17.954637,54.130606,209.73              17.954748,54.130633,210.49              17.954834,54.13067,211.02              17.954917,54.130719,211.89              17.954959,54.130763,212.06              17.95498,54.130782,212.19              17.955036,54.130816,212.49              17.955084,54.130851,212.47              17.955148,54.130908,212.36              17.955187,54.130937,211.9              17.955254,54.130978,211.36              17.955328,54.131014,211.92              17.955422,54.131049,213.7              17.955502,54.131066,214.47              17.955539,54.131073,214.74              17.955579,54.131078,214.92              17.95566,54.131086,214.81              17.955738,54.131087,214.27              17.955815,54.131083,213.98              17.95589,54.131075,212.7              17.955992,54.131058,211.6              17.956093,54.131029,209.93              17.956211,54.131,207.95              17.956253,54.13099,207.58              17.956296,54.130977,207.36              17.956388,54.130952,206.48              17.956432,54.130941,206.18              17.956518,54.130918,205.45              17.956634,54.130882,204.83              17.956669,54.130869,204.38              17.956737,54.130847,204.08              17.956793,54.130829,203.85              17.956844,54.130812,203.72              17.956931,54.130781,203.13              17.95701,54.130755,202.08              17.957066,54.130737,201.56              17.957127,54.130718,200.84              17.957163,54.130708,200.21              17.957265,54.130673,198.99              17.957293,54.130588,198.97              17.957292,54.130535,200.21              17.957364,54.130491,203.86              17.957409,54.130418,208.24              17.957429,54.130389,208.75              17.957442,54.130342,209.13              17.957472,54.130296,208.51              17.957487,54.130273,208.34            </coordinates></LineString></MultiGeometry></Placemark><Placemark><name>Start/Finish</name><styleUrl>#icon-1899-FFEA00-nodesc</styleUrl><Point><coordinates>            17.957431,54.130322,0          </coordinates></Point></Placemark></Folder></Document></kml>