<?xml version="1.0" encoding="UTF-8"?><kml xmlns="http://www.opengis.net/kml/2.2"><Document><name>parkrun Świdwin</name><description/><Style id="icon-1899-0F9D58-nodesc-normal"><IconStyle><color>ff589d0f</color><scale>1</scale><Icon><href>https://www.gstatic.com/mapspro/images/stock/503-wht-blank_maps.png</href></Icon><hotSpot x="32" xunits="pixels" y="64" yunits="insetPixels"/></IconStyle><LabelStyle><scale>0</scale></LabelStyle><BalloonStyle><text><![CDATA[<h3>$[name]</h3>]]></text></BalloonStyle></Style><Style id="icon-1899-0F9D58-nodesc-highlight"><IconStyle><color>ff589d0f</color><scale>1</scale><Icon><href>https://www.gstatic.com/mapspro/images/stock/503-wht-blank_maps.png</href></Icon><hotSpot x="32" xunits="pixels" y="64" yunits="insetPixels"/></IconStyle><LabelStyle><scale>1</scale></LabelStyle><BalloonStyle><text><![CDATA[<h3>$[name]</h3>]]></text></BalloonStyle></Style><StyleMap id="icon-1899-0F9D58-nodesc"><Pair><key>normal</key><styleUrl>#icon-1899-0F9D58-nodesc-normal</styleUrl></Pair><Pair><key>highlight</key><styleUrl>#icon-1899-0F9D58-nodesc-highlight</styleUrl></Pair></StyleMap><Style id="icon-1899-FF5252-nodesc-normal"><IconStyle><color>ff5252ff</color><scale>1</scale><Icon><href>https://www.gstatic.com/mapspro/images/stock/503-wht-blank_maps.png</href></Icon><hotSpot x="32" xunits="pixels" y="64" yunits="insetPixels"/></IconStyle><LabelStyle><scale>0</scale></LabelStyle><BalloonStyle><text><![CDATA[<h3>$[name]</h3>]]></text></BalloonStyle></Style><Style id="icon-1899-FF5252-nodesc-highlight"><IconStyle><color>ff5252ff</color><scale>1</scale><Icon><href>https://www.gstatic.com/mapspro/images/stock/503-wht-blank_maps.png</href></Icon><hotSpot x="32" xunits="pixels" y="64" yunits="insetPixels"/></IconStyle><LabelStyle><scale>1</scale></LabelStyle><BalloonStyle><text><![CDATA[<h3>$[name]</h3>]]></text></BalloonStyle></Style><StyleMap id="icon-1899-FF5252-nodesc"><Pair><key>normal</key><styleUrl>#icon-1899-FF5252-nodesc-normal</styleUrl></Pair><Pair><key>highlight</key><styleUrl>#icon-1899-FF5252-nodesc-highlight</styleUrl></Pair></StyleMap><Style id="line-0288D1-5000-nodesc-normal"><LineStyle><color>ffd18802</color><width>5</width></LineStyle><BalloonStyle><text><![CDATA[<h3>$[name]</h3>]]></text></BalloonStyle></Style><Style id="line-0288D1-5000-nodesc-highlight"><LineStyle><color>ffd18802</color><width>7.5</width></LineStyle><BalloonStyle><text><![CDATA[<h3>$[name]</h3>]]></text></BalloonStyle></Style><StyleMap id="line-0288D1-5000-nodesc"><Pair><key>normal</key><styleUrl>#line-0288D1-5000-nodesc-normal</styleUrl></Pair><Pair><key>highlight</key><styleUrl>#line-0288D1-5000-nodesc-highlight</styleUrl></Pair></StyleMap><Folder><name>Untitled layer</name><Placemark><name>Course</name><styleUrl>#line-0288D1-5000-nodesc</styleUrl><MultiGeometry><LineString><tessellate>1</tessellate><coordinates>              15.7746242545545,53.7659434508532,75.4              15.7746022939682,53.7659461330623,76.4            </coordinates></LineString><LineString><tessellate>1</tessellate><coordinates>              15.7745786570013,53.7659579515457,75.8              15.7745531760156,53.7659707758576,76.4              15.7745234202594,53.7660028785467,76              15.7744644954801,53.7660664971918,76              15.7743714563549,53.7661408446729,76              15.7743341568857,53.7661699298769,76              15.7743132859468,53.7661824189126,76              15.7742938399315,53.7661958299577,76.2              15.7742392737418,53.7662374041975,76.2              15.7742005493492,53.7662605382502,76.2              15.7741743978113,53.766275960952,76.2              15.7741545327008,53.7662915512919,76.2              15.7741229329258,53.7663083150983,76.2              15.774094350636,53.7663265038282,76.2              15.7740614097565,53.7663454469293,76.2              15.7740342523903,53.7663627136499,76.2              15.7740090228617,53.766376208514,76.2              15.7739777583629,53.7663918826729,76.2              15.7739272993058,53.7664222251624,76              15.7738599926233,53.7664788868278,75.8              15.7738310750574,53.7665413320065,76              15.7738557178527,53.7665682379156,76              15.7738921791315,53.7665747758001,76              15.7739231083542,53.7665712554008,76.2              15.7739571388811,53.7665706686676,76.4              15.7740393653512,53.7665619514883,76.6              15.7740566320717,53.7665580958128,76.8              15.7740984577686,53.7665482051671,76.8              15.7743970211595,53.7664741929621,77.2              15.7744522579014,53.7664481252432,77.2              15.7745199836791,53.766426416114,77.6              15.7745835185051,53.7664037849754,77.6              15.7746042218059,53.7663935590535,77.6              15.7746253442019,53.7663828302175,77.6              15.7746556866914,53.7663732748479,77.6              15.77467831783,53.7663645576686,77.8              15.7747455406934,53.7663501407951,77.8              15.7749343011528,53.7663172837347,78              15.7752145081759,53.7663151882589,78.6              15.7752720080316,53.7663242407143,78.6              15.7755988184363,53.7663804832846,79.6              15.7758426479995,53.7663969956338,79.8              15.7759041711688,53.7664270866662,80.8              15.7759014051408,53.76644494012,81.2              15.7759063504636,53.7664839159697,82              15.7758999802172,53.7665013503283,82.2              15.7758998963982,53.7665305193514,82.8              15.7759067695588,53.7665598560125,83              15.7759751658887,53.7666500452906,83.4              15.7762654311955,53.7667110655457,82.6              15.7763627450913,53.7667103111744,82.6              15.7764413673431,53.7667212914676,82.4              15.7765153795481,53.7667392287403,82.4              15.7765163853765,53.7667640391737,82.6              15.7765375077724,53.7667937111109,82.8              15.7765419501811,53.7668248917907,83.2              15.7766105141491,53.7669092137367,84              15.7766399346292,53.7669405620545,84.2              15.7767066545784,53.7669833935797,84.2              15.7768967561424,53.7670957110822,84.2              15.7771577686071,53.7672096211463,84.2              15.7773178629577,53.7672591581941,84.6              15.7774801366031,53.7672947812825,85              15.7775427494198,53.7672839686275,85              15.7775990758091,53.7672730721533,85.2              15.7777730002999,53.7672071065754,84.8              15.7780071906745,53.7670636083931,84.2              15.7781973760575,53.7669414840639,84.2              15.7783134654164,53.766933940351,84.2              15.7785524334759,53.7669539730996,84.6              15.7787992805243,53.7669670488685,85.4              15.7788506615907,53.7669606786221,85.4              15.7790881209075,53.7669253908098,86.2              15.7791557628661,53.7669079564512,86.4              15.77921343036,53.7669018376619,86.4              15.7792709302157,53.7668982334435,86.6              15.7795233093202,53.7668148335069,87.2              15.7795195374638,53.7666555773467,87              15.7792791444808,53.7665207963437,86.6              15.7789896335453,53.7664415873587,86.6              15.7788190618157,53.7664070539176,86.2              15.7786844484508,53.7663942296058,86              15.7783617451787,53.7664143461734,85.6              15.7783137168735,53.7664208002388,85.6              15.7782438956201,53.7664332892746,85.6              15.778185389936,53.7664363905787,85.4              15.7778742536902,53.7664204649627,85.2              15.7776447571814,53.7663933914155,84.4              15.7773678191006,53.766307476908,83.6              15.7771524041891,53.7662406731397,83.4              15.7771210558713,53.7662311177701,83.2              15.7770125102252,53.7662038765848,82.8              15.7767986878753,53.7661737855524,82              15.77657061629,53.7661881186068,81              15.7762506790459,53.7662053015083,80.4              15.776007687673,53.7662012781948,80.4              15.7758207712322,53.7661525793374,80.6              15.7756982278079,53.7661368213594,80.4              15.77547384426,53.7661405932158,80              15.7754379697144,53.7661366537213,80              15.7754159253091,53.766127936542,79.8              15.7754133269191,53.7660177145153,79.4              15.7754497043788,53.7659239210188,79.2              15.775460600853,53.7659056484699,79              15.7755067013204,53.7658550217748,78.8              15.7757984753698,53.7657885532826,78.6              15.7759102899581,53.7657729629427,78.4              15.7760091964155,53.7657318077981,78.6              15.7760427240282,53.7657160498202,78.8              15.776063175872,53.7656860426068,78.6              15.7760643493384,53.7656717095524,78.6              15.7760827895254,53.7656562868506,78.6              15.7760858070105,53.7656399421394,78.6              15.7760932669044,53.7656196579337,78.6              15.7761289738119,53.765554362908,79              15.7761495094746,53.7655348330736,79.2              15.7761811092496,53.7655023112893,79.4              15.7761986274272,53.7654552888125,79.6              15.7762177381665,53.7654128763825,79.4              15.7762175705284,53.7653909996152,79.4              15.7762314006686,53.7653464917094,79.2              15.7762578036636,53.7652247864753,79              15.7762948516756,53.7651584856212,78.8              15.7763106096536,53.7651470024139,78.8              15.7764123659581,53.7650837190449,79              15.7764693628997,53.7650594953448,79.2              15.7766111847013,53.7649388797581,80              15.7766971830279,53.7648426555097,79.8              15.7767483126372,53.7648105528206,79.6              15.7770308665931,53.7647067010403,80              15.7772956509143,53.764597736299,79.4              15.7775772828609,53.7645345367491,79              15.777733605355,53.7644687388092,79              15.7780276425183,53.7643996719271,78.8              15.7782068476081,53.7643565889448,78.6              15.7782660238445,53.7643289286643,78.8              15.7784759066999,53.7642904557288,79              15.778531730175,53.7642860133201,79              15.7787846121937,53.7642534077168,78.6              15.778941353783,53.7642294354737,78.8              15.7790651544929,53.7641705106944,78.8              15.7790520787239,53.7640988454223,78.8              15.7789535913616,53.7640992645174,78.8              15.778904305771,53.7640953250229,78.8              15.7788271922618,53.7641151901335,78.8              15.7788024656475,53.7641203869134,78.8              15.7787785772234,53.7641238234937,78.6              15.7786327321082,53.76415098086,78.8              15.7785726338625,53.7641545850784,78.8              15.7784726377577,53.7641631346196,78.6              15.7781075220555,53.7642309442163,79              15.777878779918,53.7643071357161,79              15.7776164263487,53.7643825728446,79              15.7772995904088,53.764454992488,79.2              15.7771642226726,53.7645013444126,79.2              15.7770793139935,53.7645264901221,79.4              15.7767773140222,53.7646156735718,79.4              15.7765772379935,53.7647661287338,79.6              15.7764800917357,53.7648498639464,79.4              15.7761857192963,53.7649589963257,78.6              15.7761226873845,53.7649828009307,78.6              15.7758302427828,53.7650715652853,78.2              15.7755326014012,53.765165945515,78.2              15.7752698287368,53.765266193077,78.4              15.7750816550106,53.7654263712466,78.4              15.7750032003969,53.7654842063785,78              15.7749808207154,53.7654982041568,77.8              15.7748486381024,53.7656674347818,77.4              15.7746549323201,53.765829205513,77.2              15.774514535442,53.7659934908152,77              15.7743356656283,53.7661557644606,77              15.7741562929004,53.7663192953914,76.8              15.7739745732397,53.7664747796953,76.8              15.7738774269819,53.766569159925,76.8              15.7738443184644,53.7666119914502,76.8            </coordinates></LineString></MultiGeometry></Placemark><Placemark><name>Finish</name><styleUrl>#icon-1899-FF5252-nodesc</styleUrl><Point><coordinates>            15.7738443184644,53.7666119914502,76.8          </coordinates></Point></Placemark><Placemark><name>Start</name><styleUrl>#icon-1899-0F9D58-nodesc</styleUrl><Point><coordinates>            15.7746242545545,53.7659434508532,75.4          </coordinates></Point></Placemark></Folder></Document></kml>