<?xml version="1.0" encoding="UTF-8"?><kml xmlns="http://www.opengis.net/kml/2.2"><Document><name>parkrun Wzniesienie Osowy</name><description/><Style id="icon-1899-0F9D58-nodesc-normal"><IconStyle><color>ff589d0f</color><scale>1</scale><Icon><href>https://www.gstatic.com/mapspro/images/stock/503-wht-blank_maps.png</href></Icon><hotSpot x="32" xunits="pixels" y="64" yunits="insetPixels"/></IconStyle><LabelStyle><scale>0</scale></LabelStyle><BalloonStyle><text><![CDATA[<h3>$[name]</h3>]]></text></BalloonStyle></Style><Style id="icon-1899-0F9D58-nodesc-highlight"><IconStyle><color>ff589d0f</color><scale>1</scale><Icon><href>https://www.gstatic.com/mapspro/images/stock/503-wht-blank_maps.png</href></Icon><hotSpot x="32" xunits="pixels" y="64" yunits="insetPixels"/></IconStyle><LabelStyle><scale>1</scale></LabelStyle><BalloonStyle><text><![CDATA[<h3>$[name]</h3>]]></text></BalloonStyle></Style><StyleMap id="icon-1899-0F9D58-nodesc"><Pair><key>normal</key><styleUrl>#icon-1899-0F9D58-nodesc-normal</styleUrl></Pair><Pair><key>highlight</key><styleUrl>#icon-1899-0F9D58-nodesc-highlight</styleUrl></Pair></StyleMap><Style id="icon-1899-FF5252-nodesc-normal"><IconStyle><color>ff5252ff</color><scale>1</scale><Icon><href>https://www.gstatic.com/mapspro/images/stock/503-wht-blank_maps.png</href></Icon><hotSpot x="32" xunits="pixels" y="64" yunits="insetPixels"/></IconStyle><LabelStyle><scale>0</scale></LabelStyle><BalloonStyle><text><![CDATA[<h3>$[name]</h3>]]></text></BalloonStyle></Style><Style id="icon-1899-FF5252-nodesc-highlight"><IconStyle><color>ff5252ff</color><scale>1</scale><Icon><href>https://www.gstatic.com/mapspro/images/stock/503-wht-blank_maps.png</href></Icon><hotSpot x="32" xunits="pixels" y="64" yunits="insetPixels"/></IconStyle><LabelStyle><scale>1</scale></LabelStyle><BalloonStyle><text><![CDATA[<h3>$[name]</h3>]]></text></BalloonStyle></Style><StyleMap id="icon-1899-FF5252-nodesc"><Pair><key>normal</key><styleUrl>#icon-1899-FF5252-nodesc-normal</styleUrl></Pair><Pair><key>highlight</key><styleUrl>#icon-1899-FF5252-nodesc-highlight</styleUrl></Pair></StyleMap><Style id="line-0288D1-5456-nodesc-normal"><LineStyle><color>ffd18802</color><width>5.456</width></LineStyle><BalloonStyle><text><![CDATA[<h3>$[name]</h3>]]></text></BalloonStyle></Style><Style id="line-0288D1-5456-nodesc-highlight"><LineStyle><color>ffd18802</color><width>8.184</width></LineStyle><BalloonStyle><text><![CDATA[<h3>$[name]</h3>]]></text></BalloonStyle></Style><StyleMap id="line-0288D1-5456-nodesc"><Pair><key>normal</key><styleUrl>#line-0288D1-5456-nodesc-normal</styleUrl></Pair><Pair><key>highlight</key><styleUrl>#line-0288D1-5456-nodesc-highlight</styleUrl></Pair></StyleMap><Folder><name>Untitled layer</name><Placemark><name>Course</name><styleUrl>#line-0288D1-5456-nodesc</styleUrl><LineString><tessellate>1</tessellate><coordinates>            18.469802,54.435453,0            18.47095,54.43549,0            18.471829,54.435521,0            18.472645,54.435552,0            18.473267,54.435627,0            18.473954,54.435715,0            18.474619,54.435814,0            18.475048,54.435864,0            18.475327,54.435952,0            18.475638,54.43612,0            18.475971,54.436401,0            18.476271,54.436657,0            18.476454,54.436938,0            18.476657,54.437243,0            18.476861,54.437524,0            18.477044,54.437699,0            18.47728,54.437824,0            18.477537,54.437905,0            18.477977,54.438011,0            18.478503,54.438117,0            18.479172,54.438227,0            18.479982,54.438299,0            18.480594,54.438355,0            18.481506,54.438374,0            18.48253,54.438396,0            18.482858,54.438436,0            18.483104,54.438502,0            18.483383,54.438605,0            18.48297,54.438845,0            18.482798,54.439023,0            18.481516,54.440233,0            18.481364,54.440363,0            18.481262,54.440428,0            18.481154,54.440483,0            18.481068,54.440511,0            18.480948,54.440547,0            18.480768,54.440572,0            18.480524,54.440597,0            18.480256,54.44062,0            18.480071,54.440639,0            18.479835,54.440672,0            18.479674,54.440698,0            18.479357,54.440768,0            18.478667,54.440885,0            18.478382,54.440925,0            18.478077,54.440938,0            18.47784,54.440928,0            18.477642,54.440882,0            18.477444,54.440807,0            18.47709,54.44066,0            18.476918,54.44056,0            18.476644,54.440326,0            18.476499,54.440114,0            18.476306,54.439902,0            18.476199,54.439827,0            18.476097,54.439784,0            18.476006,54.439768,0            18.47584,54.439737,0            18.475448,54.439718,0            18.475362,54.439702,0            18.474772,54.439522,0            18.474643,54.439484,0            18.474493,54.439494,0            18.474016,54.43949,0            18.47364,54.43949,0            18.471908,54.439662,0            18.471135,54.439724,0            18.470954,54.439465,0            18.47067,54.439206,0            18.47037,54.438956,0            18.46993,54.438541,0            18.469318,54.437927,0            18.469114,54.437646,0            18.469079,54.437505,0            18.469122,54.437364,0            18.469175,54.437205,0            18.469422,54.436712,0            18.469531,54.436508,0            18.469751,54.436236,0            18.469939,54.43598,0            18.47003,54.435818,0            18.469987,54.435678,0            18.469934,54.435594,0            18.469806,54.435458,0          </coordinates></LineString></Placemark><Placemark><name>Meta</name><styleUrl>#icon-1899-FF5252-nodesc</styleUrl><Point><coordinates>            18.470048,54.435463,0          </coordinates></Point></Placemark><Placemark><name>Start</name><styleUrl>#icon-1899-0F9D58-nodesc</styleUrl><Point><coordinates>            18.472527,54.435551,0          </coordinates></Point></Placemark></Folder></Document></kml>