<?xml version="1.0" encoding="UTF-8"?><kml xmlns="http://www.opengis.net/kml/2.2"><Document><name>parkrun Jabłonna (from May 2024)</name><description/><Style id="icon-503-62AF44-nodesc-normal"><IconStyle><color>ff44af62</color><scale>1.1</scale><Icon><href>https://www.gstatic.com/mapspro/images/stock/503-wht-blank_maps.png</href></Icon><hotSpot x="16" xunits="pixels" y="32" yunits="insetPixels"/></IconStyle><LabelStyle><scale>0</scale></LabelStyle><BalloonStyle><text><![CDATA[<h3>$[name]</h3>]]></text></BalloonStyle></Style><Style id="icon-503-62AF44-nodesc-highlight"><IconStyle><color>ff44af62</color><scale>1.1</scale><Icon><href>https://www.gstatic.com/mapspro/images/stock/503-wht-blank_maps.png</href></Icon><hotSpot x="16" xunits="pixels" y="32" yunits="insetPixels"/></IconStyle><LabelStyle><scale>1.1</scale></LabelStyle><BalloonStyle><text><![CDATA[<h3>$[name]</h3>]]></text></BalloonStyle></Style><StyleMap id="icon-503-62AF44-nodesc"><Pair><key>normal</key><styleUrl>#icon-503-62AF44-nodesc-normal</styleUrl></Pair><Pair><key>highlight</key><styleUrl>#icon-503-62AF44-nodesc-highlight</styleUrl></Pair></StyleMap><Style id="icon-503-DB4436-nodesc-normal"><IconStyle><color>ff3644db</color><scale>1.1</scale><Icon><href>https://www.gstatic.com/mapspro/images/stock/503-wht-blank_maps.png</href></Icon><hotSpot x="16" xunits="pixels" y="32" yunits="insetPixels"/></IconStyle><LabelStyle><scale>0</scale></LabelStyle><BalloonStyle><text><![CDATA[<h3>$[name]</h3>]]></text></BalloonStyle></Style><Style id="icon-503-DB4436-nodesc-highlight"><IconStyle><color>ff3644db</color><scale>1.1</scale><Icon><href>https://www.gstatic.com/mapspro/images/stock/503-wht-blank_maps.png</href></Icon><hotSpot x="16" xunits="pixels" y="32" yunits="insetPixels"/></IconStyle><LabelStyle><scale>1.1</scale></LabelStyle><BalloonStyle><text><![CDATA[<h3>$[name]</h3>]]></text></BalloonStyle></Style><StyleMap id="icon-503-DB4436-nodesc"><Pair><key>normal</key><styleUrl>#icon-503-DB4436-nodesc-normal</styleUrl></Pair><Pair><key>highlight</key><styleUrl>#icon-503-DB4436-nodesc-highlight</styleUrl></Pair></StyleMap><Style id="poly-0288D1-4000-0-nodesc-normal"><LineStyle><color>ffd18802</color><width>4</width></LineStyle><PolyStyle><color>00d18802</color><fill>1</fill><outline>1</outline></PolyStyle><BalloonStyle><text><![CDATA[<h3>$[name]</h3>]]></text></BalloonStyle></Style><Style id="poly-0288D1-4000-0-nodesc-highlight"><LineStyle><color>ffd18802</color><width>6</width></LineStyle><PolyStyle><color>00d18802</color><fill>1</fill><outline>1</outline></PolyStyle><BalloonStyle><text><![CDATA[<h3>$[name]</h3>]]></text></BalloonStyle></Style><StyleMap id="poly-0288D1-4000-0-nodesc"><Pair><key>normal</key><styleUrl>#poly-0288D1-4000-0-nodesc-normal</styleUrl></Pair><Pair><key>highlight</key><styleUrl>#poly-0288D1-4000-0-nodesc-highlight</styleUrl></Pair></StyleMap><Folder><name>Untitled layer</name><Placemark><name>Trasa</name><styleUrl>#poly-0288D1-4000-0-nodesc</styleUrl><Polygon><outerBoundaryIs><LinearRing><tessellate>1</tessellate><coordinates>                20.914536,52.374551,0                20.912647,52.373005,0                20.913034,52.372756,0                20.913334,52.372508,0                20.913527,52.372259,0                20.914643,52.371905,0                20.917196,52.371368,0                20.917475,52.371473,0                20.91696,52.372075,0                20.916939,52.372311,0                20.917003,52.372494,0                20.917947,52.373058,0                20.918848,52.372626,0                20.919128,52.372874,0                20.919578,52.373097,0                20.920243,52.373372,0                20.92093,52.373621,0                20.920479,52.373778,0                20.919149,52.37408,0                20.917089,52.374381,0                20.917003,52.37349,0                20.914536,52.374551,0              </coordinates></LinearRing></outerBoundaryIs></Polygon></Placemark><Placemark><name>Start</name><styleUrl>#icon-503-62AF44-nodesc</styleUrl><Point><coordinates>            20.913887,52.37402,0          </coordinates></Point></Placemark><Placemark><name>Meta</name><styleUrl>#icon-503-DB4436-nodesc</styleUrl><Point><coordinates>            20.916322,52.373778,0          </coordinates></Point></Placemark></Folder></Document></kml>