<?xml version="1.0" encoding="UTF-8"?><kml xmlns="http://www.opengis.net/kml/2.2"><Document><name>Warszawa-Brodno parkrun Temporary Course (from May 2024)</name><description/><Style id="icon-1899-FFEA00-nodesc-normal"><IconStyle><color>ff00eaff</color><scale>1</scale><Icon><href>https://www.gstatic.com/mapspro/images/stock/503-wht-blank_maps.png</href></Icon><hotSpot x="32" xunits="pixels" y="64" yunits="insetPixels"/></IconStyle><LabelStyle><scale>0</scale></LabelStyle><BalloonStyle><text><![CDATA[<h3>$[name]</h3>]]></text></BalloonStyle></Style><Style id="icon-1899-FFEA00-nodesc-highlight"><IconStyle><color>ff00eaff</color><scale>1</scale><Icon><href>https://www.gstatic.com/mapspro/images/stock/503-wht-blank_maps.png</href></Icon><hotSpot x="32" xunits="pixels" y="64" yunits="insetPixels"/></IconStyle><LabelStyle><scale>1</scale></LabelStyle><BalloonStyle><text><![CDATA[<h3>$[name]</h3>]]></text></BalloonStyle></Style><StyleMap id="icon-1899-FFEA00-nodesc"><Pair><key>normal</key><styleUrl>#icon-1899-FFEA00-nodesc-normal</styleUrl></Pair><Pair><key>highlight</key><styleUrl>#icon-1899-FFEA00-nodesc-highlight</styleUrl></Pair></StyleMap><Style id="line-0288D1-3906-nodesc-normal"><LineStyle><color>ffd18802</color><width>3.906</width></LineStyle><BalloonStyle><text><![CDATA[<h3>$[name]</h3>]]></text></BalloonStyle></Style><Style id="line-0288D1-3906-nodesc-highlight"><LineStyle><color>ffd18802</color><width>5.859</width></LineStyle><BalloonStyle><text><![CDATA[<h3>$[name]</h3>]]></text></BalloonStyle></Style><StyleMap id="line-0288D1-3906-nodesc"><Pair><key>normal</key><styleUrl>#line-0288D1-3906-nodesc-normal</styleUrl></Pair><Pair><key>highlight</key><styleUrl>#line-0288D1-3906-nodesc-highlight</styleUrl></Pair></StyleMap><Folder><name>Trasa od Droga bez nazwy, Warszawa, Polska do Droga bez nazwy, Warszawa, Polska</name><Placemark><name>Course</name><styleUrl>#line-0288D1-3906-nodesc</styleUrl><LineString><tessellate>1</tessellate><coordinates>            21.03596,52.29033,0            21.03599,52.2907,0            21.03605,52.29072,0            21.03609,52.29074,0            21.03612,52.29075,0            21.03615,52.29075,0            21.03618,52.29076,0            21.03624,52.29077,0            21.03634,52.29078,0            21.03638,52.29079,0            21.03642,52.29079,0            21.03649,52.2908,0            21.03659,52.29081,0            21.03682,52.29083,0            21.03704,52.29084,0            21.03712,52.29085,0            21.03718,52.29086,0            21.03727,52.29087,0            21.03732,52.29087,0            21.03736,52.29088,0            21.03741,52.29089,0            21.03747,52.2909,0            21.03753,52.29091,0            21.03767,52.29095,0            21.0378,52.29099,0            21.03785,52.291,0            21.03788,52.29101,0            21.03791,52.29102,0            21.03805,52.29107,0            21.03814,52.29109,0            21.03817,52.2911,0            21.03819,52.29112,0            21.03825,52.29111,0            21.03829,52.29111,0            21.03832,52.29112,0            21.03837,52.29112,0            21.03843,52.29114,0            21.03852,52.29116,0            21.03857,52.29118,0            21.03863,52.2912,0            21.03869,52.29123,0            21.03875,52.29126,0            21.03885,52.2913,0            21.03892,52.29133,0            21.039,52.29136,0            21.03903,52.29137,0            21.03911,52.2914,0            21.03929,52.29145,0            21.03946,52.29148,0            21.03959,52.29151,0            21.03973,52.29155,0            21.03977,52.29156,0            21.03982,52.29156,0            21.03988,52.29156,0            21.03996,52.29156,0            21.03988,52.29165,0            21.03986,52.29168,0            21.03981,52.2917,0            21.03995,52.29177,0            21.03985,52.29181,0            21.03975,52.29198,0            21.03945,52.29201,0            21.03903,52.29204,0            21.03865,52.29208,0            21.03861,52.29208,0            21.0373,52.29219,0            21.03684,52.29223,0            21.03633,52.29227,0            21.03634,52.29229,0            21.03634,52.29232,0            21.03637,52.29246,0            21.03637,52.29249,0            21.03641,52.29269,0            21.03685,52.29266,0            21.037,52.29264,0            21.03722,52.29263,0            21.03826,52.29253,0            21.03833,52.29253,0            21.0387,52.2925,0            21.03913,52.29247,0            21.03952,52.29243,0            21.04087,52.29232,0            21.04124,52.29229,0            21.04133,52.29229,0            21.04136,52.29228,0            21.04127,52.29191,0            21.04124,52.29181,0            21.04121,52.29172,0            21.04118,52.29156,0            21.04115,52.29139,0            21.04111,52.29122,0            21.04105,52.29094,0            21.0408,52.28995,0            21.04073,52.28995,0            21.04033,52.2908,0            21.04013,52.29121,0            21.04001,52.29146,0            21.03996,52.29156,0            21.03988,52.29156,0            21.03982,52.29156,0            21.03977,52.29156,0            21.03973,52.29155,0            21.03959,52.29151,0            21.03946,52.29148,0            21.03929,52.29145,0            21.03911,52.2914,0            21.03903,52.29137,0            21.039,52.29136,0            21.03903,52.29132,0            21.03904,52.29128,0            21.03905,52.29125,0            21.03905,52.29122,0            21.03905,52.29115,0            21.03904,52.29111,0            21.03902,52.29104,0            21.039,52.29101,0            21.03892,52.29094,0            21.03887,52.29089,0            21.0388,52.29083,0            21.03877,52.29078,0            21.03872,52.29068,0            21.0387,52.29057,0            21.0388,52.29051,0            21.03902,52.2904,0            21.03908,52.29041,0            21.0392,52.29042,0            21.03939,52.29043,0            21.03947,52.29041,0            21.03959,52.29039,0            21.03965,52.29038,0            21.0397,52.29038,0            21.03974,52.29036,0            21.03979,52.29035,0            21.03984,52.29033,0            21.03961,52.29011,0            21.03956,52.29007,0            21.03932,52.28989,0            21.03919,52.28981,0            21.03895,52.28968,0            21.03885,52.28962,0            21.0386,52.28951,0            21.03831,52.28939,0            21.03808,52.28932,0            21.03813,52.28925,0            21.03852,52.28861,0            21.03867,52.28837,0            21.03714,52.28848,0            21.03565,52.28861,0            21.03567,52.28874,0            21.03572,52.28878,0            21.0358,52.28879,0            21.03586,52.28881,0            21.03594,52.28882,0            21.03608,52.28885,0            21.0365,52.28894,0            21.03689,52.28903,0            21.03712,52.28908,0            21.03765,52.28921,0            21.03808,52.28932,0            21.03803,52.28937,0            21.03799,52.28941,0            21.03794,52.28945,0            21.03789,52.28947,0            21.03779,52.28951,0            21.03764,52.28956,0            21.03754,52.2896,0            21.03749,52.28961,0            21.03743,52.28963,0            21.03734,52.28966,0            21.03728,52.28969,0            21.03724,52.28971,0            21.03721,52.28973,0            21.03711,52.28985,0            21.03704,52.28993,0            21.03698,52.28999,0            21.03695,52.29004,0            21.03689,52.2901,0            21.03678,52.29015,0            21.03672,52.29018,0            21.03665,52.29021,0            21.03656,52.29024,0            21.03649,52.29026,0            21.03642,52.29027,0            21.03635,52.29028,0            21.03605,52.29031,0            21.03596,52.29032,0            21.03599,52.2907,0            21.03605,52.29072,0            21.03609,52.29074,0            21.03612,52.29075,0            21.03615,52.29075,0            21.03618,52.29076,0            21.03624,52.29077,0            21.03634,52.29078,0            21.03638,52.29079,0            21.03642,52.29079,0            21.03649,52.2908,0            21.03659,52.29081,0            21.03682,52.29083,0            21.03704,52.29084,0            21.03712,52.29085,0            21.03718,52.29086,0            21.03727,52.29087,0            21.03732,52.29087,0            21.03736,52.29088,0            21.03741,52.29089,0            21.03747,52.2909,0            21.03753,52.29091,0            21.03767,52.29095,0            21.0378,52.29099,0            21.03785,52.291,0            21.03788,52.29101,0            21.03791,52.29102,0            21.03805,52.29107,0            21.03814,52.29109,0            21.03817,52.2911,0            21.03819,52.29112,0            21.03825,52.29111,0            21.03829,52.29111,0            21.03832,52.29112,0            21.03837,52.29112,0            21.03843,52.29114,0            21.03852,52.29116,0            21.03857,52.29118,0            21.03863,52.2912,0            21.03869,52.29123,0            21.03875,52.29126,0            21.03885,52.2913,0            21.03892,52.29133,0            21.039,52.29136,0            21.03903,52.29137,0            21.03911,52.2914,0            21.03929,52.29145,0            21.03946,52.29148,0            21.03959,52.29151,0            21.03973,52.29155,0            21.03977,52.29156,0            21.03982,52.29156,0            21.03988,52.29156,0            21.03996,52.29156,0            21.03988,52.29165,0            21.03986,52.29168,0            21.03981,52.2917,0            21.03995,52.29177,0            21.03985,52.29181,0            21.03975,52.29198,0            21.03945,52.29201,0            21.03903,52.29204,0            21.03865,52.29208,0            21.03861,52.29208,0            21.0373,52.29219,0            21.03684,52.29223,0            21.03633,52.29227,0            21.03634,52.29229,0            21.03634,52.29232,0            21.03637,52.29246,0            21.03637,52.29249,0            21.03641,52.29269,0            21.03685,52.29266,0            21.037,52.29264,0            21.03722,52.29263,0            21.03826,52.29253,0            21.03833,52.29253,0            21.0387,52.2925,0            21.03913,52.29247,0            21.03952,52.29243,0            21.04087,52.29232,0            21.04124,52.29229,0            21.04133,52.29229,0            21.04136,52.29228,0            21.04127,52.29191,0            21.04124,52.29181,0            21.04121,52.29172,0            21.04118,52.29156,0            21.04115,52.29139,0            21.04111,52.29122,0            21.04105,52.29094,0            21.0408,52.28995,0            21.04073,52.28995,0            21.04033,52.2908,0            21.04013,52.29121,0            21.04001,52.29146,0            21.03996,52.29156,0            21.03988,52.29156,0            21.03982,52.29156,0            21.03977,52.29156,0            21.03973,52.29155,0            21.03959,52.29151,0            21.03946,52.29148,0            21.03929,52.29145,0            21.03911,52.2914,0            21.03903,52.29137,0            21.039,52.29136,0            21.03903,52.29132,0            21.03904,52.29128,0            21.03905,52.29125,0            21.03905,52.29122,0            21.03905,52.29115,0            21.03904,52.29111,0            21.03902,52.29104,0            21.039,52.29101,0            21.03892,52.29094,0            21.03887,52.29089,0            21.0388,52.29083,0            21.03877,52.29078,0            21.03872,52.29068,0            21.0387,52.29057,0            21.0388,52.29051,0            21.03902,52.2904,0            21.03908,52.29041,0            21.0392,52.29042,0            21.03939,52.29043,0            21.03947,52.29041,0            21.03959,52.29039,0            21.03965,52.29038,0            21.0397,52.29038,0            21.03974,52.29036,0            21.03979,52.29035,0            21.03984,52.29033,0            21.03961,52.29011,0            21.03956,52.29007,0            21.03932,52.28989,0            21.03919,52.28981,0            21.03895,52.28968,0            21.03885,52.28962,0            21.0386,52.28951,0            21.03831,52.28939,0            21.03808,52.28932,0            21.03813,52.28925,0            21.03852,52.28861,0            21.03867,52.28837,0            21.03714,52.28848,0            21.03565,52.28861,0            21.03567,52.28874,0            21.03572,52.28878,0            21.0358,52.28879,0            21.03586,52.28881,0            21.03594,52.28882,0            21.03608,52.28885,0            21.0365,52.28894,0            21.03689,52.28903,0            21.03712,52.28908,0            21.03765,52.28921,0            21.03808,52.28932,0            21.03803,52.28937,0            21.03799,52.28941,0            21.03794,52.28945,0            21.03789,52.28947,0            21.03779,52.28951,0            21.03764,52.28956,0            21.03754,52.2896,0            21.03749,52.28961,0            21.03743,52.28963,0            21.03734,52.28966,0            21.03728,52.28969,0            21.03724,52.28971,0            21.03721,52.28973,0            21.03711,52.28985,0            21.03704,52.28993,0            21.03698,52.28999,0            21.03695,52.29004,0            21.03689,52.2901,0            21.03678,52.29015,0            21.03672,52.29018,0            21.03665,52.29021,0            21.03656,52.29024,0            21.03649,52.29026,0            21.03642,52.29027,0            21.03635,52.29028,0            21.03605,52.29031,0            21.03596,52.29032,0          </coordinates></LineString></Placemark><Placemark><name>Start/Finish</name><styleUrl>#icon-1899-FFEA00-nodesc</styleUrl><Point><coordinates>            21.035962,52.290333,0          </coordinates></Point></Placemark></Folder></Document></kml>