<?xml version="1.0" encoding="UTF-8"?><kml xmlns="http://www.opengis.net/kml/2.2"><Document><name>parkrun Zalew Łęg</name><description/><Style id="icon-1899-FFEA00-nodesc-normal"><IconStyle><color>ff00eaff</color><scale>1</scale><Icon><href>https://www.gstatic.com/mapspro/images/stock/503-wht-blank_maps.png</href></Icon><hotSpot x="32" xunits="pixels" y="64" yunits="insetPixels"/></IconStyle><LabelStyle><scale>0</scale></LabelStyle><BalloonStyle><text><![CDATA[<h3>$[name]</h3>]]></text></BalloonStyle></Style><Style id="icon-1899-FFEA00-nodesc-highlight"><IconStyle><color>ff00eaff</color><scale>1</scale><Icon><href>https://www.gstatic.com/mapspro/images/stock/503-wht-blank_maps.png</href></Icon><hotSpot x="32" xunits="pixels" y="64" yunits="insetPixels"/></IconStyle><LabelStyle><scale>1</scale></LabelStyle><BalloonStyle><text><![CDATA[<h3>$[name]</h3>]]></text></BalloonStyle></Style><StyleMap id="icon-1899-FFEA00-nodesc"><Pair><key>normal</key><styleUrl>#icon-1899-FFEA00-nodesc-normal</styleUrl></Pair><Pair><key>highlight</key><styleUrl>#icon-1899-FFEA00-nodesc-highlight</styleUrl></Pair></StyleMap><Style id="line-0288D1-5000-nodesc-normal"><LineStyle><color>ffd18802</color><width>5</width></LineStyle><BalloonStyle><text><![CDATA[<h3>$[name]</h3>]]></text></BalloonStyle></Style><Style id="line-0288D1-5000-nodesc-highlight"><LineStyle><color>ffd18802</color><width>7.5</width></LineStyle><BalloonStyle><text><![CDATA[<h3>$[name]</h3>]]></text></BalloonStyle></Style><StyleMap id="line-0288D1-5000-nodesc"><Pair><key>normal</key><styleUrl>#line-0288D1-5000-nodesc-normal</styleUrl></Pair><Pair><key>highlight</key><styleUrl>#line-0288D1-5000-nodesc-highlight</styleUrl></Pair></StyleMap><Folder><name>Untitled layer</name><Placemark><name>Start/Finish</name><styleUrl>#icon-1899-FFEA00-nodesc</styleUrl><Point><coordinates>            19.203452,50.201952,0          </coordinates></Point></Placemark><Placemark><name>Course</name><styleUrl>#line-0288D1-5000-nodesc</styleUrl><LineString><tessellate>1</tessellate><coordinates>            19.20349,50.20195,0            19.20358,50.20186,0            19.20362,50.20182,0            19.20365,50.20178,0            19.2037,50.20172,0            19.20375,50.20162,0            19.20392,50.20152,0            19.20398,50.20147,0            19.20403,50.20144,0            19.20411,50.2014,0            19.20451,50.20118,0            19.20466,50.20107,0            19.20473,50.20103,0            19.20479,50.20098,0            19.20487,50.20092,0            19.20495,50.20085,0            19.20505,50.20078,0            19.20514,50.20071,0            19.20522,50.20065,0            19.2053,50.20058,0            19.20542,50.20048,0            19.2055,50.20043,0            19.20556,50.20038,0            19.20562,50.20033,0            19.20571,50.20029,0            19.2058,50.20027,0            19.20581,50.20027,0            19.2059,50.20026,0            19.20601,50.20026,0            19.20617,50.20027,0            19.20649,50.20028,0            19.20652,50.20025,0            19.20656,50.20019,0            19.20678,50.19983,0            19.20691,50.19967,0            19.20709,50.19949,0            19.20722,50.19937,0            19.20735,50.19925,0            19.20773,50.19898,0            19.20787,50.19887,0            19.20793,50.19882,0            19.20815,50.19865,0            19.20837,50.19847,0            19.20848,50.19841,0            19.20861,50.19832,0            19.2088,50.1982,0            19.20921,50.19795,0            19.20934,50.19787,0            19.20937,50.19786,0            19.20976,50.19764,0            19.21,50.1975,0            19.21036,50.1973,0            19.21187,50.19656,0            19.21238,50.1963,0            19.21254,50.19622,0            19.2126,50.19619,0            19.21272,50.19614,0            19.21285,50.1961,0            19.21305,50.19603,0            19.21329,50.19597,0            19.21354,50.1959,0            19.21362,50.19589,0            19.21415,50.19577,0            19.21441,50.19571,0            19.2147,50.19565,0            19.21483,50.19562,0            19.21493,50.19558,0            19.21506,50.19555,0            19.21516,50.19551,0            19.21528,50.19546,0            19.21542,50.1954,0            19.21567,50.1953,0            19.21597,50.19517,0            19.21632,50.19496,0            19.21666,50.19468,0            19.21684,50.19449,0            19.21702,50.1943,0            19.21712,50.19418,0            19.21743,50.19383,0            19.21771,50.19352,0            19.21783,50.19338,0            19.21798,50.1932,0            19.21818,50.19303,0            19.21828,50.19295,0            19.21849,50.19281,0            19.21868,50.19269,0            19.21878,50.19259,0            19.21888,50.19248,0            19.21895,50.19238,0            19.21899,50.19231,0            19.21903,50.19225,0            19.21909,50.19214,0            19.21913,50.19205,0            19.21922,50.1919,0            19.21935,50.19172,0            19.2195,50.1915,0            19.21951,50.19148,0            19.21958,50.1914,0            19.21986,50.19111,0            19.22001,50.19099,0            19.22011,50.19087,0            19.22052,50.1904,0            19.22065,50.19024,0            19.22078,50.19008,0            19.22097,50.18986,0            19.22119,50.18961,0            19.22158,50.18976,0            19.22248,50.1901,0            19.22252,50.19012,0            19.22312,50.19034,0            19.22379,50.19059,0            19.22397,50.19066,0            19.22453,50.19085,0            19.22526,50.19114,0            19.22578,50.19133,0            19.22652,50.19159,0            19.22725,50.19185,0            19.22683,50.19233,0            19.22649,50.19268,0            19.22632,50.19286,0            19.22535,50.19397,0            19.22525,50.19409,0            19.22489,50.19451,0            19.22435,50.19508,0            19.22394,50.19556,0            19.22376,50.19582,0            19.22314,50.1965,0            19.22223,50.19752,0            19.22191,50.19786,0            19.22188,50.1979,0            19.22145,50.19834,0            19.22129,50.19852,0            19.22101,50.19882,0            19.22085,50.19899,0            19.22074,50.19913,0            19.22034,50.19962,0            19.22029,50.19961,0            19.22016,50.1996,0            19.22002,50.19957,0            19.21988,50.19951,0            19.21965,50.19942,0            19.21939,50.19932,0            19.21895,50.19914,0            19.21888,50.19912,0            19.21864,50.19903,0            19.21862,50.19902,0            19.21814,50.19885,0            19.21757,50.19865,0            19.2174,50.19861,0            19.21732,50.19858,0            19.21708,50.1985,0            19.21701,50.19848,0            19.21697,50.19846,0            19.21675,50.19838,0            19.21612,50.19813,0            19.21479,50.19764,0            19.2135,50.19716,0            19.21261,50.19683,0            19.21187,50.19656,0            19.21036,50.1973,0            19.21,50.1975,0            19.20976,50.19764,0            19.20937,50.19786,0            19.20934,50.19787,0            19.20921,50.19795,0            19.2088,50.1982,0            19.20861,50.19832,0            19.20848,50.19841,0            19.20837,50.19847,0            19.20815,50.19865,0            19.20793,50.19882,0            19.20787,50.19887,0            19.20773,50.19898,0            19.20735,50.19925,0            19.20722,50.19937,0            19.20709,50.19949,0            19.20691,50.19967,0            19.20678,50.19983,0            19.20656,50.20019,0            19.20652,50.20025,0            19.20649,50.20028,0            19.20617,50.20027,0            19.20601,50.20026,0            19.2059,50.20026,0            19.20581,50.20027,0            19.2058,50.20027,0            19.20571,50.20029,0            19.20562,50.20033,0            19.20556,50.20038,0            19.2055,50.20043,0            19.20542,50.20048,0            19.2053,50.20058,0            19.20522,50.20065,0            19.20514,50.20071,0            19.20505,50.20078,0            19.20495,50.20085,0            19.20487,50.20092,0            19.20479,50.20098,0            19.20473,50.20103,0            19.20466,50.20107,0            19.20451,50.20118,0            19.20411,50.2014,0            19.20403,50.20144,0            19.20398,50.20147,0            19.20392,50.20152,0            19.20375,50.20162,0            19.2037,50.20172,0            19.20365,50.20178,0            19.20362,50.20182,0            19.20358,50.20186,0            19.20349,50.20195,0            19.20358,50.20196,0          </coordinates></LineString></Placemark></Folder></Document></kml>