<?xml version="1.0" encoding="UTF-8"?><kml xmlns="http://www.opengis.net/kml/2.2"><Document><name>Szczecinek parkrun</name><description/><Style id="icon-123-nodesc-normal"><IconStyle><scale>1.1</scale><Icon><href>https://www.gstatic.com/mapspro/images/stock/123-red-dot.png</href></Icon><hotSpot x="16" xunits="pixels" y="32" yunits="insetPixels"/></IconStyle><LabelStyle><scale>0</scale></LabelStyle><BalloonStyle><text><![CDATA[<h3>$[name]</h3>]]></text></BalloonStyle></Style><Style id="icon-123-nodesc-highlight"><IconStyle><scale>1.1</scale><Icon><href>https://www.gstatic.com/mapspro/images/stock/123-red-dot.png</href></Icon><hotSpot x="16" xunits="pixels" y="32" yunits="insetPixels"/></IconStyle><LabelStyle><scale>1.1</scale></LabelStyle><BalloonStyle><text><![CDATA[<h3>$[name]</h3>]]></text></BalloonStyle></Style><StyleMap id="icon-123-nodesc"><Pair><key>normal</key><styleUrl>#icon-123-nodesc-normal</styleUrl></Pair><Pair><key>highlight</key><styleUrl>#icon-123-nodesc-highlight</styleUrl></Pair></StyleMap><Style id="icon-61-nodesc-normal"><IconStyle><scale>1.1</scale><Icon><href>https://www.gstatic.com/mapspro/images/stock/61-green-dot.png</href></Icon><hotSpot x="16" xunits="pixels" y="32" yunits="insetPixels"/></IconStyle><LabelStyle><scale>0</scale></LabelStyle><BalloonStyle><text><![CDATA[<h3>$[name]</h3>]]></text></BalloonStyle></Style><Style id="icon-61-nodesc-highlight"><IconStyle><scale>1.1</scale><Icon><href>https://www.gstatic.com/mapspro/images/stock/61-green-dot.png</href></Icon><hotSpot x="16" xunits="pixels" y="32" yunits="insetPixels"/></IconStyle><LabelStyle><scale>1.1</scale></LabelStyle><BalloonStyle><text><![CDATA[<h3>$[name]</h3>]]></text></BalloonStyle></Style><StyleMap id="icon-61-nodesc"><Pair><key>normal</key><styleUrl>#icon-61-nodesc-normal</styleUrl></Pair><Pair><key>highlight</key><styleUrl>#icon-61-nodesc-highlight</styleUrl></Pair></StyleMap><Style id="line-0000FF-5000-nodesc-normal"><LineStyle><color>ffff0000</color><width>5</width></LineStyle><BalloonStyle><text><![CDATA[<h3>$[name]</h3>]]></text></BalloonStyle></Style><Style id="line-0000FF-5000-nodesc-highlight"><LineStyle><color>ffff0000</color><width>7.5</width></LineStyle><BalloonStyle><text><![CDATA[<h3>$[name]</h3>]]></text></BalloonStyle></Style><StyleMap id="line-0000FF-5000-nodesc"><Pair><key>normal</key><styleUrl>#line-0000FF-5000-nodesc-normal</styleUrl></Pair><Pair><key>highlight</key><styleUrl>#line-0000FF-5000-nodesc-highlight</styleUrl></Pair></StyleMap><Folder><name>Untitled layer</name><Placemark><name>Course</name><styleUrl>#line-0000FF-5000-nodesc</styleUrl><LineString><tessellate>1</tessellate><coordinates>            16.693551,53.700899,0            16.692692,53.701674,0            16.692842,53.701978,0            16.692993,53.702105,0            16.693379,53.702512,0            16.693551,53.703007,0            16.693529,53.703388,0            16.693379,53.703553,0            16.693186,53.703858,0            16.693293,53.704074,0            16.693315,53.704481,0            16.693293,53.704786,0            16.693336,53.705116,0            16.693765,53.70551,0            16.694044,53.705751,0            16.694237,53.705776,0            16.694323,53.706932,0            16.694323,53.707466,0            16.69325,53.707466,0            16.693207,53.707999,0            16.693808,53.707986,0            16.693744,53.707516,0            16.694348,53.707529,0            16.694219,53.705344,0            16.69409,53.703541,0            16.693765,53.700924,0            16.693186,53.701305,0          </coordinates></LineString></Placemark><Placemark><name>Start</name><styleUrl>#icon-61-nodesc</styleUrl><Point><coordinates>            16.693532,53.700873,0          </coordinates></Point></Placemark><Placemark><name>Meta</name><styleUrl>#icon-123-nodesc</styleUrl><Point><coordinates>            16.693189,53.701318,0          </coordinates></Point></Placemark></Folder></Document></kml>