<?xml version="1.0" encoding="UTF-8"?><kml xmlns="http://www.opengis.net/kml/2.2"><Document><name>Gostyn parkrun (from Jan 2025)</name><description/><Style id="icon-503-009D57-nodesc-normal"><IconStyle><color>ff579d00</color><scale>1.1</scale><Icon><href>https://www.gstatic.com/mapspro/images/stock/503-wht-blank_maps.png</href></Icon><hotSpot x="16" xunits="pixels" y="32" yunits="insetPixels"/></IconStyle><LabelStyle><scale>0</scale></LabelStyle><BalloonStyle><text><![CDATA[<h3>$[name]</h3>]]></text></BalloonStyle></Style><Style id="icon-503-009D57-nodesc-highlight"><IconStyle><color>ff579d00</color><scale>1.1</scale><Icon><href>https://www.gstatic.com/mapspro/images/stock/503-wht-blank_maps.png</href></Icon><hotSpot x="16" xunits="pixels" y="32" yunits="insetPixels"/></IconStyle><LabelStyle><scale>1.1</scale></LabelStyle><BalloonStyle><text><![CDATA[<h3>$[name]</h3>]]></text></BalloonStyle></Style><StyleMap id="icon-503-009D57-nodesc"><Pair><key>normal</key><styleUrl>#icon-503-009D57-nodesc-normal</styleUrl></Pair><Pair><key>highlight</key><styleUrl>#icon-503-009D57-nodesc-highlight</styleUrl></Pair></StyleMap><Style id="icon-503-DB4436-nodesc-normal"><IconStyle><color>ff3644db</color><scale>1.1</scale><Icon><href>https://www.gstatic.com/mapspro/images/stock/503-wht-blank_maps.png</href></Icon><hotSpot x="16" xunits="pixels" y="32" yunits="insetPixels"/></IconStyle><LabelStyle><scale>0</scale></LabelStyle><BalloonStyle><text><![CDATA[<h3>$[name]</h3>]]></text></BalloonStyle></Style><Style id="icon-503-DB4436-nodesc-highlight"><IconStyle><color>ff3644db</color><scale>1.1</scale><Icon><href>https://www.gstatic.com/mapspro/images/stock/503-wht-blank_maps.png</href></Icon><hotSpot x="16" xunits="pixels" y="32" yunits="insetPixels"/></IconStyle><LabelStyle><scale>1.1</scale></LabelStyle><BalloonStyle><text><![CDATA[<h3>$[name]</h3>]]></text></BalloonStyle></Style><StyleMap id="icon-503-DB4436-nodesc"><Pair><key>normal</key><styleUrl>#icon-503-DB4436-nodesc-normal</styleUrl></Pair><Pair><key>highlight</key><styleUrl>#icon-503-DB4436-nodesc-highlight</styleUrl></Pair></StyleMap><Style id="icon-995-nodesc-normal"><IconStyle><scale>1.1</scale><Icon><href>https://www.gstatic.com/mapspro/images/stock/995-biz-car-dealer.png</href></Icon></IconStyle><LabelStyle><scale>0</scale></LabelStyle><BalloonStyle><text><![CDATA[<h3>$[name]</h3>]]></text></BalloonStyle></Style><Style id="icon-995-nodesc-highlight"><IconStyle><scale>1.1</scale><Icon><href>https://www.gstatic.com/mapspro/images/stock/995-biz-car-dealer.png</href></Icon></IconStyle><LabelStyle><scale>1.1</scale></LabelStyle><BalloonStyle><text><![CDATA[<h3>$[name]</h3>]]></text></BalloonStyle></Style><StyleMap id="icon-995-nodesc"><Pair><key>normal</key><styleUrl>#icon-995-nodesc-normal</styleUrl></Pair><Pair><key>highlight</key><styleUrl>#icon-995-nodesc-highlight</styleUrl></Pair></StyleMap><Style id="line-4186F0-3906-nodesc-normal"><LineStyle><color>fff08641</color><width>3.906</width></LineStyle><BalloonStyle><text><![CDATA[<h3>$[name]</h3>]]></text></BalloonStyle></Style><Style id="line-4186F0-3906-nodesc-highlight"><LineStyle><color>fff08641</color><width>5.859</width></LineStyle><BalloonStyle><text><![CDATA[<h3>$[name]</h3>]]></text></BalloonStyle></Style><StyleMap id="line-4186F0-3906-nodesc"><Pair><key>normal</key><styleUrl>#line-4186F0-3906-nodesc-normal</styleUrl></Pair><Pair><key>highlight</key><styleUrl>#line-4186F0-3906-nodesc-highlight</styleUrl></Pair></StyleMap><Folder><name>Untitled layer</name><Placemark><name>Parking</name><styleUrl>#icon-995-nodesc</styleUrl><Point><coordinates>            16.986108,51.889445,0          </coordinates></Point></Placemark><Placemark><name>Trasa</name><styleUrl>#line-4186F0-3906-nodesc</styleUrl><LineString><tessellate>1</tessellate><coordinates>            16.9854,51.888292,0            16.988034,51.887399,0            16.989348,51.886955,0            16.987717,51.884869,0            16.9855714,51.8850446,0            16.980078,51.886518,0            16.979392,51.886703,0            16.97584,51.887611,0            16.974886,51.887869,0            16.973749,51.886259,0            16.972697,51.88669,0            16.970894,51.887359,0            16.970578,51.88722,0            16.970282,51.887041,0            16.969757,51.886495,0            16.969167,51.886028,0            16.971146,51.8857,0            16.9723,51.886061,0            16.97362,51.886028,0            16.974886,51.887869,0            16.9855714,51.8850446,0            16.987717,51.884869,0            16.9927705,51.884518,0            16.9930866,51.8851506,0            16.9936388,51.88577,0            16.989348,51.886955,0            16.9854,51.888292,0          </coordinates></LineString></Placemark><Placemark><name>Finish</name><styleUrl>#icon-503-DB4436-nodesc</styleUrl><Point><coordinates>            16.985421,51.888366,0          </coordinates></Point></Placemark><Placemark><name>Start</name><styleUrl>#icon-503-009D57-nodesc</styleUrl><Point><coordinates>            16.985496,51.888471,0          </coordinates></Point></Placemark></Folder></Document></kml>