<?xml version="1.0" encoding="UTF-8"?><kml xmlns="http://www.opengis.net/kml/2.2"><Document><name>parkrun Młynówka Królewska</name><description/><Style id="icon-1899-FFEA00-nodesc-normal"><IconStyle><color>ff00eaff</color><scale>1</scale><Icon><href>https://www.gstatic.com/mapspro/images/stock/503-wht-blank_maps.png</href></Icon><hotSpot x="32" xunits="pixels" y="64" yunits="insetPixels"/></IconStyle><LabelStyle><scale>0</scale></LabelStyle><BalloonStyle><text><![CDATA[<h3>$[name]</h3>]]></text></BalloonStyle></Style><Style id="icon-1899-FFEA00-nodesc-highlight"><IconStyle><color>ff00eaff</color><scale>1</scale><Icon><href>https://www.gstatic.com/mapspro/images/stock/503-wht-blank_maps.png</href></Icon><hotSpot x="32" xunits="pixels" y="64" yunits="insetPixels"/></IconStyle><LabelStyle><scale>1</scale></LabelStyle><BalloonStyle><text><![CDATA[<h3>$[name]</h3>]]></text></BalloonStyle></Style><StyleMap id="icon-1899-FFEA00-nodesc"><Pair><key>normal</key><styleUrl>#icon-1899-FFEA00-nodesc-normal</styleUrl></Pair><Pair><key>highlight</key><styleUrl>#icon-1899-FFEA00-nodesc-highlight</styleUrl></Pair></StyleMap><Style id="line-0288D1-5844-nodesc-normal"><LineStyle><color>ffd18802</color><width>5.844</width></LineStyle><BalloonStyle><text><![CDATA[<h3>$[name]</h3>]]></text></BalloonStyle></Style><Style id="line-0288D1-5844-nodesc-highlight"><LineStyle><color>ffd18802</color><width>8.766</width></LineStyle><BalloonStyle><text><![CDATA[<h3>$[name]</h3>]]></text></BalloonStyle></Style><StyleMap id="line-0288D1-5844-nodesc"><Pair><key>normal</key><styleUrl>#line-0288D1-5844-nodesc-normal</styleUrl></Pair><Pair><key>highlight</key><styleUrl>#line-0288D1-5844-nodesc-highlight</styleUrl></Pair></StyleMap><Folder><name>Untitled layer</name><Placemark><name>Course</name><styleUrl>#line-0288D1-5844-nodesc</styleUrl><LineString><tessellate>1</tessellate><coordinates>            19.874562,50.077003,0            19.874455,50.075853,0            19.8736341,50.075841,0            19.8725235,50.0759047,0            19.870195,50.076039,0            19.870206,50.076245,0            19.869637,50.0765,0            19.8683553,50.0765722,0            19.86761,50.076665,0            19.8673417,50.0767031,0            19.866966,50.0766861,0            19.866365,50.07648,0            19.8653212,50.0773806,0            19.864505,50.0776668,0            19.864134,50.077946,0            19.8635706,50.078139,0            19.863329,50.078332,0            19.863146,50.078476,0            19.862889,50.078566,0            19.862642,50.078573,0            19.861923,50.078896,0            19.8613543,50.0787548,0            19.86085,50.07871,0            19.860421,50.078759,0            19.860207,50.078924,0            19.859842,50.078896,0            19.8594525,50.0788403,0            19.8588292,50.079099,0            19.85834,50.079103,0            19.857632,50.078938,0            19.857396,50.078903,0            19.8572082,50.0789793,0            19.857192,50.079062,0            19.85731,50.079082,0            19.857235,50.07924,0            19.856763,50.079371,0            19.856462,50.079406,0            19.856248,50.079358,0            19.8567037,50.0790997,0            19.856816,50.0788,0            19.8569398,50.0784385,0            19.8572967,50.0782612,0            19.857718,50.078139,0            19.8581463,50.0780346,0            19.8585531,50.0778958,0            19.8593345,50.0774874,0            19.8599004,50.0772851,0            19.8605147,50.0771552,0            19.8618075,50.0771018,0            19.863626,50.0768229,0            19.864766,50.076528,0            19.865668,50.076335,0            19.866365,50.07648,0          </coordinates></LineString></Placemark><Placemark><name>Start/Finish</name><styleUrl>#icon-1899-FFEA00-nodesc</styleUrl><Point><coordinates>            19.874562,50.077065,0          </coordinates></Point></Placemark></Folder></Document></kml>