<?xml version="1.0" encoding="UTF-8"?><kml xmlns="http://www.opengis.net/kml/2.2"><Document><name>Augustów parkrun</name><description/><Style id="icon-1899-0F9D58-nodesc-normal"><IconStyle><color>ff589d0f</color><scale>1</scale><Icon><href>https://www.gstatic.com/mapspro/images/stock/503-wht-blank_maps.png</href></Icon><hotSpot x="32" xunits="pixels" y="64" yunits="insetPixels"/></IconStyle><LabelStyle><scale>0</scale></LabelStyle><BalloonStyle><text><![CDATA[<h3>$[name]</h3>]]></text></BalloonStyle></Style><Style id="icon-1899-0F9D58-nodesc-highlight"><IconStyle><color>ff589d0f</color><scale>1</scale><Icon><href>https://www.gstatic.com/mapspro/images/stock/503-wht-blank_maps.png</href></Icon><hotSpot x="32" xunits="pixels" y="64" yunits="insetPixels"/></IconStyle><LabelStyle><scale>1</scale></LabelStyle><BalloonStyle><text><![CDATA[<h3>$[name]</h3>]]></text></BalloonStyle></Style><StyleMap id="icon-1899-0F9D58-nodesc"><Pair><key>normal</key><styleUrl>#icon-1899-0F9D58-nodesc-normal</styleUrl></Pair><Pair><key>highlight</key><styleUrl>#icon-1899-0F9D58-nodesc-highlight</styleUrl></Pair></StyleMap><Style id="icon-1899-FF5252-nodesc-normal"><IconStyle><color>ff5252ff</color><scale>1</scale><Icon><href>https://www.gstatic.com/mapspro/images/stock/503-wht-blank_maps.png</href></Icon><hotSpot x="32" xunits="pixels" y="64" yunits="insetPixels"/></IconStyle><LabelStyle><scale>0</scale></LabelStyle><BalloonStyle><text><![CDATA[<h3>$[name]</h3>]]></text></BalloonStyle></Style><Style id="icon-1899-FF5252-nodesc-highlight"><IconStyle><color>ff5252ff</color><scale>1</scale><Icon><href>https://www.gstatic.com/mapspro/images/stock/503-wht-blank_maps.png</href></Icon><hotSpot x="32" xunits="pixels" y="64" yunits="insetPixels"/></IconStyle><LabelStyle><scale>1</scale></LabelStyle><BalloonStyle><text><![CDATA[<h3>$[name]</h3>]]></text></BalloonStyle></Style><StyleMap id="icon-1899-FF5252-nodesc"><Pair><key>normal</key><styleUrl>#icon-1899-FF5252-nodesc-normal</styleUrl></Pair><Pair><key>highlight</key><styleUrl>#icon-1899-FF5252-nodesc-highlight</styleUrl></Pair></StyleMap><Style id="line-4186F0-5069-nodesc-normal"><LineStyle><color>fff08641</color><width>5.069</width></LineStyle><BalloonStyle><text><![CDATA[<h3>$[name]</h3>]]></text></BalloonStyle></Style><Style id="line-4186F0-5069-nodesc-highlight"><LineStyle><color>fff08641</color><width>7.6035</width></LineStyle><BalloonStyle><text><![CDATA[<h3>$[name]</h3>]]></text></BalloonStyle></Style><StyleMap id="line-4186F0-5069-nodesc"><Pair><key>normal</key><styleUrl>#line-4186F0-5069-nodesc-normal</styleUrl></Pair><Pair><key>highlight</key><styleUrl>#line-4186F0-5069-nodesc-highlight</styleUrl></Pair></StyleMap><Folder><name>Untitled layer</name><Placemark><name>Course</name><styleUrl>#line-4186F0-5069-nodesc</styleUrl><LineString><tessellate>1</tessellate><coordinates>            22.984045,53.84945,0            22.983787,53.849589,0            22.9831346,53.8498222,0            22.9824694,53.8500722,0            22.9818256,53.8503159,0            22.98162,53.8504,0            22.9811283,53.8508317,0            22.981073,53.850899,0            22.980837,53.851077,0            22.980751,53.851266,0            22.980772,53.851589,0            22.980987,53.852089,0            22.980903,53.8524708,0            22.980794,53.852659,0            22.9801358,53.8531891,0            22.979689,53.8535,0            22.979496,53.853842,0            22.979538,53.854108,0            22.979818,53.854235,0            22.980912,53.854184,0            22.981212,53.85407,0            22.9820563,53.8540023,0            22.9830326,53.8539802,0            22.9839178,53.8539359,0            22.985933,53.853804,0            22.986413,53.853746,0            22.986639,53.853797,0            22.987465,53.853728,0            22.9889818,53.8536764,0            22.9902102,53.8537365,0            22.990404,53.853746,0            22.990973,53.853791,0            22.991595,53.854158,0            22.991992,53.854221,0            22.994685,53.855354,0            22.995887,53.856177,0            22.9962827,53.8567139,0            22.996541,53.857094,0            22.996616,53.857303,0            22.99681,53.85736,0            22.997014,53.857341,0            22.9974,53.857499,0            22.99741,53.857977,0            22.99792,53.858274,0            22.9982461,53.858549,0            22.9985894,53.8588495,0            22.998789,53.85909,0          </coordinates></LineString></Placemark><Placemark><name>Finish</name><styleUrl>#icon-1899-FF5252-nodesc</styleUrl><Point><coordinates>            22.986003,53.853768,0          </coordinates></Point></Placemark><Placemark><name>Start</name><styleUrl>#icon-1899-0F9D58-nodesc</styleUrl><Point><coordinates>            22.986008,53.853779,0          </coordinates></Point></Placemark></Folder></Document></kml>