<?xml version="1.0" encoding="UTF-8"?><kml xmlns="http://www.opengis.net/kml/2.2"><Document><name>Las Klasztorny parkrun (from April 2024)</name><description/><Style id="icon-1899-0F9D58-nodesc-normal"><IconStyle><color>ff589d0f</color><scale>1</scale><Icon><href>https://www.gstatic.com/mapspro/images/stock/503-wht-blank_maps.png</href></Icon><hotSpot x="32" xunits="pixels" y="64" yunits="insetPixels"/></IconStyle><LabelStyle><scale>0</scale></LabelStyle><BalloonStyle><text><![CDATA[<h3>$[name]</h3>]]></text></BalloonStyle></Style><Style id="icon-1899-0F9D58-nodesc-highlight"><IconStyle><color>ff589d0f</color><scale>1</scale><Icon><href>https://www.gstatic.com/mapspro/images/stock/503-wht-blank_maps.png</href></Icon><hotSpot x="32" xunits="pixels" y="64" yunits="insetPixels"/></IconStyle><LabelStyle><scale>1</scale></LabelStyle><BalloonStyle><text><![CDATA[<h3>$[name]</h3>]]></text></BalloonStyle></Style><StyleMap id="icon-1899-0F9D58-nodesc"><Pair><key>normal</key><styleUrl>#icon-1899-0F9D58-nodesc-normal</styleUrl></Pair><Pair><key>highlight</key><styleUrl>#icon-1899-0F9D58-nodesc-highlight</styleUrl></Pair></StyleMap><Style id="icon-1899-FF5252-nodesc-normal"><IconStyle><color>ff5252ff</color><scale>1</scale><Icon><href>https://www.gstatic.com/mapspro/images/stock/503-wht-blank_maps.png</href></Icon><hotSpot x="32" xunits="pixels" y="64" yunits="insetPixels"/></IconStyle><LabelStyle><scale>0</scale></LabelStyle><BalloonStyle><text><![CDATA[<h3>$[name]</h3>]]></text></BalloonStyle></Style><Style id="icon-1899-FF5252-nodesc-highlight"><IconStyle><color>ff5252ff</color><scale>1</scale><Icon><href>https://www.gstatic.com/mapspro/images/stock/503-wht-blank_maps.png</href></Icon><hotSpot x="32" xunits="pixels" y="64" yunits="insetPixels"/></IconStyle><LabelStyle><scale>1</scale></LabelStyle><BalloonStyle><text><![CDATA[<h3>$[name]</h3>]]></text></BalloonStyle></Style><StyleMap id="icon-1899-FF5252-nodesc"><Pair><key>normal</key><styleUrl>#icon-1899-FF5252-nodesc-normal</styleUrl></Pair><Pair><key>highlight</key><styleUrl>#icon-1899-FF5252-nodesc-highlight</styleUrl></Pair></StyleMap><Style id="poly-0288D1-3901-0-nodesc-normal"><LineStyle><color>ffd18802</color><width>3.901</width></LineStyle><PolyStyle><color>00d18802</color><fill>1</fill><outline>1</outline></PolyStyle><BalloonStyle><text><![CDATA[<h3>$[name]</h3>]]></text></BalloonStyle></Style><Style id="poly-0288D1-3901-0-nodesc-highlight"><LineStyle><color>ffd18802</color><width>5.8515</width></LineStyle><PolyStyle><color>00d18802</color><fill>1</fill><outline>1</outline></PolyStyle><BalloonStyle><text><![CDATA[<h3>$[name]</h3>]]></text></BalloonStyle></Style><StyleMap id="poly-0288D1-3901-0-nodesc"><Pair><key>normal</key><styleUrl>#poly-0288D1-3901-0-nodesc-normal</styleUrl></Pair><Pair><key>highlight</key><styleUrl>#poly-0288D1-3901-0-nodesc-highlight</styleUrl></Pair></StyleMap><Folder><name>Untitled layer</name><Placemark><name>Course</name><styleUrl>#poly-0288D1-3901-0-nodesc</styleUrl><Polygon><outerBoundaryIs><LinearRing><tessellate>1</tessellate><coordinates>                17.9297727,51.4376376,0                17.9282657,51.4403056,0                17.9252187,51.4407946,0                17.9247577,51.4422756,0                17.9209696,51.4434956,0                17.9207766,51.4433886,0                17.9258627,51.4374636,0                17.9264417,51.4361796,0                17.9273157,51.4346276,0                17.9284107,51.4345976,0                17.9294087,51.4368616,0                17.9294727,51.4374876,0                17.9295857,51.4375836,0                17.9297727,51.4376376,0              </coordinates></LinearRing></outerBoundaryIs></Polygon></Placemark><Placemark><name>Start</name><styleUrl>#icon-1899-0F9D58-nodesc</styleUrl><Point><coordinates>            17.929778,51.437636,0          </coordinates></Point></Placemark><Placemark><name>Finish</name><styleUrl>#icon-1899-FF5252-nodesc</styleUrl><Point><coordinates>            17.929255,51.4365149,0          </coordinates></Point></Placemark></Folder></Document></kml>