<?xml version="1.0" encoding="UTF-8"?><kml xmlns="http://www.opengis.net/kml/2.2"><Document><name>parkrun Ogród Saski (from Aug 2025)</name><description/><Style id="icon-1899-0F9D58-nodesc-normal"><IconStyle><color>ff589d0f</color><scale>1</scale><Icon><href>https://www.gstatic.com/mapspro/images/stock/503-wht-blank_maps.png</href></Icon><hotSpot x="32" xunits="pixels" y="64" yunits="insetPixels"/></IconStyle><LabelStyle><scale>0</scale></LabelStyle><BalloonStyle><text><![CDATA[<h3>$[name]</h3>]]></text></BalloonStyle></Style><Style id="icon-1899-0F9D58-nodesc-highlight"><IconStyle><color>ff589d0f</color><scale>1</scale><Icon><href>https://www.gstatic.com/mapspro/images/stock/503-wht-blank_maps.png</href></Icon><hotSpot x="32" xunits="pixels" y="64" yunits="insetPixels"/></IconStyle><LabelStyle><scale>1</scale></LabelStyle><BalloonStyle><text><![CDATA[<h3>$[name]</h3>]]></text></BalloonStyle></Style><StyleMap id="icon-1899-0F9D58-nodesc"><Pair><key>normal</key><styleUrl>#icon-1899-0F9D58-nodesc-normal</styleUrl></Pair><Pair><key>highlight</key><styleUrl>#icon-1899-0F9D58-nodesc-highlight</styleUrl></Pair></StyleMap><Style id="icon-1899-E65100-nodesc-normal"><IconStyle><color>ff0051e6</color><scale>1</scale><Icon><href>https://www.gstatic.com/mapspro/images/stock/503-wht-blank_maps.png</href></Icon><hotSpot x="32" xunits="pixels" y="64" yunits="insetPixels"/></IconStyle><LabelStyle><scale>0</scale></LabelStyle><BalloonStyle><text><![CDATA[<h3>$[name]</h3>]]></text></BalloonStyle></Style><Style id="icon-1899-E65100-nodesc-highlight"><IconStyle><color>ff0051e6</color><scale>1</scale><Icon><href>https://www.gstatic.com/mapspro/images/stock/503-wht-blank_maps.png</href></Icon><hotSpot x="32" xunits="pixels" y="64" yunits="insetPixels"/></IconStyle><LabelStyle><scale>1</scale></LabelStyle><BalloonStyle><text><![CDATA[<h3>$[name]</h3>]]></text></BalloonStyle></Style><StyleMap id="icon-1899-E65100-nodesc"><Pair><key>normal</key><styleUrl>#icon-1899-E65100-nodesc-normal</styleUrl></Pair><Pair><key>highlight</key><styleUrl>#icon-1899-E65100-nodesc-highlight</styleUrl></Pair></StyleMap><Style id="line-0288D1-4875-nodesc-normal"><LineStyle><color>ffd18802</color><width>4.875</width></LineStyle><BalloonStyle><text><![CDATA[<h3>$[name]</h3>]]></text></BalloonStyle></Style><Style id="line-0288D1-4875-nodesc-highlight"><LineStyle><color>ffd18802</color><width>7.3125</width></LineStyle><BalloonStyle><text><![CDATA[<h3>$[name]</h3>]]></text></BalloonStyle></Style><StyleMap id="line-0288D1-4875-nodesc"><Pair><key>normal</key><styleUrl>#line-0288D1-4875-nodesc-normal</styleUrl></Pair><Pair><key>highlight</key><styleUrl>#line-0288D1-4875-nodesc-highlight</styleUrl></Pair></StyleMap><Folder><name>suuntoapp-Running-2025-08-16T07-00-29Z</name><Placemark><name>Finish</name><styleUrl>#icon-1899-E65100-nodesc</styleUrl><Point><coordinates>            22.5484143,51.2494502,0          </coordinates></Point></Placemark><Placemark><name>Start</name><styleUrl>#icon-1899-0F9D58-nodesc</styleUrl><Point><coordinates>            22.5489107,51.2494502,0          </coordinates></Point></Placemark><Placemark><name>parkrun Ogród Saski</name><styleUrl>#line-0288D1-4875-nodesc</styleUrl><LineString><tessellate>1</tessellate><coordinates>            22.5485928,51.2494322,0            22.5489147,51.2494485,0            22.5485271,51.2494339,0            22.5484748,51.2494423,0            22.5482226,51.2494507,0            22.5478203,51.2493802,0            22.5474233,51.2492778,0            22.5470662,51.2482963,0            22.5448284,51.2486626,0            22.5447614,51.2486656,0            22.5446804,51.2486626,0            22.5432984,51.2489506,0            22.5427426,51.249219,0            22.5426016,51.2493234,0            22.5425678,51.2494747,0            22.5425074,51.2495754,0            22.5425555,51.249671,0            22.542569,51.249784,0            22.5426012,51.249893,0            22.5426996,51.250055,0            22.5429624,51.2502229,0            22.5435704,51.2502526,0            22.5439564,51.2502426,0            22.5446301,51.2502161,0            22.5450054,51.2502456,0            22.5451854,51.2502406,0            22.5460234,51.2502456,0            22.5462804,51.2502406,0            22.5469564,51.2501576,0            22.5476164,51.2501374,0            22.5481263,51.2499829,0            22.5483731,51.2498717,0            22.5485584,51.2498142,0            22.5488784,51.2497436,0            22.5493825,51.2496849,0            22.5499187,51.2495995,0            22.5503932,51.2493738,0            22.5506712,51.2490179,0            22.5508082,51.2486896,0            22.5509923,51.2479059,0            22.5504934,51.2478589,0            22.5497478,51.2479395,0            22.5498904,51.2485476,0            22.5496458,51.2488394,0            22.5489324,51.2490375,0            22.54864,51.2490895,0            22.5474233,51.2492778,0            22.5484169,51.2494418,0          </coordinates></LineString></Placemark></Folder></Document></kml>