<?xml version="1.0" encoding="UTF-8"?><kml xmlns="http://www.opengis.net/kml/2.2"><Document><name>parkrun Las Łagiewnicki</name><description/><Style id="icon-1899-0F9D58-nodesc-normal"><IconStyle><color>ff589d0f</color><scale>1</scale><Icon><href>https://www.gstatic.com/mapspro/images/stock/503-wht-blank_maps.png</href></Icon><hotSpot x="32" xunits="pixels" y="64" yunits="insetPixels"/></IconStyle><LabelStyle><scale>0</scale></LabelStyle><BalloonStyle><text><![CDATA[<h3>$[name]</h3>]]></text></BalloonStyle></Style><Style id="icon-1899-0F9D58-nodesc-highlight"><IconStyle><color>ff589d0f</color><scale>1</scale><Icon><href>https://www.gstatic.com/mapspro/images/stock/503-wht-blank_maps.png</href></Icon><hotSpot x="32" xunits="pixels" y="64" yunits="insetPixels"/></IconStyle><LabelStyle><scale>1</scale></LabelStyle><BalloonStyle><text><![CDATA[<h3>$[name]</h3>]]></text></BalloonStyle></Style><StyleMap id="icon-1899-0F9D58-nodesc"><Pair><key>normal</key><styleUrl>#icon-1899-0F9D58-nodesc-normal</styleUrl></Pair><Pair><key>highlight</key><styleUrl>#icon-1899-0F9D58-nodesc-highlight</styleUrl></Pair></StyleMap><Style id="icon-1899-FF5252-nodesc-normal"><IconStyle><color>ff5252ff</color><scale>1</scale><Icon><href>https://www.gstatic.com/mapspro/images/stock/503-wht-blank_maps.png</href></Icon><hotSpot x="32" xunits="pixels" y="64" yunits="insetPixels"/></IconStyle><LabelStyle><scale>0</scale></LabelStyle><BalloonStyle><text><![CDATA[<h3>$[name]</h3>]]></text></BalloonStyle></Style><Style id="icon-1899-FF5252-nodesc-highlight"><IconStyle><color>ff5252ff</color><scale>1</scale><Icon><href>https://www.gstatic.com/mapspro/images/stock/503-wht-blank_maps.png</href></Icon><hotSpot x="32" xunits="pixels" y="64" yunits="insetPixels"/></IconStyle><LabelStyle><scale>1</scale></LabelStyle><BalloonStyle><text><![CDATA[<h3>$[name]</h3>]]></text></BalloonStyle></Style><StyleMap id="icon-1899-FF5252-nodesc"><Pair><key>normal</key><styleUrl>#icon-1899-FF5252-nodesc-normal</styleUrl></Pair><Pair><key>highlight</key><styleUrl>#icon-1899-FF5252-nodesc-highlight</styleUrl></Pair></StyleMap><Style id="line-0288D1-5000-nodesc-normal"><LineStyle><color>ffd18802</color><width>5</width></LineStyle><BalloonStyle><text><![CDATA[<h3>$[name]</h3>]]></text></BalloonStyle></Style><Style id="line-0288D1-5000-nodesc-highlight"><LineStyle><color>ffd18802</color><width>7.5</width></LineStyle><BalloonStyle><text><![CDATA[<h3>$[name]</h3>]]></text></BalloonStyle></Style><StyleMap id="line-0288D1-5000-nodesc"><Pair><key>normal</key><styleUrl>#line-0288D1-5000-nodesc-normal</styleUrl></Pair><Pair><key>highlight</key><styleUrl>#line-0288D1-5000-nodesc-highlight</styleUrl></Pair></StyleMap><Folder><name>Untitled layer</name><Placemark><name>Course</name><styleUrl>#line-0288D1-5000-nodesc</styleUrl><LineString><tessellate>1</tessellate><coordinates>            19.4732,51.82492,228            19.47345,51.82502,228            19.47402,51.8251,230            19.4745,51.8253,230            19.47485,51.82533,230            19.47514,51.82537,231            19.47582,51.82546,233            19.47642,51.82554,233            19.47683,51.82553,233            19.47724,51.82541,232            19.47788,51.82505,233            19.47826,51.82481,233            19.47853,51.82471,232            19.47895,51.82465,233            19.47938,51.82448,233            19.47979,51.8243,232            19.47988,51.82422,231            19.47998,51.82413,231            19.48007,51.82437,232            19.4802,51.82455,233            19.48028,51.8249,233            19.4808,51.82679,235            19.48108,51.82736,238            19.4814,51.82796,241            19.48149,51.82828,244            19.4815,51.82833,245            19.48161,51.82882,246            19.48167,51.82913,246            19.48194,51.82944,245            19.48224,51.82979,246            19.48247,51.83,245            19.48241,51.83022,245            19.48235,51.83042,244            19.48219,51.83087,243            19.48196,51.83131,242            19.48173,51.83175,241            19.48151,51.8322,241            19.48128,51.83264,242            19.48105,51.83308,240            19.48079,51.83358,238            19.48037,51.83433,236            19.48032,51.83444,236            19.48,51.83507,234            19.48022,51.83597,232            19.48029,51.83602,232            19.48044,51.83612,232            19.48043,51.83642,232            19.48041,51.83645,232            19.4803,51.83663,232            19.47963,51.83688,230            19.47858,51.83704,228            19.47794,51.8373,227            19.47767,51.8375,228            19.47745,51.83777,226            19.47739,51.83784,226            19.47702,51.83798,222            19.47667,51.83774,222            19.47621,51.8375,221            19.47594,51.83727,223            19.47582,51.83716,224            19.47546,51.83681,228            19.47544,51.83662,229            19.47539,51.83634,229            19.47535,51.83584,230            19.47531,51.83517,231            19.47529,51.83495,233            19.47527,51.83481,233            19.47369,51.83459,235            19.47329,51.83455,235            19.47265,51.83458,236            19.47167,51.83467,237            19.47103,51.83482,237            19.47026,51.83483,237            19.47023,51.83434,240            19.4702,51.83384,239            19.47016,51.83335,240            19.47013,51.83285,240            19.4701,51.83236,239            19.47006,51.83187,239            19.47003,51.83137,240            19.47,51.83088,241            19.47002,51.83091,241            19.46956,51.83073,240            19.46877,51.83045,235            19.4685,51.83033,235            19.46722,51.83,235            19.46597,51.82945,233            19.46595,51.82944,233            19.46551,51.82898,232            19.4651,51.82907,231            19.46477,51.82903,231            19.46423,51.82897,229            19.46406,51.82888,228            19.46395,51.82877,228            19.46389,51.82856,228            19.4637,51.82797,227            19.46349,51.8274,228            19.4633,51.82714,228            19.46298,51.82686,225            19.4626,51.82638,224            19.46223,51.82594,222            19.46214,51.82584,221            19.46228,51.82564,220            19.46246,51.82541,220            19.46271,51.82539,221            19.4638,51.82542,224            19.46524,51.82563,227            19.46539,51.82567,228            19.46656,51.82594,231            19.46735,51.82604,230            19.46814,51.82614,230            19.46893,51.82624,230            19.47,51.82661,229            19.47106,51.82689,229            19.47139,51.82645,228            19.47171,51.826,227            19.47204,51.82556,225          </coordinates></LineString></Placemark><Placemark><name>Finish</name><styleUrl>#icon-1899-FF5252-nodesc</styleUrl><Point><coordinates>            19.47204,51.82556,0          </coordinates></Point></Placemark><Placemark><name>Start</name><styleUrl>#icon-1899-0F9D58-nodesc</styleUrl><Point><coordinates>            19.4732,51.82492,0          </coordinates></Point></Placemark></Folder></Document></kml>