<?xml version="1.0" encoding="UTF-8"?><kml xmlns="http://www.opengis.net/kml/2.2"><Document><name>parkrun Katowice</name><description/><Style id="icon-1207-nodesc-normal"><IconStyle><scale>1.1</scale><Icon><href>https://www.gstatic.com/mapspro/images/stock/1207-fac-parking.png</href></Icon></IconStyle><LabelStyle><scale>0</scale></LabelStyle><BalloonStyle><text><![CDATA[<h3>$[name]</h3>]]></text></BalloonStyle></Style><Style id="icon-1207-nodesc-highlight"><IconStyle><scale>1.1</scale><Icon><href>https://www.gstatic.com/mapspro/images/stock/1207-fac-parking.png</href></Icon></IconStyle><LabelStyle><scale>1.1</scale></LabelStyle><BalloonStyle><text><![CDATA[<h3>$[name]</h3>]]></text></BalloonStyle></Style><StyleMap id="icon-1207-nodesc"><Pair><key>normal</key><styleUrl>#icon-1207-nodesc-normal</styleUrl></Pair><Pair><key>highlight</key><styleUrl>#icon-1207-nodesc-highlight</styleUrl></Pair></StyleMap><Style id="icon-1423-nodesc-normal"><IconStyle><scale>1.1</scale><Icon><href>https://www.gstatic.com/mapspro/images/stock/1423-trans-bus.png</href></Icon></IconStyle><LabelStyle><scale>0</scale></LabelStyle><BalloonStyle><text><![CDATA[<h3>$[name]</h3>]]></text></BalloonStyle></Style><Style id="icon-1423-nodesc-highlight"><IconStyle><scale>1.1</scale><Icon><href>https://www.gstatic.com/mapspro/images/stock/1423-trans-bus.png</href></Icon></IconStyle><LabelStyle><scale>1.1</scale></LabelStyle><BalloonStyle><text><![CDATA[<h3>$[name]</h3>]]></text></BalloonStyle></Style><StyleMap id="icon-1423-nodesc"><Pair><key>normal</key><styleUrl>#icon-1423-nodesc-normal</styleUrl></Pair><Pair><key>highlight</key><styleUrl>#icon-1423-nodesc-highlight</styleUrl></Pair></StyleMap><Style id="icon-1461-nodesc-normal"><IconStyle><scale>1.1</scale><Icon><href>https://www.gstatic.com/mapspro/images/stock/1461-trans-tram-alt.png</href></Icon></IconStyle><LabelStyle><scale>0</scale></LabelStyle><BalloonStyle><text><![CDATA[<h3>$[name]</h3>]]></text></BalloonStyle></Style><Style id="icon-1461-nodesc-highlight"><IconStyle><scale>1.1</scale><Icon><href>https://www.gstatic.com/mapspro/images/stock/1461-trans-tram-alt.png</href></Icon></IconStyle><LabelStyle><scale>1.1</scale></LabelStyle><BalloonStyle><text><![CDATA[<h3>$[name]</h3>]]></text></BalloonStyle></Style><StyleMap id="icon-1461-nodesc"><Pair><key>normal</key><styleUrl>#icon-1461-nodesc-normal</styleUrl></Pair><Pair><key>highlight</key><styleUrl>#icon-1461-nodesc-highlight</styleUrl></Pair></StyleMap><Style id="icon-503-009D57-nodesc-normal"><IconStyle><color>ff579d00</color><scale>1.1</scale><Icon><href>https://www.gstatic.com/mapspro/images/stock/503-wht-blank_maps.png</href></Icon><hotSpot x="16" xunits="pixels" y="32" yunits="insetPixels"/></IconStyle><LabelStyle><scale>0</scale></LabelStyle><BalloonStyle><text><![CDATA[<h3>$[name]</h3>]]></text></BalloonStyle></Style><Style id="icon-503-009D57-nodesc-highlight"><IconStyle><color>ff579d00</color><scale>1.1</scale><Icon><href>https://www.gstatic.com/mapspro/images/stock/503-wht-blank_maps.png</href></Icon><hotSpot x="16" xunits="pixels" y="32" yunits="insetPixels"/></IconStyle><LabelStyle><scale>1.1</scale></LabelStyle><BalloonStyle><text><![CDATA[<h3>$[name]</h3>]]></text></BalloonStyle></Style><StyleMap id="icon-503-009D57-nodesc"><Pair><key>normal</key><styleUrl>#icon-503-009D57-nodesc-normal</styleUrl></Pair><Pair><key>highlight</key><styleUrl>#icon-503-009D57-nodesc-highlight</styleUrl></Pair></StyleMap><Style id="icon-503-DB4436-nodesc-normal"><IconStyle><color>ff3644db</color><scale>1.1</scale><Icon><href>https://www.gstatic.com/mapspro/images/stock/503-wht-blank_maps.png</href></Icon><hotSpot x="16" xunits="pixels" y="32" yunits="insetPixels"/></IconStyle><LabelStyle><scale>0</scale></LabelStyle><BalloonStyle><text><![CDATA[<h3>$[name]</h3>]]></text></BalloonStyle></Style><Style id="icon-503-DB4436-nodesc-highlight"><IconStyle><color>ff3644db</color><scale>1.1</scale><Icon><href>https://www.gstatic.com/mapspro/images/stock/503-wht-blank_maps.png</href></Icon><hotSpot x="16" xunits="pixels" y="32" yunits="insetPixels"/></IconStyle><LabelStyle><scale>1.1</scale></LabelStyle><BalloonStyle><text><![CDATA[<h3>$[name]</h3>]]></text></BalloonStyle></Style><StyleMap id="icon-503-DB4436-nodesc"><Pair><key>normal</key><styleUrl>#icon-503-DB4436-nodesc-normal</styleUrl></Pair><Pair><key>highlight</key><styleUrl>#icon-503-DB4436-nodesc-highlight</styleUrl></Pair></StyleMap><Style id="line-4186F0-4314-nodesc-normal"><LineStyle><color>fff08641</color><width>4.314</width></LineStyle><BalloonStyle><text><![CDATA[<h3>$[name]</h3>]]></text></BalloonStyle></Style><Style id="line-4186F0-4314-nodesc-highlight"><LineStyle><color>fff08641</color><width>6.471</width></LineStyle><BalloonStyle><text><![CDATA[<h3>$[name]</h3>]]></text></BalloonStyle></Style><StyleMap id="line-4186F0-4314-nodesc"><Pair><key>normal</key><styleUrl>#line-4186F0-4314-nodesc-normal</styleUrl></Pair><Pair><key>highlight</key><styleUrl>#line-4186F0-4314-nodesc-highlight</styleUrl></Pair></StyleMap><Folder><name>Untitled layer</name><Placemark><name>Trasa</name><styleUrl>#line-4186F0-4314-nodesc</styleUrl><LineString><tessellate>1</tessellate><coordinates>            19.001005,50.244804,0            19.001284,50.244611,0            19.001584,50.244556,0            19.001863,50.244598,0            19.002206,50.244694,0            19.002228,50.244817,0            19.002013,50.244996,0            19.001756,50.245064,0            19.001498,50.245064,0            19.001198,50.245037,0            19.001005,50.244968,0            19.000468,50.245174,0            19.000468,50.245311,0            19.001176,50.245613,0            19.001691,50.24597,0            19.00212,50.246395,0            19.003129,50.246231,0            19.004996,50.246203,0            19.005425,50.246258,0            19.005897,50.246546,0            19.006884,50.246834,0            19.008686,50.24656,0            19.008579,50.246203,0            19.008365,50.24597,0            19.008043,50.24575,0            19.007635,50.245654,0            19.007506,50.245531,0            19.007206,50.245558,0            19.007077,50.245654,0            19.005983,50.245572,0            19.004288,50.245476,0            19.003,50.245476,0            19.002957,50.244653,0            19.005575,50.244406,0            19.00697,50.244241,0            19.006476,50.243239,0            19.00579,50.243678,0            19.004481,50.243706,0            19.004009,50.244008,0            19.002914,50.244296,0            19.002378,50.244364,0            19.001713,50.244351,0            19.00079,50.244378,0            19.000425,50.244611,0            19.001005,50.244804,0          </coordinates></LineString></Placemark><Placemark><name>Start</name><styleUrl>#icon-503-009D57-nodesc</styleUrl><Point><coordinates>            19.001648,50.244556,0          </coordinates></Point></Placemark><Placemark><name>Meta</name><styleUrl>#icon-503-DB4436-nodesc</styleUrl><Point><coordinates>            19.001005,50.244941,0          </coordinates></Point></Placemark><Placemark><name>Parking</name><styleUrl>#icon-1207-nodesc</styleUrl><Point><coordinates>            19.010607,50.245936,0          </coordinates></Point></Placemark><Placemark><name>Parking</name><styleUrl>#icon-1207-nodesc</styleUrl><Point><coordinates>            18.999481,50.246821,0          </coordinates></Point></Placemark><Placemark><name>Parking</name><styleUrl>#icon-1207-nodesc</styleUrl><Point><coordinates>            18.9969383,50.2422547,0          </coordinates></Point></Placemark><Placemark><name>Autobus</name><styleUrl>#icon-1423-nodesc</styleUrl><Point><coordinates>            18.997164,50.245435,0          </coordinates></Point></Placemark><Placemark><name>Tramwaj</name><styleUrl>#icon-1461-nodesc</styleUrl><Point><coordinates>            19.009395,50.245188,0          </coordinates></Point></Placemark></Folder></Document></kml>