<?xml version="1.0" encoding="UTF-8"?><kml xmlns="http://www.opengis.net/kml/2.2"><Document><name>parkrun Zamek w Malborku</name><description/><Style id="icon-1499-0288D1-nodesc-normal"><IconStyle><color>ffd18802</color><scale>1</scale><Icon><href>https://www.gstatic.com/mapspro/images/stock/503-wht-blank_maps.png</href></Icon></IconStyle><LabelStyle><scale>0</scale></LabelStyle><BalloonStyle><text><![CDATA[<h3>$[name]</h3>]]></text></BalloonStyle></Style><Style id="icon-1499-0288D1-nodesc-highlight"><IconStyle><color>ffd18802</color><scale>1</scale><Icon><href>https://www.gstatic.com/mapspro/images/stock/503-wht-blank_maps.png</href></Icon></IconStyle><LabelStyle><scale>1</scale></LabelStyle><BalloonStyle><text><![CDATA[<h3>$[name]</h3>]]></text></BalloonStyle></Style><StyleMap id="icon-1499-0288D1-nodesc"><Pair><key>normal</key><styleUrl>#icon-1499-0288D1-nodesc-normal</styleUrl></Pair><Pair><key>highlight</key><styleUrl>#icon-1499-0288D1-nodesc-highlight</styleUrl></Pair></StyleMap><Style id="icon-1899-FFEA00-nodesc-normal"><IconStyle><color>ff00eaff</color><scale>1</scale><Icon><href>https://www.gstatic.com/mapspro/images/stock/503-wht-blank_maps.png</href></Icon><hotSpot x="32" xunits="pixels" y="64" yunits="insetPixels"/></IconStyle><LabelStyle><scale>0</scale></LabelStyle><BalloonStyle><text><![CDATA[<h3>$[name]</h3>]]></text></BalloonStyle></Style><Style id="icon-1899-FFEA00-nodesc-highlight"><IconStyle><color>ff00eaff</color><scale>1</scale><Icon><href>https://www.gstatic.com/mapspro/images/stock/503-wht-blank_maps.png</href></Icon><hotSpot x="32" xunits="pixels" y="64" yunits="insetPixels"/></IconStyle><LabelStyle><scale>1</scale></LabelStyle><BalloonStyle><text><![CDATA[<h3>$[name]</h3>]]></text></BalloonStyle></Style><StyleMap id="icon-1899-FFEA00-nodesc"><Pair><key>normal</key><styleUrl>#icon-1899-FFEA00-nodesc-normal</styleUrl></Pair><Pair><key>highlight</key><styleUrl>#icon-1899-FFEA00-nodesc-highlight</styleUrl></Pair></StyleMap><Style id="line-0288D1-5456-nodesc-normal"><LineStyle><color>ffd18802</color><width>5.456</width></LineStyle><BalloonStyle><text><![CDATA[<h3>$[name]</h3>]]></text></BalloonStyle></Style><Style id="line-0288D1-5456-nodesc-highlight"><LineStyle><color>ffd18802</color><width>8.184</width></LineStyle><BalloonStyle><text><![CDATA[<h3>$[name]</h3>]]></text></BalloonStyle></Style><StyleMap id="line-0288D1-5456-nodesc"><Pair><key>normal</key><styleUrl>#line-0288D1-5456-nodesc-normal</styleUrl></Pair><Pair><key>highlight</key><styleUrl>#line-0288D1-5456-nodesc-highlight</styleUrl></Pair></StyleMap><Folder><name>Untitled layer</name><Placemark><name>Course</name><styleUrl>#line-0288D1-5456-nodesc</styleUrl><LineString><tessellate>1</tessellate><coordinates>            19.025179,54.038549,0            19.024795,54.037867,0            19.023945,54.036204,0            19.02354,54.035363,0            19.023103,54.034613,0            19.022548,54.033805,0            19.021944,54.03297,0            19.021132,54.031888,0            19.020788,54.031456,0            19.020724,54.031324,0            19.020322,54.030954,0            19.01986,54.030502,0            19.019686,54.030327,0            19.019434,54.030024,0            19.019166,54.029709,0            19.019005,54.029503,0            19.018838,54.029326,0            19.018463,54.028903,0            19.018286,54.02869,0            19.018168,54.028558,0            19.018219,54.02854,0            19.018415,54.02878,0            19.018565,54.028962,0            19.018922,54.029364,0            19.019072,54.029527,0            19.019182,54.029665,0            19.019302,54.02982,0            19.019496,54.030046,0            19.019748,54.030344,0            19.019855,54.030445,0            19.02007,54.030666,0            19.02023,54.030823,0            19.020442,54.031023,0            19.020628,54.031182,0            19.020743,54.031283,0            19.02081,54.031416,0            19.020984,54.031655,0            19.021231,54.031975,0            19.021475,54.032298,0            19.021797,54.032725,0            19.021982,54.032964,0            19.022312,54.033402,0            19.022572,54.033764,0            19.022854,54.034163,0            19.02309,54.034517,0            19.023406,54.035029,0            19.023707,54.035607,0            19.023937,54.036094,0            19.024495,54.037181,0            19.024755,54.037696,0            19.025029,54.038198,0            19.025302,54.038668,0            19.02552,54.039014,0            19.02567,54.03927,0            19.025721,54.039403,0            19.025799,54.039594,0            19.025938,54.039785,0            19.026147,54.040004,0            19.026421,54.040298,0            19.026574,54.04046,0            19.026743,54.040627,0            19.026912,54.040738,0            19.027105,54.040865,0            19.027411,54.041021,0            19.027666,54.041171,0            19.027829,54.041298,0            19.027982,54.041442,0            19.028119,54.041544,0            19.028561,54.041801,0            19.029401,54.042265,0            19.029886,54.042531,0            19.030235,54.042754,0            19.030619,54.043028,0            19.030957,54.043254,0            19.031439,54.043563,0            19.031877,54.043878,0            19.032172,54.044152,0            19.032469,54.044385,0            19.032824,54.04461,0            19.033164,54.044845,0            19.033354,54.044969,0            19.033789,54.045204,0            19.034315,54.0455,0            19.034674,54.045697,0            19.035149,54.045911,0            19.035637,54.046172,0            19.035959,54.046341,0            19.036345,54.046527,0            19.036874,54.046784,0            19.037461,54.047065,0            19.037866,54.047275,0            19.037968,54.047328,0            19.037925,54.04735,0            19.037622,54.047198,0            19.037169,54.046965,0            19.036546,54.046662,0            19.035927,54.046371,0            19.035323,54.046048,0            19.034969,54.045869,0            19.034631,54.045713,0            19.033982,54.04536,0            19.033422,54.045058,0            19.033274,54.044963,0            19.03285,54.044668,0            19.032461,54.04442,0            19.032046,54.044095,0            19.031823,54.043878,0            19.031525,54.043665,0            19.030857,54.04324,0            19.030522,54.043016,0            19.030144,54.042742,0            19.02979,54.042516,0            19.029337,54.042275,0            19.028671,54.041884,0            19.028234,54.041649,0            19.028033,54.041533,0            19.02784,54.041353,0            19.027623,54.041193,0            19.027438,54.041086,0            19.027164,54.04093,0            19.026949,54.040808,0            19.026756,54.04067,0            19.026601,54.04055,0            19.026418,54.040367,0            19.026279,54.040216,0            19.026137,54.040048,0            19.025938,54.039844,0            19.025812,54.039704,0            19.025726,54.039556,0            19.025675,54.039399,0            19.025598,54.039254,0            19.025445,54.038978,0            19.025252,54.038654,0            19.025198,54.038569,0          </coordinates></LineString></Placemark><Placemark><name>1 NAWRÓT</name><styleUrl>#icon-1499-0288D1-nodesc</styleUrl><Point><coordinates>            19.018191,54.028549,0          </coordinates></Point></Placemark><Placemark><name>2 NAWRÓT</name><styleUrl>#icon-1499-0288D1-nodesc</styleUrl><Point><coordinates>            19.037947,54.047339,0          </coordinates></Point></Placemark><Placemark><name>Start/Finish</name><styleUrl>#icon-1899-FFEA00-nodesc</styleUrl><Point><coordinates>            19.025176,54.038548,0          </coordinates></Point></Placemark></Folder></Document></kml>