<?xml version="1.0" encoding="UTF-8"?><kml xmlns="http://www.opengis.net/kml/2.2"><Document><name>parkrun Koszalin</name><description/><Style id="icon-1644-0288D1-nodesc-normal"><IconStyle><color>ffd18802</color><scale>1</scale><Icon><href>https://www.gstatic.com/mapspro/images/stock/503-wht-blank_maps.png</href></Icon></IconStyle><LabelStyle><scale>0</scale></LabelStyle><BalloonStyle><text><![CDATA[<h3>$[name]</h3>]]></text></BalloonStyle></Style><Style id="icon-1644-0288D1-nodesc-highlight"><IconStyle><color>ffd18802</color><scale>1</scale><Icon><href>https://www.gstatic.com/mapspro/images/stock/503-wht-blank_maps.png</href></Icon></IconStyle><LabelStyle><scale>1</scale></LabelStyle><BalloonStyle><text><![CDATA[<h3>$[name]</h3>]]></text></BalloonStyle></Style><StyleMap id="icon-1644-0288D1-nodesc"><Pair><key>normal</key><styleUrl>#icon-1644-0288D1-nodesc-normal</styleUrl></Pair><Pair><key>highlight</key><styleUrl>#icon-1644-0288D1-nodesc-highlight</styleUrl></Pair></StyleMap><Style id="icon-1899-7CB342-nodesc-normal"><IconStyle><color>ff42b37c</color><scale>1</scale><Icon><href>https://www.gstatic.com/mapspro/images/stock/503-wht-blank_maps.png</href></Icon><hotSpot x="32" xunits="pixels" y="64" yunits="insetPixels"/></IconStyle><LabelStyle><scale>0</scale></LabelStyle><BalloonStyle><text><![CDATA[<h3>$[name]</h3>]]></text></BalloonStyle></Style><Style id="icon-1899-7CB342-nodesc-highlight"><IconStyle><color>ff42b37c</color><scale>1</scale><Icon><href>https://www.gstatic.com/mapspro/images/stock/503-wht-blank_maps.png</href></Icon><hotSpot x="32" xunits="pixels" y="64" yunits="insetPixels"/></IconStyle><LabelStyle><scale>1</scale></LabelStyle><BalloonStyle><text><![CDATA[<h3>$[name]</h3>]]></text></BalloonStyle></Style><StyleMap id="icon-1899-7CB342-nodesc"><Pair><key>normal</key><styleUrl>#icon-1899-7CB342-nodesc-normal</styleUrl></Pair><Pair><key>highlight</key><styleUrl>#icon-1899-7CB342-nodesc-highlight</styleUrl></Pair></StyleMap><Style id="icon-1899-E65100-nodesc-normal"><IconStyle><color>ff0051e6</color><scale>1</scale><Icon><href>https://www.gstatic.com/mapspro/images/stock/503-wht-blank_maps.png</href></Icon><hotSpot x="32" xunits="pixels" y="64" yunits="insetPixels"/></IconStyle><LabelStyle><scale>0</scale></LabelStyle><BalloonStyle><text><![CDATA[<h3>$[name]</h3>]]></text></BalloonStyle></Style><Style id="icon-1899-E65100-nodesc-highlight"><IconStyle><color>ff0051e6</color><scale>1</scale><Icon><href>https://www.gstatic.com/mapspro/images/stock/503-wht-blank_maps.png</href></Icon><hotSpot x="32" xunits="pixels" y="64" yunits="insetPixels"/></IconStyle><LabelStyle><scale>1</scale></LabelStyle><BalloonStyle><text><![CDATA[<h3>$[name]</h3>]]></text></BalloonStyle></Style><StyleMap id="icon-1899-E65100-nodesc"><Pair><key>normal</key><styleUrl>#icon-1899-E65100-nodesc-normal</styleUrl></Pair><Pair><key>highlight</key><styleUrl>#icon-1899-E65100-nodesc-highlight</styleUrl></Pair></StyleMap><Style id="line-0288D1-4488-nodesc-normal"><LineStyle><color>ffd18802</color><width>4.488</width></LineStyle><BalloonStyle><text><![CDATA[<h3>$[name]</h3>]]></text></BalloonStyle></Style><Style id="line-0288D1-4488-nodesc-highlight"><LineStyle><color>ffd18802</color><width>6.732</width></LineStyle><BalloonStyle><text><![CDATA[<h3>$[name]</h3>]]></text></BalloonStyle></Style><StyleMap id="line-0288D1-4488-nodesc"><Pair><key>normal</key><styleUrl>#line-0288D1-4488-nodesc-normal</styleUrl></Pair><Pair><key>highlight</key><styleUrl>#line-0288D1-4488-nodesc-highlight</styleUrl></Pair></StyleMap><Folder><name>Untitled layer</name><Placemark><name>route</name><styleUrl>#line-0288D1-4488-nodesc</styleUrl><LineString><tessellate>1</tessellate><coordinates>            16.21059,54.17937,0            16.210655,54.179363,0            16.210762,54.17936,0            16.210898,54.179358,0            16.210969,54.179348,0            16.211108,54.179314,0            16.211233,54.179269,0            16.211351,54.179223,0            16.211411,54.179198,0            16.211529,54.179153,0            16.211586,54.179132,0            16.211639,54.179114,0            16.21174,54.179077,0            16.211856,54.179031,0            16.211911,54.179009,0            16.212024,54.178986,0            16.212146,54.178972,0            16.212213,54.178965,0            16.212341,54.178963,0            16.212467,54.17897,0            16.2126,54.17897,0            16.212726,54.178979,0            16.212841,54.179003,0            16.212941,54.179039,0            16.213037,54.17908,0            16.213087,54.179103,0            16.213179,54.179145,0            16.213279,54.179188,0            16.213331,54.179208,0            16.213425,54.179252,0            16.213512,54.179291,0            16.213589,54.179335,0            16.213648,54.179385,0            16.213663,54.179415,0            16.213671,54.17947,0            16.213648,54.1795,0            16.213562,54.17955,0            16.213463,54.179591,0            16.213416,54.179613,0            16.213312,54.179654,0            16.213213,54.179693,0            16.213117,54.179734,0            16.213019,54.179771,0            16.212914,54.17981,0            16.212799,54.179844,0            16.212746,54.179861,0            16.212692,54.179877,0            16.212482,54.179954,0            16.212383,54.179994,0            16.21228,54.180031,0            16.212172,54.180068,0            16.212062,54.180101,0            16.211953,54.180129,0            16.211838,54.180135,0            16.211716,54.18012,0            16.211665,54.1801,0            16.211578,54.180053,0            16.211486,54.180004,0            16.211438,54.179984,0            16.211359,54.179938,0            16.211325,54.179913,0            16.211246,54.179859,0            16.211156,54.179812,0            16.211114,54.179785,0            16.211017,54.179745,0            16.210963,54.179736,0            16.210836,54.179717,0            16.210714,54.179702,0            16.210666,54.179696,0            16.210554,54.179682,0            16.210435,54.179661,0            16.210326,54.179644,0            16.210214,54.179625,0            16.210155,54.179616,0            16.210053,54.179608,0            16.209942,54.179596,0            16.209822,54.179587,0            16.209703,54.179584,0            16.209581,54.179572,0            16.209459,54.179563,0            16.209406,54.179568,0            16.209311,54.179585,0            16.209219,54.179628,0            16.209114,54.179671,0            16.209064,54.179696,0            16.208956,54.179742,0            16.208846,54.17979,0            16.208732,54.179827,0            16.208621,54.179874,0            16.208525,54.179924,0            16.208412,54.179953,0            16.208294,54.179996,0            16.208169,54.180048,0            16.208035,54.180104,0            16.207911,54.180152,0            16.207859,54.180178,0            16.207757,54.180237,0            16.207653,54.180292,0            16.207546,54.180338,0            16.20743,54.180377,0            16.207326,54.180415,0            16.207271,54.180435,0            16.207211,54.180455,0            16.2071,54.180493,0            16.206992,54.180537,0            16.20689,54.180588,0            16.206765,54.180633,0            16.206647,54.180672,0            16.206544,54.180715,0            16.206434,54.180758,0            16.206308,54.180788,0            16.206203,54.180823,0            16.206102,54.180856,0            16.205998,54.180884,0            16.205953,54.180901,0            16.20586,54.180939,0            16.205747,54.180985,0            16.205683,54.181005,0            16.20557,54.181034,0            16.205468,54.181066,0            16.205417,54.181078,0            16.205364,54.181096,0            16.205275,54.181134,0            16.205193,54.181183,0            16.20515,54.181208,0            16.205067,54.18126,0            16.20499,54.181309,0            16.204906,54.181355,0            16.204817,54.181397,0            16.204718,54.181444,0            16.204618,54.181478,0            16.204519,54.181514,0            16.204419,54.181552,0            16.204329,54.181593,0            16.204229,54.181641,0            16.204132,54.181683,0            16.204034,54.181721,0            16.203931,54.181759,0            16.203855,54.181805,0            16.203814,54.181828,0            16.203771,54.18185,0            16.203633,54.181906,0            16.203603,54.181907,0            16.203565,54.181914,0            16.203532,54.18192,0            16.203481,54.181932,0            16.20343,54.181946,0            16.203316,54.181976,0            16.203215,54.182014,0            16.203128,54.182066,0            16.203095,54.182098,0            16.203055,54.182168,0            16.203046,54.182243,0            16.203019,54.182316,0            16.202994,54.182344,0            16.202927,54.182391,0            16.202823,54.182426,0            16.202729,54.18247,0            16.202637,54.18251,0            16.202536,54.18252,0            16.202448,54.182474,0            16.202371,54.182408,0            16.202332,54.18237,0            16.202246,54.182298,0            16.202166,54.182242,0            16.202095,54.182174,0            16.202004,54.18211,0            16.20193,54.182058,0            16.201893,54.182028,0            16.201813,54.181978,30            16.201721,54.181924,30            16.201639,54.18187,30            16.201563,54.181805,30            16.201484,54.181743,30            16.201405,54.181686,30            16.201366,54.181629,30            16.201398,54.181568,30            16.201483,54.181518,30            16.201569,54.181466,30            16.201614,54.181441,30            16.201703,54.181389,30            16.201753,54.181367,30            16.201833,54.181321,30            16.20193,54.181277,30            16.201978,54.181252,30            16.202072,54.181205,30            16.202138,54.181153,30            16.202208,54.181095,30            16.202278,54.181038,30            16.202347,54.180983,30            16.202415,54.180923,30            16.202495,54.180875,30            16.202591,54.180882,30            16.202692,54.180928,30            16.202786,54.180982,30            16.202859,54.18104,30            16.202939,54.181093,30            16.203024,54.181145,30            16.203138,54.181141,30            16.2032,54.181123,30            16.203307,54.181073,30            16.203383,54.181005,30            16.203455,54.180945,30            16.203488,54.180924,30            16.203538,54.18087,30            16.203567,54.180801,30            16.203591,54.180752,30            16.203636,54.180709,30            16.203652,54.180648,30            16.203682,54.180576,30            16.20371,54.180506,30            16.203761,54.180445,30            16.203845,54.180388,30            16.203889,54.180368,30            16.203996,54.180323,30            16.204097,54.180284,30            16.204147,54.180261,30            16.204252,54.180218,30            16.204365,54.180169,30            16.204473,54.180124,30            16.204569,54.180083,30            16.204619,54.180063,30            16.204726,54.180017,30            16.204821,54.179969,30            16.204912,54.179923,30            16.205008,54.179883,30            16.205105,54.179841,30            16.205215,54.179793,30            16.205324,54.179753,30            16.205429,54.179711,30            16.205528,54.179666,30            16.205626,54.179627,30            16.205728,54.179582,30            16.205826,54.17954,30            16.20593,54.179505,30            16.206037,54.179472,30            16.20614,54.179437,30            16.206249,54.179395,30            16.206353,54.179352,30            16.206452,54.179307,30            16.206547,54.179267,30            16.206597,54.179246,30            16.206692,54.1792,30            16.206784,54.179157,30            16.206878,54.179111,30            16.206928,54.179088,30            16.20703,54.17905,30            16.207128,54.179012,30            16.207228,54.178972,30            16.207278,54.178951,30            16.207323,54.178933,30            16.207425,54.178901,30            16.20748,54.178883,30            16.207577,54.178852,30            16.207692,54.178832,30            16.207814,54.17882,30            16.207938,54.178789,30            16.208045,54.178761,30            16.208158,54.178743,30            16.208281,54.178747,30            16.208396,54.17877,30            16.208511,54.178778,30            16.208621,54.178753,30            16.208722,54.178744,30            16.208824,54.178747,30            16.208936,54.178782,30            16.209035,54.178821,30            16.209133,54.178859,30            16.209218,54.178898,30            16.209302,54.17894,30            16.209385,54.178989,30            16.20946,54.179047,30            16.209542,54.179097,30            16.209614,54.179156,30            16.209705,54.179205,30            16.209799,54.179252,30            16.209901,54.179296,30            16.209963,54.179312,30            16.210087,54.179329,30            16.210195,54.179348,30            16.210289,54.179359,30            16.210383,54.179369,30            16.210428,54.179373,30            16.210525,54.179376,30            16.210571,54.179376,30            16.210623,54.179377,30            16.21068,54.179375,30            16.210791,54.179372,30            16.210892,54.179364,30            16.21099,54.17935,30            16.211042,54.179336,30            16.21114,54.179307,30            16.211243,54.179274,30            16.211292,54.179254,30            16.211383,54.179207,30            16.211431,54.179186,30            16.211535,54.179149,30            16.211627,54.179114,30            16.211722,54.179082,30            16.211824,54.17904,30            16.211932,54.179008,30            16.212033,54.178983,30            16.212136,54.178975,30            16.212254,54.178976,30            16.212361,54.178978,30            16.212481,54.178982,30            16.212537,54.178984,30            16.212656,54.178987,30            16.212775,54.178998,30            16.212886,54.179018,30            16.212936,54.179032,30            16.213026,54.17907,30            16.213114,54.179115,30            16.213159,54.179135,30            16.213251,54.17917,30            16.213355,54.179215,30            16.21345,54.179261,30            16.213546,54.179303,30            16.213595,54.179324,30            16.21367,54.179369,30            16.213701,54.179431,30            16.21369,54.179502,30            16.213613,54.179547,30            16.213512,54.179592,30            16.213418,54.179632,30            16.213361,54.179649,30            16.213245,54.179679,30            16.213191,54.179699,30            16.213101,54.179735,30            16.213005,54.179773,30            16.2129,54.17981,30            16.212846,54.179827,30            16.212752,54.179866,30            16.212641,54.179907,30            16.212589,54.179927,30            16.212482,54.17996,30            16.212376,54.179992,30            16.212274,54.180029,30            16.212173,54.180068,30            16.212073,54.18011,30            16.211978,54.180144,30            16.211928,54.180152,30            16.211808,54.180152,30            16.211696,54.180136,30            16.211615,54.180099,30            16.211532,54.180058,30            16.211439,54.180014,30            16.211351,54.179962,30            16.211271,54.179908,30            16.21123,54.179886,30            16.211138,54.179838,30            16.211029,54.179796,30            16.210918,54.179762,30            16.210825,54.179736,30            16.210725,54.17972,30            16.210649,54.179712,30            16.210588,54.179694,30            16.21057,54.179688,30            16.210556,54.179692,30            16.210497,54.179688,30            16.210411,54.179668,30            16.210316,54.179643,30            16.210217,54.179622,30            16.210167,54.179616,30            16.210064,54.179594,30            16.209951,54.179586,30            16.209849,54.179584,30            16.209741,54.179578,30            16.209693,54.179574,30            16.209591,54.179564,30            16.209533,54.179559,30            16.209418,54.179554,30            16.209321,54.179578,30            16.209221,54.17962,30            16.209132,54.179657,30            16.209044,54.179695,30            16.208963,54.179734,30            16.208855,54.179773,30            16.208737,54.179812,30            16.208636,54.179849,30            16.208535,54.179885,30            16.208435,54.179922,30            16.208345,54.17996,30            16.208295,54.179982,30            16.208188,54.180019,30            16.208079,54.180054,30            16.207972,54.180096,30            16.207923,54.180117,30            16.207829,54.180163,30            16.207728,54.180208,30            16.207684,54.180228,30            16.207596,54.180273,30            16.207505,54.180324,30            16.207469,54.180346,30            16.20738,54.18038,30            16.207276,54.18041,30            16.207173,54.180441,30            16.207077,54.180473,30            16.206975,54.180515,30            16.206896,54.180561,30            16.206804,54.180603,30            16.206711,54.180644,30            16.206613,54.180685,30            16.206511,54.180725,30            16.206423,54.180763,30            16.206335,54.180803,30            16.206239,54.180835,30            16.206145,54.180862,30            16.206054,54.180893,30            16.205964,54.180925,30            16.205865,54.180961,30            16.205766,54.180994,30            16.205665,54.181025,30            16.205553,54.181056,30            16.205437,54.181083,30            16.205337,54.181119,30            16.205241,54.181158,30            16.205139,54.181207,30            16.205049,54.181254,30            16.204967,54.181298,30            16.204924,54.181321,30            16.204834,54.18136,30            16.204738,54.181403,30            16.204646,54.181446,30            16.204551,54.181489,30            16.20445,54.181533,30            16.204348,54.181576,30            16.204261,54.181617,30            16.204156,54.181657,30            16.204055,54.181697,30            16.203961,54.181739,30            16.203921,54.181764,30            16.203834,54.18182,30            16.203737,54.181869,30            16.203632,54.181908,30            16.20353,54.181938,30            16.203449,54.181952,30            16.20337,54.18197,30            16.203278,54.182005,30            16.203232,54.182022,30            16.203143,54.182062,30            16.20309,54.182118,30            16.203056,54.182182,30            16.203043,54.182249,30            16.203008,54.182305,30            16.202936,54.182345,30            16.202898,54.182367,30            16.202805,54.182402,30            16.202717,54.182442,30            16.20263,54.182489,30            16.202551,54.182506,30            16.202485,54.182481,30            16.202454,54.182457,30            16.202384,54.182403,30            16.202325,54.18235,30            16.20229,54.182321,30            16.202209,54.18227,30            16.202127,54.182216,30            16.202045,54.182164,30            16.201973,54.18211,30            16.201903,54.18205,30            16.201842,54.181998,30            16.201772,54.181955,30            16.201684,54.181911,30            16.201606,54.181858,30            16.201535,54.181799,30            16.201506,54.181773,30            16.201473,54.181747,30            16.201397,54.181698,30            16.201354,54.181638,30            16.201359,54.181609,30            16.201418,54.181557,30            16.2015,54.181507,30            16.201546,54.18148,30            16.201632,54.181437,30            16.201716,54.181397,30            16.201798,54.181355,30            16.20187,54.181305,30            16.20196,54.181266,30            16.202052,54.181224,30            16.202133,54.181167,30            16.202209,54.181104,30            16.202274,54.181047,30            16.20234,54.180986,30            16.20241,54.180924,30            16.202489,54.180879,30            16.202589,54.180871,30            16.202684,54.180918,30            16.202778,54.180961,30            16.202856,54.18101,30            16.202922,54.18107,30            16.202956,54.181097,30            16.20303,54.181141,30            16.203084,54.181148,30            16.203204,54.181136,30            16.203296,54.181084,30            16.203367,54.181026,30            16.203406,54.180995,30            16.203478,54.180945,30            16.203555,54.18089,30            16.203606,54.180843,30            16.203636,54.18082,30            16.203677,54.180764,30            16.20368,54.180706,30            16.203682,54.180678,30            16.203696,54.180612,30            16.203722,54.180548,30            16.203757,54.180483,30            16.20381,54.180428,30            16.203892,54.180384,30            16.203932,54.180359,30            16.204037,54.180318,30            16.204135,54.180273,30            16.204242,54.180237,30            16.204333,54.180192,30            16.204382,54.180166,30            16.204469,54.180121,30            16.204578,54.180081,30            16.204672,54.180038,30            16.204762,54.179993,30            16.204861,54.179951,30            16.204953,54.179911,30            16.204999,54.179894,30            16.205096,54.179857,30            16.205185,54.179821,30            16.205267,54.179787,30            16.205367,54.179749,30            16.205474,54.179705,30            16.205578,54.179662,30            16.205666,54.179621,30            16.205767,54.179582,30            16.205872,54.179539,30            16.205984,54.179494,30            16.20609,54.179455,30            16.206198,54.179411,30            16.206307,54.179373,30            16.206352,54.179356,30            16.206456,54.179315,30            16.20655,54.179279,30            16.206652,54.179236,30            16.206765,54.179183,30            16.206874,54.179133,30            16.206922,54.179108,30            16.207018,54.179062,30            16.207123,54.179023,30            16.207178,54.179006,30            16.207275,54.178972,30            16.207322,54.178954,30            16.207426,54.178924,30            16.207545,54.178892,30            16.207652,54.178858,30            16.207764,54.178837,30            16.207878,54.178824,30            16.207984,54.178796,30            16.208038,54.178779,30            16.208156,54.178755,30            16.208269,54.178765,30            16.208383,54.178782,30            16.208511,54.178801,30            16.208568,54.178796,30            16.20867,54.178775,30            16.208767,54.178769,30            16.208818,54.178777,30            16.208923,54.178799,30            16.209023,54.178834,30            16.20907,54.178851,30            16.209171,54.178894,30            16.209262,54.178938,30            16.209343,54.178983,30            16.209419,54.179028,30            16.209447,54.179053,30            16.209482,54.17908,30            16.209554,54.179135,30            16.209638,54.179184,30            16.209731,54.179231,30            16.209822,54.179274,30            16.209871,54.179295,30            16.209975,54.179335,30            16.21008,54.179362,30            16.210133,54.179372,30            16.210249,54.179385,30            16.21037,54.17939,30            16.210484,54.179385,30            16.210534,54.17938,30            16.210646,54.179382,30            16.210708,54.179376,30            16.210772,54.17937,30            16.210835,54.179362,30            16.210958,54.179349,30            16.211081,54.179327,30            16.211194,54.179294,30            16.211296,54.179254,30            16.211396,54.179214,30            16.211497,54.179174,30            16.211599,54.179133,30            16.2117,54.179093,30            16.211796,54.179052,30            16.211897,54.17901,30            16.211992,54.17898,30            16.212108,54.178962,30            16.212219,54.178964,30            16.212331,54.178967,30            16.212389,54.17897,30            16.212447,54.178972,30            16.212571,54.178971,30            16.21269,54.178975,30            16.212807,54.178994,30            16.212905,54.179018,30            16.212994,54.17906,30            16.213086,54.179113,30            16.213181,54.179158,30            16.213232,54.179178,30            16.21333,54.179217,30            16.213432,54.179252,30            16.213516,54.179291,30            16.213593,54.179337,30            16.213653,54.179388,30            16.213687,54.179438,30            16.213688,54.179468,30            16.213639,54.179521,30            16.213555,54.179555,30            16.21346,54.179581,30            16.213362,54.179622,30            16.213266,54.17966,30            16.213163,54.179697,30            16.213112,54.179713,30            16.213013,54.179743,30            16.212969,54.17976,30            16.212876,54.179793,30            16.212771,54.179825,30            16.212669,54.179862,30            16.21257,54.179902,30            16.21252,54.179919,30            16.212423,54.179954,30            16.21232,54.179996,30            16.212269,54.180018,30            16.212172,54.180058,30            16.212078,54.180095,30            16.21203,54.180108,30            16.211912,54.180122,30            16.211802,54.180122,30            16.211689,54.180106,30            16.211628,54.180094,30            16.211529,54.180046,30            16.21145,54.180004,30            16.211375,54.179951,30            16.2113,54.179904,30            16.211222,54.179856,30            16.211136,54.17981,30            16.211049,54.179765,30            16.210943,54.179735,30            16.210828,54.179706,30            16.210772,54.179696,30            16.210692,54.179672,30            16.210652,54.179624,30            16.210643,54.179566,30            16.210642,54.179536,30            16.210639,54.179476,30            16.210639,54.179432,30            16.210628,54.179402,30            16.210638,54.179388,30            16.210658,54.179394,30            16.210703,54.179376,30            16.210731,54.17937,30            16.210749,54.179368,30            16.210821,54.179359,30            16.210922,54.179348,30            16.211029,54.179337,30            16.211083,54.179324,30            16.211178,54.179295,30            16.211233,54.179279,30            16.211281,54.179268,30            16.211373,54.179228,30            16.211427,54.179208,30            16.211523,54.179174,30            16.211602,54.179139,30            16.211693,54.179097,30            16.211787,54.179049,30            16.21184,54.17903,30            16.211951,54.179002,30            16.212066,54.178983,30            16.212195,54.178975,30            16.212328,54.178977,30            16.212459,54.178976,30            16.21252,54.178976,30            16.212645,54.17898,30            16.212771,54.178986,30            16.212887,54.179014,30            16.212936,54.179035,30            16.213035,54.179071,30            16.213135,54.179116,30            16.21323,54.179158,30            16.213328,54.179204,30            16.213426,54.179248,30            16.21352,54.179288,30            16.213592,54.179339,30            16.213626,54.179364,30            16.213677,54.17942,30            16.213679,54.179482,30            16.213599,54.179536,30            16.21354,54.179555,30            16.213426,54.1796,30            16.213378,54.17962,30            16.213286,54.179655,30            16.213189,54.179703,30            16.213084,54.179745,30            16.21298,54.17978,30            16.212868,54.179812,30            16.212758,54.179854,30            16.212706,54.179874,30            16.212608,54.179904,30            16.212496,54.179941,30            16.212391,54.17998,30            16.212294,54.180016,30            16.212243,54.180034,30            16.212143,54.180073,30            16.212043,54.180104,30            16.211934,54.180126,30            16.211811,54.180122,30            16.211698,54.180099,30            16.211605,54.180064,30            16.211571,54.180047,30            16.211502,54.180016,30            16.211431,54.179978,30            16.211348,54.179941,30            16.211273,54.179903,30            16.211195,54.179865,30            16.21116,54.179847,30            16.211082,54.179814,30            16.21104,54.179797,30            16.210995,54.179777,30            16.210956,54.179761,30            16.210939,54.179744,30            16.210915,54.17974,30            16.21089,54.179734,30            16.210874,54.179732,30            16.210838,54.179724,30            16.210754,54.179705,30            16.210709,54.179672,30            16.210698,54.179648,30            16.210695,54.179607,30            16.210675,54.179591,30            16.21066,54.179577,30            16.210656,54.17955,30            16.210653,54.179531,30            16.210638,54.179488,30            16.210631,54.179462,30            16.210646,54.179455,30            16.210657,54.179446,30            16.210639,54.179445,30          </coordinates></LineString></Placemark><Placemark><name>End</name><styleUrl>#icon-1899-E65100-nodesc</styleUrl><Point><coordinates>            16.210657,54.179446,0          </coordinates></Point></Placemark><Placemark><name>Start</name><styleUrl>#icon-1899-7CB342-nodesc</styleUrl><Point><coordinates>            16.21059,54.17937,0          </coordinates></Point></Placemark><Placemark><name>parking</name><styleUrl>#icon-1644-0288D1-nodesc</styleUrl><Point><coordinates>            16.202511,54.181,0          </coordinates></Point></Placemark><Placemark><name>parking</name><styleUrl>#icon-1644-0288D1-nodesc</styleUrl><Point><coordinates>            16.209573,54.178399,0          </coordinates></Point></Placemark><Placemark><name>parking</name><styleUrl>#icon-1644-0288D1-nodesc</styleUrl><Point><coordinates>            16.202763,54.182164,0          </coordinates></Point></Placemark></Folder></Document></kml>